{
    "amenity": [
        {
            "Unnamed: 0": 0,
            "amenity": "restaurant",
            "count": 85
        },
        {
            "Unnamed: 0": 1,
            "amenity": "atm",
            "count": 61
        },
        {
            "Unnamed: 0": 2,
            "amenity": "bar",
            "count": 36
        },
        {
            "Unnamed: 0": 3,
            "amenity": "fast_food",
            "count": 36
        },
        {
            "Unnamed: 0": 4,
            "amenity": "cafe",
            "count": 21
        },
        {
            "Unnamed: 0": 5,
            "amenity": "pub",
            "count": 18
        },
        {
            "Unnamed: 0": 6,
            "amenity": "dentist",
            "count": 11
        },
        {
            "Unnamed: 0": 7,
            "amenity": "ice_cream",
            "count": 8
        },
        {
            "Unnamed: 0": 8,
            "amenity": "pharmacy",
            "count": 7
        },
        {
            "Unnamed: 0": 9,
            "amenity": "fuel",
            "count": 4
        },
        {
            "Unnamed: 0": 10,
            "amenity": "doctors",
            "count": 3
        },
        {
            "Unnamed: 0": 11,
            "amenity": "veterinary",
            "count": 3
        },
        {
            "Unnamed: 0": 12,
            "amenity": "events_venue",
            "count": 3
        },
        {
            "Unnamed: 0": 13,
            "amenity": "taxi",
            "count": 3
        },
        {
            "Unnamed: 0": 14,
            "amenity": "marketplace",
            "count": 2
        },
        {
            "Unnamed: 0": 15,
            "amenity": "driving_school",
            "count": 2
        },
        {
            "Unnamed: 0": 16,
            "amenity": "car_rental",
            "count": 2
        },
        {
            "Unnamed: 0": 17,
            "amenity": "music_school",
            "count": 2
        },
        {
            "Unnamed: 0": 18,
            "amenity": "boat_rental",
            "count": 1
        },
        {
            "Unnamed: 0": 19,
            "amenity": "dojo",
            "count": 1
        },
        {
            "Unnamed: 0": 20,
            "amenity": "bicycle_rental",
            "count": 1
        },
        {
            "Unnamed: 0": 21,
            "amenity": "arts_centre",
            "count": 1
        },
        {
            "Unnamed: 0": 22,
            "amenity": "animal_boarding",
            "count": 1
        },
        {
            "Unnamed: 0": 23,
            "amenity": "studio",
            "count": 1
        },
        {
            "Unnamed: 0": 24,
            "amenity": "nightclub",
            "count": 1
        },
        {
            "Unnamed: 0": 25,
            "amenity": "dive_centre",
            "count": 1
        },
        {
            "Unnamed: 0": 26,
            "amenity": "office",
            "count": 1
        },
        {
            "Unnamed: 0": 27,
            "amenity": "motorcycle_rental",
            "count": 1
        },
        {
            "Unnamed: 0": 28,
            "amenity": "bank",
            "count": 1
        },
        {
            "Unnamed: 0": 29,
            "amenity": "university",
            "count": 1
        },
        {
            "Unnamed: 0": 30,
            "amenity": "social_facility",
            "count": 1
        },
        {
            "Unnamed: 0": 31,
            "amenity": "language_school",
            "count": 1
        },
        {
            "Unnamed: 0": 32,
            "amenity": "car_wash",
            "count": 1
        }
    ],
    "shop": [
        {
            "Unnamed: 0": 0,
            "shop": "clothes",
            "count": 69
        },
        {
            "Unnamed: 0": 1,
            "shop": "furniture",
            "count": 35
        },
        {
            "Unnamed: 0": 2,
            "shop": "jewelry",
            "count": 18
        },
        {
            "Unnamed: 0": 3,
            "shop": "computer",
            "count": 14
        },
        {
            "Unnamed: 0": 4,
            "shop": "hairdresser",
            "count": 14
        },
        {
            "Unnamed: 0": 5,
            "shop": "beauty",
            "count": 12
        },
        {
            "Unnamed: 0": 6,
            "shop": "optician",
            "count": 10
        },
        {
            "Unnamed: 0": 7,
            "shop": "tobacco",
            "count": 9
        },
        {
            "Unnamed: 0": 8,
            "shop": "farm",
            "count": 7
        },
        {
            "Unnamed: 0": 9,
            "shop": "sports",
            "count": 5
        },
        {
            "Unnamed: 0": 10,
            "shop": "yes",
            "count": 5
        },
        {
            "Unnamed: 0": 11,
            "shop": "car_repair",
            "count": 5
        },
        {
            "Unnamed: 0": 12,
            "shop": "shoes",
            "count": 5
        },
        {
            "Unnamed: 0": 13,
            "shop": "greengrocer",
            "count": 4
        },
        {
            "Unnamed: 0": 14,
            "shop": "florist",
            "count": 4
        },
        {
            "Unnamed: 0": 15,
            "shop": "butcher",
            "count": 4
        },
        {
            "Unnamed: 0": 16,
            "shop": "cannabis",
            "count": 3
        },
        {
            "Unnamed: 0": 17,
            "shop": "bakery",
            "count": 3
        },
        {
            "Unnamed: 0": 18,
            "shop": "deli",
            "count": 3
        },
        {
            "Unnamed: 0": 19,
            "shop": "food",
            "count": 3
        },
        {
            "Unnamed: 0": 20,
            "shop": "travel_agency",
            "count": 3
        },
        {
            "Unnamed: 0": 21,
            "shop": "mobile_phone",
            "count": 3
        },
        {
            "Unnamed: 0": 22,
            "shop": "wine",
            "count": 3
        },
        {
            "Unnamed: 0": 23,
            "shop": "supermarket",
            "count": 3
        },
        {
            "Unnamed: 0": 24,
            "shop": "trade",
            "count": 3
        },
        {
            "Unnamed: 0": 25,
            "shop": "hardware",
            "count": 3
        },
        {
            "Unnamed: 0": 26,
            "shop": "second_hand",
            "count": 2
        },
        {
            "Unnamed: 0": 27,
            "shop": "paint",
            "count": 2
        },
        {
            "Unnamed: 0": 28,
            "shop": "pet",
            "count": 2
        },
        {
            "Unnamed: 0": 29,
            "shop": "electronics",
            "count": 2
        },
        {
            "Unnamed: 0": 30,
            "shop": "perfumery",
            "count": 2
        },
        {
            "Unnamed: 0": 31,
            "shop": "carpet",
            "count": 2
        },
        {
            "Unnamed: 0": 32,
            "shop": "newsagent",
            "count": 2
        },
        {
            "Unnamed: 0": 33,
            "shop": "cosmetics",
            "count": 2
        },
        {
            "Unnamed: 0": 34,
            "shop": "medical_supply",
            "count": 2
        },
        {
            "Unnamed: 0": 35,
            "shop": "herbalist",
            "count": 2
        },
        {
            "Unnamed: 0": 36,
            "shop": "tattoo",
            "count": 2
        },
        {
            "Unnamed: 0": 37,
            "shop": "pastry",
            "count": 2
        },
        {
            "Unnamed: 0": 38,
            "shop": "repair",
            "count": 2
        },
        {
            "Unnamed: 0": 39,
            "shop": "safety_equipment",
            "count": 1
        },
        {
            "Unnamed: 0": 40,
            "shop": "bag",
            "count": 1
        },
        {
            "Unnamed: 0": 41,
            "shop": "health_food",
            "count": 1
        },
        {
            "Unnamed: 0": 42,
            "shop": "funeral_directors",
            "count": 1
        },
        {
            "Unnamed: 0": 43,
            "shop": "party",
            "count": 1
        },
        {
            "Unnamed: 0": 44,
            "shop": "variety_store",
            "count": 1
        },
        {
            "Unnamed: 0": 45,
            "shop": "doors",
            "count": 1
        },
        {
            "Unnamed: 0": 46,
            "shop": "musical_instrument",
            "count": 1
        },
        {
            "Unnamed: 0": 47,
            "shop": "kiosk",
            "count": 1
        },
        {
            "Unnamed: 0": 48,
            "shop": "massage",
            "count": 1
        },
        {
            "Unnamed: 0": 49,
            "shop": "seafood",
            "count": 1
        },
        {
            "Unnamed: 0": 50,
            "shop": "hairdresser_supply",
            "count": 1
        },
        {
            "Unnamed: 0": 51,
            "shop": "interior_decoration",
            "count": 1
        },
        {
            "Unnamed: 0": 52,
            "shop": "anime",
            "count": 1
        },
        {
            "Unnamed: 0": 53,
            "shop": "convenience",
            "count": 1
        },
        {
            "Unnamed: 0": 54,
            "shop": "honey",
            "count": 1
        },
        {
            "Unnamed: 0": 55,
            "shop": "art",
            "count": 1
        },
        {
            "Unnamed: 0": 56,
            "shop": "telecommunication",
            "count": 1
        },
        {
            "Unnamed: 0": 57,
            "shop": "coffee",
            "count": 1
        },
        {
            "Unnamed: 0": 58,
            "shop": "photo",
            "count": 1
        },
        {
            "Unnamed: 0": 59,
            "shop": "stationery",
            "count": 1
        },
        {
            "Unnamed: 0": 60,
            "shop": "motorcycle",
            "count": 1
        },
        {
            "Unnamed: 0": 61,
            "shop": "e-cigarette",
            "count": 1
        },
        {
            "Unnamed: 0": 62,
            "shop": "nutrition_supplements",
            "count": 1
        },
        {
            "Unnamed: 0": 63,
            "shop": "car",
            "count": 1
        },
        {
            "Unnamed: 0": 64,
            "shop": "electrical",
            "count": 1
        },
        {
            "Unnamed: 0": 65,
            "shop": "toys",
            "count": 1
        },
        {
            "Unnamed: 0": 66,
            "shop": "erotic",
            "count": 1
        },
        {
            "Unnamed: 0": 67,
            "shop": "gold_buyer",
            "count": 1
        },
        {
            "Unnamed: 0": 68,
            "shop": "swimming_pool",
            "count": 1
        },
        {
            "Unnamed: 0": 69,
            "shop": "tyres",
            "count": 1
        },
        {
            "Unnamed: 0": 70,
            "shop": "sports;clothes",
            "count": 1
        },
        {
            "Unnamed: 0": 71,
            "shop": "bed",
            "count": 1
        },
        {
            "Unnamed: 0": 72,
            "shop": "copyshop",
            "count": 1
        },
        {
            "Unnamed: 0": 73,
            "shop": "pasta",
            "count": 1
        },
        {
            "Unnamed: 0": 74,
            "shop": "printing",
            "count": 1
        },
        {
            "Unnamed: 0": 75,
            "shop": "equipment_rental",
            "count": 1
        },
        {
            "Unnamed: 0": 76,
            "shop": "frame",
            "count": 1
        },
        {
            "Unnamed: 0": 77,
            "shop": "estate_agent",
            "count": 1
        },
        {
            "Unnamed: 0": 78,
            "shop": "caravan",
            "count": 1
        },
        {
            "Unnamed: 0": 79,
            "shop": "bitcoin",
            "count": 1
        },
        {
            "Unnamed: 0": 80,
            "shop": "cartridges",
            "count": 1
        },
        {
            "Unnamed: 0": 81,
            "shop": "cheese",
            "count": 1
        },
        {
            "Unnamed: 0": 82,
            "shop": "gas",
            "count": 1
        },
        {
            "Unnamed: 0": 83,
            "shop": "fruit",
            "count": 1
        }
    ],
    "cuisine": [
        {
            "Unnamed: 0": 0,
            "cuisine": "pizza",
            "count": 17
        },
        {
            "Unnamed: 0": 1,
            "cuisine": "kebab",
            "count": 16
        },
        {
            "Unnamed: 0": 2,
            "cuisine": "italian",
            "count": 8
        },
        {
            "Unnamed: 0": 3,
            "cuisine": "regional;italian",
            "count": 5
        },
        {
            "Unnamed: 0": 4,
            "cuisine": "sushi",
            "count": 3
        },
        {
            "Unnamed: 0": 5,
            "cuisine": "italian;sandwich",
            "count": 2
        },
        {
            "Unnamed: 0": 6,
            "cuisine": "regional",
            "count": 2
        },
        {
            "Unnamed: 0": 7,
            "cuisine": "burger",
            "count": 2
        },
        {
            "Unnamed: 0": 8,
            "cuisine": "italian;fastfood;italian_pizza",
            "count": 1
        },
        {
            "Unnamed: 0": 9,
            "cuisine": "frozen_yogurt",
            "count": 1
        },
        {
            "Unnamed: 0": 10,
            "cuisine": "pizza;italian;burger",
            "count": 1
        },
        {
            "Unnamed: 0": 11,
            "cuisine": "coffee_shop",
            "count": 1
        },
        {
            "Unnamed: 0": 12,
            "cuisine": "noodle;pizza",
            "count": 1
        },
        {
            "Unnamed: 0": 13,
            "cuisine": "arab;burger;kebab;sandwich",
            "count": 1
        },
        {
            "Unnamed: 0": 14,
            "cuisine": "barbecue",
            "count": 1
        },
        {
            "Unnamed: 0": 15,
            "cuisine": "italian;italian_pizza",
            "count": 1
        },
        {
            "Unnamed: 0": 16,
            "cuisine": "pizza;italian",
            "count": 1
        },
        {
            "Unnamed: 0": 17,
            "cuisine": "hamburger;streetfood",
            "count": 1
        },
        {
            "Unnamed: 0": 18,
            "cuisine": "ramen;japanese;piadina",
            "count": 1
        },
        {
            "Unnamed: 0": 19,
            "cuisine": "pizza;fish",
            "count": 1
        },
        {
            "Unnamed: 0": 20,
            "cuisine": "burger;pinsa",
            "count": 1
        },
        {
            "Unnamed: 0": 21,
            "cuisine": "japanese",
            "count": 1
        },
        {
            "Unnamed: 0": 22,
            "cuisine": "pizza;kebab;farinata;focaccia",
            "count": 1
        },
        {
            "Unnamed: 0": 23,
            "cuisine": "pizza;cocktail",
            "count": 1
        },
        {
            "Unnamed: 0": 24,
            "cuisine": "seafood;fish",
            "count": 1
        },
        {
            "Unnamed: 0": 25,
            "cuisine": "italian;burger;sandwich;pasta",
            "count": 1
        },
        {
            "Unnamed: 0": 26,
            "cuisine": "regional;italian;coffee_shop",
            "count": 1
        },
        {
            "Unnamed: 0": 27,
            "cuisine": "italian;regional;international",
            "count": 1
        },
        {
            "Unnamed: 0": 28,
            "cuisine": "italian_pizza",
            "count": 1
        },
        {
            "Unnamed: 0": 29,
            "cuisine": "italian;coffee_shop",
            "count": 1
        },
        {
            "Unnamed: 0": 30,
            "cuisine": "regional;pizza",
            "count": 1
        },
        {
            "Unnamed: 0": 31,
            "cuisine": "suedtirolerisch",
            "count": 1
        },
        {
            "Unnamed: 0": 32,
            "cuisine": "burger;sandwich",
            "count": 1
        },
        {
            "Unnamed: 0": 33,
            "cuisine": "italian;pizza",
            "count": 1
        },
        {
            "Unnamed: 0": 34,
            "cuisine": "fusion;cocktail",
            "count": 1
        },
        {
            "Unnamed: 0": 35,
            "cuisine": "pizza;italian;bistro",
            "count": 1
        },
        {
            "Unnamed: 0": 36,
            "cuisine": "steak_house;italian",
            "count": 1
        },
        {
            "Unnamed: 0": 37,
            "cuisine": "coffee_shop;regional;italian;sandwich;pasta",
            "count": 1
        },
        {
            "Unnamed: 0": 38,
            "cuisine": "piadina;romagnola",
            "count": 1
        },
        {
            "Unnamed: 0": 39,
            "cuisine": "ice_cream",
            "count": 1
        },
        {
            "Unnamed: 0": 40,
            "cuisine": "pizza;ice_cream;bar&grill",
            "count": 1
        },
        {
            "Unnamed: 0": 41,
            "cuisine": "piadina",
            "count": 1
        },
        {
            "Unnamed: 0": 42,
            "cuisine": "chicken",
            "count": 1
        },
        {
            "Unnamed: 0": 43,
            "cuisine": "regional;piadina",
            "count": 1
        },
        {
            "Unnamed: 0": 44,
            "cuisine": "pizza;coffee_shop;italian",
            "count": 1
        },
        {
            "Unnamed: 0": 45,
            "cuisine": "regional;italian;piadina",
            "count": 1
        }
    ],
    "office": [
        {
            "Unnamed: 0": 0,
            "office": "it",
            "count": 14
        },
        {
            "Unnamed: 0": 1,
            "office": "accountant",
            "count": 13
        },
        {
            "Unnamed: 0": 2,
            "office": "advertising_agency",
            "count": 9
        },
        {
            "Unnamed: 0": 3,
            "office": "consulting",
            "count": 9
        },
        {
            "Unnamed: 0": 4,
            "office": "architect",
            "count": 7
        },
        {
            "Unnamed: 0": 5,
            "office": "lawyer",
            "count": 6
        },
        {
            "Unnamed: 0": 6,
            "office": "company",
            "count": 6
        },
        {
            "Unnamed: 0": 7,
            "office": "estate_agent",
            "count": 4
        },
        {
            "Unnamed: 0": 8,
            "office": "coworking",
            "count": 3
        },
        {
            "Unnamed: 0": 9,
            "office": "association",
            "count": 2
        },
        {
            "Unnamed: 0": 10,
            "office": "coworking_space",
            "count": 2
        },
        {
            "Unnamed: 0": 11,
            "office": "financial",
            "count": 2
        },
        {
            "Unnamed: 0": 12,
            "office": "educational_institution",
            "count": 2
        },
        {
            "Unnamed: 0": 13,
            "office": "engineer",
            "count": 2
        },
        {
            "Unnamed: 0": 14,
            "office": "graphic_design",
            "count": 2
        },
        {
            "Unnamed: 0": 15,
            "office": "occupational_safety",
            "count": 1
        },
        {
            "Unnamed: 0": 16,
            "office": "private_investigator",
            "count": 1
        },
        {
            "Unnamed: 0": 17,
            "office": "event_planner",
            "count": 1
        },
        {
            "Unnamed: 0": 18,
            "office": "interior_design",
            "count": 1
        },
        {
            "Unnamed: 0": 19,
            "office": "insurance",
            "count": 1
        },
        {
            "Unnamed: 0": 20,
            "office": "studio_tecnico",
            "count": 1
        },
        {
            "Unnamed: 0": 21,
            "office": "telecommunication",
            "count": 1
        },
        {
            "Unnamed: 0": 22,
            "office": "yes",
            "count": 1
        },
        {
            "Unnamed: 0": 23,
            "office": "wedding_planner",
            "count": 1
        }
    ],
    "tourism": [
        {
            "Unnamed: 0": 0,
            "tourism": "guest_house",
            "count": 37
        },
        {
            "Unnamed: 0": 1,
            "tourism": "hotel",
            "count": 26
        },
        {
            "Unnamed: 0": 2,
            "tourism": "apartment",
            "count": 18
        },
        {
            "Unnamed: 0": 3,
            "tourism": "gallery",
            "count": 3
        },
        {
            "Unnamed: 0": 4,
            "tourism": "chalet",
            "count": 1
        },
        {
            "Unnamed: 0": 5,
            "tourism": "theme_park",
            "count": 1
        }
    ],
    "craft": [
        {
            "Unnamed: 0": 0,
            "craft": "photographer",
            "count": 7
        },
        {
            "Unnamed: 0": 1,
            "craft": "electrician",
            "count": 4
        },
        {
            "Unnamed: 0": 2,
            "craft": "carpenter",
            "count": 3
        },
        {
            "Unnamed: 0": 3,
            "craft": "plumber",
            "count": 3
        },
        {
            "Unnamed: 0": 4,
            "craft": "handicraft",
            "count": 2
        },
        {
            "Unnamed: 0": 5,
            "craft": "painter",
            "count": 2
        },
        {
            "Unnamed: 0": 6,
            "craft": "brewery",
            "count": 1
        },
        {
            "Unnamed: 0": 7,
            "craft": "key_cutter",
            "count": 1
        },
        {
            "Unnamed: 0": 8,
            "craft": "pottery",
            "count": 1
        },
        {
            "Unnamed: 0": 9,
            "craft": "winery",
            "count": 1
        },
        {
            "Unnamed: 0": 10,
            "craft": "caterer",
            "count": 1
        },
        {
            "Unnamed: 0": 11,
            "craft": "photographic_laboratory",
            "count": 1
        },
        {
            "Unnamed: 0": 12,
            "craft": "gardener",
            "count": 1
        },
        {
            "Unnamed: 0": 13,
            "craft": "cleaning",
            "count": 1
        },
        {
            "Unnamed: 0": 14,
            "craft": "hvac",
            "count": 1
        },
        {
            "Unnamed: 0": 15,
            "craft": "window_construction",
            "count": 1
        }
    ],
    "healthcare": [
        {
            "Unnamed: 0": 0,
            "healthcare": "dentist",
            "count": 11
        },
        {
            "Unnamed: 0": 1,
            "healthcare": "pharmacy",
            "count": 7
        },
        {
            "Unnamed: 0": 2,
            "healthcare": "physiotherapist",
            "count": 5
        },
        {
            "Unnamed: 0": 3,
            "healthcare": "alternative",
            "count": 4
        },
        {
            "Unnamed: 0": 4,
            "healthcare": "doctor",
            "count": 3
        },
        {
            "Unnamed: 0": 5,
            "healthcare": "hospital",
            "count": 1
        },
        {
            "Unnamed: 0": 6,
            "healthcare": "rehabilitation",
            "count": 1
        },
        {
            "Unnamed: 0": 7,
            "healthcare": "yes",
            "count": 1
        },
        {
            "Unnamed: 0": 8,
            "healthcare": "nutrition_counselling",
            "count": 1
        }
    ],
    "leisure": [
        {
            "Unnamed: 0": 0,
            "leisure": "fitness_centre",
            "count": 5
        },
        {
            "Unnamed: 0": 1,
            "leisure": "beach_resort",
            "count": 2
        },
        {
            "Unnamed: 0": 2,
            "leisure": "sauna",
            "count": 1
        },
        {
            "Unnamed: 0": 3,
            "leisure": "sports_centre",
            "count": 1
        },
        {
            "Unnamed: 0": 4,
            "leisure": "sports_hall",
            "count": 1
        },
        {
            "Unnamed: 0": 5,
            "leisure": "resort",
            "count": 1
        },
        {
            "Unnamed: 0": 6,
            "leisure": "playground",
            "count": 1
        }
    ],
    "sport": [
        {
            "Unnamed: 0": 0,
            "sport": "equestrian",
            "count": 2
        },
        {
            "Unnamed: 0": 1,
            "sport": "skateboard;surfing",
            "count": 1
        },
        {
            "Unnamed: 0": 2,
            "sport": "tennis;padel",
            "count": 1
        },
        {
            "Unnamed: 0": 3,
            "sport": "billiards",
            "count": 1
        },
        {
            "Unnamed: 0": 4,
            "sport": "dance;fitness;pole_dance",
            "count": 1
        },
        {
            "Unnamed: 0": 5,
            "sport": "capoeira",
            "count": 1
        },
        {
            "Unnamed: 0": 6,
            "sport": "boxing;kickboxing;muay_thai;thaibox",
            "count": 1
        },
        {
            "Unnamed: 0": 7,
            "sport": "yoga",
            "count": 1
        },
        {
            "Unnamed: 0": 8,
            "sport": "windsurfing;surfing",
            "count": 1
        },
        {
            "Unnamed: 0": 9,
            "sport": "taijiquan;wing_chun;kung_fu;tai_chi",
            "count": 1
        }
    ],
    "guest_house": [
        {
            "Unnamed: 0": 0,
            "guest_house": "bed_and_breakfast",
            "count": 18
        },
        {
            "Unnamed: 0": 1,
            "guest_house": "guest_house",
            "count": 4
        },
        {
            "Unnamed: 0": 2,
            "guest_house": "agritourism",
            "count": 3
        },
        {
            "Unnamed: 0": 3,
            "guest_house": "apartment",
            "count": 3
        },
        {
            "Unnamed: 0": 4,
            "guest_house": "landlords_-_affittacamere",
            "count": 1
        },
        {
            "Unnamed: 0": 5,
            "guest_house": "house",
            "count": 1
        }
    ]
}