{
    "id": "arezzo-bitcoin-meetup",
    "name": "Arezzo Bitcoin Meetup",
    "lng": 43.5187,
    "lat": 11.8845,
    "localita": "Arezzo",
    "telegram_weburl": "https://web.telegram.org/a/#-1001962833058",
    "telegram_app": "https://t.me/arezzobitcoinmeetup",
    "telegram_members": 76.0,
    "poi": [
        {
            "type": "node",
            "id": 6775884898,
            "lat": 43.4632928,
            "lon": 11.8800925,
            "timestamp": "2024-06-23T05:30:13Z",
            "version": 4,
            "changeset": 153053293,
            "user": "b-jazz-bot",
            "uid": 9451067,
            "tags": {
                "addr:city": "Arezzo",
                "addr:housenumber": "15",
                "addr:postcode": "52100",
                "addr:street": "Via de Cenci",
                "check_date": "2023-09-07",
                "currency:XBT": "yes",
                "email": "info@capaccioli.net",
                "name": "Studio Associato Capaccioli Pucci Guiducci",
                "office": "accountant",
                "payment:bitcoin:operator": "inbitcoin.it",
                "phone": "+39 0575 323666",
                "website": "https://www.capaccioli.net/"
            }
        },
        {
            "type": "node",
            "id": 10881103069,
            "lat": 43.3868146,
            "lon": 11.7793179,
            "timestamp": "2023-05-10T11:58:03Z",
            "version": 2,
            "changeset": 135933368,
            "user": "Chiarant",
            "uid": 18452174,
            "tags": {
                "addr:city": "Tegoleto",
                "addr:housenumber": "14",
                "addr:postcode": "52041",
                "addr:street": "Strada Statale 73 Senese Aretina",
                "amenity": "car_rental",
                "currency:XBT": "yes",
                "description": "We rent our vintage vehicles only during weekends (i.e. Saturday or Sunday)",
                "email": "nostalgicexperience@gmail.com",
                "name": "Nostalgic Experience",
                "payment:lightning": "yes",
                "payment:lightning_contactless": "no",
                "payment:onchain": "yes",
                "survey:date": "2023-05-09",
                "website": "https://www.nostalgicexperience.com/"
            }
        },
        {
            "type": "node",
            "id": 10914031678,
            "lat": 43.4642377,
            "lon": 11.8633333,
            "timestamp": "2024-06-11T19:02:43Z",
            "version": 8,
            "changeset": 152557873,
            "user": "Bota87",
            "uid": 19327867,
            "tags": {
                "addr:city": "Arezzo",
                "addr:housenumber": "35",
                "addr:postcode": "52100",
                "addr:street": "Via Alessandro dal Borro",
                "amenity": "restaurant",
                "contact:facebook": "https://www.facebook.com/mopizzapescaiola",
                "cuisine": "pizza",
                "currency:XBT": "yes",
                "description": "Pizza - Pinsa romana - A taglio - D'asporto - Consegna a domicilio",
                "indoor_seating": "yes",
                "name": "Mo' piZZa ex Mondo Pizza Pescaiola",
                "outdoor_seating": "yes",
                "payment:lightning": "yes",
                "payment:lightning_contactless": "no",
                "payment:onchain": "yes",
                "phone": "+39 0575 042931",
                "phone:mobile": "+39 333 6562147",
                "survey:date": "2024-06-08",
                "website": "https://mo-pizza.com"
            }
        },
        {
            "type": "node",
            "id": 10916834927,
            "lat": 43.4710712,
            "lon": 11.8881845,
            "timestamp": "2023-11-17T17:01:00Z",
            "version": 2,
            "changeset": 144147593,
            "user": "toponomastica_comune_arenzano",
            "uid": 14257573,
            "tags": {
                "addr:city": "Arezzo",
                "addr:housenumber": "26a",
                "addr:postcode": "52100",
                "addr:street": "Via Pier Luigi da Palestrina",
                "currency:XBT": "yes",
                "description": "Ingrosso Fiori e Piante",
                "name": "Coimf Snc Ingrosso Fiori e Piante",
                "payment:onchain": "yes",
                "shop": "florist",
                "survey:date": "2023-05-21",
                "website": "https://www.coimf.it"
            }
        },
        {
            "type": "node",
            "id": 11071694522,
            "lat": 43.4635311,
            "lon": 11.8790102,
            "timestamp": "2023-11-17T17:01:00Z",
            "version": 2,
            "changeset": 144147593,
            "user": "toponomastica_comune_arenzano",
            "uid": 14257573,
            "tags": {
                "addr:city": "Arezzo",
                "addr:floor": "Galleria I piano",
                "addr:housenumber": "25e",
                "addr:postcode": "52100",
                "addr:street": "Via Guido Monaco",
                "currency:XBT": "yes",
                "description": "Intermediazione e consulenza assicurativa",
                "email": "assicurazioni.bartolozzi@gmail.com",
                "name": "Agenzia Assicurazioni Bartolozzi",
                "office": "insurance",
                "payment:lightning": "no",
                "payment:lightning_contactless": "no",
                "payment:onchain": "yes",
                "phone": "+39 346 585 5227",
                "ref:vatin": "02005380510",
                "survey:date": "2023-07-26"
            }
        },
        {
            "type": "node",
            "id": 11973785777,
            "lat": 43.5613878,
            "lon": 11.8477764,
            "timestamp": "2024-06-11T19:21:16Z",
            "version": 1,
            "changeset": 152558520,
            "user": "Bota87",
            "uid": 19327867,
            "tags": {
                "addr:city": "Capolona",
                "addr:housenumber": "18",
                "addr:postcode": "52010",
                "addr:street": "Via del Paradiso",
                "currency:XBT": "yes",
                "description": "Riparazione di ammaccature senza stucco e riverniciatura",
                "email": "m.ballantini63@gmail.com",
                "name": "Marco Ballantini - Specializzato in auto grandinate",
                "payment:lightning": "yes",
                "payment:onchain": "yes",
                "phone": "+39 333 8556 247",
                "shop": "car_repair",
                "survey:date": "2024-06-11"
            }
        }
    ]
}