{
    "id": "b-cremona",
    "name": "BitcoinCremona",
    "lng": 45.13637,
    "lat": 10.02835,
    "localita": "Cremona",
    "idlocalita": "cremona",
    "telegram_weburl": "https://web.telegram.org/a/#-1002068969716",
    "telegram_app": "https://t.me/BitcoinCremona_Group",
    "telegram_members": 34.0,
    "poi": [
        {
            "type": "node",
            "id": 226937954,
            "lat": 45.3610179,
            "lon": 10.1609453,
            "timestamp": "2024-09-05T17:31:31Z",
            "version": 5,
            "changeset": 156241875,
            "user": "bbgg",
            "uid": 4126696,
            "tags": {
                "addr:city": "Manerbio Brescia",
                "addr:housenumber": "1",
                "addr:postcode": "25025",
                "addr:street": "Via Leno",
                "amenity": "fuel",
                "brand": "Q8",
                "brand:wikidata": "Q4119207",
                "name": "Q8",
                "operator": "Q8"
            }
        },
        {
            "type": "node",
            "id": 227725255,
            "lat": 44.855417,
            "lon": 10.100512,
            "timestamp": "2025-06-09T19:31:47Z",
            "version": 12,
            "changeset": 167415395,
            "user": "Mateusz Konieczny",
            "uid": 1722488,
            "tags": {
                "addr:city": "Fidenza",
                "addr:street": "Via Pier Paolo Pasolini",
                "amenity": "fuel",
                "brand": "Q8",
                "compressed_air": "yes",
                "name": "Q8",
                "opening_hours": "24/7",
                "operator": "Q8",
                "self_service": "yes",
                "wheelchair": "yes"
            }
        },
        {
            "type": "node",
            "id": 228182589,
            "lat": 45.38693,
            "lon": 9.54058,
            "timestamp": "2025-04-19T21:52:11Z",
            "version": 6,
            "changeset": 165172206,
            "user": "btcitnet",
            "uid": 22525435,
            "tags": {
                "addr:city": "Dovera",
                "addr:street": "Strada Provinciale 415 Paullese",
                "brand": "Q8",
                "brand:wikidata": "Q1634762",
                "brand:wikipedia": "en:Kuwait Petroleum Corporation",
                "demolished:amenity": "fuel",
                "name": "Q8",
                "operator": "Q8"
            }
        },
        {
            "type": "node",
            "id": 725821973,
            "lat": 45.5358674,
            "lon": 10.1485107,
            "timestamp": "2025-09-11T21:35:05Z",
            "version": 5,
            "changeset": 171804228,
            "user": "Goffredo",
            "uid": 194751,
            "tags": {
                "addr:city": "Roncadelle",
                "addr:housenumber": "37;39",
                "addr:postcode": "25030",
                "addr:street": "Via Enrico Mattei",
                "brand": "OVS",
                "brand:wikidata": "Q2042514",
                "level": "0",
                "name": "OVS",
                "operator": "OVS",
                "shop": "clothes"
            }
        },
        {
            "type": "node",
            "id": 1596428517,
            "lat": 45.5210224,
            "lon": 10.1856539,
            "timestamp": "2024-12-30T16:27:37Z",
            "version": 6,
            "changeset": 160799589,
            "user": "mpbin",
            "uid": 21850090,
            "tags": {
                "addr:city": "Brescia",
                "addr:housenumber": "27",
                "addr:postcode": "25100",
                "addr:street": "Via Arcangelo Tadini",
                "brand": "Trony",
                "brand:wikidata": "Q3999692",
                "name": "Trony",
                "operator": "Trony",
                "shop": "electronics",
                "wheelchair": "yes"
            }
        },
        {
            "type": "node",
            "id": 1797393762,
            "lat": 45.305864,
            "lon": 9.508433,
            "timestamp": "2023-07-07T18:18:25Z",
            "version": 4,
            "changeset": 138239702,
            "user": "Chiarant",
            "uid": 18452174,
            "tags": {
                "addr:city": "Lodi",
                "addr:housenumber": "67",
                "addr:street": "Corso Giuseppe Mazzini",
                "check_date": "2023-07-07",
                "currency:XBT": "yes",
                "name": "Ecotaurus - Noleggio Bagni Chimici",
                "shop": "trade",
                "source": "Cartografia Provincia di Lodi",
                "website": "https://www.ecotaurus.it/"
            }
        },
        {
            "type": "node",
            "id": 2258253852,
            "lat": 44.7761079,
            "lon": 10.3439896,
            "timestamp": "2024-12-31T18:13:47Z",
            "version": 6,
            "changeset": 160843944,
            "user": "mpbin",
            "uid": 21850090,
            "tags": {
                "addr:city": "Parma",
                "addr:housenumber": "SNC",
                "addr:postcode": "43123",
                "addr:street": "Strada Traversetolo",
                "brand": "Unieuro",
                "brand:wikidata": "Q4004687",
                "name": "Unieuro",
                "operator": "Unieuro S.p.A.",
                "shop": "electronics",
                "website": "http://www.marcopoloshop.it/mps/negozi/Marco-Polo-Parma---Eurosia"
            }
        },
        {
            "type": "node",
            "id": 2389503405,
            "lat": 45.3536264,
            "lon": 9.6636353,
            "timestamp": "2022-11-08T07:54:20Z",
            "version": 2,
            "changeset": 128627733,
            "user": "BSN21M",
            "uid": 17441326,
            "tags": {
                "addr:city": "Crema",
                "addr:postcode": "26013",
                "addr:street": "Via Cappuccini",
                "currency:XBT": "yes",
                "name": "Matilde Parrucchiera",
                "payment:lightning": "no",
                "payment:lightning_contactless": "no",
                "payment:onchain": "yes",
                "phone": "+39 037330293",
                "shop": "hairdresser",
                "survey:date": "2022-11-08",
                "unisex": "yes",
                "website": "https://www.facebook.com/matildeparrucchiera/"
            }
        },
        {
            "type": "node",
            "id": 2404906848,
            "lat": 45.3662308,
            "lon": 9.6291806,
            "timestamp": "2025-01-01T22:57:38Z",
            "version": 8,
            "changeset": 160888120,
            "user": "mpbin",
            "uid": 21850090,
            "tags": {
                "addr:city": "Bagnolo Cremasco",
                "addr:postcode": "26010",
                "addr:street": "Strada Provinciale 415 Paullese",
                "brand": "Trony",
                "brand:wikidata": "Q3999692",
                "name": "Trony",
                "operator": "Trony",
                "shop": "electronics"
            }
        },
        {
            "type": "node",
            "id": 2923516681,
            "lat": 45.5015676,
            "lon": 10.3521977,
            "timestamp": "2025-01-02T21:02:10Z",
            "version": 2,
            "changeset": 160926104,
            "user": "mpbin",
            "uid": 21850090,
            "tags": {
                "addr:city": "Mazzano",
                "addr:housenumber": "2",
                "addr:postcode": "25080",
                "addr:street": "Viale Alcide De Gasperi",
                "brand": "Trony",
                "brand:wikidata": "Q3999692",
                "name": "Trony",
                "operator": "Trony",
                "shop": "electronics"
            }
        },
        {
            "type": "node",
            "id": 3194098867,
            "lat": 45.5421356,
            "lon": 9.941083,
            "timestamp": "2025-01-02T21:06:52Z",
            "version": 10,
            "changeset": 160926243,
            "user": "mpbin",
            "uid": 21850090,
            "tags": {
                "addr:city": "Chiari",
                "addr:housenumber": "31",
                "addr:postcode": "25032",
                "addr:street": "Via Brescia",
                "brand": "Trony",
                "brand:wikidata": "Q3999692",
                "name": "Trony",
                "operator": "Trony",
                "shop": "electronics",
                "wheelchair": "yes"
            }
        },
        {
            "type": "node",
            "id": 3344567960,
            "lat": 45.481276,
            "lon": 9.7813136,
            "timestamp": "2025-08-24T09:47:13Z",
            "version": 13,
            "changeset": 170914694,
            "user": "Mannivu",
            "uid": 1950277,
            "tags": {
                "addr:city": "Antegnate",
                "addr:housenumber": "3",
                "addr:postcode": "24051",
                "addr:street": "Via del commercio",
                "brand": "Trony",
                "brand:wikidata": "Q3999692",
                "brand:wikipedia": "it:Trony",
                "check_date": "2025-08-24",
                "check_date:opening_hours": "2025-08-24",
                "level": "1",
                "name": "Trony",
                "opening_hours": "Mo-Su 09:00-20:00",
                "operator": "Trony",
                "shop": "electronics",
                "toilets": "no",
                "wheelchair": "yes"
            }
        },
        {
            "type": "node",
            "id": 4167605289,
            "lat": 45.293148,
            "lon": 10.4769651,
            "timestamp": "2025-01-20T13:48:51Z",
            "version": 4,
            "changeset": 161564190,
            "user": "wheelmap_visitor",
            "uid": 290680,
            "tags": {
                "addr:city": "Castel Goffredo",
                "addr:housenumber": "66",
                "addr:street": "Via Guerzoni",
                "name": "Conad",
                "operator": "CONAD Soc. Coop.",
                "shop": "supermarket",
                "wheelchair": "yes"
            }
        },
        {
            "type": "node",
            "id": 4217319810,
            "lat": 45.0523588,
            "lon": 9.6941552,
            "timestamp": "2025-01-03T14:06:49Z",
            "version": 4,
            "changeset": 160950762,
            "user": "mpbin",
            "uid": 21850090,
            "tags": {
                "addr:city": "Piacenza",
                "addr:postcode": "29121",
                "addr:street": "Via Venti Settembre",
                "brand": "OVS",
                "brand:wikidata": "Q2042514",
                "brand:wikipedia": "en:OVS (company)",
                "name": "OVS",
                "operator": "OVS",
                "shop": "clothes"
            }
        },
        {
            "type": "node",
            "id": 4501068299,
            "lat": 45.5542201,
            "lon": 10.2299839,
            "timestamp": "2025-01-02T16:46:35Z",
            "version": 11,
            "changeset": 160916701,
            "user": "demon_box",
            "uid": 350864,
            "tags": {
                "addr:city": "Brescia",
                "addr:housenumber": "81",
                "addr:postcode": "25123",
                "addr:street": "Via Marcantonio Ducco",
                "brand": "Trony",
                "brand:wikidata": "Q3999692",
                "contact:phone": "+39 030 3385495",
                "level": "0",
                "name": "Trony",
                "opening_hours": "Mo-Sa 09:00-12:30+,15:00-19:30",
                "operator": "Trony",
                "ref:vatin": "IT02147260174",
                "shop": "electronics",
                "wheelchair": "yes"
            }
        },
        {
            "type": "node",
            "id": 4574145522,
            "lat": 45.3637071,
            "lon": 9.5493933,
            "timestamp": "2023-08-29T09:51:34Z",
            "version": 3,
            "changeset": 140532513,
            "user": "Francesco Zanaboni",
            "uid": 11979968,
            "tags": {
                "amenity": "fuel",
                "brand": "Tamoil",
                "brand:wikidata": "Q706793",
                "brand:wikipedia": "en:Tamoil",
                "name": "Tamoil",
                "opening_hours": "24/7",
                "operator": "Tamoil",
                "self_service": "only"
            }
        },
        {
            "type": "node",
            "id": 4690614100,
            "lat": 44.798327,
            "lon": 10.3311624,
            "timestamp": "2022-09-12T22:31:58Z",
            "version": 3,
            "changeset": 126107987,
            "user": "Keyser Bante",
            "uid": 14466541,
            "tags": {
                "addr:city": "Parma",
                "addr:country": "IT",
                "addr:housenumber": "27/c",
                "addr:postcode": "43121",
                "addr:street": "Strada Ventidue Luglio",
                "brand": "Conad City",
                "brand:wikidata": "Q57543102",
                "entrance": "main",
                "level": "0",
                "loc_ref": "1069",
                "name": "Conad City",
                "operator": "Conad",
                "shop": "supermarket",
                "source": "survey"
            }
        },
        {
            "type": "node",
            "id": 4690647333,
            "lat": 44.8035356,
            "lon": 10.3249894,
            "timestamp": "2025-02-08T15:35:23Z",
            "version": 5,
            "changeset": 162284353,
            "user": "ziomio",
            "uid": 21389832,
            "tags": {
                "addr:city": "Parma",
                "addr:country": "IT",
                "addr:postcode": "43121",
                "addr:street": "Piazza Ghiaia",
                "brand": "Conad",
                "brand:wikidata": "Q639075",
                "brand:wikipedia": "it:Conad",
                "entrance": "main",
                "level": "0",
                "loc_ref": "0425",
                "name": "Conad",
                "operator": "Conad",
                "shop": "supermarket",
                "source": "survey",
                "wheelchair": "yes"
            }
        },
        {
            "type": "node",
            "id": 4690688923,
            "lat": 44.8056186,
            "lon": 10.32875,
            "timestamp": "2025-06-28T11:03:18Z",
            "version": 4,
            "changeset": 168222232,
            "user": "Danysan95",
            "uid": 4425563,
            "tags": {
                "addr:city": "Parma",
                "addr:country": "IT",
                "addr:housenumber": "43/b",
                "addr:postcode": "43121",
                "addr:street": "Strada Giuseppe Garibaldi",
                "brand": "Calzedonia",
                "brand:wikidata": "Q1027874",
                "check_date": "2025-06-28",
                "entrance": "main",
                "level": "0",
                "loc_ref": "0420",
                "operator": "Calzedonia",
                "shop": "convenience",
                "source": "survey"
            }
        },
        {
            "type": "node",
            "id": 4690714434,
            "lat": 44.8011101,
            "lon": 10.3298744,
            "timestamp": "2025-09-03T16:16:54Z",
            "version": 6,
            "changeset": 171415544,
            "user": "ilias_",
            "uid": 21853634,
            "tags": {
                "addr:city": "Parma",
                "addr:country": "IT",
                "addr:housenumber": "16/a",
                "addr:postcode": "43121",
                "addr:street": "Strada della Repubblica",
                "brand": "Iliad",
                "brand:wikidata": "Q55433734",
                "check_date": "2025-06-28",
                "entrance": "main",
                "level": "0",
                "loc_ref": "0817",
                "name": "Iliad",
                "operator": "Calzedonia",
                "shop": "telecommunication",
                "source": "survey",
                "wheelchair": "limited"
            }
        },
        {
            "type": "node",
            "id": 4690714444,
            "lat": 44.8029627,
            "lon": 10.3288704,
            "timestamp": "2023-08-02T07:52:51Z",
            "version": 3,
            "changeset": 139332846,
            "user": "DnaX",
            "uid": 69259,
            "tags": {
                "addr:city": "Parma",
                "addr:country": "IT",
                "addr:housenumber": "22/a",
                "addr:postcode": "43121",
                "addr:street": "Strada Cavour",
                "brand": "Intimissimi Uomo",
                "brand:wikidata": "Q115480852",
                "clothes": "men;underwear",
                "entrance": "main",
                "level": "0",
                "loc_ref": "0234",
                "name": "Intimissimi Uomo",
                "operator": "Intimissimi",
                "shop": "clothes",
                "source": "survey"
            }
        },
        {
            "type": "node",
            "id": 4690714910,
            "lat": 44.8013839,
            "lon": 10.328743,
            "timestamp": "2025-06-28T11:03:18Z",
            "version": 5,
            "changeset": 168222232,
            "user": "Danysan95",
            "uid": 4425563,
            "tags": {
                "addr:city": "Parma",
                "addr:country": "IT",
                "addr:housenumber": "2/d",
                "addr:postcode": "43121",
                "addr:street": "Strada della Repubblica",
                "brand": "Intimissimi",
                "brand:wikidata": "Q305404",
                "check_date": "2025-06-28",
                "clothes": "underwear",
                "entrance": "main",
                "level": "0",
                "loc_ref": "0817",
                "name": "Intimissimi",
                "operator": "Intimissimi",
                "shop": "clothes",
                "source": "survey",
                "wheelchair": "limited"
            }
        },
        {
            "type": "node",
            "id": 4690737138,
            "lat": 44.7979984,
            "lon": 10.3309581,
            "timestamp": "2022-09-07T23:01:51Z",
            "version": 3,
            "changeset": 125920443,
            "user": "Keyser Bante",
            "uid": 14466541,
            "tags": {
                "addr:city": "Parma",
                "addr:country": "IT",
                "addr:housenumber": "52/b",
                "addr:postcode": "43121",
                "addr:street": "Borgo Riccio da Parma",
                "brand": "Conad City",
                "brand:wikidata": "Q57543102",
                "entrance": "service",
                "level": "0",
                "loc_ref": "0822",
                "name": "Conad City",
                "operator": "Conad",
                "shop": "supermarket",
                "source": "survey",
                "warehouse": "yes"
            }
        },
        {
            "type": "node",
            "id": 4755101621,
            "lat": 44.7742289,
            "lon": 10.3230526,
            "timestamp": "2024-11-30T13:48:11Z",
            "version": 3,
            "changeset": 159774528,
            "user": "Chiarant",
            "uid": 18452174,
            "tags": {
                "addr:city": "Parma",
                "addr:housenumber": "136a",
                "addr:postcode": "43124",
                "addr:street": "Strada Langhirano",
                "check_date": "2023-11-21",
                "check_date:currency:XBT": "2024-10-25",
                "contact:facebook": "https://www.facebook.com/people/Tennispro-Parma/100063702842288/",
                "currency:XBT": "yes",
                "email": "tennisproparma@tennispro.it",
                "name": "Tennispro Parma",
                "payment:lightning": "yes",
                "payment:onchain": "yes",
                "phone": "+39 0521 929790",
                "shop": "sports",
                "sport": "tennis;padel",
                "website": "https://www.tennispro.it/"
            }
        },
        {
            "type": "node",
            "id": 4756783299,
            "lat": 44.8610971,
            "lon": 10.0676522,
            "timestamp": "2024-03-14T17:04:28Z",
            "version": 2,
            "changeset": 148652536,
            "user": "Chiarant",
            "uid": 18452174,
            "tags": {
                "addr:city": "Fidenza",
                "addr:housenumber": "3",
                "addr:postcode": "43036",
                "addr:street": "Via Francesco Baracca",
                "check_date": "2024-03-14",
                "contact:facebook": "https://www.facebook.com/p/Dolcepasta-Cavallo-100064162410169/",
                "currency:XBT": "yes",
                "description": "Siamo un laboratorio/vendita di pasta fresca, dolci caserecci e piccola gastronomia.\nTutto esclusivamente di nostra produzione.",
                "name": "DolcePasta Cavallo di Dioni Barbara",
                "payment:lightning": "yes",
                "payment:lightning_contactless": "no",
                "payment:onchain": "no",
                "phone": "+39 347 149 5268",
                "shop": "pasta"
            }
        },
        {
            "type": "node",
            "id": 5323908087,
            "lat": 45.4023894,
            "lon": 9.9162824,
            "timestamp": "2025-04-20T20:41:53Z",
            "version": 3,
            "changeset": 165211733,
            "user": "btcitnet",
            "uid": 22525435,
            "tags": {
                "addr:city": "Orzinuovi",
                "addr:postcode": "25034",
                "addr:street": "Via Internazionale",
                "brand": "Spar",
                "brand:wikidata": "Q610492",
                "brand:wikipedia": "en:Spar (retailer)",
                "name": "Despar",
                "operator": "Despar",
                "shop": "supermarket"
            }
        },
        {
            "type": "node",
            "id": 5351518575,
            "lat": 45.3020694,
            "lon": 9.7554851,
            "timestamp": "2024-06-18T11:33:47Z",
            "version": 11,
            "changeset": 152844218,
            "user": "descubrebitcoin",
            "uid": 17565129,
            "tags": {
                "addr:city": "Castelleone",
                "addr:housenumber": "9",
                "addr:postcode": "26012",
                "addr:street": "Via Mariani",
                "amenity": "dentist",
                "check_date:currency:XBT": "2018-01-20",
                "currency:XBT": "yes",
                "email": "mar_anti@yahoo.it",
                "healthcare": "dentist",
                "healthcare:speciality": "orthodontics",
                "name": "Studio dentistico dott. Marco Antinori",
                "operator": "Dott. Marco Antinori",
                "payment:litecoin": "yes",
                "phone": "+39 037457727",
                "website": "http://studioantinori.com"
            }
        },
        {
            "type": "node",
            "id": 5423507587,
            "lat": 45.5295414,
            "lon": 10.0973931,
            "timestamp": "2020-12-03T21:57:07Z",
            "version": 3,
            "changeset": 95250730,
            "user": "Goffredo",
            "uid": 194751,
            "tags": {
                "addr:city": "Travagliato",
                "addr:housenumber": "2",
                "addr:postcode": "25039",
                "addr:street": "Via del Pero",
                "amenity": "pharmacy",
                "dispensing": "no",
                "healthcare": "pharmacy",
                "name": "Conad",
                "operator": "Conad"
            }
        },
        {
            "type": "node",
            "id": 5508069822,
            "lat": 45.517822,
            "lon": 10.178514,
            "timestamp": "2025-01-02T16:46:35Z",
            "version": 8,
            "changeset": 160916701,
            "user": "demon_box",
            "uid": 350864,
            "tags": {
                "addr:city": "Brescia",
                "addr:housenumber": "5",
                "addr:postcode": "25125",
                "addr:street": "Via dei Gelsi",
                "amenity": "restaurant",
                "check_date:currency:XBT": "2023-07-20",
                "contact:email": "info@carneespirito.it",
                "contact:phone": "+39 0302070441",
                "contact:website": "https://www.carneespirito.it/",
                "cuisine": "steak_house;italian",
                "currency:XBT": "yes",
                "description:it": "Steakhouse, carne selezionate alla griglia",
                "name": "Carne & Spirito",
                "outdoor_seating": "yes"
            }
        },
        {
            "type": "node",
            "id": 6096830663,
            "lat": 45.5387639,
            "lon": 10.219998,
            "timestamp": "2025-01-02T16:46:35Z",
            "version": 7,
            "changeset": 160916701,
            "user": "demon_box",
            "uid": 350864,
            "tags": {
                "addr:city": "Brescia",
                "addr:housenumber": "2",
                "addr:postcode": "25121",
                "addr:street": "Piazza della Vittoria",
                "brand": "Conad",
                "brand:wikidata": "Q639075",
                "contact:email": "conad.quadriportico@conadcentronord.it",
                "contact:phone": "+39 0522 054590",
                "contact:website": "https://www.conad.it/ricerca-negozi/negozio.009658.html",
                "name": "Conad",
                "opening_hours": "Mo-Su 08:00-20:30",
                "operator": "Conad",
                "payment:bancomat": "yes",
                "payment:cash": "yes",
                "payment:credit_cards": "yes",
                "shop": "supermarket",
                "wheelchair": "yes"
            }
        },
        {
            "type": "node",
            "id": 6143256149,
            "lat": 45.542386,
            "lon": 10.2083413,
            "timestamp": "2025-01-02T16:46:35Z",
            "version": 4,
            "changeset": 160916701,
            "user": "demon_box",
            "uid": 350864,
            "tags": {
                "addr:city": "Brescia",
                "addr:housenumber": "7e",
                "addr:postcode": "25126",
                "addr:street": "Via Milano",
                "amenity": "pharmacy",
                "check_date": "2023-10-16",
                "contact:email": "info@farmaciabuatier.it",
                "contact:phone": "+39 030 430 50",
                "contact:website": "https://www.farmaciabuatier.it/",
                "currency:XBT": "yes",
                "dispensing": "yes",
                "healthcare": "pharmacy",
                "name": "Farmacia Buatier",
                "opening_hours": "Mo-Fr 09:00-13:00,15:00-19:30; Sa 09:00-12:30,15:00-19:30",
                "payment:cash": "yes"
            }
        },
        {
            "type": "node",
            "id": 6185696785,
            "lat": 45.1336065,
            "lon": 10.0227861,
            "timestamp": "2025-06-19T16:22:27Z",
            "version": 4,
            "changeset": 167834867,
            "user": "Rockedf",
            "uid": 7522075,
            "tags": {
                "addr:city": "Cremona",
                "addr:housenumber": "17",
                "addr:postcode": "26100",
                "addr:street": "Piazza Antonio Stradivari",
                "amenity": "bar",
                "check_date": "2024-03-03",
                "check_date:currency:XBT": "2025-06-19",
                "currency:XBT": "yes",
                "name": "Di Bianco",
                "payment:lightning": "no",
                "payment:onchain": "yes"
            }
        },
        {
            "type": "node",
            "id": 6239397409,
            "lat": 45.5093375,
            "lon": 10.3213635,
            "timestamp": "2025-01-02T16:46:35Z",
            "version": 5,
            "changeset": 160916701,
            "user": "demon_box",
            "uid": 350864,
            "tags": {
                "addr:city": "Rezzato",
                "addr:housenumber": "52",
                "addr:postcode": "25086",
                "addr:street": "Via Giuseppe Garibaldi",
                "amenity": "restaurant",
                "check_date": "2022-12-11",
                "contact:phone": "+393274530665",
                "contact:website": "https://sbaff.it/",
                "cuisine": "chicken",
                "currency:XBT": "yes",
                "name": "Sbaff",
                "opening_hours": "Mo-Su 11:30-14:30,18:00-24:00",
                "operator": "Sbaff S.r.l.",
                "payment:lightning": "yes",
                "payment:onchain": "yes",
                "ref:vatin": "IT03956760981"
            }
        },
        {
            "type": "node",
            "id": 6758886855,
            "lat": 44.8432632,
            "lon": 10.0157361,
            "timestamp": "2024-10-11T13:41:06Z",
            "version": 11,
            "changeset": 157757849,
            "user": "Chiarant",
            "uid": 18452174,
            "tags": {
                "addr:city": "Fidenza",
                "addr:housenumber": "32",
                "addr:place": "Ponte Ghiara",
                "addr:postcode": "43036",
                "amenity": "restaurant",
                "check_date": "2024-10-11",
                "contact:email": "info@bar50special.it",
                "contact:facebook": "https://www.facebook.com/bar50special/",
                "cuisine": "pizza;coffee_shop;italian",
                "currency:XBT": "yes",
                "email": "info@bar50special.it",
                "name": "50 Special",
                "opening_hours": "Mo-Su 07:00-01:30",
                "payment:lightning": "yes",
                "payment:lightning_contactless": "yes",
                "payment:onchain": "no",
                "phone": "+39 0524 202364"
            }
        },
        {
            "type": "node",
            "id": 6853720953,
            "lat": 45.524629,
            "lon": 10.210243,
            "timestamp": "2025-05-29T16:39:07Z",
            "version": 8,
            "changeset": 166932440,
            "user": "Comino",
            "uid": 6794624,
            "tags": {
                "addr:city": "Brescia",
                "addr:housenumber": "66",
                "addr:postcode": "25124",
                "addr:street": "Via Cipro",
                "contact:phone": "+39 347 637 8826",
                "contact:website": "https://bitcoinpeople.it/",
                "currency:XBT": "yes",
                "description": "Bitcoin People \u00e8 una startup che offre soluzioni software e consulenza per facilitare l'uso di Bitcoin come metodo di pagamento, attraverso il suo gateway BPay.",
                "name": "Bitcoin People",
                "office": "coworking",
                "opening_hours": "Mo-Fr 09:00-18:30",
                "payment:lightning": "yes",
                "payment:lightning_contactless": "yes",
                "payment:onchain": "yes",
                "survey:date": "2024-08-09"
            }
        },
        {
            "type": "node",
            "id": 6961538410,
            "lat": 45.2942693,
            "lon": 9.7636712,
            "timestamp": "2023-11-03T20:49:15Z",
            "version": 5,
            "changeset": 143591052,
            "user": "b-jazz-bot",
            "uid": 9451067,
            "tags": {
                "addr:city": "Castelleone",
                "addr:housenumber": "5",
                "addr:postcode": "26012",
                "addr:street": "Via Garibaldi",
                "air_conditioning": "yes",
                "check_date:currency:XBT": "2022-12-09",
                "craft": "photographer",
                "currency:XBT": "yes",
                "email": "info@fotorizzotti.it",
                "internet_access": "wlan",
                "name": "Foto Rizzotti",
                "payment:lightning": "yes",
                "payment:onchain": "yes",
                "phone": "+39 0374350151",
                "website": "https://www.fotorizzotti.it/",
                "wheelchair": "yes"
            }
        },
        {
            "type": "node",
            "id": 7252184316,
            "lat": 45.1744253,
            "lon": 9.6552251,
            "timestamp": "2020-02-29T06:31:11Z",
            "version": 1,
            "changeset": 81613175,
            "user": "mascalzone67",
            "uid": 1861652,
            "tags": {
                "addr:city": "Casalpusterlengo",
                "addr:housenumber": "8",
                "addr:postcode": "26841",
                "addr:street": "Via Salvo D'Acquisto",
                "amenity": "pharmacy",
                "dispensing": "no",
                "healthcare": "pharmacy",
                "name": "Parafarmacia Conad",
                "opening_hours": "Mo-Su 08:00-20:00",
                "operator": "Conad",
                "phone": "+39 0377 911132"
            }
        },
        {
            "type": "node",
            "id": 7478478971,
            "lat": 45.5388451,
            "lon": 10.2202351,
            "timestamp": "2023-04-04T09:41:40Z",
            "version": 3,
            "changeset": 134487400,
            "user": "osm_fede",
            "uid": 5631066,
            "tags": {
                "addr:city": "Brescia",
                "addr:housenumber": "2",
                "addr:postcode": "25121",
                "addr:street": "Piazza della Vittoria",
                "amenity": "pharmacy",
                "check_date:opening_hours": "2023-04-04",
                "dispensing": "no",
                "healthcare": "pharmacy",
                "name": "Parafarmacia Conad",
                "opening_hours:signed": "no",
                "operator": "Conad",
                "wheelchair": "yes"
            }
        },
        {
            "type": "node",
            "id": 7481999558,
            "lat": 45.5255116,
            "lon": 9.9384787,
            "timestamp": "2020-05-04T17:27:51Z",
            "version": 2,
            "changeset": 84638618,
            "user": "mascalzone67",
            "uid": 1861652,
            "tags": {
                "addr:city": "Chiari",
                "addr:housenumber": "2",
                "addr:postcode": "25032",
                "addr:street": "Via Vecchia per Castelcovati",
                "amenity": "pharmacy",
                "dispensing": "no",
                "healthcare": "pharmacy",
                "name": "Parafarmacia Conad",
                "operator": "Conad"
            }
        },
        {
            "type": "node",
            "id": 7484530897,
            "lat": 44.9379749,
            "lon": 10.489694,
            "timestamp": "2020-05-05T08:19:58Z",
            "version": 1,
            "changeset": 84676726,
            "user": "mascalzone67",
            "uid": 1861652,
            "tags": {
                "addr:city": "Viadana",
                "addr:housenumber": "1",
                "addr:postcode": "46019",
                "addr:street": "via A. Moro",
                "amenity": "pharmacy",
                "dispensing": "no",
                "healthcare": "pharmacy",
                "name": "Parafarmacia Conad",
                "operator": "Conad"
            }
        },
        {
            "type": "node",
            "id": 7513018315,
            "lat": 44.7031183,
            "lon": 10.1259773,
            "timestamp": "2021-09-01T21:06:56Z",
            "version": 2,
            "changeset": 110585343,
            "user": "PaoPer",
            "uid": 14037307,
            "tags": {
                "addr:city": "Fornovo di Taro",
                "addr:housenumber": "107",
                "addr:postcode": "43045",
                "addr:street": "Via Cisa",
                "amenity": "pharmacy",
                "dispensing": "no",
                "healthcare": "pharmacy",
                "name": "Parafarmacia Conad",
                "opening_hours": "Mo-Su 08:00-20:00",
                "operator": "Conad"
            }
        },
        {
            "type": "node",
            "id": 7935446331,
            "lat": 45.5347844,
            "lon": 10.1501158,
            "timestamp": "2025-09-11T21:35:05Z",
            "version": 3,
            "changeset": 171804228,
            "user": "Goffredo",
            "uid": 194751,
            "tags": {
                "addr:city": "Roncadelle",
                "addr:housenumber": "37",
                "addr:postcode": "25030",
                "addr:street": "Via Enrico Mattei",
                "amenity": "pharmacy",
                "contact:phone": "+39 030 27891",
                "dispensing": "no",
                "healthcare": "pharmacy",
                "name": "Parafarmacia Conad",
                "opening_hours": "Mo-Sa 08:30-21:00; Su 09:00-20:00",
                "operator": "Conad"
            }
        },
        {
            "type": "node",
            "id": 9732393851,
            "lat": 44.8591105,
            "lon": 10.0879228,
            "timestamp": "2025-07-30T07:22:39Z",
            "version": 3,
            "changeset": 169704918,
            "user": "faesrl",
            "uid": 23142242,
            "tags": {
                "addr:city": "Fidenza",
                "addr:housenumber": "11",
                "addr:postcode": "43036",
                "addr:street": "Via Galileo Ferraris",
                "brand": "Unieuro",
                "email": "info@faesrl.it",
                "name": "F.A.E. srl Unieuro",
                "operator": "Unieuro S.p.A.",
                "phone": "0524518611",
                "shop": "electronics"
            }
        },
        {
            "type": "node",
            "id": 10165712913,
            "lat": 45.3555613,
            "lon": 9.6627822,
            "timestamp": "2025-08-27T20:39:56Z",
            "version": 2,
            "changeset": 171103891,
            "user": "Comino",
            "uid": 6794624,
            "tags": {
                "addr:city": "Crema",
                "addr:postcode": "26013",
                "addr:street": "Via Cappuccini",
                "craft": "painter",
                "currency:XBT": "yes",
                "name": "Doldi Luca Imbianchino",
                "payment:lightning": "no",
                "payment:lightning_contactless": "no",
                "payment:onchain": "yes",
                "phone": "+39 3384808366",
                "survey:date": "2022-11-07"
            }
        },
        {
            "type": "node",
            "id": 10165750730,
            "lat": 45.356339,
            "lon": 9.6515674,
            "timestamp": "2022-11-07T08:18:54Z",
            "version": 1,
            "changeset": 128585463,
            "user": "BSN21M",
            "uid": 17441326,
            "tags": {
                "addr:city": "Crema",
                "addr:postcode": "26013",
                "addr:street": "Via Pandino",
                "amenity": "restaurant",
                "currency:XBT": "yes",
                "email": "scorse_89@hotmail.it",
                "name": "Dal Barbarossa",
                "payment:lightning": "no",
                "payment:lightning_contactless": "no",
                "payment:onchain": "yes",
                "phone": "+393491745630",
                "survey:date": "2022-11-07",
                "website": "https://it-it.facebook.com/dalbarbarossaOBV/"
            }
        },
        {
            "type": "node",
            "id": 10228582932,
            "lat": 45.5445077,
            "lon": 10.2198795,
            "timestamp": "2025-09-26T09:17:21Z",
            "version": 8,
            "changeset": 172475157,
            "user": "btcitnet",
            "uid": 22525435,
            "tags": {
                "addr:city": "Brescia",
                "addr:housenumber": "93",
                "addr:street": "Via San Faustino",
                "amenity": "cafe",
                "check_date": "2022-12-10",
                "contact:facebook": "https://www.facebook.com/cyrclecafebs/",
                "contact:phone": "+39 339 8552307",
                "currency:XBT": "yes",
                "indoor_seating": "yes",
                "name": "CYRCLEcaf\u00e9",
                "opening_hours": "Mo-We 07:00-22:00; Th-Sa 07:00-00:00",
                "outdoor_seating": "yes",
                "payment:lightning": "yes",
                "payment:onchain": "yes"
            }
        },
        {
            "type": "node",
            "id": 10228582934,
            "lat": 45.5363144,
            "lon": 10.2290017,
            "timestamp": "2025-01-02T21:11:02Z",
            "version": 7,
            "changeset": 160926344,
            "user": "demon_box",
            "uid": 350864,
            "tags": {
                "addr:city": "Brescia",
                "addr:housenumber": "71",
                "addr:postcode": "25121",
                "addr:street": "Corso Magenta",
                "amenity": "dentist",
                "check_date": "2022-12-12",
                "check_date:opening_hours": "2023-02-05",
                "contact:website": "https://www.medicodentista.it/",
                "currency:XBT": "yes",
                "healthcare": "dentist",
                "name": "Studio Dentistico Implantologico Valli",
                "opening_hours:signed": "no",
                "payment:lightning": "yes",
                "payment:onchain": "yes",
                "wheelchair": "no"
            }
        },
        {
            "type": "node",
            "id": 10247809017,
            "lat": 45.38398,
            "lon": 10.492286,
            "timestamp": "2024-07-06T06:47:41Z",
            "version": 3,
            "changeset": 153612144,
            "user": "mauropili",
            "uid": 1496865,
            "tags": {
                "addr:city": "Castiglione delle Stiviere",
                "addr:housenumber": "55",
                "addr:postcode": "46043",
                "addr:street": "Via Giuseppe Mazzini",
                "addr:unit": "c",
                "check_date": "2022-12-09",
                "currency:XBT": "yes",
                "name": "FunPlanet",
                "opening_hours": "Mo-Sa 09:00-12:30, 14:30-19:00",
                "payment:lightning": "yes",
                "payment:onchain": "yes",
                "phone": "+390376670942",
                "shop": "mobile_phone",
                "website": "https://www.funplanet.it/"
            }
        },
        {
            "type": "node",
            "id": 10250750357,
            "lat": 45.3462702,
            "lon": 10.1350625,
            "timestamp": "2025-01-07T13:42:36Z",
            "version": 3,
            "changeset": 161096087,
            "user": "damianeue",
            "uid": 10124288,
            "tags": {
                "addr:city": "Manerbio",
                "addr:housenumber": "10",
                "addr:postcode": "25025",
                "addr:street": "Via Cremona",
                "amenity": "fast_food",
                "brand": "La Piadineria",
                "brand:wikidata": "Q108195414",
                "check_date": "2022-12-12",
                "contact:phone": "+390309938067",
                "contact:website": "https://www.lapiadineria.com/",
                "cuisine": "piadina",
                "currency:XBT": "yes",
                "name": "La Piadineria",
                "payment:lightning": "yes",
                "payment:onchain": "yes",
                "takeaway": "yes"
            }
        },
        {
            "type": "node",
            "id": 10250750358,
            "lat": 45.5453125,
            "lon": 10.2251195,
            "timestamp": "2025-01-02T16:46:35Z",
            "version": 5,
            "changeset": 160916701,
            "user": "demon_box",
            "uid": 350864,
            "tags": {
                "addr:city": "Brescia",
                "addr:housenumber": "4",
                "addr:postcode": "25128",
                "addr:street": "Via Cesare Lombroso",
                "amenity": "fast_food",
                "check_date": "2022-12-12",
                "contact:phone": "+39 030 3099205",
                "contact:website": "https://www.lapiadineria.com/",
                "cuisine": "italian;sandwich",
                "currency:XBT": "yes",
                "indoor_seating": "yes",
                "name": "La Piadineria",
                "opening_hours": "Mo-Th 11:30-15:00+; Fr,Sa 11:30-15:00,18:30-21:30+; PH,Su off",
                "outdoor_seating": "yes",
                "payment:lightning": "yes",
                "payment:onchain": "yes"
            }
        },
        {
            "type": "node",
            "id": 10251001609,
            "lat": 45.5342114,
            "lon": 10.2138447,
            "timestamp": "2025-01-02T16:46:35Z",
            "version": 5,
            "changeset": 160916701,
            "user": "demon_box",
            "uid": 350864,
            "tags": {
                "addr:city": "Brescia",
                "addr:housenumber": "6",
                "addr:postcode": "25122",
                "addr:street": "Via Venti Settembre",
                "check_date": "2022-12-10",
                "contact:email": "info@madisonbrescia.com",
                "contact:facebook": "https://www.facebook.com/brescia.madison",
                "contact:instagram": "https://www.instagram.com/madison_brescia/",
                "contact:phone": "+39 030 4194101",
                "contact:website": "https://madisonbrescia.com/",
                "currency:XBT": "yes",
                "name": "Centro Estetico Madison",
                "opening_hours": "Mo-Su 09:00-19:00",
                "payment:lightning": "yes",
                "payment:onchain": "yes",
                "shop": "beauty"
            }
        },
        {
            "type": "node",
            "id": 10273236375,
            "lat": 45.2226058,
            "lon": 9.7706893,
            "timestamp": "2024-08-31T16:40:12Z",
            "version": 2,
            "changeset": 156023778,
            "user": "mpbin",
            "uid": 21850090,
            "tags": {
                "addr:city": "Formigara",
                "addr:housenumber": "1",
                "addr:postcode": "26020",
                "addr:street": "Via Castello",
                "check_date": "2022-12-19",
                "contact:facebook": "https://www.facebook.com/MaisCorvino/",
                "contact:instagram": "https://www.instagram.com/mais_corvino/",
                "currency:XBT": "yes",
                "email": "info@maiscorvino.it",
                "name": "Mais Corvino",
                "payment:lightning": "yes",
                "payment:onchain": "yes",
                "phone": "+393477191733",
                "shop": "health_food",
                "website": "https://www.maiscorvino.it/"
            }
        },
        {
            "type": "node",
            "id": 10612535136,
            "lat": 45.1481041,
            "lon": 9.997077,
            "timestamp": "2025-01-03T11:12:07Z",
            "version": 4,
            "changeset": 160943548,
            "user": "mpbin",
            "uid": 21850090,
            "tags": {
                "addr:city": "Cremona",
                "addr:housenumber": "43",
                "addr:postcode": "26100",
                "addr:street": "Via Sesto",
                "brand": "Decathlon",
                "brand:wikidata": "Q509349",
                "name": "Decathlon",
                "opening_hours": "Mo-Su 09:00-20:00",
                "operator": "Decathlon",
                "shop": "sports"
            }
        },
        {
            "type": "node",
            "id": 10788484126,
            "lat": 45.5338749,
            "lon": 10.164534,
            "timestamp": "2025-01-02T16:46:35Z",
            "version": 4,
            "changeset": 160916701,
            "user": "demon_box",
            "uid": 350864,
            "tags": {
                "addr:city": "Roncadelle",
                "addr:postcode": "25030",
                "addr:street": "Via Luigi Einaudi",
                "check_date": "2023-04-05",
                "clothes": "men",
                "contact:phone": "0307827945",
                "contact:website": "https://www.nuvolari.biz/stores/brescia-c-c-elnos",
                "currency:XBT": "yes",
                "name": "Nuvolari c.c. Eln\u00f2s",
                "payment:lightning": "no",
                "payment:lightning_contactless": "no",
                "payment:onchain": "yes",
                "shop": "clothes"
            }
        },
        {
            "type": "node",
            "id": 10801651077,
            "lat": 44.7897656,
            "lon": 10.3061159,
            "timestamp": "2024-12-02T14:45:19Z",
            "version": 5,
            "changeset": 159846164,
            "user": "Chiarant",
            "uid": 18452174,
            "tags": {
                "addr:city": "Parma",
                "addr:housenumber": "8",
                "addr:postcode": "43125",
                "addr:street": "Via Carlo Porta",
                "check_date": "2024-12-02",
                "contact:facebook": "https://www.facebook.com/mytrico",
                "currency:XBT": "yes",
                "description": "Studio di Tricopigmentazione & Osteopatia",
                "email": "info@mytrico.it",
                "healthcare": "alternative",
                "healthcare:speciality": "osteopathy",
                "name": "MyTrico Studio",
                "website": "https://www.mytrico.it/"
            }
        },
        {
            "type": "node",
            "id": 10844464866,
            "lat": 45.3120876,
            "lon": 9.9985,
            "timestamp": "2025-01-02T16:46:35Z",
            "version": 6,
            "changeset": 160916701,
            "user": "demon_box",
            "uid": 350864,
            "tags": {
                "addr:city": "Quinzano D'Oglio",
                "addr:housenumber": "30",
                "addr:postcode": "25027",
                "addr:street": "Via Luigi Ciocca",
                "check_date": "2024-09-21",
                "check_date:currency:XBT": "2024-09-21",
                "contact:email": "info@2fsas.com",
                "contact:phone": "+390309924331",
                "contact:website": "https://www.2fsas.com",
                "currency:XBT": "yes",
                "name": "2F Computer",
                "shop": "computer"
            }
        },
        {
            "type": "node",
            "id": 10856232632,
            "lat": 45.5363818,
            "lon": 10.217417,
            "timestamp": "2025-05-04T13:58:47Z",
            "version": 8,
            "changeset": 165801735,
            "user": "fepede",
            "uid": 1443650,
            "tags": {
                "addr:city": "Brescia",
                "addr:housenumber": "24",
                "addr:street": "Contrada del Cavalletto",
                "association": "cultural",
                "check_date": "2023-12-31",
                "contact:instagram": "@h4ckbs",
                "contact:twitter": "@h4ckbs",
                "contact:website": "https://hack.bs.it/",
                "currency:XBT": "yes",
                "leisure": "hackerspace",
                "name": "hack.bs",
                "office": "association"
            }
        },
        {
            "type": "node",
            "id": 10997191065,
            "lat": 45.5518736,
            "lon": 10.1899364,
            "timestamp": "2025-01-02T16:46:35Z",
            "version": 4,
            "changeset": 160916701,
            "user": "demon_box",
            "uid": 350864,
            "tags": {
                "addr:city": "Brescia",
                "addr:housenumber": "10",
                "addr:postcode": "25127",
                "addr:street": "Via Chiusure",
                "amenity": "dentist",
                "check_date:currency:XBT": "2023-07-20",
                "contact:email": "info@dentalparkstudios.com",
                "contact:phone": "+39 030 314750",
                "contact:website": "https://www.augustopezzola.com/",
                "currency:XBT": "yes",
                "healthcare": "dentist",
                "healthcare:speciality": "dental_oral_maxillo_facial_surgery;dental;dentistry",
                "name": "Dental Park StudioS",
                "payment:lightning": "yes",
                "payment:onchain": "yes"
            }
        },
        {
            "type": "node",
            "id": 11074846173,
            "lat": 45.5522841,
            "lon": 10.2164389,
            "timestamp": "2025-01-02T16:46:35Z",
            "version": 3,
            "changeset": 160916701,
            "user": "demon_box",
            "uid": 350864,
            "tags": {
                "addr:city": "Brescia",
                "addr:housenumber": "68",
                "addr:postcode": "25128",
                "addr:street": "Via Vittorio Veneto",
                "check_date": "2024-10-16",
                "check_date:currency:XBT": "2024-10-16",
                "contact:email": "morena.scaranivolpi@gmail.com",
                "contact:phone": "00393336433815",
                "contact:website": "https://www.micoterapianews.com/",
                "currency:XBT": "yes",
                "healthcare": "alternative",
                "healthcare:speciality": "naturopathy;olistic",
                "name": "Morena Scarani Volpi",
                "opening_hours": "Mo-Fr 10:00-19:00",
                "payment:lightning": "yes",
                "payment:lightning_contactless": "no",
                "payment:onchain": "yes"
            }
        },
        {
            "type": "node",
            "id": 11104778454,
            "lat": 44.8156263,
            "lon": 9.9773502,
            "timestamp": "2024-09-15T06:12:43Z",
            "version": 3,
            "changeset": 156634732,
            "user": "paulbrunner",
            "uid": 15541433,
            "tags": {
                "addr:city": "Salsomaggiore Terme",
                "addr:housenumber": "9",
                "addr:postcode": "43039",
                "addr:street": "Via Loschi",
                "check_date": "2024-09-14",
                "contact:facebook": "https://www.facebook.com/diegopaccini.macelleria.streetfood.catering/",
                "currency:XBT": "yes",
                "email": "info@diegopaccini.it",
                "name": "Macelleria Paccini",
                "payment:lightning": "yes",
                "payment:onchain": "yes",
                "phone": "+39 0524 573219",
                "shop": "butcher",
                "website": "https://diegopaccini.it/",
                "wheelchair": "limited"
            }
        },
        {
            "type": "node",
            "id": 11131443393,
            "lat": 45.5364552,
            "lon": 10.2210378,
            "timestamp": "2025-01-02T16:46:35Z",
            "version": 2,
            "changeset": 160916701,
            "user": "demon_box",
            "uid": 350864,
            "tags": {
                "addr:city": "Brescia",
                "addr:housenumber": "30",
                "addr:street": "Corso Giuseppe Zanardelli",
                "addr:unit": "D",
                "amenity": "ice_cream",
                "check_date": "2023-08-19",
                "contact:phone": "+39 3341979171",
                "cuisine": "frozen_yogurt",
                "currency:XBT": "yes",
                "name": "Yogorino"
            }
        },
        {
            "type": "node",
            "id": 11137193120,
            "lat": 45.5287045,
            "lon": 10.2261737,
            "timestamp": "2025-05-02T09:59:36Z",
            "version": 3,
            "changeset": 165711288,
            "user": "Giorovv",
            "uid": 22842500,
            "tags": {
                "addr:city": "Brescia",
                "addr:housenumber": "51",
                "addr:street": "Via Armando Soldini",
                "amenity": "nightclub",
                "check_date": "2023-08-22",
                "contact:email": "spettrovenue@gmail.com",
                "contact:website": "https://spettro.info/",
                "currency:XBT": "yes",
                "name": "Spettro",
                "opening_hours": "Fr 18:00-00:00; Su 14:00-02:00"
            }
        },
        {
            "type": "node",
            "id": 11155583652,
            "lat": 45.5059229,
            "lon": 10.334484,
            "timestamp": "2025-01-02T16:46:35Z",
            "version": 4,
            "changeset": 160916701,
            "user": "demon_box",
            "uid": 350864,
            "tags": {
                "addr:city": "Rezzato",
                "addr:housenumber": "24",
                "addr:postcode": "25086",
                "addr:street": "Via Treponti",
                "check_date": "2023-12-31",
                "contact:email": "info@open-one.it",
                "contact:phone": "+39 030 2590260",
                "contact:website": "https://www.open-one.it/",
                "currency:XBT": "yes",
                "name": "Open One S.r.l. - Consulenza informatica e app",
                "office": "consulting"
            }
        },
        {
            "type": "node",
            "id": 11267531754,
            "lat": 45.5256797,
            "lon": 10.1582278,
            "timestamp": "2025-01-02T16:46:35Z",
            "version": 2,
            "changeset": 160916701,
            "user": "demon_box",
            "uid": 350864,
            "tags": {
                "addr:city": "Roncadelle",
                "addr:housenumber": "98",
                "addr:postcode": "25030",
                "addr:street": "Via Martiri della Libert\u00e0",
                "amenity": "bar",
                "check_date": "2023-10-16",
                "contact:email": "info@shisha-relax.it",
                "contact:phone": "+39 327 280 7453",
                "contact:website": "https://shisha-relax.it/",
                "currency:XBT": "yes",
                "description": "Lounge bar con narghil\u00e8",
                "name": "Shisha Relax Bar"
            }
        },
        {
            "type": "node",
            "id": 11669846020,
            "lat": 45.5329544,
            "lon": 10.2116886,
            "timestamp": "2025-08-27T20:39:16Z",
            "version": 4,
            "changeset": 171103873,
            "user": "Comino",
            "uid": 6794624,
            "tags": {
                "addr:city": "Brescia",
                "addr:housenumber": "6",
                "addr:postcode": "25122",
                "addr:street": "Via Giulio Togni",
                "check_date": "2024-02-27",
                "contact:email": "info@itcombrescia.it",
                "contact:phone": "+39 339 158 8888",
                "contact:website": "http://www.itcombrescia.it/",
                "currency:XBT": "yes",
                "description": "Centro assistenza irp apple, mac, iPhone samsung, oppo, vivo, huawei, realme, xiaomi, poco, asus, lenovo, msi",
                "name": "IT Com",
                "shop": "electronics"
            }
        },
        {
            "type": "node",
            "id": 11693941996,
            "lat": 44.7975679,
            "lon": 10.3312786,
            "timestamp": "2024-06-11T20:21:57Z",
            "version": 3,
            "changeset": 152560566,
            "user": "Rockedf",
            "uid": 7522075,
            "tags": {
                "addr:city": "Parma",
                "addr:housenumber": "65",
                "addr:postcode": "43121",
                "addr:street": "Borgo Felino",
                "amenity": "atm",
                "cash_in": "yes",
                "cash_out": "yes",
                "cash_withdrawal": "yes",
                "contact:email": "support@shitcoins.club",
                "contact:facebook": "https://www.facebook.com/shitcoins.club",
                "contact:instagram": "https://www.instagram.com/shitcoinsclub",
                "contact:telegram": "https://t.me/shitcoinsclub",
                "contact:twitter": "https://twitter.com/BitomatCom",
                "currency:CAD": "yes",
                "currency:CHF": "yes",
                "currency:DASH": "yes",
                "currency:ETH": "yes",
                "currency:EUR": "yes",
                "currency:HUF": "yes",
                "currency:LTC": "yes",
                "currency:RON": "yes",
                "currency:USD": "yes",
                "currency:USDC": "yes",
                "currency:USDT": "yes",
                "currency:XBT": "yes",
                "description": "L'ATM Bitcoin a Parma si trova accanto all'enoteca Bottiglia Azzurra ed \u00e8 aperto 24/7",
                "indoor": "yes",
                "name": "Bitcoin ATM - Shitcoins.club",
                "network": "shitcoins.club",
                "opening_hours": "24/7",
                "operator": "Shitcoins.club",
                "payment:cash": "yes",
                "payment:onchain": "yes",
                "phone": "+39 34 8048 7308",
                "survey:date": "2024-03-04",
                "website": "https://shitcoins.club/localizzazione-atm/atm-bitcoin-parma-borgo-felino"
            }
        },
        {
            "type": "node",
            "id": 11894368491,
            "lat": 44.9805577,
            "lon": 10.4290873,
            "timestamp": "2025-01-02T22:28:10Z",
            "version": 4,
            "changeset": 160928450,
            "user": "mpbin",
            "uid": 21850090,
            "tags": {
                "addr:city": "Casalmaggiore",
                "addr:housenumber": "49",
                "addr:postcode": "26041",
                "addr:street": "Via Alessandro Volta",
                "brand": "Trony",
                "brand:wikidata": "Q3999692",
                "name": "Trony",
                "operator": "Trony",
                "shop": "electronics",
                "wheelchair": "yes"
            }
        },
        {
            "type": "node",
            "id": 11907356017,
            "lat": 45.1588719,
            "lon": 10.1061461,
            "timestamp": "2025-02-07T02:18:07Z",
            "version": 8,
            "changeset": 162228980,
            "user": "Rockedf",
            "uid": 7522075,
            "tags": {
                "addr:city": "Gadesco Pieve Delmona",
                "addr:country": "IT",
                "addr:housenumber": "20",
                "addr:postcode": "26030",
                "addr:street": "Via Sandro Pertini",
                "amenity": "marketplace",
                "check_date:currency:XBT": "2025-02-07",
                "currency:XBT": "yes",
                "name": "Spend Your Sats",
                "payment:lightning": "yes",
                "payment:lightning_contactless": "yes",
                "payment:onchain": "yes",
                "website": "https://www.spendsats.org"
            }
        },
        {
            "type": "node",
            "id": 11925744888,
            "lat": 45.5467891,
            "lon": 10.2264055,
            "timestamp": "2025-01-02T16:46:35Z",
            "version": 4,
            "changeset": 160916701,
            "user": "demon_box",
            "uid": 350864,
            "tags": {
                "addr:city": "Brescia",
                "addr:housenumber": "10",
                "addr:postcode": "25128",
                "addr:street": "Via Giovanni Lipella",
                "amenity": "atm",
                "cash_in": "yes",
                "cash_out": "yes",
                "cash_withdrawal": "yes",
                "check_date": "2024-05-22",
                "contact:email": "support@shitcoins.club",
                "contact:facebook": "https://www.facebook.com/shitcoins.club",
                "contact:instagram": "https://www.instagram.com/shitcoinsclub",
                "contact:phone": "+39 34 8048 7308",
                "contact:telegram": "https://t.me/shitcoinsclub",
                "contact:twitter": "https://twitter.com/BitomatCom",
                "contact:website": "https://shitcoins.club/localizzazione-atm/atm-bitcoin-brescia-via-giovanni-lipella",
                "currency:CHF": "yes",
                "currency:DASH": "yes",
                "currency:ETH": "yes",
                "currency:EUR": "yes",
                "currency:GBP": "yes",
                "currency:HUF": "yes",
                "currency:LTC": "yes",
                "currency:RON": "yes",
                "currency:RUB": "yes",
                "currency:USD": "yes",
                "currency:USDC": "yes",
                "currency:USDT": "yes",
                "currency:XBT": "yes",
                "indoor": "yes",
                "name": "Bitcoin ATM - Shitcoins.club",
                "opening_hours": "24/7",
                "operator": "Shitcoins.club",
                "payment:cash": "yes",
                "payment:lightning": "no",
                "payment:lightning_contactless": "no",
                "payment:onchain": "yes"
            }
        },
        {
            "type": "node",
            "id": 12055424193,
            "lat": 44.7989832,
            "lon": 10.3413452,
            "timestamp": "2025-01-03T11:05:32Z",
            "version": 4,
            "changeset": 160943289,
            "user": "mpbin",
            "uid": 21850090,
            "tags": {
                "addr:city": "Parma",
                "addr:housenumber": "21/A",
                "addr:postcode": "43121",
                "addr:street": "Galleria Pietro Micheli",
                "brand": "Decathlon",
                "brand:wikidata": "Q509349",
                "name": "Decathlon",
                "operator": "Decathlon",
                "shop": "sports",
                "sport": "cycling"
            }
        },
        {
            "type": "node",
            "id": 12652695912,
            "lat": 44.7997772,
            "lon": 10.3047994,
            "timestamp": "2025-03-11T17:12:27Z",
            "version": 1,
            "changeset": 163494728,
            "user": "ziomio",
            "uid": 21389832,
            "tags": {
                "amenity": "car_wash",
                "brand": "Wash",
                "brand:wikidata": "Q124568566",
                "name": "Wash",
                "operator": "Q8"
            }
        },
        {
            "type": "node",
            "id": 12675620497,
            "lat": 45.4742829,
            "lon": 9.9918564,
            "timestamp": "2025-03-18T09:43:43Z",
            "version": 2,
            "changeset": 163765846,
            "user": "demon_box",
            "uid": 350864,
            "tags": {
                "addr:city": "Trenzano",
                "addr:hamlet": "Cossirano",
                "addr:housenumber": "11a",
                "addr:postcode": "25030",
                "addr:street": "Via Guglielmo Marconi",
                "amenity": "restaurant",
                "contact:instagram": "https://www.instagram.com/pizzerialamaiolica/",
                "contact:phone": "+39 333 5253430",
                "cuisine": "pizza",
                "currency:XBT": "yes",
                "name": "La Maiolica"
            }
        },
        {
            "type": "node",
            "id": 12920124101,
            "lat": 45.530323,
            "lon": 10.0977618,
            "timestamp": "2025-06-16T20:30:26Z",
            "version": 1,
            "changeset": 167712209,
            "user": "Dedeil59",
            "uid": 23000541,
            "tags": {
                "advertising": "sign",
                "operator": "Conad"
            }
        },
        {
            "type": "node",
            "id": 12920124102,
            "lat": 45.5290116,
            "lon": 10.096777,
            "timestamp": "2025-06-16T20:30:26Z",
            "version": 1,
            "changeset": 167712209,
            "user": "Dedeil59",
            "uid": 23000541,
            "tags": {
                "advertising": "sign",
                "operator": "Conad"
            }
        },
        {
            "type": "node",
            "id": 13075061675,
            "lat": 45.0413215,
            "lon": 9.7182658,
            "timestamp": "2025-08-16T21:31:46Z",
            "version": 1,
            "changeset": 170542422,
            "user": "Rensco",
            "uid": 22933680,
            "tags": {
                "amenity": "parking",
                "layer": "-1",
                "operator": "Conad",
                "operator:type": "private",
                "parking": "underground"
            }
        },
        {
            "type": "way",
            "id": 85703557,
            "timestamp": "2024-11-03T10:45:39Z",
            "version": 7,
            "changeset": 158692842,
            "user": "\u0110uro Ji\u0159\u00ed",
            "uid": 14617702,
            "nodes": [
                994680876,
                994681471,
                994681789,
                994682094,
                994681912,
                994682232,
                994682455,
                994680292,
                994680089,
                994680540,
                994681188,
                994681675,
                994681493,
                994681800,
                994682119,
                2417831325,
                2417831317,
                2417831321,
                994680876
            ],
            "tags": {
                "addr:city": "Casalpusterlengo",
                "addr:housenumber": "8",
                "addr:postcode": "26841",
                "addr:street": "Via Salvo D'Acquisto",
                "brand": "Conad Superstore",
                "brand:wikidata": "Q118129616",
                "brand:wikipedia": "it:Conad",
                "building": "yes",
                "email": "conad.casalpusterlengo@conadcentronord.it",
                "name": "Conad Superstore",
                "opening_hours": "Mo-Su 08:30-20:00",
                "operator": "Conad",
                "phone": "+39 0377 911132",
                "shop": "supermarket",
                "website": "https://www.conad.it/ricerca-negozi/negozio.006031.html",
                "wheelchair": "yes"
            }
        },
        {
            "type": "way",
            "id": 116520728,
            "timestamp": "2016-04-20T10:09:11Z",
            "version": 3,
            "changeset": 38723782,
            "user": "agnostico",
            "uid": 3084054,
            "nodes": [
                1313337012,
                1313337019,
                1313337007,
                1313337014,
                1313337012
            ],
            "tags": {
                "name": "UT Tamoil",
                "operator": "Tamoil",
                "power": "substation",
                "ref:terna": "MMILTA1M",
                "substation": "industrial",
                "voltage": "132000"
            }
        },
        {
            "type": "way",
            "id": 168488037,
            "timestamp": "2024-06-14T12:48:22Z",
            "version": 6,
            "changeset": 152676769,
            "user": "Rockedf",
            "uid": 7522075,
            "nodes": [
                1797396430,
                1797396188,
                1797396208,
                1797396056,
                1797395918,
                1797395770,
                1797395598,
                1797396033,
                1797396094,
                1797396212,
                1797396248,
                1797396430
            ],
            "tags": {
                "addr:city": "Lodi",
                "addr:housenumber": "6",
                "addr:postcode": "26900",
                "addr:street": "via Agello",
                "building": "house",
                "check_date": "2024-06-14",
                "check_date:currency:XBT": "2024-06-14",
                "currency:XBT": "yes",
                "email": "info@villalaila.com",
                "guest_house": "bed_and_breakfast",
                "height": "9.315",
                "internet_access": "wlan",
                "internet_access:fee": "customers",
                "name": "Villa Laila",
                "opening_hours": "Mo-Su 09:00-20:30",
                "payment:lightning": "yes",
                "payment:lightning_contactless": "yes",
                "payment:onchain": "yes",
                "phone": "+393519110305",
                "rooms": "3",
                "source": "Cartografia Provincia di Lodi",
                "tourism": "hotel",
                "website": "https://www.villalaila.com/"
            }
        },
        {
            "type": "way",
            "id": 182144856,
            "timestamp": "2024-02-27T15:46:11Z",
            "version": 5,
            "changeset": 147978692,
            "user": "Emanuele Lorenzo Corti",
            "uid": 10893865,
            "nodes": [
                1924920322,
                1924920450,
                1924920538,
                1924920545,
                11669370525,
                11669370524,
                1924920600,
                1924920623,
                1924920342,
                1924920213,
                1924919761,
                1924919747,
                1924920322
            ],
            "tags": {
                "brand": "Conad",
                "brand:wikidata": "Q639075",
                "brand:wikipedia": "it:Conad",
                "building": "yes",
                "name": "Conad",
                "opening_hours": "Mo-Sa 08:30-20:30; Su 09:00-13:00",
                "operator": "Conad",
                "shop": "supermarket",
                "source": "Regione Emilia Romagna",
                "wheelchair": "yes"
            }
        },
        {
            "type": "way",
            "id": 182153214,
            "timestamp": "2025-08-27T18:13:47Z",
            "version": 6,
            "changeset": 171096810,
            "user": "Mateusz Konieczny - bot account - ATP import",
            "uid": 22544915,
            "nodes": [
                1925004561,
                1925004745,
                1925004700,
                1925004714,
                1925004684,
                1925004624,
                1925004583,
                1925004484,
                1925004494,
                1925004489,
                12095537913,
                12095537914,
                12095537915,
                1925004514,
                1925004530,
                1925004554,
                1925004558,
                1925004561
            ],
            "tags": {
                "brand": "IKEA",
                "brand:wikidata": "Q54078",
                "building": "commercial",
                "name": "IKEA",
                "operator": "Ikea Italia Retail S.r.l.",
                "shop": "furniture",
                "source": "Regione Emilia Romagna",
                "website": "https://www.ikea.com/it/it/stores/parma/"
            }
        },
        {
            "type": "way",
            "id": 182247919,
            "timestamp": "2025-01-06T14:42:40Z",
            "version": 3,
            "changeset": 161061098,
            "user": "mpbin",
            "uid": 21850090,
            "nodes": [
                1925848716,
                1925848746,
                1925848743,
                1925848739,
                1925848737,
                1925848690,
                1925848695,
                1925848688,
                1925848693,
                1925848700,
                1925848709,
                1925848720,
                1925848721,
                1925848711,
                1925848716
            ],
            "tags": {
                "amenity": "parking",
                "name": "IKEA",
                "operator": "Ikea Italia Retail S.r.l.",
                "parking": "surface"
            }
        },
        {
            "type": "way",
            "id": 182247920,
            "timestamp": "2025-01-06T14:43:02Z",
            "version": 3,
            "changeset": 161061113,
            "user": "mpbin",
            "uid": 21850090,
            "nodes": [
                1925848750,
                1925848752,
                1925848718,
                1925848713,
                1925848683,
                1925848641,
                1925848642,
                1925848643,
                1925848644,
                1925848646,
                1925848654,
                1925848662,
                1925848668,
                1925848665,
                1925848657,
                1925848650,
                1925848648,
                1925848652,
                1925848659,
                1925848670,
                1925848673,
                1925848703,
                1925848722,
                1925848730,
                1925848735,
                1925848748,
                1925848750
            ],
            "tags": {
                "amenity": "parking",
                "name": "IKEA",
                "operator": "Ikea Italia Retail S.r.l.",
                "parking": "surface"
            }
        },
        {
            "type": "way",
            "id": 182568252,
            "timestamp": "2025-01-02T16:46:35Z",
            "version": 8,
            "changeset": 160916701,
            "user": "demon_box",
            "uid": 350864,
            "nodes": [
                1929231627,
                1929231848,
                4700939737,
                1929231607,
                1929231415,
                1929231627
            ],
            "tags": {
                "addr:city": "Poncarale",
                "addr:housenumber": "2",
                "addr:postcode": "25020",
                "addr:street": "Piazzale Caduti",
                "amenity": "restaurant",
                "building": "yes",
                "check_date": "2022-12-10",
                "contact:phone": "+39 030 2640169",
                "contact:website": "https://www.pizzerialarocca.com/",
                "cuisine": "pizza",
                "currency:XBT": "yes",
                "name": "La Rocca",
                "opening_hours": "Tu-Su 18:00-22:00",
                "payment:lightning": "yes",
                "payment:onchain": "yes"
            }
        },
        {
            "type": "way",
            "id": 182990504,
            "timestamp": "2023-05-13T16:43:41Z",
            "version": 6,
            "changeset": 136060397,
            "user": "Il mappatore pazzo",
            "uid": 15407811,
            "nodes": [
                1933548185,
                1933548196,
                1933548189,
                1933548212,
                1933548169,
                1933548109,
                1933548185
            ],
            "tags": {
                "addr:city": "Fornovo di Taro",
                "addr:housenumber": "107",
                "addr:postcode": "43045",
                "addr:street": "Via Cisa",
                "brand": "Conad",
                "brand:wikidata": "Q639075",
                "brand:wikipedia": "it:Conad",
                "building": "retail",
                "building:levels": "1",
                "check_date:opening_hours": "2023-05-13",
                "email": "conad.fornovo@conadcentronord.it",
                "name": "Conad",
                "opening_hours": "Mo-Su 08:00-20:00",
                "operator": "Conad",
                "payment:bancomat": "yes",
                "payment:cash": "yes",
                "payment:credit_cards": "yes",
                "phone": "+39 0525 30437",
                "roof:shape": "flat",
                "shop": "supermarket",
                "source": "Regione Emilia Romagna",
                "website": "https://www.conad.it/ricerca-negozi/negozio.008894.html"
            }
        },
        {
            "type": "way",
            "id": 183719943,
            "timestamp": "2022-11-13T07:48:00Z",
            "version": 4,
            "changeset": 128836165,
            "user": "bbgg",
            "uid": 4126696,
            "nodes": [
                1941317842,
                1941317844,
                1941318670,
                1941318088,
                1941317794,
                1941317718,
                1941317714,
                1941317542,
                1941317510,
                1941317522,
                1941317502,
                1941317453,
                1941317566,
                1941317842
            ],
            "tags": {
                "brand": "Conad",
                "brand:wikidata": "Q639075",
                "building": "retail",
                "name": "Conad",
                "operator": "Conad",
                "shop": "supermarket",
                "source": "Regione Emilia Romagna"
            }
        },
        {
            "type": "way",
            "id": 187949689,
            "timestamp": "2025-01-02T16:46:35Z",
            "version": 7,
            "changeset": 160916701,
            "user": "demon_box",
            "uid": 350864,
            "nodes": [
                1985831036,
                1985831035,
                1985831038,
                1985831042,
                9874419862,
                1985831047,
                1985831039,
                3174612952,
                1985831036
            ],
            "tags": {
                "addr:city": "Chiari",
                "addr:housenumber": "2",
                "addr:postcode": "25032",
                "addr:street": "Via Vecchia per Castelcovati",
                "brand": "Conad",
                "brand:wikidata": "Q639075",
                "brand:wikipedia": "it:Conad",
                "building": "retail",
                "contact:email": "conad.chiari@conadcentronord.it",
                "contact:phone": "+39 0522 488931",
                "contact:website": "https://www.conad.it/ricerca-negozi/negozio.008249.html",
                "name": "Conad",
                "opening_hours": "Mo-Sa 08:30-20:00; Su 08:00-19:00",
                "operator": "Conad",
                "payment:bancomat": "yes",
                "payment:cash": "yes",
                "payment:credit_cards": "yes",
                "shop": "supermarket"
            }
        },
        {
            "type": "way",
            "id": 201407974,
            "timestamp": "2024-09-26T14:06:03Z",
            "version": 5,
            "changeset": 157130752,
            "user": "damianeue",
            "uid": 10124288,
            "nodes": [
                2113799492,
                2113799493,
                2113799470,
                2113799469,
                2113799492
            ],
            "tags": {
                "addr:city": "San Secondo Parmense",
                "addr:street": "Via Cremonese",
                "brand": "Conad",
                "brand:wikidata": "Q639075",
                "building": "retail",
                "name": "Conad",
                "operator": "CONAD Soc. Coop.",
                "shop": "supermarket"
            }
        },
        {
            "type": "way",
            "id": 202199864,
            "timestamp": "2025-03-07T14:01:26Z",
            "version": 4,
            "changeset": 163328807,
            "user": "btcitnet",
            "uid": 22525435,
            "nodes": [
                2121815878,
                2121815835,
                2121815793,
                2121815802,
                2121815796,
                2121815814,
                2121815845,
                2121815839,
                2121815878
            ],
            "tags": {
                "addr:city": "Fidenza",
                "addr:housenumber": "9",
                "addr:postcode": "43036",
                "addr:street": "Via Federico Fellini",
                "brand": "Decathlon",
                "brand:wikidata": "Q509349",
                "building": "yes",
                "name": "Decathlon",
                "operator": "Decathlon",
                "phone": "+39 0524 687943",
                "shop": "sports"
            }
        },
        {
            "type": "way",
            "id": 298784754,
            "timestamp": "2025-05-09T10:06:16Z",
            "version": 4,
            "changeset": 166020356,
            "user": "mueschel",
            "uid": 616774,
            "nodes": [
                3027182139,
                3027182140,
                3027182141,
                12806209241,
                12806209242,
                3027182142,
                3027182139
            ],
            "tags": {
                "addr:city": "Castell'Arquato",
                "addr:housenumber": "Localit\u00e0 Madonna",
                "addr:postcode": "29014",
                "addr:street": "Bivio San Lorenzo",
                "amenity": "fuel",
                "brand": "Q8",
                "brand:wikidata": "Q4119207",
                "building": "commercial",
                "fuel:GTL_diesel": "yes",
                "fuel:benzine": "yes",
                "fuel:diesel": "yes",
                "fuel:lpg": "yes",
                "fuel:octane_100": "yes",
                "name": "Q8",
                "opening_hours": "24/7",
                "operator": "Q8",
                "payment:bancomat": "yes",
                "payment:cartissimaq8": "yes",
                "payment:cash": "yes",
                "payment:codici_pagamento": "yes",
                "payment:dkv": "yes",
                "payment:mastercard": "yes",
                "payment:prepagata_superstar": "yes",
                "payment:recardq8": "yes",
                "payment:uta": "yes",
                "payment:visa": "yes",
                "payment:wallet_clubq8": "yes",
                "self_service": "yes",
                "website": "https://servicelocator.q8.it/?lang=it"
            }
        },
        {
            "type": "way",
            "id": 318895544,
            "timestamp": "2021-05-18T21:18:26Z",
            "version": 3,
            "changeset": 104915013,
            "user": "fedc",
            "uid": 602784,
            "nodes": [
                3252921942,
                8743821682,
                3252921943,
                3252921945,
                5335327511,
                5335327512,
                5335327513,
                5335327514,
                5335327515,
                5335327745,
                5335327516,
                3252921942
            ],
            "tags": {
                "brand": "Tamoil",
                "landuse": "retail",
                "operator": "Tamoil",
                "source": "geoportale Provincia di Lodi, License IODL-2.0 (http://sdi.provincia.lodi.it/)"
            }
        },
        {
            "type": "way",
            "id": 345332967,
            "timestamp": "2023-07-13T14:07:59Z",
            "version": 4,
            "changeset": 138466184,
            "user": "superg00fy",
            "uid": 16995123,
            "nodes": [
                3520193752,
                3520193529,
                3520193383,
                3520193560,
                3520193574,
                3520193722,
                3520193752
            ],
            "tags": {
                "addr:city": "Viadana",
                "addr:housenumber": "1",
                "addr:postcode": "46019",
                "addr:street": "via A. Moro",
                "brand": "Conad",
                "brand:wikidata": "Q639075",
                "brand:wikipedia": "it:Conad",
                "building": "retail",
                "check_date:opening_hours": "2023-07-13",
                "email": "Conad.ViadanaViaMoro@conadcentronord.it",
                "name": "Conad",
                "opening_hours": "Mo-Su 08:00-20:00",
                "operator": "Conad",
                "payment:bancomat": "yes",
                "payment:cash": "yes",
                "payment:credit_cards": "yes",
                "phone": "+39 0375 791002",
                "shop": "supermarket",
                "website": "https://www.conad.it/ricerca-negozi/negozio.009971.html"
            }
        },
        {
            "type": "way",
            "id": 562596017,
            "timestamp": "2025-06-23T19:49:15Z",
            "version": 6,
            "changeset": 168019487,
            "user": "Dedeil59",
            "uid": 23000541,
            "nodes": [
                5423507600,
                5423507588,
                5423507599,
                5423507598,
                5423507597,
                12920123194,
                12947382573,
                12947382572,
                5423507600
            ],
            "tags": {
                "addr:city": "Travagliato",
                "addr:housenumber": "2",
                "addr:postcode": "25039",
                "addr:street": "Via del Pero",
                "brand": "Conad",
                "brand:wikidata": "Q639075",
                "brand:wikipedia": "it:Conad",
                "building": "retail",
                "contact:email": "conad.travagliato@conadcentronord.it",
                "contact:phone": "+39 030 6862425",
                "contact:website": "https://www.conad.it/ricerca-negozi/negozio.009377.html",
                "name": "Conad",
                "opening_hours": "Mo-Su 08:30-20:00",
                "operator": "Conad",
                "payment:bancomat": "yes",
                "payment:coins": "yes",
                "payment:notes": "yes",
                "ref": "8579",
                "ref:vatin": "IT03358040982",
                "shop": "supermarket",
                "wheelchair": "yes"
            }
        },
        {
            "type": "way",
            "id": 683167703,
            "timestamp": "2020-03-21T10:53:30Z",
            "version": 2,
            "changeset": 82456828,
            "user": "astraspera",
            "uid": 2653653,
            "nodes": [
                6398811601,
                6398811602,
                6398811603,
                6398811604,
                6398811605,
                6398811606,
                6398811601
            ],
            "tags": {
                "brand": "Decathlon",
                "brand:wikidata": "Q509349",
                "brand:wikipedia": "en:Decathlon Group",
                "building": "yes",
                "name": "Decathlon",
                "operator": "Decathlon",
                "shop": "sports"
            }
        },
        {
            "type": "way",
            "id": 1383265545,
            "timestamp": "2025-05-09T10:06:16Z",
            "version": 2,
            "changeset": 166020356,
            "user": "mueschel",
            "uid": 616774,
            "nodes": [
                12806209274,
                12806209275,
                12806209276,
                12806209277,
                12806209274
            ],
            "tags": {
                "addr:city": "Castell'Arquato",
                "addr:housenumber": "Localit\u00e0 Madonna",
                "addr:postcode": "29014",
                "addr:street": "Bivio San Lorenzo",
                "amenity": "fuel",
                "brand": "Q8",
                "brand:wikidata": "Q4119207",
                "building": "commercial",
                "fuel:GTL_diesel": "yes",
                "fuel:benzine": "yes",
                "fuel:diesel": "yes",
                "fuel:lpg": "yes",
                "fuel:octane_100": "yes",
                "name": "Q8",
                "opening_hours": "24/7",
                "operator": "Q8",
                "payment:bancomat": "yes",
                "payment:cartissimaq8": "yes",
                "payment:cash": "yes",
                "payment:codici_pagamento": "yes",
                "payment:dkv": "yes",
                "payment:mastercard": "yes",
                "payment:prepagata_superstar": "yes",
                "payment:recardq8": "yes",
                "payment:uta": "yes",
                "payment:visa": "yes",
                "payment:wallet_clubq8": "yes",
                "self_service": "yes",
                "website": "https://servicelocator.q8.it/?lang=it"
            }
        }
    ],
    "telegram": []
}