{
    "id": "b-is-for-bosa",
    "name": "\u20bf is for BOSA",
    "lng": 40.29486,
    "lat": 8.48318,
    "localita": "Bosa",
    "idlocalita": "bosa",
    "telegram_weburl": "https://web.telegram.org/a/#-1001519945934",
    "telegram_app": "https://t.me/bisforbosa",
    "telegram_members": 31.0,
    "poi": [
        {
            "type": "node",
            "id": 2063363742,
            "lat": 40.7195952,
            "lon": 8.5781659,
            "timestamp": "2020-05-10T18:32:58Z",
            "version": 5,
            "changeset": 84982542,
            "user": "mascalzone67",
            "uid": 1861652,
            "tags": {
                "addr:city": "Sassari",
                "addr:housenumber": "1",
                "addr:postcode": "07100",
                "addr:street": "Via Antonio Gramsci",
                "brand": "Conad",
                "brand:wikidata": "Q639075",
                "brand:wikipedia": "it:Conad",
                "name": "Conad",
                "opening_hours": "Mo-Sa 08:30-21:00; Su 09:00-20:30",
                "operator": "Conad",
                "payment:bancomat": "yes",
                "payment:cash": "yes",
                "payment:credit_cards": "yes",
                "phone": "+39 079 274495",
                "shop": "supermarket",
                "website": "https://www.conad.it/ricerca-negozi/negozio.007879.html"
            }
        },
        {
            "type": "node",
            "id": 2278971102,
            "lat": 40.7374111,
            "lon": 8.5359587,
            "timestamp": "2020-10-07T18:24:32Z",
            "version": 7,
            "changeset": 92127607,
            "user": "mascalzone67",
            "uid": 1861652,
            "tags": {
                "addr:city": "Sassari",
                "addr:postcode": "07100",
                "addr:street": "Via Porto Torres",
                "brand": "Conad",
                "brand:wikidata": "Q639075",
                "brand:wikipedia": "it:Conad",
                "name": "Conad",
                "operator": "Conad",
                "payment:bancomat": "yes",
                "payment:cash": "yes",
                "payment:credit_cards": "yes",
                "shop": "supermarket",
                "start_date": "2020-10-08",
                "toilets": "yes",
                "website": "https://www.conad.it/ricerca-negozi/negozio.010113.html"
            }
        },
        {
            "type": "node",
            "id": 2422699726,
            "lat": 40.7155919,
            "lon": 8.5835674,
            "timestamp": "2024-07-20T20:35:17Z",
            "version": 9,
            "changeset": 154195138,
            "user": "mauropili",
            "uid": 1496865,
            "tags": {
                "addr:city": "Sassari",
                "addr:housenumber": "2",
                "addr:postcode": "07100",
                "addr:street": "Via Nenni",
                "check_date": "2024-03-12",
                "contact:facebook": "https://www.facebook.com/hotelmarini",
                "currency:XBT": "yes",
                "description": "Hote, ristorante, centro congressi, parcheggio.",
                "email": "info@hotelmarini.com",
                "name": "Hotel Marini",
                "phone": "+39 079 277282",
                "tourism": "hotel",
                "website": "http://www.hotelmarini.com"
            }
        },
        {
            "type": "node",
            "id": 7504123638,
            "lat": 40.7194985,
            "lon": 8.578288,
            "timestamp": "2020-05-10T18:31:05Z",
            "version": 1,
            "changeset": 84982486,
            "user": "mascalzone67",
            "uid": 1861652,
            "tags": {
                "addr:city": "Sassari",
                "addr:housenumber": "1",
                "addr:postcode": "07100",
                "addr:street": "Via Antonio Gramsci",
                "amenity": "pharmacy",
                "dispensing": "no",
                "healthcare": "pharmacy",
                "name": "Parafarmacia Conad",
                "operator": "Conad"
            }
        },
        {
            "type": "node",
            "id": 7504139186,
            "lat": 40.7118021,
            "lon": 8.5501329,
            "timestamp": "2020-05-10T18:27:45Z",
            "version": 1,
            "changeset": 84982387,
            "user": "mascalzone67",
            "uid": 1861652,
            "tags": {
                "addr:city": "Sassari",
                "addr:postcode": "07100",
                "addr:street": "Via Budapest",
                "amenity": "pharmacy",
                "dispensing": "no",
                "healthcare": "pharmacy",
                "name": "Parafarmacia Conad",
                "operator": "Conad"
            }
        },
        {
            "type": "node",
            "id": 7985734277,
            "lat": 40.737268,
            "lon": 8.5357455,
            "timestamp": "2020-10-07T18:25:58Z",
            "version": 1,
            "changeset": 92127656,
            "user": "mascalzone67",
            "uid": 1861652,
            "tags": {
                "addr:city": "Sassari",
                "addr:postcode": "07100",
                "addr:street": "Viale Porto Torres",
                "amenity": "pharmacy",
                "dispensing": "no",
                "healthcare": "pharmacy",
                "name": "Parafarmacia Conad",
                "operator": "Conad",
                "start_date": "2020-10-08"
            }
        },
        {
            "type": "node",
            "id": 10106351131,
            "lat": 40.0229753,
            "lon": 8.414785,
            "timestamp": "2024-07-07T17:29:42Z",
            "version": 3,
            "changeset": 153671835,
            "user": "mauropili",
            "uid": 1496865,
            "tags": {
                "addr:city": "Putzu Idu",
                "addr:postcode": "09070",
                "addr:street": "Lungomare Sa Punt'e S'Incudine",
                "currency:XBT": "yes",
                "name": "Nature Resort by Ginepro & Co.",
                "payment:lightning": "yes",
                "payment:lightning_contactless": "yes",
                "payment:onchain": "yes",
                "phone": "+393474424153",
                "survey:date": "2022-11-03",
                "tourism": "hotel",
                "website": "https://nature-resort.ginepro.co/"
            }
        }
    ],
    "telegram": []
}