{
    "id": "b-veneto",
    "name": "Bitcoin EDU Veneto",
    "lng": 45.647873,
    "lat": 11.86767,
    "localita": "Vicenza",
    "idlocalita": "vicenza",
    "telegram_weburl": "https://web.telegram.org/a/#-1002218397394",
    "telegram_app": "https://t.me/Bitcoin_Veneto",
    "telegram_members": 967.0,
    "poi": [
        {
            "type": "node",
            "id": 227558827,
            "lat": 45.3631235,
            "lon": 11.782165,
            "timestamp": "2025-04-20T08:30:43Z",
            "version": 5,
            "changeset": 165182109,
            "user": "btcitnet",
            "uid": 22525435,
            "tags": {
                "addr:city": "Abano Terme",
                "addr:postcode": "35031",
                "addr:street": "Viale Colli Euganei",
                "amenity": "fuel",
                "brand": "Tamoil",
                "name": "Tamoil",
                "operator": "Tamoil"
            }
        },
        {
            "type": "node",
            "id": 227571007,
            "lat": 45.550285,
            "lon": 11.563621,
            "timestamp": "2025-04-19T14:11:43Z",
            "version": 5,
            "changeset": 165155631,
            "user": "btcitnet",
            "uid": 22525435,
            "tags": {
                "addr:city": "Vicenza",
                "addr:postcode": "36100",
                "addr:street": "Via Giovanni Battista Quadri",
                "amenity": "fuel",
                "brand": "Q8",
                "brand:wikidata": "Q1634762",
                "brand:wikipedia": "en:Kuwait Petroleum Corporation",
                "name": "Q8",
                "operator": "Q8"
            }
        },
        {
            "type": "node",
            "id": 227816404,
            "lat": 45.49967,
            "lon": 11.579483,
            "timestamp": "2025-04-20T08:32:48Z",
            "version": 5,
            "changeset": 165182187,
            "user": "btcitnet",
            "uid": 22525435,
            "tags": {
                "addr:city": "Vicenza",
                "addr:postcode": "36100",
                "addr:street": "Viale Riviera Berica",
                "amenity": "fuel",
                "brand": "Tamoil",
                "brand:wikidata": "Q706793",
                "brand:wikipedia": "en:Tamoil",
                "name": "Tamoil",
                "operator": "Tamoil"
            }
        },
        {
            "type": "node",
            "id": 334511575,
            "lat": 45.412015,
            "lon": 11.9082358,
            "timestamp": "2023-06-05T14:36:32Z",
            "version": 7,
            "changeset": 136976080,
            "user": "Friendly_Ghost",
            "uid": 10875409,
            "tags": {
                "addr:city": "Padova",
                "addr:housenumber": "61",
                "addr:postcode": "35131",
                "addr:street": "Via Venezia",
                "brand": "Conad",
                "brand:wikidata": "Q639075",
                "brand:wikipedia": "it:Conad",
                "level": "0",
                "name": "Conad",
                "opening_hours": "Mo-Su 08:30-21:00",
                "operator": "Conad",
                "payment:bancomat": "yes",
                "payment:cash": "yes",
                "payment:credit_cards": "yes",
                "phone": "+39 049 8690111",
                "shop": "supermarket",
                "website": "https://www.conad.it/ricerca-negozi/negozio.009946.html",
                "wheelchair": "yes"
            }
        },
        {
            "type": "node",
            "id": 334512025,
            "lat": 45.4116273,
            "lon": 11.9107073,
            "timestamp": "2024-02-06T22:24:32Z",
            "version": 7,
            "changeset": 147153939,
            "user": "ezio_m",
            "uid": 2795300,
            "tags": {
                "addr:city": "Padova",
                "addr:housenumber": "104",
                "addr:postcode": "35131",
                "addr:street": "Via Venezia",
                "branch": "Italia SRL",
                "brand": "Decathlon",
                "brand:wikidata": "Q509349",
                "name": "Decathlon",
                "opening_hours": "Mo-Su 09:00-20:00",
                "operator": "Decathlon",
                "shop": "sports",
                "website": "https://www.decathlon.it/store-view/negozio-sport-padova-0070026800268"
            }
        },
        {
            "type": "node",
            "id": 565572053,
            "lat": 45.7515438,
            "lon": 11.7485079,
            "timestamp": "2025-01-01T22:43:56Z",
            "version": 9,
            "changeset": 160887838,
            "user": "mpbin",
            "uid": 21850090,
            "tags": {
                "addr:city": "Cassola",
                "addr:housenumber": "94",
                "addr:postcode": "36022",
                "addr:street": "Via Valsugana",
                "branch": "Schiavotto Elettrodomestici",
                "brand": "Trony",
                "brand:wikidata": "Q3999692",
                "name": "Trony",
                "operator": "Trony",
                "shop": "electronics"
            }
        },
        {
            "type": "node",
            "id": 626923862,
            "lat": 45.4339856,
            "lon": 12.3240736,
            "timestamp": "2023-09-23T08:00:49Z",
            "version": 14,
            "changeset": 141632516,
            "user": "Tresho",
            "uid": 6178157,
            "tags": {
                "addr:city": "Venezia",
                "addr:housenumber": "3017",
                "addr:postcode": "30123",
                "addr:street": "Rio Ter\u00e0 Canal",
                "brand": "Conad City",
                "brand:wikidata": "Q57543102",
                "name": "Conad City",
                "opening_hours": "Mo-Sa 07:30-20:30; Su 09:00-14:00,16:00-19:30",
                "operator": "Conad",
                "shop": "supermarket",
                "website": "https://www.conad.it",
                "wheelchair": "yes"
            }
        },
        {
            "type": "node",
            "id": 805049064,
            "lat": 45.4478832,
            "lon": 12.3252243,
            "timestamp": "2024-02-14T19:00:06Z",
            "version": 15,
            "changeset": 147463120,
            "user": "MA_Mapper",
            "uid": 341454,
            "tags": {
                "addr:housenumber": "3027",
                "addr:postcode": "30121",
                "addr:street": "Calle della Fornasa Vecia",
                "brand": "Conad City",
                "brand:wikidata": "Q57543102",
                "check_date:opening_hours": "2024-02-13",
                "name": "Conad City",
                "opening_hours": "Mo-Sa 07:00-21:00; Su 08:00-21:00",
                "operator": "Conad",
                "shop": "supermarket",
                "wheelchair": "yes"
            }
        },
        {
            "type": "node",
            "id": 858370383,
            "lat": 45.6761512,
            "lon": 12.3345096,
            "timestamp": "2025-01-03T17:15:42Z",
            "version": 4,
            "changeset": 160958488,
            "user": "mpbin",
            "uid": 21850090,
            "tags": {
                "name": "MediaWorld",
                "operator": "MediaMarket S.p.A.",
                "shop": "electronics"
            }
        },
        {
            "type": "node",
            "id": 1119292972,
            "lat": 45.7101621,
            "lon": 11.3701638,
            "timestamp": "2025-01-01T22:32:03Z",
            "version": 4,
            "changeset": 160887580,
            "user": "mpbin",
            "uid": 21850090,
            "tags": {
                "addr:city": "Schio",
                "addr:housenumber": "42",
                "addr:postcode": "36015",
                "addr:street": "Via Paraiso",
                "brand": "Trony",
                "brand:wikidata": "Q3999692",
                "email": "schio@trony.it",
                "fax": "+39 0445 670979",
                "name": "Trony",
                "opening_hours": "Mo 15:00-19:30; Tu-Sa 09:00-12:30,15:00-19:30",
                "operator": "Trony",
                "payment:cards": "yes",
                "payment:cash": "yes",
                "phone": "+39 0445 670963",
                "shop": "electronics",
                "website": "https://www.trony.it/online",
                "wheelchair": "yes"
            }
        },
        {
            "type": "node",
            "id": 1403161164,
            "lat": 45.8241234,
            "lon": 11.8825578,
            "timestamp": "2024-12-31T17:44:11Z",
            "version": 7,
            "changeset": 160842983,
            "user": "mpbin",
            "uid": 21850090,
            "tags": {
                "addr:city": "Castelcucco",
                "addr:housenumber": "52",
                "addr:postcode": "31030",
                "addr:street": "Via Guglielmo Marconi",
                "brand": "Unieuro",
                "brand:wikidata": "Q4004687",
                "name": "Unieuro",
                "operator": "Unieuro S.p.A.",
                "shop": "electronics"
            }
        },
        {
            "type": "node",
            "id": 1452300520,
            "lat": 45.5291826,
            "lon": 11.5952608,
            "timestamp": "2025-01-03T17:17:39Z",
            "version": 12,
            "changeset": 160958548,
            "user": "mpbin",
            "uid": 21850090,
            "tags": {
                "addr:housenumber": "60",
                "addr:street": "Strada Padana verso Padova",
                "name": "MediaWorld",
                "opening_hours": "Mo-Sa 09:00-21:00; Su 09:30-20:30",
                "operator": "MediaMarket S.p.A.",
                "phone": "+390444-9161",
                "shop": "electronics"
            }
        },
        {
            "type": "node",
            "id": 1452480258,
            "lat": 45.7455465,
            "lon": 11.7516493,
            "timestamp": "2025-01-03T17:17:57Z",
            "version": 6,
            "changeset": 160958558,
            "user": "mpbin",
            "uid": 21850090,
            "tags": {
                "brand": "MediaWorld",
                "brand:wikidata": "Q2381223",
                "name": "MediaWorld",
                "operator": "MediaMarket S.p.A.",
                "ref:vatin": "IT02630120166",
                "shop": "electronics"
            }
        },
        {
            "type": "node",
            "id": 1534384046,
            "lat": 45.3778806,
            "lon": 11.8558106,
            "timestamp": "2025-01-03T17:18:17Z",
            "version": 5,
            "changeset": 160958572,
            "user": "mpbin",
            "uid": 21850090,
            "tags": {
                "brand": "MediaWorld",
                "brand:wikidata": "Q2381223",
                "name": "MediaWorld",
                "operator": "MediaMarket S.p.A.",
                "shop": "electronics",
                "wheelchair": "yes"
            }
        },
        {
            "type": "node",
            "id": 1539203010,
            "lat": 45.8789638,
            "lon": 12.3077782,
            "timestamp": "2025-01-03T15:43:31Z",
            "version": 4,
            "changeset": 160954822,
            "user": "mpbin",
            "uid": 21850090,
            "tags": {
                "addr:city": "Conegliano",
                "addr:postcode": "31015",
                "addr:street": "Viale Italia",
                "brand": "OVS",
                "brand:wikidata": "Q2042514",
                "name": "OVS",
                "operator": "OVS",
                "shop": "clothes",
                "wheelchair": "yes"
            }
        },
        {
            "type": "node",
            "id": 1592597102,
            "lat": 45.729348,
            "lon": 11.7598676,
            "timestamp": "2024-10-18T16:52:25Z",
            "version": 5,
            "changeset": 158060087,
            "user": "mpbin",
            "uid": 21850090,
            "tags": {
                "addr:city": "Ros\u00e0",
                "addr:housenumber": "5-1",
                "addr:postcode": "36027",
                "addr:street": "Via IV Armata",
                "address": "Via quarta Armata 5/1 Ros\u00e0",
                "check_date": "2024-10-18",
                "check_date:currency:XBT": "2024-10-18",
                "contact:email": "info@descasa.it",
                "contact:phone": "+393496863495",
                "currency:XBT": "yes",
                "description": "Progettiamo la ristrutturazione della tua casa. E se vuoi, possiamo anche occuparci di eseguire tutti i lavori necessari con formula chiavi in mano.",
                "name": "Descasa STP",
                "office": "architect",
                "payment:lightning": "no",
                "payment:lightning_contactless": "no"
            }
        },
        {
            "type": "node",
            "id": 1748853004,
            "lat": 45.8788895,
            "lon": 12.3073428,
            "timestamp": "2024-12-31T17:49:16Z",
            "version": 5,
            "changeset": 160843146,
            "user": "mpbin",
            "uid": 21850090,
            "tags": {
                "addr:city": "Conegliano",
                "addr:housenumber": "207",
                "addr:postcode": "31015",
                "addr:street": "Viale Italia",
                "brand": "Unieuro",
                "brand:wikidata": "Q4004687",
                "brand:wikipedia": "en:Unieuro",
                "check_date": "2023-07-14",
                "name": "Unieuro",
                "operator": "Unieuro S.p.A.",
                "shop": "electronics",
                "wheelchair": "yes"
            }
        },
        {
            "type": "node",
            "id": 1801853005,
            "lat": 45.8693292,
            "lon": 11.9690372,
            "timestamp": "2024-12-31T17:50:37Z",
            "version": 5,
            "changeset": 160843188,
            "user": "mpbin",
            "uid": 21850090,
            "tags": {
                "addr:city": "Pederobba",
                "addr:housenumber": "45",
                "addr:postcode": "31040",
                "addr:street": "Via Feltrina",
                "brand": "Unieuro",
                "brand:wikidata": "Q4004687",
                "name": "Unieuro",
                "operator": "Unieuro S.p.A.",
                "shop": "electronics"
            }
        },
        {
            "type": "node",
            "id": 1818174095,
            "lat": 46.0435595,
            "lon": 11.7479118,
            "timestamp": "2024-07-24T16:52:40Z",
            "version": 5,
            "changeset": 154359693,
            "user": "RaelZero",
            "uid": 2701091,
            "tags": {
                "addr:city": "Lamon",
                "addr:housenumber": "132",
                "addr:postcode": "32033",
                "addr:street": "Via Roma",
                "check_date": "2024-07-24",
                "name": "Conad Margherita",
                "old_name": "CRAI da Gaio",
                "opening_hours": "Mo-Sa 07:30-12:30,15:30-19:30; Su 08:00-12:00",
                "operator": "Conad",
                "payment:bancomat": "yes",
                "payment:cash": "yes",
                "payment:maestro": "yes",
                "payment:mastercard": "yes",
                "payment:visa": "yes",
                "shop": "convenience"
            }
        },
        {
            "type": "node",
            "id": 1917449873,
            "lat": 45.4371379,
            "lon": 12.3281171,
            "timestamp": "2023-04-27T20:28:53Z",
            "version": 6,
            "changeset": 135443020,
            "user": "McCio",
            "uid": 16146608,
            "tags": {
                "addr:city": "Venezia",
                "addr:housenumber": "2605a/b",
                "addr:place": "San Polo",
                "addr:postcode": "30125",
                "brand": "Conad City",
                "brand:wikidata": "Q57543102",
                "name": "Conad City",
                "opening_hours": "Mo-Su 08:30-21:00",
                "operator": "Conad",
                "shop": "supermarket"
            }
        },
        {
            "type": "node",
            "id": 1996026168,
            "lat": 45.4307253,
            "lon": 12.3214646,
            "timestamp": "2021-02-18T15:39:11Z",
            "version": 7,
            "changeset": 99534523,
            "user": "emilio-millepiani",
            "uid": 12045653,
            "tags": {
                "addr:housenumber": "1491/1492",
                "addr:street": "Fondamenta Zattere al Ponte Longo",
                "brand": "Conad City",
                "brand:wikidata": "Q57543102",
                "name": "Conad City",
                "opening_hours": "Mo-Su 08:30-21:00",
                "operator": "Conad",
                "shop": "supermarket",
                "website": "https://www.conad.it",
                "wheelchair": "no"
            }
        },
        {
            "type": "node",
            "id": 2077262143,
            "lat": 45.6950503,
            "lon": 11.4973037,
            "timestamp": "2025-01-03T09:19:00Z",
            "version": 6,
            "changeset": 160939445,
            "user": "mpbin",
            "uid": 21850090,
            "tags": {
                "addr:city": "Thiene",
                "addr:country": "IT",
                "addr:postcode": "36016",
                "addr:street": "Via dei Quartieri",
                "brand": "Decathlon",
                "brand:wikidata": "Q509349",
                "name": "Decathlon",
                "opening_hours": "Mo-Su 09:00-20:00",
                "operator": "Decathlon",
                "phone": "+39 0445370730",
                "shop": "sports"
            }
        },
        {
            "type": "node",
            "id": 2110552737,
            "lat": 45.6907277,
            "lon": 11.4824478,
            "timestamp": "2024-12-31T18:11:08Z",
            "version": 3,
            "changeset": 160843872,
            "user": "mpbin",
            "uid": 21850090,
            "tags": {
                "addr:city": "Thiene",
                "addr:housenumber": "18",
                "addr:postcode": "36016",
                "addr:street": "Via Gombe",
                "brand": "Unieuro",
                "brand:wikidata": "Q4004687",
                "name": "Unieuro",
                "opening_hours": "Mo-Sa 09:30-12:30,15:00-19:30; Su 15:30-19:30",
                "operator": "Unieuro S.p.A.",
                "phone": "+39 0445 367611",
                "shop": "electronics"
            }
        },
        {
            "type": "node",
            "id": 2264820786,
            "lat": 45.7314859,
            "lon": 11.7613135,
            "timestamp": "2024-12-31T18:15:08Z",
            "version": 4,
            "changeset": 160843978,
            "user": "mpbin",
            "uid": 21850090,
            "tags": {
                "addr:city": "Ros\u00e0",
                "addr:housenumber": "132",
                "addr:postcode": "36027",
                "addr:street": "Via Capitano Alessio",
                "brand": "Unieuro",
                "brand:wikidata": "Q4004687",
                "brand:wikipedia": "en:Unieuro",
                "contact:fax": "+39 0424 582329",
                "contact:phone": "+39 0424 582254",
                "name": "Unieuro",
                "operator": "Unieuro S.p.A.",
                "ref:vatin": "IT03327030965",
                "shop": "electronics"
            }
        },
        {
            "type": "node",
            "id": 2349417239,
            "lat": 45.6809117,
            "lon": 12.2521429,
            "timestamp": "2022-07-29T20:20:35Z",
            "version": 2,
            "changeset": 124246875,
            "user": "Flight777",
            "uid": 9925732,
            "tags": {
                "amenity": "fuel",
                "brand": "Q8",
                "brand:wikidata": "Q1634762",
                "name": "Q8",
                "operator": "Q8"
            }
        },
        {
            "type": "node",
            "id": 2507632569,
            "lat": 45.7582135,
            "lon": 11.4185566,
            "timestamp": "2024-12-02T14:46:46Z",
            "version": 10,
            "changeset": 159846219,
            "user": "Chiarant",
            "uid": 18452174,
            "tags": {
                "addr:city": "Piovene Rocchette (VI)",
                "addr:postcode": "36013",
                "addr:street": "Via dell'Angelo, 105",
                "amenity": "restaurant",
                "contact:email": "info@trattoria-allangelo.it",
                "contact:instagram": "https://www.instagram.com/maurocanaglia/",
                "currency:XBT": "yes",
                "description": "Aperto dal Mercoled\u00ec al Sabato per cena; Domenica a pranzo. Orari aggiornati su google maps.",
                "diet:lactose_free": "yes",
                "diet:local": "yes",
                "diet:meat": "yes",
                "diet:natural_foods": "yes",
                "diet:vegan": "yes",
                "diet:vegetarian": "yes",
                "name": "Trattoria All'Angelo",
                "payment:lightning": "yes",
                "payment:lightning_contactless": "no",
                "payment:onchain": "no",
                "phone": "0445 651181",
                "survey:date": "2024-11-22",
                "website": "https://www.trattoria-allangelo.it"
            }
        },
        {
            "type": "node",
            "id": 2522320564,
            "lat": 45.6660592,
            "lon": 11.8193492,
            "timestamp": "2024-12-31T18:21:06Z",
            "version": 5,
            "changeset": 160844136,
            "user": "mpbin",
            "uid": 21850090,
            "tags": {
                "addr:city": "Galliera Veneta",
                "addr:country": "IT",
                "addr:housenumber": "18c",
                "addr:postcode": "35015",
                "addr:street": "Via degli Alberi",
                "name": "Unieuro",
                "opening_hours": "Mo-Sa 15:00-19:30, Tu-Sa 09:00-12:30; Su 15:30-19:30",
                "operator": "Unieuro S.p.A.",
                "payment:bancomat": "yes",
                "payment:cash": "yes",
                "payment:maestro": "yes",
                "payment:mastercard": "yes",
                "payment:visa": "yes",
                "payment:visa_electron": "yes",
                "phone": "+39 0499471243",
                "ref:vatin": "IT00876320409",
                "shop": "electronics",
                "website": "https://www.unieuro.it/",
                "wheelchair": "yes"
            }
        },
        {
            "type": "node",
            "id": 2543253465,
            "lat": 45.5228475,
            "lon": 11.4843006,
            "timestamp": "2025-01-03T16:01:20Z",
            "version": 4,
            "changeset": 160955569,
            "user": "mpbin",
            "uid": 21850090,
            "tags": {
                "addr:city": "Olmo Di Creazzo",
                "addr:housenumber": "1",
                "addr:postcode": "36051",
                "addr:street": "Via Cristoforo Colombo",
                "brand": "OVS",
                "brand:wikidata": "Q2042514",
                "name": "OVS",
                "operator": "OVS",
                "shop": "clothes",
                "wheelchair": "limited"
            }
        },
        {
            "type": "node",
            "id": 2569978163,
            "lat": 45.4109517,
            "lon": 11.8761919,
            "timestamp": "2025-01-03T14:02:16Z",
            "version": 4,
            "changeset": 160950583,
            "user": "mpbin",
            "uid": 21850090,
            "tags": {
                "addr:city": "Padova",
                "addr:housenumber": "58",
                "addr:postcode": "35137",
                "addr:street": "Via San Fermo",
                "brand": "OVS",
                "brand:wikidata": "Q2042514",
                "brand:wikipedia": "en:OVS (company)",
                "name": "OVS",
                "operator": "OVS",
                "shop": "clothes"
            }
        },
        {
            "type": "node",
            "id": 2589634625,
            "lat": 45.6653415,
            "lon": 12.2463668,
            "timestamp": "2025-01-03T16:02:08Z",
            "version": 4,
            "changeset": 160955608,
            "user": "mpbin",
            "uid": 21850090,
            "tags": {
                "addr:city": "Treviso",
                "addr:housenumber": "12",
                "addr:postcode": "31100",
                "addr:street": "Via Indipendenza",
                "brand": "OVS",
                "brand:wikidata": "Q2042514",
                "name": "OVS",
                "opening_hours": "Mo-Fr 09:00-19:30; Sa 09:00-20:00; Su 10:00-13:00, 15:30-20:00",
                "operator": "OVS",
                "shop": "clothes"
            }
        },
        {
            "type": "node",
            "id": 2800768123,
            "lat": 45.371839,
            "lon": 11.7913317,
            "timestamp": "2024-10-06T08:30:00Z",
            "version": 7,
            "changeset": 157528611,
            "user": "mpbin",
            "uid": 21850090,
            "tags": {
                "addr:city": "Abano Terme",
                "addr:housenumber": "129",
                "addr:postcode": "35031",
                "addr:street": "Via Cesare Battisti",
                "check_date": "2024-10-06",
                "check_date:currency:XBT": "2024-10-06",
                "contact:facebook": "https://www.facebook.com/www.autofesiocom/",
                "currency:XBT": "yes",
                "email": "info@autofesio.com",
                "landuse": "commercial",
                "name": "AutoFesio Salone Auto",
                "phone": "+39 329 6876517",
                "shop": "car",
                "website": "https://www.autofesio.com/"
            }
        },
        {
            "type": "node",
            "id": 2804332692,
            "lat": 45.4581788,
            "lon": 12.2127862,
            "timestamp": "2025-01-03T17:22:00Z",
            "version": 4,
            "changeset": 160958730,
            "user": "mpbin",
            "uid": 21850090,
            "tags": {
                "brand": "MediaWorld",
                "brand:wikidata": "Q76504823",
                "name": "MediaWorld",
                "operator": "MediaMarket S.p.A.",
                "shop": "electronics"
            }
        },
        {
            "type": "node",
            "id": 2806097596,
            "lat": 46.0164143,
            "lon": 11.9047747,
            "timestamp": "2025-01-03T16:04:00Z",
            "version": 3,
            "changeset": 160955688,
            "user": "mpbin",
            "uid": 21850090,
            "tags": {
                "addr:city": "Feltre",
                "addr:housenumber": "21",
                "addr:postcode": "32032",
                "addr:street": "Largo Panfilo Castaldi",
                "brand": "OVS",
                "brand:wikidata": "Q2042514",
                "contact:email": "249f@ovs.it",
                "contact:phone": "+39 0439 83500",
                "contact:website": "https://www.ovs.it/it/it/stores/italia/veneto/belluno/ovs-feltre",
                "name": "OVS",
                "operator": "OVS",
                "shop": "clothes"
            }
        },
        {
            "type": "node",
            "id": 2997490524,
            "lat": 45.4398648,
            "lon": 12.3247297,
            "timestamp": "2025-04-19T08:05:20Z",
            "version": 9,
            "changeset": 165141811,
            "user": "btcitnet",
            "uid": 22525435,
            "tags": {
                "addr:city": "Venezia",
                "addr:housenumber": "892",
                "addr:postcode": "30135",
                "addr:street": "Fondamenta del Rio Marin o dei Garzoti",
                "air_conditioning": "yes",
                "brand": "Conad City",
                "brand:wikidata": "Q57543102",
                "check_date": "2024-09-11",
                "name": "Conad City",
                "opening_hours": "Mo-Sa 08:30-21:00; Su 08:30-20:00",
                "operator": "Conad",
                "payment:cash": "yes",
                "payment:credit_cards": "yes",
                "payment:debit_cards": "yes",
                "shop": "supermarket",
                "source": "local knowledge",
                "toilets": "no"
            }
        },
        {
            "type": "node",
            "id": 3010651735,
            "lat": 45.4385355,
            "lon": 12.3214867,
            "timestamp": "2024-11-04T09:46:40Z",
            "version": 17,
            "changeset": 158732472,
            "user": "mpbin",
            "uid": 21850090,
            "tags": {
                "addr:city": "Venezia",
                "addr:housenumber": "220",
                "addr:postcode": "30135",
                "addr:street": "Fondamenta dei Tolentini",
                "amenity": "fast_food",
                "check_date": "2024-10-23",
                "check_date:currency:XBT": "2024-10-17",
                "contact:facebook": "https://www.facebook.com/atledmeatlab/",
                "contact:instagram": "https://www.instagram.com/atled_meatlab/",
                "contact:pinterest": "https://it.pinterest.com/AtledMeatLab/",
                "cuisine": "burger;sandwich",
                "currency:XBT": "yes",
                "diet:meat": "yes",
                "email": "info@atledmeatlab.it",
                "name": "Atled Meat Lab",
                "payment:lightning": "yes",
                "phone": "+39 041 458 8914",
                "website": "https://www.atledmeatlab.it/"
            }
        },
        {
            "type": "node",
            "id": 3396925558,
            "lat": 45.4386847,
            "lon": 12.3213929,
            "timestamp": "2024-10-17T16:16:44Z",
            "version": 7,
            "changeset": 158016334,
            "user": "Rockedf",
            "uid": 7522075,
            "tags": {
                "addr:city": "Venezia",
                "addr:housenumber": "225",
                "addr:postcode": "30135",
                "addr:street": "Fondamenta dei Tolentini",
                "amenity": "restaurant",
                "check_date:currency:XBT": "2024-10-17",
                "currency:XBT": "yes",
                "currency:XBT:operator": "bitcoinpos.it",
                "name": "Hostaria Vecio Biavarol",
                "payment:lightning": "yes"
            }
        },
        {
            "type": "node",
            "id": 3781255724,
            "lat": 45.3934924,
            "lon": 11.8176793,
            "timestamp": "2025-01-01T17:47:25Z",
            "version": 7,
            "changeset": 160878588,
            "user": "mpbin",
            "uid": 21850090,
            "tags": {
                "addr:city": "Selvazzano Dentro",
                "addr:housenumber": "113",
                "addr:postcode": "35030",
                "addr:street": "Via Padova",
                "brand": "Unieuro",
                "brand:wikidata": "Q4004687",
                "contact:phone": "+39 0498687460",
                "contact:website": "https://www.unieuro.it/online/negozi/Unieuro-Selvazzano",
                "name": "Unieuro",
                "opening_hours": "Mo-Fr 09:00-12:30,15:00-19:30; Sa 09:00-13:00,14:30-19:30; Su 09:00-12:30,14:30-19:30",
                "operator": "Unieuro S.p.A.",
                "shop": "electronics"
            }
        },
        {
            "type": "node",
            "id": 3903482953,
            "lat": 45.5177639,
            "lon": 12.2304179,
            "timestamp": "2024-12-31T11:20:43Z",
            "version": 3,
            "changeset": 160828082,
            "user": "mpbin",
            "uid": 21850090,
            "tags": {
                "addr:city": "Mestre",
                "brand": "Unieuro",
                "brand:wikidata": "Q4004687",
                "brand:wikipedia": "en:Unieuro",
                "name": "Unieuro",
                "operator": "Unieuro S.p.A.",
                "shop": "electronics"
            }
        },
        {
            "type": "node",
            "id": 3991679557,
            "lat": 46.0223691,
            "lon": 11.9129992,
            "timestamp": "2025-01-01T17:54:43Z",
            "version": 4,
            "changeset": 160878925,
            "user": "mpbin",
            "uid": 21850090,
            "tags": {
                "addr:city": "Feltre",
                "addr:housenumber": "9",
                "addr:postcode": "32032",
                "addr:street": "Vicolo Uniera",
                "brand": "Unieuro",
                "brand:wikidata": "Q4004687",
                "brand:wikipedia": "en:Unieuro",
                "name": "Unieuro",
                "opening_hours": "Mo-Sa 9:30-12:30,15:30-19:30",
                "operator": "Unieuro S.p.A.",
                "phone": "+390439840670",
                "shop": "electronics",
                "website": "https://www.unieuro.it/online/negozi/Unieuro-Feltre"
            }
        },
        {
            "type": "node",
            "id": 4234614970,
            "lat": 45.4362405,
            "lon": 12.3357088,
            "timestamp": "2024-12-30T19:21:16Z",
            "version": 8,
            "changeset": 160805504,
            "user": "DnaX",
            "uid": 69259,
            "tags": {
                "addr:city": "Venezia",
                "addr:housenumber": "4558",
                "addr:postcode": "30124",
                "addr:street": "Campo San Luca",
                "brand": "Doppelg\u00e4nger",
                "brand:wikidata": "Q117451227",
                "check_date": "2023-08-26",
                "clothes": "men",
                "currency:XBT": "yes",
                "name": "Doppelg\u00e4nger",
                "opening_hours": "Mo-Sa 09:30-19:30; Su 11:00-19:30",
                "phone": "0415209251",
                "shop": "clothes"
            }
        },
        {
            "type": "node",
            "id": 4377024590,
            "lat": 45.5463292,
            "lon": 12.3061387,
            "timestamp": "2025-03-03T11:21:12Z",
            "version": 5,
            "changeset": 163156777,
            "user": "damianeue",
            "uid": 10124288,
            "tags": {
                "addr:city": "Marcon",
                "addr:housenumber": "1C",
                "addr:postcode": "30020",
                "addr:street": "Via Mattei",
                "brand": "Unieuro",
                "brand:wikidata": "Q4004687",
                "name": "Unieuro",
                "name:it": "UNIEURO",
                "operator": "Unieuro S.p.A.",
                "shop": "electronics",
                "website": "https://www.unieuro.it/"
            }
        },
        {
            "type": "node",
            "id": 4377025289,
            "lat": 45.5475583,
            "lon": 12.3039652,
            "timestamp": "2023-07-31T14:23:33Z",
            "version": 2,
            "changeset": 139256906,
            "user": "BTC Map",
            "uid": 18545877,
            "tags": {
                "check_date:currency:XBT": "2023-07-31",
                "currency:XBT": "yes",
                "name": "Mondo Convenienza",
                "name:it": "Mondo Convenienza",
                "shop": "furniture"
            }
        },
        {
            "type": "node",
            "id": 4526469787,
            "lat": 45.5572776,
            "lon": 11.5274867,
            "timestamp": "2023-11-21T18:26:49Z",
            "version": 2,
            "changeset": 144298563,
            "user": "Chiarant",
            "uid": 18452174,
            "tags": {
                "addr:city": "Vicenza",
                "addr:country": "IT",
                "addr:housenumber": "282",
                "addr:postcode": "36100",
                "addr:street": "Viale Trento",
                "check_date": "2023-11-21",
                "contact:facebook": "https://www.facebook.com/metodogommesnc/",
                "currency:XBT": "yes",
                "email": "metodogomme@gmail.com",
                "name": "Metodo Gomme",
                "phone": "+39 328 093 1955",
                "shop": "tyres"
            }
        },
        {
            "type": "node",
            "id": 4526474586,
            "lat": 45.537429,
            "lon": 11.5151857,
            "timestamp": "2024-12-06T19:20:17Z",
            "version": 5,
            "changeset": 160006493,
            "user": "PagoInBitcoin",
            "uid": 22211788,
            "tags": {
                "addr:city": "Vicenza",
                "addr:country": "IT",
                "addr:housenumber": "175",
                "addr:postcode": "36100",
                "addr:street": "Viale San Lazzaro",
                "check_date": "2024-11-20",
                "contact:facebook": "https://www.facebook.com/Speranza-Tatuaggi-1444361909122602/",
                "contact:instagram": "https://www.instagram.com/speranzatatuaggi/?hl=it",
                "contact:website": "https://speranzatatuaggi.it/",
                "currency:XBT": "yes",
                "description": "Tattoo and Piercing",
                "name": "Speranza Tatuaggi",
                "payment:lightning": "yes",
                "payment:lightning_contactless": "yes",
                "payment:onchain": "yes",
                "phone": "+39 34 0566 2904",
                "shop": "tattoo"
            }
        },
        {
            "type": "node",
            "id": 4526600463,
            "lat": 45.568995,
            "lon": 11.5710601,
            "timestamp": "2024-12-03T17:28:50Z",
            "version": 8,
            "changeset": 159890591,
            "user": "Rockedf",
            "uid": 7522075,
            "tags": {
                "addr:city": "VICENZA (VI)",
                "addr:postcode": "36100",
                "addr:street": "Viale Anconetta, 134",
                "check_date:currency:XBT": "2024-12-03",
                "contact:email": "info@acquatecnicasrl.it",
                "contact:facebook": "https://www.facebook.com/AcquaTecnicaSrl",
                "contact:instagram": "https://www.instagram.com/acquatecnica.srl",
                "contact:linkedin": "https://it.linkedin.com/company/acqua-tecnica-srl",
                "contact:whatsapp": "0445 651181",
                "currency:XBT": "yes",
                "description": "Il nostro intento \u00e8 il corretto ed etico trattamento dell\u2019acqua, per infondere tranquillit\u00e0 ed elevare lo stato di benessere delle persone.\n\nSiamo aperti al Mattino dal Lun al Ven 8.30 12.30 - il Pomeriggio 14.30 18.30 (Lun, Mer, e Ven)",
                "name": "ACQUA TECNICA",
                "payment:lightning": "yes",
                "payment:lightning_contactless": "yes",
                "payment:onchain": "yes",
                "phone": "0445 651181",
                "shop": "water_filter",
                "website": "https://www.acquatecnicasrl.it/"
            }
        },
        {
            "type": "node",
            "id": 4531859723,
            "lat": 45.6794051,
            "lon": 12.2274499,
            "timestamp": "2025-01-06T02:31:47Z",
            "version": 6,
            "changeset": 161042433,
            "user": "Rockedf",
            "uid": 7522075,
            "tags": {
                "addr:city": "Treviso",
                "addr:country": "IT",
                "addr:housenumber": "14a",
                "addr:postcode": "31100",
                "addr:street": "Strada del Galletto",
                "amenity": "restaurant",
                "check_date": "2025-01-06",
                "cuisine": "pizza",
                "currency:XBT": "yes",
                "name": "Mangiapizza | Treviso",
                "opening_hours": "Tu-Su 18:00-21:30",
                "payment:cash": "yes",
                "payment:contactless": "yes",
                "payment:cryptocurrencies": "yes",
                "payment:lightning": "yes",
                "payment:lightning_contactless": "no",
                "payment:mastercard": "yes",
                "payment:onchain": "yes",
                "payment:visa": "yes",
                "phone": "+39 366 439 8018",
                "takeaway": "only",
                "website": "https://www.mangiapizzatreviso.it/"
            }
        },
        {
            "type": "node",
            "id": 4531889985,
            "lat": 45.6851608,
            "lon": 12.2466798,
            "timestamp": "2024-06-14T12:39:05Z",
            "version": 5,
            "changeset": 152676259,
            "user": "Rockedf",
            "uid": 7522075,
            "tags": {
                "addr:city": "Treviso",
                "addr:country": "IT",
                "addr:housenumber": "24",
                "addr:postcode": "31100",
                "addr:street": "Via dei Da Prata",
                "amenity": "restaurant",
                "check_date": "2022-12-12",
                "check_date:currency:XBT": "2024-06-14",
                "currency:XBT": "yes",
                "name": "Bastian Osteria",
                "opening_hours": "Mo-Fr 12:00-15:00,18:00-26:00; Sa 18:00-26:00; Su 16:30-26:00",
                "payment:lightning": "no",
                "payment:lightning_contactless": "no",
                "payment:onchain": "yes",
                "phone": "+390422424391",
                "website": "https://bastianosteria.it/"
            }
        },
        {
            "type": "node",
            "id": 4727745918,
            "lat": 45.4090126,
            "lon": 11.8788211,
            "timestamp": "2024-12-30T18:55:58Z",
            "version": 6,
            "changeset": 160804689,
            "user": "DnaX",
            "uid": 69259,
            "tags": {
                "addr:city": "Padova",
                "addr:housenumber": "9",
                "addr:postcode": "35121",
                "addr:street": "Via Altinate",
                "brand": "Doppelg\u00e4nger",
                "brand:wikidata": "Q117451227",
                "check_date": "2023-08-26",
                "clothes": "men",
                "currency:XBT": "yes",
                "name": "Doppelg\u00e4nger",
                "phone": "+39 0498757916",
                "shop": "clothes"
            }
        },
        {
            "type": "node",
            "id": 4966113288,
            "lat": 45.5392408,
            "lon": 11.922588,
            "timestamp": "2025-01-01T18:26:28Z",
            "version": 3,
            "changeset": 160879895,
            "user": "mpbin",
            "uid": 21850090,
            "tags": {
                "addr:city": "San Giorgio delle Pertiche",
                "addr:housenumber": "SR307",
                "addr:postcode": "35010",
                "addr:street": "Via Desman",
                "brand": "Unieuro",
                "brand:wikidata": "Q4004687",
                "brand:wikipedia": "en:Unieuro",
                "name": "Unieuro",
                "operator": "Unieuro S.p.A.",
                "shop": "electronics"
            }
        },
        {
            "type": "node",
            "id": 5248441042,
            "lat": 45.6545355,
            "lon": 11.9084338,
            "timestamp": "2024-11-20T11:42:34Z",
            "version": 8,
            "changeset": 159362068,
            "user": "mpbin",
            "uid": 21850090,
            "tags": {
                "addr:city": "Castelfranco Veneto",
                "addr:housenumber": "17",
                "addr:postcode": "31033",
                "addr:street": "Via Castellana",
                "amenity": "restaurant",
                "check_date:currency:XBT": "2023-09-25",
                "contact:facebook": "https://www.facebook.com/people/Pizzeria-da-Gennaro/100070875489802/",
                "cuisine": "pizza;italian;seafood;mediterranean;european",
                "currency:XBT": "yes",
                "description": "Storico ristorante pizzeria dal 1890.",
                "email": "info@pizzeriabriangennaro.it",
                "indoor_seating": "yes",
                "name": "Pizzeria da Gennaro",
                "outdoor_seating": "yes",
                "phone": "+39 0423 482188",
                "website": "http://www.pizzeriabriangennaro.it"
            }
        },
        {
            "type": "node",
            "id": 5329671480,
            "lat": 45.6409686,
            "lon": 12.3422169,
            "timestamp": "2024-11-11T16:54:06Z",
            "version": 7,
            "changeset": 159017250,
            "user": "mpbin",
            "uid": 21850090,
            "tags": {
                "addr:city": "Roncade",
                "addr:housenumber": "2",
                "addr:postcode": "31056",
                "addr:street": "Via Treviso Mare",
                "check_date": "2018-01-09",
                "craft": "winery",
                "currency:XBT": "yes",
                "email": "info@47annodomini.it",
                "name": "47 Anno Domini",
                "payment:bitcoin:operator": "inbitcoin.it",
                "website": "https://www.47annodomini.it/"
            }
        },
        {
            "type": "node",
            "id": 5333027525,
            "lat": 45.780744,
            "lon": 11.889103,
            "timestamp": "2023-07-18T22:00:14Z",
            "version": 4,
            "changeset": 138689431,
            "user": "saunter",
            "uid": 10396321,
            "tags": {
                "addr:city": "Fonte",
                "addr:housenumber": "53",
                "addr:postcode": "31010",
                "addr:street": "Via delle Industrie",
                "check_date:currency:XBT": "2023-07-18",
                "craft": "carpenter",
                "currency:XBT": "yes",
                "description": "Produzione di mobili e arredamenti di alta gamma, anche personalizzati.",
                "email": "faber@fabermobili.com",
                "name": "Faber Mobili srl",
                "phone": "+39 0423410000",
                "website": "https://www.fabermobili.com/"
            }
        },
        {
            "type": "node",
            "id": 5414009056,
            "lat": 46.0696252,
            "lon": 11.8237276,
            "timestamp": "2024-10-05T07:23:30Z",
            "version": 6,
            "changeset": 157486996,
            "user": "mpbin",
            "uid": 21850090,
            "tags": {
                "addr:city": "Sovramonte",
                "addr:housenumber": "84",
                "addr:postcode": "32030",
                "addr:street": "Via Aune",
                "check_date:currency:XBT": "2023-07-19",
                "contact:facebook": "https://www.facebook.com/sosinformaticatech",
                "contact:instagram": "https://www.instagram.com/sosinformaticabl/",
                "contact:linkedin": "https://www.linkedin.com/company/sosinformatica",
                "contact:mobile": "+39 342 3944 263",
                "currency:XBT": "yes",
                "description": "Laboratorio specializzato nella riparazione di Pc, Notebook, Tablet e Smartphone.Recupero dati da qualsiasi dispositivo, laboratorio allestito con camera bianca.",
                "ele": "900",
                "email": "info@sosinformatica.tech",
                "name": "S.o.S. informatica di De Bortoli Antonio",
                "opening_hours": "Mo-Fr 09:30-12:30,15:00-17:30",
                "payment:coins": "yes",
                "payment:credit_cards": "yes",
                "payment:maestro": "yes",
                "payment:mastercard": "yes",
                "payment:visa": "yes",
                "payment:visa_electron": "yes",
                "phone": "+3904391990229",
                "shop": "computer",
                "website": "https://www.sosinformatica.tech/"
            }
        },
        {
            "type": "node",
            "id": 5720390522,
            "lat": 45.5493197,
            "lon": 11.5335038,
            "timestamp": "2024-12-03T17:27:15Z",
            "version": 5,
            "changeset": 159890547,
            "user": "Rockedf",
            "uid": 7522075,
            "tags": {
                "addr:city": "Vicenza",
                "addr:housenumber": "10",
                "addr:postcode": "36100",
                "addr:street": "Viale Battaglione Framarin",
                "amenity": "bar",
                "check_date:currency:XBT": "2024-12-03",
                "currency:XBT": "yes",
                "name": "Eclisse Bar",
                "payment:lightning": "yes",
                "payment:lightning_contactless": "no",
                "payment:onchain": "yes",
                "phone": "+39 0444 321896",
                "survey:date": "2023-06-08"
            }
        },
        {
            "type": "node",
            "id": 5779529274,
            "lat": 45.535792,
            "lon": 11.513533,
            "timestamp": "2024-09-25T08:00:14Z",
            "version": 4,
            "changeset": 157069100,
            "user": "mpbin",
            "uid": 21850090,
            "tags": {
                "addr:city": "Vicenza",
                "addr:housenumber": "12",
                "addr:postcode": "36100",
                "addr:street": "Via Benedetto Marcello",
                "check_date": "2024-09-25",
                "check_date:currency:XBT": "2024-09-25",
                "currency:XBT": "yes",
                "description": "Realizziamo internamente insegne, totem, decorazioni automezzi, marketing digitale e tanto altro ancora. Siamo sul territorio dal 1947 e aiutiamo i nostri clienti a sviluppare la loro immagine.",
                "email": "massimo@leodari.com",
                "name": "Leodari Pubblicit\u00e0 s.r.l.",
                "office": "advertising_agency",
                "phone": "+39 0444962233",
                "website": "https://leodari.com/"
            }
        },
        {
            "type": "node",
            "id": 5948417988,
            "lat": 45.4452147,
            "lon": 12.3303437,
            "timestamp": "2025-03-11T19:24:35Z",
            "version": 6,
            "changeset": 163499439,
            "user": "giobigio",
            "uid": 8898946,
            "tags": {
                "addr:city": "Venezia",
                "addr:housenumber": "2625",
                "addr:postcode": "30121",
                "addr:street": "Fondamenta de la Misericordia",
                "check_date": "2025-03-11",
                "check_date:currency:XBT": "2024-11-05",
                "currency:XBT": "yes",
                "description": "B&B",
                "email": "info@architectslodge.com",
                "internet_access": "yes",
                "internet_access:fee": "no",
                "name": "Mariangela Artist's Lodge B&B",
                "phone": "+393290236683",
                "rooms": "2",
                "tourism": "guest_house",
                "website": "https://www.architectslodge.com/it/venezia/"
            }
        },
        {
            "type": "node",
            "id": 6131287245,
            "lat": 45.354129,
            "lon": 11.772486,
            "timestamp": "2023-07-21T00:41:15Z",
            "version": 2,
            "changeset": 138788730,
            "user": "saunter",
            "uid": 10396321,
            "tags": {
                "addr:city": "Abano Terme",
                "addr:housenumber": "21",
                "addr:postcode": "35031",
                "addr:street": "Via Monteortone",
                "check_date:currency:XBT": "2023-07-21",
                "currency:XBT": "yes",
                "description": "Consulenza su criptovalute e blockchain, cambio critpovalute contro euro, messa in sicurezza, vendita gadget informatici, hardware wallet, T-shirt, corsi di formazione sul mondo cripto e bitcoin.",
                "email": "center@bitcoinveneto.it",
                "name": "Bitcoin Veneto Center",
                "office": "educational_institution",
                "phone": "+39 3405035130",
                "website": "https://www.bitcoinvenetocenter.it"
            }
        },
        {
            "type": "node",
            "id": 6477573230,
            "lat": 46.0489313,
            "lon": 12.0524223,
            "timestamp": "2024-04-17T10:38:51Z",
            "version": 4,
            "changeset": 150122040,
            "user": "yhic4uw",
            "uid": 2104834,
            "tags": {
                "addr:city": "Mel",
                "addr:housenumber": "65",
                "addr:postcode": "32026",
                "addr:street": "Via Campo San Pietro",
                "check_date": "2024-04-17",
                "currency:XBT": "yes",
                "email": "info@ramcomputers.org",
                "name": "RAM Computers",
                "payment:bitcoin:operator": "inbitcoin.it",
                "phone": "+390437552344",
                "shop": "computer",
                "website": "https://ramcomputers.org"
            }
        },
        {
            "type": "node",
            "id": 6503288231,
            "lat": 45.435037,
            "lon": 12.340914,
            "timestamp": "2025-02-04T16:33:29Z",
            "version": 14,
            "changeset": 162133351,
            "user": "Rockedf",
            "uid": 7522075,
            "tags": {
                "addr:city": "Venezia",
                "addr:housenumber": "4318",
                "addr:place": "Castello",
                "addr:postcode": "30122",
                "addr:street": "Rugheta Sant'Apollonia",
                "check_date": "2023-11-17",
                "check_date:currency:XBT": "2025-02-04",
                "currency:XBT": "yes",
                "description": "Negozio laboratorio di produzione gioielli in oro e pietre preziose: moretti ed altri gioielli esclusivi personalizzati realizzati a mano, teschi vanitas, corniole incise, gioielli con opali e molto altro.",
                "email": "info@webjewels.it",
                "name": "Oreficeria Gioielleria Dogale",
                "note": "Domenica chiuso (luglio e agosto chiuso anche il sabato pomeriggio) Sunday closed (July and August also closed on Saturday afternoons)",
                "opening_hours": "Mo-Sa 09:40-12:40,15:30-18:40",
                "payment:cash": "yes",
                "payment:credit_cards": "yes",
                "payment:lightning": "yes",
                "payment:onchain": "yes",
                "phone": "+39 0415287549",
                "shop": "jewelry",
                "start_date": "1952",
                "website": "https://www.gioiellivenezia.com/"
            }
        },
        {
            "type": "node",
            "id": 6528179520,
            "lat": 45.9068785,
            "lon": 12.3391302,
            "timestamp": "2025-01-29T16:56:47Z",
            "version": 4,
            "changeset": 161905927,
            "user": "damianeue",
            "uid": 10124288,
            "tags": {
                "brand": "MediaWorld",
                "brand:wikidata": "Q2381223",
                "name": "MediaWorld",
                "operator": "MediaMarket S.p.A.",
                "shop": "electronics"
            }
        },
        {
            "type": "node",
            "id": 6528179526,
            "lat": 45.9053929,
            "lon": 12.3401467,
            "timestamp": "2025-01-03T10:50:17Z",
            "version": 3,
            "changeset": 160942664,
            "user": "mpbin",
            "uid": 21850090,
            "tags": {
                "addr:city": "San Martino",
                "addr:housenumber": "19",
                "addr:postcode": "31020",
                "addr:street": "Via Villa Liccer",
                "brand": "Decathlon",
                "brand:wikidata": "Q509349",
                "brand:wikipedia": "en:Decathlon Group",
                "name": "Decathlon",
                "opening_hours": "Mo-Su 09:00-20:00",
                "operator": "Decathlon",
                "shop": "sports"
            }
        },
        {
            "type": "node",
            "id": 6779518865,
            "lat": 45.6818857,
            "lon": 11.9431374,
            "timestamp": "2025-01-01T19:47:47Z",
            "version": 3,
            "changeset": 160883060,
            "user": "mpbin",
            "uid": 21850090,
            "tags": {
                "addr:city": "Castelfranco Veneto",
                "addr:housenumber": "21/A",
                "addr:postcode": "31033",
                "addr:street": "Via dei Carpani",
                "brand": "Unieuro",
                "brand:wikidata": "Q4004687",
                "name": "Unieuro",
                "operator": "Unieuro S.p.A.",
                "shop": "electronics"
            }
        },
        {
            "type": "node",
            "id": 6897820650,
            "lat": 45.9053036,
            "lon": 12.3401004,
            "timestamp": "2025-04-21T07:55:24Z",
            "version": 2,
            "changeset": 165224542,
            "user": "btcitnet",
            "uid": 22525435,
            "tags": {
                "addr:city": "San Martino",
                "addr:housenumber": "19",
                "addr:postcode": "31020",
                "addr:street": "Via Villa Liccer",
                "emergency": "defibrillator",
                "indoor": "yes",
                "name": "Decathlon",
                "operator": "Decathlon"
            }
        },
        {
            "type": "node",
            "id": 7283065093,
            "lat": 45.523149,
            "lon": 12.1558663,
            "timestamp": "2022-05-05T08:45:52Z",
            "version": 4,
            "changeset": 120576818,
            "user": "Flight777",
            "uid": 9925732,
            "tags": {
                "addr:city": "Maerne",
                "addr:housenumber": "66",
                "addr:postcode": "30030",
                "addr:street": "Piazza Quattro Novembre",
                "brand": "Spar",
                "brand:wikidata": "Q610492",
                "name": "Despar",
                "operator": "Despar",
                "shop": "supermarket"
            }
        },
        {
            "type": "node",
            "id": 7485672568,
            "lat": 45.3037889,
            "lon": 12.0212547,
            "timestamp": "2025-01-01T20:03:13Z",
            "version": 3,
            "changeset": 160883521,
            "user": "mpbin",
            "uid": 21850090,
            "tags": {
                "addr:city": "Piove di Sacco",
                "addr:housenumber": "1",
                "addr:postcode": "35028",
                "addr:street": "Via Fratelli Sanguinazzi",
                "brand": "Unieuro",
                "brand:wikidata": "Q4004687",
                "brand:wikipedia": "en:Unieuro",
                "name": "Unieuro",
                "opening_hours": "Mo-Sa 09:00-13:00,15:00-19:00",
                "operator": "Unieuro S.p.A.",
                "shop": "electronics"
            }
        },
        {
            "type": "node",
            "id": 7486775140,
            "lat": 45.6769831,
            "lon": 12.3374559,
            "timestamp": "2020-05-05T18:12:38Z",
            "version": 1,
            "changeset": 84712215,
            "user": "mascalzone67",
            "uid": 1861652,
            "tags": {
                "addr:city": "San Biagio di Callalta",
                "addr:housenumber": "76",
                "addr:postcode": "31048",
                "addr:street": "Via Postumia Ovest",
                "brand": "Conad",
                "brand:wikidata": "Q639075",
                "brand:wikipedia": "it:Conad",
                "name": "Conad",
                "opening_hours": "Mo-Su 08:30-20:30",
                "operator": "Conad",
                "payment:bancomat": "yes",
                "payment:cash": "yes",
                "payment:credit_cards": "yes",
                "phone": "+39 0422 794911",
                "shop": "supermarket",
                "website": "https://www.conad.it/ricerca-negozi/negozio.008747.html"
            }
        },
        {
            "type": "node",
            "id": 7486778502,
            "lat": 45.6771424,
            "lon": 12.3373781,
            "timestamp": "2020-05-05T18:07:20Z",
            "version": 1,
            "changeset": 84712027,
            "user": "mascalzone67",
            "uid": 1861652,
            "tags": {
                "addr:city": "San Biagio di Callalta",
                "addr:housenumber": "76",
                "addr:postcode": "31048",
                "addr:street": "Via Postumia Ovest",
                "amenity": "pharmacy",
                "dispensing": "no",
                "healthcare": "pharmacy",
                "name": "Parafarmacia Conad",
                "operator": "Conad"
            }
        },
        {
            "type": "node",
            "id": 7486874106,
            "lat": 45.4177654,
            "lon": 11.86183,
            "timestamp": "2024-08-10T14:39:32Z",
            "version": 2,
            "changeset": 155065448,
            "user": "voschix",
            "uid": 305001,
            "tags": {
                "addr:city": "Padova",
                "addr:housenumber": "8",
                "addr:postcode": "35139",
                "addr:street": "Ostiala Gallenia",
                "amenity": "pharmacy",
                "dispensing": "no",
                "healthcare": "pharmacy",
                "name": "Parafarmacia Conad",
                "operator": "Conad"
            }
        },
        {
            "type": "node",
            "id": 7486909410,
            "lat": 45.4119799,
            "lon": 11.9077824,
            "timestamp": "2023-06-05T14:36:32Z",
            "version": 4,
            "changeset": 136976080,
            "user": "Friendly_Ghost",
            "uid": 10875409,
            "tags": {
                "addr:city": "Padova",
                "addr:housenumber": "61",
                "addr:postcode": "35131",
                "addr:street": "Via Venezia",
                "amenity": "pharmacy",
                "dispensing": "no",
                "healthcare": "pharmacy",
                "level": "0",
                "name": "Parafarmacia Conad",
                "operator": "Conad"
            }
        },
        {
            "type": "node",
            "id": 7834164182,
            "lat": 45.4175724,
            "lon": 11.8247384,
            "timestamp": "2024-12-30T16:37:10Z",
            "version": 5,
            "changeset": 160799972,
            "user": "mpbin",
            "uid": 21850090,
            "tags": {
                "addr:city": "Rubano",
                "addr:housenumber": "1",
                "addr:postcode": "35030",
                "addr:street": "Via della Provvidenza",
                "brand": "Trony",
                "brand:wikidata": "Q3999692",
                "email": "sarmeola@trony.it",
                "facebook": "https://www.facebook.com/TronySarmeolaViaDellaProvvidenza/",
                "level": "1",
                "name": "Trony",
                "opening_hours": "Mo-Sa 09:30-20:30; Su 10:00-20:30",
                "operator": "Trony",
                "phone": "+39 049 897 9275",
                "shop": "electronics",
                "website": "https://www.trony.it/online/store/TRO477_A",
                "wheelchair": "yes"
            }
        },
        {
            "type": "node",
            "id": 8455564266,
            "lat": 45.4521146,
            "lon": 12.0719097,
            "timestamp": "2025-01-01T20:04:23Z",
            "version": 3,
            "changeset": 160883558,
            "user": "mpbin",
            "uid": 21850090,
            "tags": {
                "addr:city": "Ball\u00f2",
                "addr:housenumber": "80",
                "addr:postcode": "30035",
                "addr:street": "Via Stazione",
                "name": "Unieuro",
                "not:brand:wikidata": "Q4004687",
                "operator": "Unieuro S.p.A.",
                "payment:cash": "yes",
                "payment:credit_cards": "yes",
                "phone": "+39 041 415652",
                "shop": "electronics"
            }
        },
        {
            "type": "node",
            "id": 8757961292,
            "lat": 45.5084095,
            "lon": 11.6316576,
            "timestamp": "2025-04-20T21:11:13Z",
            "version": 7,
            "changeset": 165212604,
            "user": "btcitnet",
            "uid": 22525435,
            "tags": {
                "access": "yes",
                "addr:city": "Torri Di Quartesolo",
                "addr:housenumber": "3",
                "addr:postcode": "36040",
                "addr:street": "Via Vedelleria",
                "amenity": "bicycle_repair_station",
                "name": "Decathlon",
                "opening_hours": "24/7",
                "operator": "Decathlon",
                "self_service": "yes",
                "service:bicycle:chain_tool": "yes",
                "service:bicycle:pump": "yes",
                "service:bicycle:stand": "yes",
                "service:bicycle:tools": "yes"
            }
        },
        {
            "type": "node",
            "id": 9228904067,
            "lat": 45.5777186,
            "lon": 12.071735,
            "timestamp": "2025-01-01T20:36:37Z",
            "version": 2,
            "changeset": 160884522,
            "user": "mpbin",
            "uid": 21850090,
            "tags": {
                "addr:city": "Trebaseleghe",
                "addr:housenumber": "40",
                "addr:postcode": "35010",
                "addr:street": "Via Malcaton",
                "brand": "Unieuro",
                "brand:wikidata": "Q4004687",
                "brand:wikipedia": "en:Unieuro",
                "name": "Unieuro",
                "operator": "Unieuro S.p.A.",
                "shop": "electronics"
            }
        },
        {
            "type": "node",
            "id": 9391569155,
            "lat": 45.6688905,
            "lon": 12.2412925,
            "timestamp": "2024-04-14T08:44:34Z",
            "version": 4,
            "changeset": 149981812,
            "user": "Chiarant",
            "uid": 18452174,
            "tags": {
                "addr:city": "Treviso",
                "addr:housenumber": "54",
                "addr:postcode": "31100",
                "addr:street": "Viale Bartolomeo D'Alviano",
                "amenity": "atm",
                "check_date": "2024-04-14",
                "currency:XBT": "yes",
                "description": "Bitcoin ATM che permette di acquistare Bitcoin, Ethereum, Litecoin, Dogecoin, Bitcoin Cash, Dash, Monero. L'ATM \u00e8 situato all'interno del BAR 98.",
                "email": "support@cryptolocalatm.com",
                "name": "CryptoLocalATM c/o BAR 98",
                "payment:onchain": "yes",
                "phone": "+447894438974",
                "website": "https://cryptolocalatm.com"
            }
        },
        {
            "type": "node",
            "id": 9483808945,
            "lat": 45.4358531,
            "lon": 12.3351141,
            "timestamp": "2024-10-29T20:47:46Z",
            "version": 5,
            "changeset": 158516366,
            "user": "mpbin",
            "uid": 21850090,
            "tags": {
                "addr:city": "Venezia",
                "addr:housenumber": "4590",
                "addr:postcode": "30124",
                "addr:street": "Campo San Luca",
                "check_date": "2024-10-29",
                "check_date:currency:XBT": "2024-10-29",
                "check_date:opening_hours": "2024-08-21",
                "contact:facebook": "https://www.facebook.com/DestinationVenice",
                "contact:instagram": "https://www.instagram.com/destination_venice/",
                "currency:XBT": "yes",
                "email": "info@destination-venice.com",
                "flag:type": "municipal",
                "name": "Destination Venice",
                "opening_hours:signed": "no",
                "phone": "+39 041 528 3547",
                "shop": "travel_agency",
                "tourism": "travel_agent;information",
                "website": "https://destination-venice.com/"
            }
        },
        {
            "type": "node",
            "id": 9508135813,
            "lat": 45.5173452,
            "lon": 12.2325213,
            "timestamp": "2025-01-03T09:51:42Z",
            "version": 3,
            "changeset": 160940473,
            "user": "mpbin",
            "uid": 21850090,
            "tags": {
                "addr:city": "Mestre",
                "addr:housenumber": "12",
                "addr:postcode": "30174",
                "addr:street": "Via Don Luigi Peron",
                "brand": "Decathlon",
                "brand:wikidata": "Q509349",
                "brand:wikipedia": "en:Decathlon Group",
                "building": "yes",
                "name": "Decathlon",
                "operator": "Decathlon",
                "phone": "+390415020360",
                "shop": "sports",
                "website": "https://www.decathlon.it/",
                "wheelchair": "yes"
            }
        },
        {
            "type": "node",
            "id": 9646607675,
            "lat": 45.6508616,
            "lon": 12.3090842,
            "timestamp": "2025-01-01T20:40:01Z",
            "version": 3,
            "changeset": 160884631,
            "user": "mpbin",
            "uid": 21850090,
            "tags": {
                "addr:city": "Silea",
                "addr:housenumber": "3/5",
                "addr:postcode": "31057",
                "addr:street": "Via Eroi di Podrute",
                "brand": "Unieuro",
                "brand:wikidata": "Q4004687",
                "brand:wikipedia": "en:Unieuro",
                "name": "Unieuro",
                "operator": "Unieuro S.p.A.",
                "phone": "+39 0422 360350",
                "shop": "electronics",
                "website": "https://www.unieuro.it/online/negozi/Unieuro-Silea"
            }
        },
        {
            "type": "node",
            "id": 9672164356,
            "lat": 45.4225305,
            "lon": 12.073525,
            "timestamp": "2025-01-03T14:22:57Z",
            "version": 2,
            "changeset": 160951512,
            "user": "mpbin",
            "uid": 21850090,
            "tags": {
                "addr:city": "Dolo",
                "addr:housenumber": "102",
                "addr:postcode": "30031",
                "addr:street": "Via Giuseppe Mazzini",
                "brand": "OVS",
                "brand:wikidata": "Q2042514",
                "brand:wikipedia": "en:OVS (company)",
                "name": "OVS",
                "operator": "OVS",
                "shop": "clothes"
            }
        },
        {
            "type": "node",
            "id": 9769845436,
            "lat": 45.671308,
            "lon": 12.1763095,
            "timestamp": "2025-01-01T20:46:41Z",
            "version": 3,
            "changeset": 160884821,
            "user": "mpbin",
            "uid": 21850090,
            "tags": {
                "addr:city": "Paese",
                "addr:housenumber": "28",
                "addr:postcode": "31038",
                "addr:street": "Via Sante Biasuzzi",
                "brand": "Unieuro",
                "brand:wikidata": "Q4004687",
                "name": "Unieuro",
                "operator": "Unieuro S.p.A.",
                "shop": "electronics"
            }
        },
        {
            "type": "node",
            "id": 9779976060,
            "lat": 45.4927109,
            "lon": 12.1108645,
            "timestamp": "2025-01-03T14:24:04Z",
            "version": 3,
            "changeset": 160951544,
            "user": "mpbin",
            "uid": 21850090,
            "tags": {
                "addr:city": "Mirano",
                "addr:housenumber": "23",
                "addr:postcode": "30035",
                "addr:street": "Via Barche",
                "branch": "kids",
                "brand": "OVS",
                "brand:wikidata": "Q2042514",
                "clothes": "children",
                "name": "OVS",
                "operator": "OVS",
                "phone": "+39 041481976",
                "shop": "clothes"
            }
        },
        {
            "type": "node",
            "id": 10035938701,
            "lat": 45.4542033,
            "lon": 12.3510493,
            "timestamp": "2022-09-22T06:09:00Z",
            "version": 2,
            "changeset": 126489243,
            "user": "yhic4uw",
            "uid": 2104834,
            "tags": {
                "addr:city": "Murano",
                "addr:housenumber": "6",
                "addr:postcode": "30141",
                "addr:street": "Ramo Domenico Gisberti",
                "currency:XBT": "yes",
                "name": "Sunset Yogurt",
                "phone": "+39 3703689211",
                "shop": "jewelry",
                "survey:date": "2022-09-22",
                "website": "https://sunsetyogurt.com/"
            }
        },
        {
            "type": "node",
            "id": 10089151111,
            "lat": 45.6559221,
            "lon": 12.2074737,
            "timestamp": "2025-03-09T13:52:45Z",
            "version": 3,
            "changeset": 163401620,
            "user": "Casunziei",
            "uid": 19808596,
            "tags": {
                "addr:city": "Treviso",
                "addr:housenumber": "72",
                "addr:postcode": "31100",
                "addr:street": "Via Noalese",
                "brand": "Decathlon",
                "brand:wikidata": "Q509349",
                "name": "Decathlon",
                "opening_hours": "Mo-Su 09:15-20:00; PH off",
                "operator": "Decathlon",
                "shop": "sports"
            }
        },
        {
            "type": "node",
            "id": 10155200041,
            "lat": 45.3915973,
            "lon": 11.8928962,
            "timestamp": "2025-03-21T09:17:46Z",
            "version": 7,
            "changeset": 163895785,
            "user": "Comino",
            "uid": 6794624,
            "tags": {
                "addr:city": "Padova",
                "addr:housenumber": "1",
                "addr:postcode": "35127",
                "addr:street": "Via Giuseppe Perin",
                "amenity": "cafe",
                "check_date": "2025-03-21",
                "check_date:currency:XBT": "2025-03-21",
                "cuisine": "coffee_shop",
                "currency:XBT": "yes",
                "name": "20quadricafe'",
                "payment:lightning": "yes",
                "payment:lightning_contactless": "no",
                "payment:onchain": "no",
                "survey:date": "2022-11-03"
            }
        },
        {
            "type": "node",
            "id": 10222087379,
            "lat": 45.4770977,
            "lon": 12.2016531,
            "timestamp": "2024-11-23T17:30:03Z",
            "version": 4,
            "changeset": 159508823,
            "user": "mpbin",
            "uid": 21850090,
            "tags": {
                "addr:city": "Venezia",
                "addr:housenumber": "14",
                "addr:postcode": "30175",
                "addr:street": "Via Bottenigo",
                "check_date": "2024-11-23",
                "check_date:currency:XBT": "2024-11-23",
                "currency:XBT": "yes",
                "email": "artigianafoto@mail.com",
                "name": "Artigiana Foto",
                "operator": "Artigiana Foto",
                "payment:lightning": "yes",
                "payment:lightning_contactless": "yes",
                "payment:onchain": "yes",
                "phone": "+39 041 923438",
                "shop": "photo",
                "website": "https://www.a-foto.net/"
            }
        },
        {
            "type": "node",
            "id": 10273203685,
            "lat": 45.6324007,
            "lon": 11.5671468,
            "timestamp": "2024-07-05T19:50:48Z",
            "version": 4,
            "changeset": 153602683,
            "user": "mauropili",
            "uid": 1496865,
            "tags": {
                "addr:city": "Povolaro di Dueville",
                "addr:housenumber": "35a",
                "addr:postcode": "36030",
                "addr:street": "Via Divisione Julia",
                "check_date": "2022-12-19",
                "craft": "electrician",
                "currency:XBT": "yes",
                "name": "Impianti Elettrici Parise",
                "payment:lightning": "yes",
                "payment:onchain": "yes",
                "phone": "+393391741073",
                "website": "https://www.impiantielettriciparise.com/impianti-elettrici-parise-passione-e-professionalita-a-vicenz/"
            }
        },
        {
            "type": "node",
            "id": 10295315911,
            "lat": 45.4247877,
            "lon": 11.9654184,
            "timestamp": "2025-01-03T14:26:11Z",
            "version": 2,
            "changeset": 160951636,
            "user": "mpbin",
            "uid": 21850090,
            "tags": {
                "addr:city": "Vigonza",
                "addr:housenumber": "86",
                "addr:postcode": "35010",
                "addr:street": "Via Regia",
                "brand": "OVS",
                "brand:wikidata": "Q2042514",
                "name": "OVS",
                "operator": "OVS",
                "shop": "clothes"
            }
        },
        {
            "type": "node",
            "id": 10296719986,
            "lat": 45.410309,
            "lon": 11.9083833,
            "timestamp": "2025-01-03T17:31:59Z",
            "version": 4,
            "changeset": 160959082,
            "user": "mpbin",
            "uid": 21850090,
            "tags": {
                "addr:city": "Padova",
                "addr:housenumber": "98",
                "addr:postcode": "35131",
                "addr:street": "Via Venezia",
                "brand": "MediaWorld",
                "brand:wikidata": "Q2381223",
                "fixme": "The website says that the postcode is 35129 and I don't know which postcode is correct",
                "name": "MediaWorld",
                "operator": "MediaMarket S.p.A.",
                "shop": "electronics",
                "website": "https://www.mediaworld.it/it/store/padova-2126"
            }
        },
        {
            "type": "node",
            "id": 10561952509,
            "lat": 45.4314612,
            "lon": 12.3561868,
            "timestamp": "2024-01-24T10:46:46Z",
            "version": 2,
            "changeset": 146624011,
            "user": "yhic4uw",
            "uid": 2104834,
            "tags": {
                "addr:city": "Venezia",
                "addr:housenumber": "1044",
                "addr:postcode": "30122",
                "addr:street": "Calle de le Ancore",
                "check_date": "2023-01-17",
                "currency:XBT": "yes",
                "description": "Tre appartamenti distanti pochi metri dalla Biennale di Venezia e a 15 minuti a piedi da Piazza San Marco.",
                "email": "homeveniceapartments@gmail.com",
                "name": "Home Venice Apartments - Biennale",
                "phone": "+39 3423920076",
                "tourism": "apartment",
                "website": "https://www.homeveniceapartments.it"
            }
        },
        {
            "type": "node",
            "id": 10568121547,
            "lat": 45.4381785,
            "lon": 12.333332,
            "timestamp": "2024-04-29T14:05:02Z",
            "version": 3,
            "changeset": 150665455,
            "user": "MarcoZampiva",
            "uid": 238904,
            "tags": {
                "addr:city": "Venezia",
                "addr:housenumber": "977",
                "addr:place": "San Polo",
                "addr:postcode": "30125",
                "check_date": "2023-01-19",
                "currency:XBT": "yes",
                "description": "Appartamenti distanti pochi metri dal Ponte di Rialto e a 15 minuti a piedi da Piazza San Marco.",
                "email": "homeveniceapartments@gmail.com",
                "name": "Home Venice Apartments - Rialto",
                "phone": "+39 3423920076",
                "tourism": "apartment",
                "website": "https://www.homeveniceapartments.it"
            }
        },
        {
            "type": "node",
            "id": 10568157405,
            "lat": 45.4352777,
            "lon": 12.3307798,
            "timestamp": "2024-11-04T09:54:52Z",
            "version": 4,
            "changeset": 158732742,
            "user": "mpbin",
            "uid": 21850090,
            "tags": {
                "addr:city": "Venezia",
                "addr:housenumber": "3870",
                "addr:place": "San Marco",
                "addr:postcode": "30124",
                "check_date": "2023-09-06",
                "contact:mobile": "+39 370 124 9674",
                "currency:XBT": "yes",
                "description": "Servizi per la compravendita di immobili sia residenziali che commerciali; consulenze gestionali in tutte le fasi della trattativa.",
                "email": "agenziaquinvest@gmail.com",
                "name": "Quinvest Srl",
                "office": "estate_agent",
                "phone": "+39 041 8473628",
                "website": "https://www.quinvestagenzia.it"
            }
        },
        {
            "type": "node",
            "id": 10616413306,
            "lat": 45.6493422,
            "lon": 11.7884405,
            "timestamp": "2024-09-22T16:48:57Z",
            "version": 2,
            "changeset": 156960684,
            "user": "mpbin",
            "uid": 21850090,
            "tags": {
                "addr:city": "Cittadella",
                "addr:postcode": "35013",
                "addr:street": "Via Borgo Treviso",
                "check_date": "2024-09-22",
                "check_date:currency:XBT": "2024-09-22",
                "currency:XBT": "yes",
                "email": "leonardo@pegasodigitalstudio.com",
                "name": "Pegaso Digital Studio",
                "office": "advertising_agency",
                "opening_hours": "Mo-Sa 8:30-12:00, 15:00-19:00",
                "payment:lightning": "yes",
                "payment:lightning_contactless": "no",
                "payment:onchain": "yes",
                "phone": "+39 3478758148",
                "website": "https://www.pegasodigitalstudio.com/"
            }
        },
        {
            "type": "node",
            "id": 10788160129,
            "lat": 45.4586063,
            "lon": 12.2134184,
            "timestamp": "2025-01-09T09:45:34Z",
            "version": 4,
            "changeset": 161162551,
            "user": "DnaX",
            "uid": 69259,
            "tags": {
                "addr:city": "Venezia",
                "addr:housenumber": "1",
                "addr:postcode": "30175",
                "addr:street": "Via Pietro Arduino",
                "brand": "Doppelg\u00e4nger",
                "brand:wikidata": "Q117451227",
                "check_date": "2023-08-02",
                "clothes": "men",
                "currency:XBT": "yes",
                "name": "Doppelg\u00e4nger",
                "phone": "041924659",
                "shop": "clothes",
                "website": "https://www.doppelganger.it/"
            }
        },
        {
            "type": "node",
            "id": 10879354113,
            "lat": 45.370045,
            "lon": 11.922507,
            "timestamp": "2023-05-10T12:11:02Z",
            "version": 2,
            "changeset": 135933878,
            "user": "Chiarant",
            "uid": 18452174,
            "tags": {
                "addr:city": "Ponte San Nicol\u00f2",
                "addr:housenumber": "130",
                "addr:postcode": "35020",
                "addr:street": "Via Guglielmo Marconi",
                "addr:unit": "A",
                "amenity": "restaurant",
                "contact:facebook": "https://www.facebook.com/montenapoleonespaten/",
                "contact:instagram": "https://www.instagram.com/montenapoleonespaten/",
                "currency:XBT": "yes",
                "email": "ponte@ristorantimontenapoleone.com",
                "name": "SPATEN - BIRRERIA MONTENAPOLEONE",
                "payment:lightning": "yes",
                "payment:lightning_contactless": "yes",
                "payment:onchain": "no",
                "phone": "+39 0498882698",
                "survey:date": "2023-05-10",
                "website": "https://www.ristorantimontenapoleone.com/"
            }
        },
        {
            "type": "node",
            "id": 10945938353,
            "lat": 45.6366088,
            "lon": 11.7838331,
            "timestamp": "2024-10-08T19:02:44Z",
            "version": 7,
            "changeset": 157642146,
            "user": "mpbin",
            "uid": 21850090,
            "tags": {
                "addr:city": "Cittadella",
                "addr:housenumber": "56",
                "addr:postcode": "35013",
                "addr:street": "Via Beltramina",
                "addr:unit": "3",
                "check_date": "2024-10-08",
                "check_date:currency:XBT": "2024-10-08",
                "contact:facebook": "https://www.facebook.com/profile.php?id=100083076879992",
                "currency:XBT": "yes",
                "email": "m.beltramello@proton.me",
                "guest_house": "landlords_-_affittacamere",
                "internet_access": "wlan",
                "internet_access:fee": "customers",
                "name": "B&B - Beltramina Bedroom - Affitta Camere",
                "payment:cash": "yes",
                "payment:lightning": "yes",
                "payment:lightning_contactless": "yes",
                "payment:onchain": "yes",
                "phone": "+393498444285",
                "rooms": "3",
                "survey:date": "2023-06-03",
                "tourism": "guest_house",
                "website": "https://airbnb.com/h/beltraminabedroom1"
            }
        },
        {
            "type": "node",
            "id": 11080635396,
            "lat": 45.9639713,
            "lon": 12.273031,
            "timestamp": "2024-12-20T13:16:03Z",
            "version": 4,
            "changeset": 160433148,
            "user": "Rockedf",
            "uid": 7522075,
            "tags": {
                "addr:city": "Cozzuolo, Vittorio Veneto",
                "addr:housenumber": "13",
                "addr:postcode": "31020",
                "addr:street": "Via San Mor",
                "amenity": "restaurant",
                "check_date:currency:XBT": "2024-12-20",
                "cuisine": "regional;italian",
                "currency:XBT": "yes",
                "diet:healthy": "yes",
                "diet:local": "yes",
                "diet:meat": "yes",
                "diet:vegetarian": "yes",
                "internet_access": "wlan",
                "name": "Agriturismo Le Colline",
                "payment:lightning": "yes",
                "payment:onchain": "yes",
                "phone": "0438560282",
                "website": "lecollinecozzuolo.it"
            }
        },
        {
            "type": "node",
            "id": 11144535811,
            "lat": 45.4115379,
            "lon": 11.9084568,
            "timestamp": "2023-08-25T18:39:05Z",
            "version": 1,
            "changeset": 140384840,
            "user": "Friendly_Ghost",
            "uid": 10875409,
            "tags": {
                "amenity": "trolley_bay",
                "covered": "yes",
                "operator": "Conad"
            }
        },
        {
            "type": "node",
            "id": 11241833922,
            "lat": 45.4111335,
            "lon": 11.9071442,
            "timestamp": "2023-10-05T17:16:51Z",
            "version": 1,
            "changeset": 142199524,
            "user": "Friendly_Ghost",
            "uid": 10875409,
            "tags": {
                "amenity": "trolley_bay",
                "covered": "yes",
                "operator": "Conad"
            }
        },
        {
            "type": "node",
            "id": 11331183190,
            "lat": 45.4583868,
            "lon": 12.2127619,
            "timestamp": "2023-11-07T14:04:09Z",
            "version": 1,
            "changeset": 143738826,
            "user": "Chiarant",
            "uid": 18452174,
            "tags": {
                "addr:city": "Venezia",
                "addr:housenumber": "20",
                "addr:postcode": "30175",
                "addr:street": "Via Pietro Arduino",
                "amenity": "fast_food",
                "check_date": "2023-11-07",
                "cuisine": "kebab",
                "currency:XBT": "yes",
                "name": "Kebhouze - Nave de Vero",
                "payment:lightning": "yes",
                "payment:lightning_contactless": "yes",
                "payment:onchain": "yes",
                "website": "https://kebhouze.com"
            }
        },
        {
            "type": "node",
            "id": 11404313408,
            "lat": 45.4451233,
            "lon": 12.3290784,
            "timestamp": "2024-07-06T07:04:13Z",
            "version": 5,
            "changeset": 153612433,
            "user": "mauropili",
            "uid": 1496865,
            "tags": {
                "addr:city": "Venezia",
                "addr:housenumber": "2690/A",
                "addr:postcode": "30121",
                "addr:street": "Sestiere Cannaregio",
                "amenity": "restaurant",
                "check_date:currency:XBT": "2024-02-28",
                "cuisine": "regional;italian",
                "currency:XBT": "yes",
                "currency:XBT:operator": "walletofsatoshi.com",
                "name": "Osteria Marcianino",
                "payment:lightning": "yes",
                "payment:onchain": "yes",
                "phone": "+39 041 476 7531",
                "survey:date": "2024-02-28"
            }
        },
        {
            "type": "node",
            "id": 11494464513,
            "lat": 45.7244835,
            "lon": 11.3641751,
            "timestamp": "2024-12-19T21:10:39Z",
            "version": 8,
            "changeset": 160410887,
            "user": "saunter",
            "uid": 10396321,
            "tags": {
                "addr:city": "Schio",
                "addr:housenumber": "13",
                "addr:postcode": "36015",
                "addr:street": "Via Giarette",
                "amenity": "restaurant",
                "check_date": "2024-10-12",
                "check_date:currency:XBT": "2024-12-19",
                "contact:instagram": "https://www.instagram.com/ajiosteriagiapponese/",
                "cuisine": "japanese",
                "currency:XBT": "yes",
                "email": "osteriagiapponese@gmail.com",
                "name": "Aji Osteria Giapponese",
                "opening_hours": "Tu-Sa 19:00-22:00",
                "payment:lightning": "yes",
                "payment:lightning_contactless": "yes",
                "phone": "+39 351 911 5569",
                "website": "https://osteriagiapponese.wixsite.com/ajiosteriagiapponese"
            }
        },
        {
            "type": "node",
            "id": 11503445235,
            "lat": 45.7245094,
            "lon": 11.3640987,
            "timestamp": "2024-10-12T18:06:13Z",
            "version": 4,
            "changeset": 157807879,
            "user": "mpbin",
            "uid": 21850090,
            "tags": {
                "addr:city": "Schio",
                "addr:housenumber": "13",
                "addr:postcode": "36015",
                "addr:street": "Via Giarette",
                "check_date": "2024-10-12",
                "check_date:currency:XBT": "2024-10-12",
                "contact:email": "info@artigianatogiapponese.it",
                "contact:facebook": "https://www.facebook.com/www.artigianatogiapponese.it",
                "contact:instagram": "https://www.instagram.com/artigianatogiapponese/",
                "currency:XBT": "yes",
                "name": "Artigianato Giapponese",
                "payment:lightning": "yes",
                "payment:lightning_contactless": "yes",
                "payment:onchain": "yes",
                "phone": "+39 32 8376 1399",
                "shop": "yes",
                "website": "https://www.artigianatogiapponese.it/"
            }
        },
        {
            "type": "node",
            "id": 11739288103,
            "lat": 45.5749982,
            "lon": 11.5445911,
            "timestamp": "2024-03-17T23:30:55Z",
            "version": 2,
            "changeset": 148793917,
            "user": "Legalbitcoin",
            "uid": 21205303,
            "tags": {
                "addr:city": "Vicenza",
                "addr:housenumber": "129",
                "addr:postcode": "36100",
                "addr:street": "Via dei Laghi",
                "check_date": "2024-03-17",
                "currency:XBT": "yes",
                "description": "Vendita prodotti JUST. Contattami su WhatsApp, sarai ricontattato appena possibile.",
                "name": "Guoli Patrizia- Prodotti JUST",
                "payment:lightning": "yes",
                "payment:lightning_contactless": "yes",
                "payment:onchain": "yes",
                "phone": "+39 340 693 9814 (solo WhatsApp)",
                "shop": "cosmetics"
            }
        },
        {
            "type": "node",
            "id": 11749080606,
            "lat": 45.6402384,
            "lon": 11.3730009,
            "timestamp": "2024-03-20T22:24:08Z",
            "version": 1,
            "changeset": 148936397,
            "user": "Rockedf",
            "uid": 7522075,
            "tags": {
                "addr:city": "Monte di Malo (VI)",
                "addr:housenumber": "3",
                "addr:postcode": "36030",
                "addr:street": "Via San Giorgio",
                "check_date": "2024-03-20",
                "contact:facebook": "https://www.facebook.com/sabrina.crystalglassart",
                "contact:instagram": "https://www.instagram.com/golinsabrina/",
                "currency:XBT": "yes",
                "name": "Sabrina Golin Art",
                "opening_hours": "Mo-Fr 08:00-12:00,14:00-20:00",
                "payment:lightning": "yes",
                "payment:lightning_contactless": "yes",
                "payment:onchain": "yes",
                "tourism": "gallery",
                "website": "https://www.sabrinacrystal.it/"
            }
        },
        {
            "type": "node",
            "id": 11812265884,
            "lat": 45.384531,
            "lon": 11.7844921,
            "timestamp": "2024-07-05T20:00:22Z",
            "version": 2,
            "changeset": 153602990,
            "user": "mauropili",
            "uid": 1496865,
            "tags": {
                "addr:city": "Selvazzano Dentro",
                "addr:housenumber": "151",
                "addr:postcode": "35030",
                "addr:street": "Via Euganea",
                "amenity": "pub",
                "check_date": "2024-04-12",
                "currency:XBT": "yes",
                "name": "Dalle Canaglie",
                "payment:lightning": "yes",
                "payment:lightning_contactless": "no",
                "payment:onchain": "no",
                "phone": "+39 04 9261 5718"
            }
        },
        {
            "type": "node",
            "id": 11817877407,
            "lat": 45.2289756,
            "lon": 11.7389913,
            "timestamp": "2025-01-01T21:34:45Z",
            "version": 4,
            "changeset": 160886258,
            "user": "mpbin",
            "uid": 21850090,
            "tags": {
                "addr:city": "Monselice",
                "addr:housenumber": "79",
                "addr:postcode": "35043",
                "addr:street": "Via Cristoforo Colombo",
                "brand": "Unieuro",
                "brand:wikidata": "Q4004687",
                "name": "Unieuro",
                "operator": "Unieuro S.p.A.",
                "shop": "electronics",
                "wheelchair": "yes"
            }
        },
        {
            "type": "node",
            "id": 11866142243,
            "lat": 45.8231284,
            "lon": 12.2537163,
            "timestamp": "2025-01-22T20:59:31Z",
            "version": 3,
            "changeset": 161652891,
            "user": "Rockedf",
            "uid": 7522075,
            "tags": {
                "addr:city": "Ponte della Priula",
                "addr:housenumber": "79",
                "addr:postcode": "31010",
                "addr:street": "Via Quattro Novembre",
                "addr:unit": "b",
                "check_date": "2024-11-11",
                "check_date:currency:XBT": "2025-01-22",
                "currency:XBT": "yes",
                "name": "Il chicco di grano",
                "opening_hours": "Mo-Sa 06:30-12:30,15:30-19:00",
                "payment:lightning": "yes",
                "payment:lightning_contactless": "no",
                "payment:onchain": "yes",
                "shop": "bakery"
            }
        },
        {
            "type": "node",
            "id": 11876751567,
            "lat": 45.7178276,
            "lon": 11.3883769,
            "timestamp": "2024-08-30T08:14:45Z",
            "version": 5,
            "changeset": 155961109,
            "user": "Ferrigato Srlu",
            "uid": 4774728,
            "tags": {
                "addr:city": "Schio (VI)",
                "addr:country": "IT",
                "addr:postcode": "36015",
                "addr:street": "Via Veneto 2/c",
                "currency:XBT": "yes",
                "healthcare": "yes",
                "name": "Ferrigato Srlu",
                "note": "Health and Safety Consultants",
                "payment:lightning": "yes",
                "payment:onchain": "yes",
                "survey:date": "2024-08-30"
            }
        },
        {
            "type": "node",
            "id": 11902287309,
            "lat": 45.6684186,
            "lon": 11.395146,
            "timestamp": "2024-10-11T21:00:49Z",
            "version": 6,
            "changeset": 157773469,
            "user": "mpbin",
            "uid": 21850090,
            "tags": {
                "addr:city": "Malo",
                "addr:housenumber": "26",
                "addr:postcode": "36034",
                "addr:street": "Via VIII Marzo",
                "contact:email": "info@saloneniko.it",
                "contact:facebook": "https://www.facebook.com/saloneniko.malo",
                "contact:instagram": "https://www.instagram.com/saloneniko/",
                "currency:XBT": "yes",
                "email": "info@saloneniko.it",
                "name": "SALONE NIKO",
                "note": "Taglio, Tecniche del colore, Permanente e stiratura, Asciugatura, Acconciatura, extension. E' gradito l'appuntamento",
                "payment:lightning": "yes",
                "payment:lightning_contactless": "yes",
                "payment:onchain": "no",
                "phone": "+39 0445 602518",
                "shop": "hairdresser",
                "survey:date": "2024-05-11",
                "website": "https://saloneniko.it/"
            }
        },
        {
            "type": "node",
            "id": 11975303381,
            "lat": 45.4030901,
            "lon": 11.691016,
            "timestamp": "2024-06-12T12:30:05Z",
            "version": 1,
            "changeset": 152585259,
            "user": "Chiarant",
            "uid": 18452174,
            "tags": {
                "addr:city": "Fossona",
                "addr:housenumber": "148",
                "addr:postcode": "35030",
                "addr:street": "Via Roma",
                "check_date": "2024-06-12",
                "currency:XBT": "yes",
                "email": "gioielli@lineagem.it",
                "name": "Lineagem S.p.A.",
                "shop": "jewelry",
                "website": "https://www.lineagem.it/"
            }
        },
        {
            "type": "node",
            "id": 11980863518,
            "lat": 45.9058678,
            "lon": 12.3362754,
            "timestamp": "2024-06-14T13:29:12Z",
            "version": 1,
            "changeset": 152679049,
            "user": "Rockedf",
            "uid": 7522075,
            "tags": {
                "addr:city": "San Fior",
                "addr:housenumber": "86",
                "addr:postcode": "31020",
                "addr:street": "Via Nazionale",
                "amenity": "car_wash",
                "check_date": "2024-06-14",
                "currency:XBT": "yes",
                "name": "Ip San Fior Autolavaggio e Noleggio",
                "payment:lightning": "yes",
                "payment:lightning_contactless": "no",
                "payment:onchain": "yes",
                "phone": "+39 37 6176 3526"
            }
        },
        {
            "type": "node",
            "id": 12102810313,
            "lat": 45.4177936,
            "lon": 11.8618561,
            "timestamp": "2024-08-10T14:39:32Z",
            "version": 1,
            "changeset": 155065448,
            "user": "voschix",
            "uid": 305001,
            "tags": {
                "addr:city": "Padova",
                "addr:housenumber": "8",
                "addr:postcode": "35139",
                "addr:street": "Ostiala Gallenia",
                "brand": "Conad",
                "brand:wikidata": "Q639075",
                "brand:wikipedia": "it:Conad",
                "name": "Conad",
                "opening_hours": "Mo-Sa 08:00-20:30; Su 09:00-20:00",
                "operator": "Conad",
                "payment:bancomat": "yes",
                "payment:cash": "yes",
                "payment:credit_cards": "yes",
                "phone": "+39 049 723073",
                "shop": "supermarket",
                "website": "https://www.conad.it/ricerca-negozi/negozio.009282.html"
            }
        },
        {
            "type": "node",
            "id": 12128566402,
            "lat": 45.3979849,
            "lon": 11.5793774,
            "timestamp": "2025-01-02T22:34:10Z",
            "version": 2,
            "changeset": 160928574,
            "user": "mpbin",
            "uid": 21850090,
            "tags": {
                "addr:city": "Ponte di Barbarano",
                "addr:housenumber": "8",
                "addr:postcode": "36048",
                "addr:street": "Via del Commercio",
                "brand": "Trony",
                "brand:wikidata": "Q3999692",
                "name": "Trony",
                "operator": "Trony",
                "shop": "electronics"
            }
        },
        {
            "type": "node",
            "id": 12146085710,
            "lat": 45.6599593,
            "lon": 12.2534554,
            "timestamp": "2024-08-30T12:37:48Z",
            "version": 1,
            "changeset": 155972100,
            "user": "mpbin",
            "uid": 21850090,
            "tags": {
                "addr:city": "Treviso",
                "addr:housenumber": "31",
                "addr:postcode": "31100",
                "addr:street": "Via Sebastiano Venier",
                "consulting": "bitcoin",
                "contact:telegram": "https://t.me/Suhaci",
                "currency:XBT": "yes",
                "description": "Consulenza Aziendale",
                "email": "consulting@suhaci.com",
                "name": "Suhaci Consulting",
                "office": "consulting",
                "payment:lightning": "no",
                "phone": "+39 340 389 3512",
                "website": "https://www.suhaci.com/"
            }
        },
        {
            "type": "node",
            "id": 12351513547,
            "lat": 45.6890029,
            "lon": 11.3735438,
            "timestamp": "2024-11-23T22:35:57Z",
            "version": 6,
            "changeset": 159516485,
            "user": "PagoInBitcoin",
            "uid": 22211788,
            "tags": {
                "addr:city": "San Vito Di Leguzzano",
                "addr:postcode": "36030",
                "addr:street": "Via Schio, 58",
                "amenity": "driving_school",
                "contact:email": "autoscuolasanvito@gmail.com",
                "contact:whatsapp": "+393477628784",
                "currency:XBT": "yes",
                "description": "Puoi chiamarci per urgenze anche la domenica.",
                "name": "AUTOSCUOLA SAN VITO",
                "payment:lightning": "yes",
                "payment:lightning_contactless": "yes",
                "payment:onchain": "yes",
                "phone": "+390445510783",
                "survey:date": "2024-11-11"
            }
        },
        {
            "type": "node",
            "id": 12400751878,
            "lat": 45.5157714,
            "lon": 11.4612619,
            "timestamp": "2024-12-13T16:06:02Z",
            "version": 3,
            "changeset": 160252363,
            "user": "emmezetax",
            "uid": 22263114,
            "tags": {
                "addr:city": "Altavilla Vicentina (VI)",
                "addr:housenumber": "28",
                "addr:postcode": "36077",
                "addr:street": "Via Lago D'iseo, 28",
                "brand": "Yamaha",
                "brand:wikidata": "Q158888",
                "contact:email": "info@zanuso.com",
                "contact:facebook": "https://www.facebook.com/Zanusosrl",
                "contact:whatsapp": "+39 342 0771826",
                "currency:XBT": "yes",
                "description": "Vendita Moto Yamaha, Scooter e Bici elettriche. Noleggio a lungo e breve termine. Usato , tagliandi e assistenza.",
                "internet_access": "wlan",
                "name": "Zanuso srl Conc. Yamaha",
                "opening_hours": "Mo-Sa 09:00-12:30 14:30-19:00",
                "payment:lightning": "yes",
                "payment:lightning_contactless": "no",
                "payment:onchain": "yes",
                "phone": "+39 0444 349283",
                "second_hand": "yes",
                "shop": "motorcycle",
                "website": "https://www.zanuso.com/"
            }
        },
        {
            "type": "node",
            "id": 12475760667,
            "lat": 45.8930405,
            "lon": 12.3236976,
            "timestamp": "2025-01-11T23:13:14Z",
            "version": 3,
            "changeset": 161257177,
            "user": "b-jazz-bot",
            "uid": 9451067,
            "tags": {
                "addr:city": "Conegliano",
                "addr:housenumber": "159",
                "addr:postcode": "31015",
                "addr:street": "Via Maggiore Piovesana Giovanni",
                "amenity": "dentist",
                "check_date": "2025-01-06",
                "contact:facebook": "https://www.facebook.com/StudioDentisticoConegliano/",
                "currency:XBT": "yes",
                "healthcare": "dentist",
                "name": "Studio Dentistico Marin",
                "opening_hours": "Mo-We 09:00-16:00; Th 09:00-12:45,15:00-19:00",
                "payment:cash": "yes",
                "payment:credit_cards": "yes",
                "payment:cryptocurrencies": "yes",
                "payment:lightning": "yes",
                "payment:lightning_contactless": "no",
                "payment:onchain": "yes",
                "phone": "+39 04 3841 5356",
                "website": "https://dentistaconegliano.it/"
            }
        },
        {
            "type": "node",
            "id": 12480515452,
            "lat": 45.4647802,
            "lon": 11.9635919,
            "timestamp": "2025-01-08T17:12:54Z",
            "version": 4,
            "changeset": 161141655,
            "user": "mueschel",
            "uid": 616774,
            "tags": {
                "addr:city": "vigonza",
                "addr:housenumber": "4",
                "addr:postcode": "35010",
                "amenity": "taxi",
                "currency:XBT": "yes",
                "email": "mcdriver.noleggio@gmail.com",
                "name": "Mc Driver Ncc",
                "payment:cards": "yes",
                "payment:cash": "yes",
                "payment:credit_cards": "yes",
                "payment:lightning": "yes",
                "payment:lightning_contactless": "no",
                "payment:onchain": "no",
                "survey:date": "2024-08-01",
                "taxi_vehicle": "van",
                "url": "https://kipin.app/30nlj60d7v7k"
            }
        },
        {
            "type": "node",
            "id": 12613670374,
            "lat": 45.666236,
            "lon": 12.2393552,
            "timestamp": "2025-02-23T22:02:12Z",
            "version": 1,
            "changeset": 162870306,
            "user": "Rockedf",
            "uid": 7522075,
            "tags": {
                "addr:city": "Treviso",
                "addr:housenumber": "10",
                "addr:postcode": "31100",
                "addr:street": "Via San Liberale",
                "check_date": "2025-02-23",
                "contact:facebook": "https://www.facebook.com/bloomitaliaofficial/?locale=it_IT",
                "contact:instagram": "https://www.instagram.com/bloom_feedyourmind/",
                "contact:linkedin": "https://www.linkedin.com/company/bloom-italia/",
                "currency:XBT": "yes",
                "name": "Bloom",
                "office": "coworking",
                "opening_hours": "Tu-Fr 07:30-20:00; Sa-Su 08:00-19:00",
                "payment:lightning": "yes",
                "payment:lightning_contactless": "yes",
                "payment:onchain": "yes",
                "phone": "+39 347 0867713",
                "website": "https://www.bloom-italia.com/"
            }
        },
        {
            "type": "node",
            "id": 12613934712,
            "lat": 45.8370974,
            "lon": 12.4010158,
            "timestamp": "2025-02-23T22:50:17Z",
            "version": 1,
            "changeset": 162871398,
            "user": "Rockedf",
            "uid": 7522075,
            "tags": {
                "addr:city": "Visn\u00e0 TV",
                "addr:housenumber": "80",
                "addr:postcode": "31028",
                "addr:street": "Via Armando Diaz",
                "check_date": "2025-02-23",
                "currency:XBT": "yes",
                "name": "House Service Italy",
                "office": "construction_company",
                "opening_hours": "Mo-Fr 08:00-18:00",
                "payment:lightning": "yes",
                "payment:lightning_contactless": "yes",
                "payment:onchain": "yes",
                "phone": "+39 392 9173243",
                "website": "https://www.linkedin.com/in/daniele-momi-849073102/"
            }
        },
        {
            "type": "node",
            "id": 12633799717,
            "lat": 45.8649291,
            "lon": 12.110262,
            "timestamp": "2025-03-03T18:10:27Z",
            "version": 1,
            "changeset": 163172633,
            "user": "Rockedf",
            "uid": 7522075,
            "tags": {
                "addr:city": "Moriago della Battaglia TV",
                "addr:housenumber": "9",
                "addr:postcode": "31010",
                "addr:street": "Via Brigata Mantova",
                "check_date": "2025-03-03",
                "contact:email": "info@tecnotendasrl.it",
                "contact:facebook": "https://www.facebook.com/tecnotendavendramini/",
                "currency:XBT": "yes",
                "name": "Tecnotenda Contract - Tende e Tendaggi",
                "opening_hours": "Mo-Fr 09:00-18:00; Sa 09:00-12:00",
                "payment:lightning": "yes",
                "payment:lightning_contactless": "yes",
                "payment:onchain": "yes",
                "phone": "+39 0438 892610",
                "shop": "yes",
                "website": "https://www.tecnotendasrl.com/",
                "wheelchair": "yes"
            }
        },
        {
            "type": "node",
            "id": 12673883496,
            "lat": 45.4859784,
            "lon": 12.2273728,
            "timestamp": "2025-03-17T19:00:14Z",
            "version": 1,
            "changeset": 163746332,
            "user": "Rockedf",
            "uid": 7522075,
            "tags": {
                "addr:city": "Venezia",
                "addr:housenumber": "45",
                "addr:postcode": "30171",
                "addr:street": "Via Piraghetto",
                "check_date": "2025-03-17",
                "contact:instagram": "https://www.instagram.com/marikawakeup",
                "currency:XBT": "yes",
                "name": "Wakeup Academy",
                "office": "yes",
                "payment:lightning": "yes",
                "payment:lightning_contactless": "yes",
                "payment:onchain": "yes",
                "phone": "+39 33 3921 7645"
            }
        },
        {
            "type": "node",
            "id": 12729419743,
            "lat": 45.4066963,
            "lon": 11.9024944,
            "timestamp": "2025-04-04T17:33:17Z",
            "version": 1,
            "changeset": 164521300,
            "user": "btcitnet",
            "uid": 22525435,
            "tags": {
                "addr:city": "Padova",
                "addr:housenumber": "39",
                "addr:postcode": "35128",
                "addr:street": "Via Luigi Pellizzo",
                "amenity": "therapist",
                "contact:facebook": "https://www.facebook.com/monocorda.armonico",
                "contact:instagram": "https://www.instagram.com/faccindaniele8.8/?hl=it",
                "contact:telegram": "https://t.me/monocordarmonico",
                "currency:XBT": "yes",
                "email": "monocorda@gmail.com",
                "healthcare": "alternative",
                "name": "Moncorda",
                "phone": "+39 329 9253643",
                "website": "https://monocorda.it/chi-siamo/"
            }
        },
        {
            "type": "way",
            "id": 24317204,
            "timestamp": "2025-01-06T14:39:30Z",
            "version": 12,
            "changeset": 161060963,
            "user": "mpbin",
            "uid": 21850090,
            "nodes": [
                2559658585,
                1311764939,
                2559597887,
                263675809,
                1311764878,
                1311765023,
                12176777719,
                12176777722,
                1311764957,
                2559597885,
                1311764891,
                263675810,
                9076958820,
                263675807,
                2559658585
            ],
            "tags": {
                "brand": "IKEA",
                "brand:wikidata": "Q54078",
                "building": "yes",
                "layer": "1",
                "name": "IKEA",
                "opening_hours": "Mo-Su 09:30-20:30",
                "operator": "Ikea Italia Retail S.r.l.",
                "shop": "furniture",
                "website": "https://m.ikea.com/it/it/",
                "wheelchair": "yes"
            }
        },
        {
            "type": "way",
            "id": 136834591,
            "timestamp": "2024-10-18T08:56:12Z",
            "version": 4,
            "changeset": 158040595,
            "user": "Flight777",
            "uid": 9925732,
            "nodes": [
                228772819,
                1501176912,
                1501176927,
                1501176931,
                1501176937,
                1501176951,
                1501176960,
                1501176964,
                1501176970,
                1501176968,
                1501176967,
                1501176965,
                1501176961,
                1501176962,
                1501176963,
                1501176953,
                1501176934,
                1501176936,
                1501176918,
                1501176916,
                1501176911,
                1501176910,
                228772819
            ],
            "tags": {
                "amenity": "fuel",
                "brand": "Q8",
                "brand:wikidata": "Q4119207",
                "name": "Q8",
                "operator": "Q8",
                "self_service": "yes"
            }
        },
        {
            "type": "way",
            "id": 146023026,
            "timestamp": "2019-07-08T07:26:53Z",
            "version": 3,
            "changeset": 72000966,
            "user": "Silvano S 69",
            "uid": 3798260,
            "nodes": [
                1593199958,
                1593199901,
                1593199869,
                1593199812,
                1593199777,
                1593199607,
                1593199641,
                1593199660,
                1593199684,
                1593199773,
                1593199786,
                1593200076,
                1593200118,
                1593200180,
                1593200216,
                1593200247,
                1593200378,
                1593200275,
                1593200205,
                1593200203,
                1593200111,
                1593200105,
                1593199958
            ],
            "tags": {
                "building": "industrial",
                "note": "verificare se man_made=works",
                "operator": "Trony"
            }
        },
        {
            "type": "way",
            "id": 150842317,
            "timestamp": "2023-01-13T00:38:07Z",
            "version": 5,
            "changeset": 131209269,
            "user": "ezio_m",
            "uid": 2795300,
            "nodes": [
                1637111452,
                1637111415,
                1637111432,
                1637111454,
                1637111453,
                1637111457,
                1637111451,
                1637111461,
                1637111452
            ],
            "tags": {
                "brand": "Trony",
                "brand:wikidata": "Q3999692",
                "building": "retail",
                "name": "Trony",
                "operator": "Trony",
                "shop": "electronics"
            }
        },
        {
            "type": "way",
            "id": 262134580,
            "timestamp": "2023-07-21T00:36:09Z",
            "version": 7,
            "changeset": 138788658,
            "user": "saunter",
            "uid": 10396321,
            "nodes": [
                2677813322,
                2677813293,
                2677813375,
                2677813386,
                2677813365,
                2677812936,
                2677812997,
                2677813032,
                2677813070,
                2677813106,
                2677813117,
                2677813332,
                2677813322
            ],
            "tags": {
                "addr:city": "Padova",
                "addr:housenumber": "90",
                "addr:postcode": "35129",
                "addr:street": "Via Madonna del Rosario",
                "building": "industrial",
                "building:levels": "1",
                "check_date:currency:XBT": "2023-07-21",
                "currency:XBT": "yes",
                "email": "torrecarrozzeria@gmail.com",
                "name": "Carrozzeria Torre",
                "phone": "+39 049 725460",
                "shop": "car_repair",
                "website": "https://carrozzeriatorre.it/"
            }
        },
        {
            "type": "way",
            "id": 683303509,
            "timestamp": "2025-01-06T15:33:40Z",
            "version": 4,
            "changeset": 161063305,
            "user": "branco-revert",
            "uid": 19497998,
            "nodes": [
                6400092038,
                6400092039,
                6400092050,
                6400092040,
                6400092041,
                6400092042,
                6400092043,
                6400092038
            ],
            "tags": {
                "access": "customers",
                "amenity": "parking",
                "operator": "Conad"
            }
        },
        {
            "type": "way",
            "id": 683303511,
            "timestamp": "2025-01-06T15:33:40Z",
            "version": 3,
            "changeset": 161063305,
            "user": "branco-revert",
            "uid": 19497998,
            "nodes": [
                1522184800,
                6400092046,
                1522180403,
                6400092044,
                6400092045,
                1522184800
            ],
            "tags": {
                "amenity": "parking",
                "level": "1",
                "operator": "Conad"
            }
        },
        {
            "type": "way",
            "id": 1112540371,
            "timestamp": "2022-11-12T18:38:31Z",
            "version": 1,
            "changeset": 128823563,
            "user": "mascalzone67",
            "uid": 1861652,
            "nodes": [
                10178658224,
                10178658225,
                10178658226,
                10178658227,
                10178658224
            ],
            "tags": {
                "addr:city": "San Martino Di Lupari",
                "addr:housenumber": "158",
                "addr:postcode": "35018",
                "addr:street": "Via Cardinale Carlo Agostini",
                "brand": "Conad",
                "brand:wikidata": "Q639075",
                "building": "yes",
                "name": "Conad",
                "opening_hours": "Mo-Sa 07:00 - 20:00, Su 08:00-20:00",
                "operator": "Conad",
                "payment:bancomat": "yes",
                "payment:cash": "yes",
                "payment:credit_cards": "yes",
                "phone": "+39 049 9460584",
                "shop": "supermarket",
                "source": "https://www.gdonews.it/2022/11/11/conad-inaugura-il-nuovo-punto-vendita-spesa-facile-a-san-martino-di-lupari-pd/",
                "website": "https://www.conad.it/ricerca-negozi/spesa-facile-via-c-agostini-158-35018--san-martino-di-lupari--010412"
            }
        }
    ],
    "telegram": []
}