{
    "id": "bb-bologna",
    "name": "Bitcoin Beer Bologna",
    "lng": 44.4987,
    "lat": 11.364,
    "localita": "Bologna",
    "telegram_weburl": "https://web.telegram.org/a/#-1001072838404",
    "telegram_app": "https://t.me/bitcoinbeerbologna",
    "telegram_members": 192.0,
    "network": "bitcoinbeer",
    "poi": [
        {
            "type": "node",
            "id": 1704256675,
            "lat": 44.4977004,
            "lon": 11.3481769,
            "timestamp": "2024-06-14T17:23:33Z",
            "version": 11,
            "changeset": 152690656,
            "user": "baprischka",
            "uid": 974272,
            "tags": {
                "addr:city": "Bologna",
                "addr:country": "IT",
                "addr:district": "San Vitale",
                "addr:housenumber": "2f",
                "addr:postcode": "40126",
                "addr:street": "Via delle Moline",
                "amenity": "restaurant",
                "check_date": "2024-06-14",
                "check_date:currency:XBT": "2024-04-29",
                "cuisine": "regional;italian;coffee_shop",
                "currency:XBT": "yes",
                "name": "Le Moline - Osteria",
                "opening_hours": "Mo-Su 11:30-01:00",
                "payment:lightning": "yes",
                "payment:lightning_contactless": "no",
                "payment:onchain": "yes",
                "phone": "+390513169389",
                "website": "https://www.lemoline.it/"
            }
        },
        {
            "type": "node",
            "id": 1704363751,
            "lat": 44.4684069,
            "lon": 11.3734421,
            "timestamp": "2023-11-02T15:30:27Z",
            "version": 5,
            "changeset": 143537999,
            "user": "b-jazz-bot",
            "uid": 9451067,
            "tags": {
                "addr:city": "Bologna",
                "addr:country": "IT",
                "addr:district": "Savena",
                "addr:housenumber": "3/2",
                "addr:postcode": "40141",
                "addr:street": "Via della Foscherara",
                "check_date": "2022-12-12",
                "currency:XBT": "yes",
                "name": "Tabaccheria Non Solo Fumo Di Mutti Claudia",
                "opening_hours": "Mo-Fr 07:30-19:30, Sa 08:00-19:30",
                "payment:lightning": "yes",
                "payment:onchain": "yes",
                "phone": "+39051472843",
                "shop": "tobacco",
                "source": "Comune di Bologna",
                "website": "https://www.nonsolofumo242.it/"
            }
        },
        {
            "type": "node",
            "id": 1704680079,
            "lat": 44.4956594,
            "lon": 11.338392,
            "timestamp": "2023-12-01T09:12:30Z",
            "version": 8,
            "changeset": 144654237,
            "user": "rabon",
            "uid": 1972608,
            "tags": {
                "addr:city": "Bologna",
                "addr:country": "IT",
                "addr:district": "Porto",
                "addr:housenumber": "23",
                "addr:postcode": "40121",
                "addr:street": "Via Ugo Bassi",
                "amenity": "fast_food",
                "check_date": "2023-07-20",
                "check_date:currency:XBT": "2023-10-18",
                "cuisine": "regional;piadina",
                "currency:XBT": "yes",
                "name": "Sfarin\u00e0",
                "payment:lightning": "yes",
                "phone": "+39 051 269282",
                "source": "Comune di Bologna",
                "website": "https://sfarina.it/"
            }
        },
        {
            "type": "node",
            "id": 3645848575,
            "lat": 44.4930935,
            "lon": 11.3437421,
            "timestamp": "2024-01-26T09:58:18Z",
            "version": 7,
            "changeset": 146703109,
            "user": "Chiarant",
            "uid": 18452174,
            "tags": {
                "addr:city": "Bologna",
                "addr:housenumber": "2",
                "addr:postcode": "40124",
                "addr:street": "Via dell'Archiginnasio",
                "amenity": "pharmacy",
                "currency:XBT": "yes",
                "currency:others": "yes",
                "dispensing": "yes",
                "email": "info@farmaciadelpavaglione.it",
                "healthcare": "pharmacy",
                "name": "Farmacia del Pavaglione",
                "name:it": "Farmacia del Pavaglione",
                "payment:cryptocurrencies": "yes",
                "payment:lightning": "yes",
                "payment:onchain": "yes",
                "phone": "+39 051 221640",
                "survey:date": "2024-01-25",
                "website": "https://farmaciadelpavaglione.it"
            }
        },
        {
            "type": "node",
            "id": 4524470590,
            "lat": 44.5293564,
            "lon": 11.3369088,
            "timestamp": "2023-07-31T14:23:33Z",
            "version": 4,
            "changeset": 139256906,
            "user": "BTC Map",
            "uid": 18545877,
            "tags": {
                "addr:street": "Via Cristoforo Colombo",
                "brand": "Mondo Convenienza",
                "brand:wikidata": "Q55830962",
                "check_date:currency:XBT": "2023-07-31",
                "currency:XBT": "yes",
                "name": "Mondo Convenienza",
                "name:it": "Mondo Convenienza",
                "shop": "furniture"
            }
        },
        {
            "type": "node",
            "id": 4762538120,
            "lat": 44.4883207,
            "lon": 11.2490912,
            "timestamp": "2023-08-26T09:29:13Z",
            "version": 4,
            "changeset": 140403055,
            "user": "Chiarant",
            "uid": 18452174,
            "tags": {
                "addr:city": "Casalecchio di Reno",
                "addr:housenumber": "2/30",
                "addr:postcode": "40033",
                "addr:street": "Via Marilyn Monroe",
                "check_date": "2023-08-26",
                "clothes": "men",
                "currency:XBT": "yes",
                "name": "Nuvolari c.c. Gran Reno",
                "phone": "0514985032",
                "shop": "clothes"
            }
        },
        {
            "type": "node",
            "id": 4777100274,
            "lat": 44.5036687,
            "lon": 11.3088075,
            "timestamp": "2024-02-01T05:49:09Z",
            "version": 3,
            "changeset": 146931311,
            "user": "Igor Bubelov",
            "uid": 2104834,
            "tags": {
                "addr:city": "Bologna",
                "addr:housenumber": "38g",
                "addr:street": "Via Bruno Monterumici",
                "amenity": "fast_food",
                "check_date": "2023-07-20",
                "currency:XBT": "yes",
                "fast_food": "cafeteria",
                "name": "Caffetteria Futura"
            }
        },
        {
            "type": "node",
            "id": 4782380198,
            "lat": 44.46688,
            "lon": 11.4088448,
            "timestamp": "2023-12-17T14:53:36Z",
            "version": 3,
            "changeset": 145217974,
            "user": "Rockedf",
            "uid": 7522075,
            "tags": {
                "addr:city": "San Lazzaro di Savena",
                "addr:housenumber": "34",
                "addr:postcode": "40068",
                "addr:street": "Via Carlo Iussi",
                "amenity": "restaurant",
                "check_date": "2023-11-21",
                "check_date:currency:XBT": "2023-12-17",
                "cuisine": "pizza;italian;bistro",
                "currency:XBT": "yes",
                "email": "info@40068pizzaemore.com",
                "name": "40068 Pizza & More",
                "opening_hours": "Mo-Su 18:00-01:00",
                "payment:lightning": "yes",
                "phone": "+39 051 2842005",
                "website": "https://40068pizzaemore.com/"
            }
        },
        {
            "type": "node",
            "id": 5301076558,
            "lat": 44.4913946,
            "lon": 11.5579672,
            "timestamp": "2023-10-30T03:53:55Z",
            "version": 4,
            "changeset": 143341615,
            "user": "b-jazz-bot",
            "uid": 9451067,
            "tags": {
                "addr:city": "Medicina",
                "addr:housenumber": "611",
                "addr:postcode": "40059",
                "addr:street": "Via Sabbionara",
                "check_date": "2023-04-26",
                "currency:XBT": "yes",
                "email": "commerciale@cnika.it",
                "name": "CNIKA",
                "office": "engineer",
                "phone": "051853172",
                "website": "https://www.cnika.it/"
            }
        },
        {
            "type": "node",
            "id": 7244465685,
            "lat": 44.5127809,
            "lon": 11.2868027,
            "timestamp": "2024-06-11T18:44:28Z",
            "version": 5,
            "changeset": 152557178,
            "user": "Rockedf",
            "uid": 7522075,
            "tags": {
                "addr:city": "Bologna",
                "addr:housenumber": "345",
                "addr:postcode": "40132",
                "addr:street": "Via Emilia Ponente",
                "addr:unit": "D",
                "amenity": "atm",
                "branch": "Bologna",
                "cash_in": "yes",
                "cash_out": "yes",
                "cash_withdrawal": "yes",
                "check_date": "2024-01-28",
                "contact:email": "support@shitcoins.club",
                "contact:facebook": "https://www.facebook.com/shitcoins.club",
                "contact:instagram": "https://www.instagram.com/shitcoinsclub",
                "contact:telegram": "https://t.me/shitcoinsclub",
                "contact:twitter": "https://twitter.com/BitomatCom",
                "currency:CAD": "yes",
                "currency:CHF": "yes",
                "currency:DASH": "yes",
                "currency:ETH": "yes",
                "currency:EUR": "yes",
                "currency:HUF": "yes",
                "currency:LTC": "yes",
                "currency:RON": "yes",
                "currency:USD": "yes",
                "currency:USDC": "yes",
                "currency:USDT": "yes",
                "currency:XBT": "yes",
                "indoor": "yes",
                "level": "0",
                "name": "Bitcoin ATM - Shitcoins.club",
                "network": "Bitcoin",
                "note": "L'ATM Bitcoin a Bologna si trova accanto a Borgoceramica Pavimenti e Arredo Bagno.",
                "opening_hours": "24/7",
                "operator": "Shitcoins.club",
                "payment:cash": "yes",
                "payment:onchain": "yes",
                "phone": "+39 34 8048 7308",
                "start_date": "2019-10-26",
                "url": "https://coinatmradar.com/bitcoin_atm/10059/bitcoin-atm-shitcoins-club-bologna-punto-atm-bitcoin/",
                "website": "https://shitcoins.club/localizzazione-atm/atm-bitcoin-bologna-via-emilia-ponente"
            }
        },
        {
            "type": "node",
            "id": 7507278566,
            "lat": 44.4924243,
            "lon": 11.3257006,
            "timestamp": "2023-11-17T18:41:45Z",
            "version": 4,
            "changeset": 144150734,
            "user": "toponomastica_comune_arenzano",
            "uid": 14257573,
            "tags": {
                "addr:city": "Bologna",
                "addr:housenumber": "40a",
                "addr:postcode": "40134",
                "addr:street": "Via Alessandro Guidotti",
                "amenity": "veterinary",
                "check_date": "2023-05-03",
                "currency:XBT": "yes",
                "description": "Ambulatorio Veterinario per animali da compagnia / pets. Clinica, chirurgia, consulenza, reperibilit\u00e0 h24, visite domiciliari.",
                "email": "ambvetguidotti@gmail.com",
                "name": "Ambulatorio Veterinario Guidotti",
                "phone": "+39 3491007581",
                "website": "https://www.facebook.com/Ambulatorio-Veterinario-Guidotti-101227044772600"
            }
        },
        {
            "type": "node",
            "id": 8454768289,
            "lat": 44.4991796,
            "lon": 11.333816,
            "timestamp": "2023-07-17T12:22:18Z",
            "version": 3,
            "changeset": 138619824,
            "user": "Chiarant",
            "uid": 18452174,
            "tags": {
                "addr:city": "Bologna",
                "addr:housenumber": "6",
                "addr:postcode": "40122",
                "addr:street": "Via Padre Francesco Maria Grimaldi",
                "addr:unit": "e",
                "amenity": "dentist",
                "check_date": "2023-07-17",
                "currency:XBT": "yes",
                "description": "Ambulatorio odontoiatrico specializzato in odontoiatria digitale. Si effettuano sbiancamenti dentali, faccette, ortodonzia con le mascherine trasparenti, implantologia computer assistita.",
                "email": "info@centroodontoiatricogrimaldi.it",
                "healthcare": "dentist",
                "name": "Centro Odontoiatrico Grimaldi",
                "phone": "+39 0516494868",
                "website": "https://www.centroodontoiatricogrimaldi.it/"
            }
        },
        {
            "type": "node",
            "id": 10019906287,
            "lat": 44.4991358,
            "lon": 11.3266877,
            "timestamp": "2023-07-09T14:07:36Z",
            "version": 2,
            "changeset": 138298230,
            "user": "Chiarant",
            "uid": 18452174,
            "tags": {
                "addr:city": "Bologna",
                "addr:housenumber": "3",
                "addr:postcode": "40122",
                "addr:street": "Piazza di Porta San Felice",
                "amenity": "cafe",
                "check_date": "2023-07-09",
                "cuisine": "pizza;italian;burger",
                "currency:XBT": "yes",
                "name": "Borgo Mameli",
                "phone": "+393701512014",
                "survey:date": "2022-09-13",
                "website": "https://borgomameli.it/"
            }
        },
        {
            "type": "node",
            "id": 10019917907,
            "lat": 44.4963972,
            "lon": 11.3385377,
            "timestamp": "2024-04-12T17:45:54Z",
            "version": 4,
            "changeset": 149922352,
            "user": "rabon",
            "uid": 1972608,
            "tags": {
                "addr:city": "Bologna",
                "addr:housenumber": "7",
                "addr:postcode": "40121",
                "addr:street": "Via Belvedere",
                "addr:unit": "C",
                "amenity": "bar",
                "check_date": "2024-02-29",
                "currency:XBT": "yes",
                "email": "pastis.belvedere@gmail.com",
                "name": "Pastis",
                "payment:lightning": "yes",
                "phone": "+39 051 230650",
                "survey:date": "2022-09-13",
                "website": "https://www.facebook.com/PastisBologna"
            }
        },
        {
            "type": "node",
            "id": 10253175451,
            "lat": 44.4003562,
            "lon": 11.5885832,
            "timestamp": "2024-01-17T00:26:52Z",
            "version": 3,
            "changeset": 146342972,
            "user": "Igor Bubelov",
            "uid": 2104834,
            "tags": {
                "addr:city": "Castel San Pietro Terme",
                "addr:housenumber": "4",
                "addr:postcode": "40024",
                "addr:street": "Via Fratelli Cervi",
                "check_date": "2023-04-26",
                "currency:XBT": "yes",
                "name": "Studio Gualandi Di Gualandi Alessandra",
                "office": "consulting",
                "phone": "+390516958704"
            }
        },
        {
            "type": "node",
            "id": 10255532989,
            "lat": 44.5279491,
            "lon": 11.320108,
            "timestamp": "2024-02-29T13:30:01Z",
            "version": 2,
            "changeset": 148052814,
            "user": "Chiarant",
            "uid": 18452174,
            "tags": {
                "addr:city": "Bologna",
                "addr:housenumber": "50",
                "addr:postcode": "40131",
                "addr:street": "Via della Selva Pescarola",
                "amenity": "restaurant",
                "check_date:currency:XBT": "2024-02-29",
                "currency:XBT": "yes",
                "description": "On-chain payments for groups or payments in advance",
                "name": "Il Mulino Bruciato",
                "opening_hours": "Mo-Sa 19:30-03:00",
                "payment:lightning": "yes",
                "payment:lightning_contactless": "no",
                "payment:onchain": "yes",
                "phone": "+39 051 634 3072",
                "website": "https://www.facebook.com/ilmulinobruciato/"
            }
        },
        {
            "type": "node",
            "id": 10766444254,
            "lat": 44.4787868,
            "lon": 11.3815956,
            "timestamp": "2023-11-17T18:41:45Z",
            "version": 5,
            "changeset": 144150734,
            "user": "toponomastica_comune_arenzano",
            "uid": 14257573,
            "tags": {
                "addr:city": "Bologna",
                "addr:housenumber": "4a",
                "addr:postcode": "40139",
                "addr:street": "Via Friuli Venezia Giulia",
                "check_date": "2023-03-27",
                "contact:facebook": "https://www.facebook.com/kickboxingbologna/",
                "currency:XBT": "yes",
                "description": "Specialized in ring and cage sports",
                "email": "megathai@hotmail.com",
                "leisure": "sports_hall",
                "name": "Rainbow team Bologna - Boxe club",
                "payment:lightning": "no",
                "payment:lightning_contactless": "no",
                "payment:onchain": "yes",
                "sport": "boxing;kickboxing;muay_thai;thaibox"
            }
        },
        {
            "type": "node",
            "id": 11069655003,
            "lat": 44.4970313,
            "lon": 11.3394695,
            "timestamp": "2023-07-26T16:49:25Z",
            "version": 1,
            "changeset": 139046931,
            "user": "Rockedf",
            "uid": 7522075,
            "tags": {
                "addr:city": "Bologna",
                "addr:housenumber": "11",
                "addr:postcode": "40121",
                "addr:street": "Via Nazario Sauro",
                "addr:unit": "C",
                "check_date": "2023-07-26",
                "check_date:currency:XBT": "2023-07-26",
                "contact:email": "granadoro@outlook.it",
                "currency:XBT": "yes",
                "name": "Granaglie",
                "opening_hours": "Mo-Sa 08:30-13:00",
                "payment:lightning": "yes",
                "payment:lightning_contactless": "no",
                "payment:onchain": "no",
                "shop": "food",
                "website": "https://docs.google.com/document/d/1OBUmPdXPE2YZD2V9wxykeESBIyrOmsccoI2SNt41prM/edit?usp=drivesdk"
            }
        },
        {
            "type": "node",
            "id": 11200067892,
            "lat": 44.5041456,
            "lon": 11.3387609,
            "timestamp": "2023-10-30T03:52:28Z",
            "version": 4,
            "changeset": 143341565,
            "user": "b-jazz-bot",
            "uid": 9451067,
            "tags": {
                "addr:city": "Bologna",
                "addr:housenumber": "9",
                "addr:postcode": "40121",
                "addr:street": "Via Cairoli",
                "air_conditioning": "yes",
                "currency:EUR": "yes",
                "currency:XBT": "yes",
                "email": "info@casavacanzabologna.it",
                "guest_house": "apartment",
                "internet_access": "wlan",
                "internet_access:fee": "no",
                "name": "CVB :: Cairoli",
                "operator": "Casa Vacanza Bologna",
                "payment:bonifico_bancario": "yes",
                "payment:cryptocurrencies": "yes",
                "payment:lightning": "yes",
                "payment:lightning_contactless": "no",
                "payment:onchain": "yes",
                "payment:paypal": "yes",
                "payment:satispay": "yes",
                "rooms": "2",
                "survey:date": "2023-09-18",
                "tourism": "guest_house",
                "website": "https://www.airbnb.com/h/cairoli"
            }
        },
        {
            "type": "node",
            "id": 11200192363,
            "lat": 44.4933996,
            "lon": 11.3415021,
            "timestamp": "2023-10-30T03:58:11Z",
            "version": 3,
            "changeset": 143341751,
            "user": "b-jazz-bot",
            "uid": 9451067,
            "tags": {
                "addr:city": "Bologna",
                "addr:housenumber": "1",
                "addr:postcode": "40123",
                "addr:street": "Via Battibecco",
                "air_conditioning": "yes",
                "currency:EUR": "yes",
                "currency:XBT": "yes",
                "email": "info@casavacanzabologna.it",
                "guest_house": "apartment",
                "internet_access": "wlan",
                "internet_access:fee": "no",
                "name": "CVB :: Battibecco",
                "operator": "Casa Vacanza Bologna",
                "payment:bonifico": "yes",
                "payment:bonifico_bancario": "yes",
                "payment:cryptocurrencies": "yes",
                "payment:lightning": "yes",
                "payment:onchain": "yes",
                "payment:paypal": "yes",
                "payment:satispay": "yes",
                "rooms": "2",
                "survey:date": "2023-09-18",
                "tourism": "guest_house",
                "website": "https://www.airbnb.com/h/battibecco",
                "wheelchair": "no"
            }
        },
        {
            "type": "node",
            "id": 11462836650,
            "lat": 44.5065792,
            "lon": 11.471508,
            "timestamp": "2023-12-28T14:10:39Z",
            "version": 1,
            "changeset": 145621752,
            "user": "Rockedf",
            "uid": 7522075,
            "tags": {
                "addr:city": "Castenaso",
                "addr:housenumber": "46",
                "addr:postcode": "40055",
                "addr:street": "Via Publio Cornelio Scipione Nasica",
                "check_date": "2023-12-28",
                "currency:XBT": "yes",
                "name": "Architetto Giampaolo Bertuzzi",
                "office": "architect",
                "payment:lightning": "yes",
                "payment:lightning_contactless": "no",
                "payment:onchain": "yes",
                "phone": "+39 33 9183 7132",
                "website": "https://www.architettobertuzzi.com/"
            }
        },
        {
            "type": "node",
            "id": 11513434803,
            "lat": 44.4942573,
            "lon": 11.338926,
            "timestamp": "2024-02-25T11:49:47Z",
            "version": 3,
            "changeset": 147887293,
            "user": "Igor Bubelov",
            "uid": 2104834,
            "tags": {
                "check_date": "2024-01-13",
                "currency:XBT": "yes",
                "name": "Avvocato Lorenzo Reggianini",
                "office": "lawyer",
                "website": "https://tognireggianini.it/"
            }
        },
        {
            "type": "node",
            "id": 11549468353,
            "lat": 44.4929566,
            "lon": 11.3404575,
            "timestamp": "2024-01-27T13:29:04Z",
            "version": 2,
            "changeset": 146744133,
            "user": "MarcoR",
            "uid": 175882,
            "tags": {
                "addr:city": "Bologna",
                "addr:housenumber": "5",
                "addr:postcode": "40123",
                "addr:street": "Piazza Galileo Galilei",
                "check_date:currency:XBT": "2024-01-25",
                "currency:XBT": "yes",
                "name": "Studio Legale Santoro",
                "office": "lawyer",
                "opening_hours": "24/7",
                "payment:cash": "yes",
                "payment:cryptocurrencies": "yes",
                "payment:lightning": "yes",
                "payment:lightning_contactless": "yes",
                "phone": "+39 051 6215920",
                "survey:date": "2024-01-25"
            }
        },
        {
            "type": "node",
            "id": 11665770786,
            "lat": 44.3361454,
            "lon": 11.4042206,
            "timestamp": "2024-03-29T21:58:21Z",
            "version": 6,
            "changeset": 149331897,
            "user": "pajero982",
            "uid": 638396,
            "tags": {
                "addr:city": "Monterenzio",
                "addr:housenumber": "159",
                "addr:postcode": "40050",
                "addr:street": "Via Idice",
                "check_date": "2024-02-26",
                "currency:EUR": "yes",
                "currency:XBT": "yes",
                "name": "Autofficina Monterenzio Snc",
                "opening_hours": "Mo-Fr 08:00-18:00",
                "operator": "Autoriparazioni Gommista Elettrauto",
                "payment:apple_pay": "yes",
                "payment:cash": "yes",
                "payment:contactless": "yes",
                "payment:credit_cards": "yes",
                "payment:cryptocurrencies": "yes",
                "payment:debit_cards": "yes",
                "payment:google_pay": "yes",
                "payment:maestro": "yes",
                "payment:mastercard": "yes",
                "payment:notes": "yes",
                "payment:paypal": "yes",
                "payment:visa": "yes",
                "phone": "+39051929155",
                "service:vehicle:air_conditioning": "yes",
                "service:vehicle:alignment": "yes",
                "service:vehicle:batteries": "yes",
                "service:vehicle:brakes": "yes",
                "service:vehicle:car_parts": "yes",
                "service:vehicle:car_repair": "yes",
                "service:vehicle:diagnostics": "yes",
                "service:vehicle:electrical": "yes",
                "service:vehicle:glass": "yes",
                "service:vehicle:inspection": "yes",
                "service:vehicle:muffler": "yes",
                "service:vehicle:oil_change": "yes",
                "service:vehicle:transmission": "yes",
                "service:vehicle:tyres": "yes",
                "shop": "car_repair"
            }
        },
        {
            "type": "node",
            "id": 11676656636,
            "lat": 44.4962899,
            "lon": 11.3388262,
            "timestamp": "2024-04-21T20:32:27Z",
            "version": 2,
            "changeset": 150317932,
            "user": "Rockedf",
            "uid": 7522075,
            "tags": {
                "addr:city": "Bologna",
                "addr:housenumber": "4",
                "addr:postcode": "40121",
                "addr:street": "Via Belvedere",
                "addr:unit": "a",
                "amenity": "bar",
                "check_date": "2024-02-29",
                "check_date:currency:XBT": "2024-04-21",
                "currency:XBT": "yes",
                "email": "pastis.belvedere@gmail.com",
                "name": "Pastis Cuv\u00e8e",
                "payment:lightning": "yes"
            }
        },
        {
            "type": "node",
            "id": 11946024691,
            "lat": 44.4913442,
            "lon": 11.3472116,
            "timestamp": "2024-05-30T21:03:13Z",
            "version": 1,
            "changeset": 152054781,
            "user": "Rockedf",
            "uid": 7522075,
            "tags": {
                "addr:city": "Bologna",
                "addr:housenumber": "25",
                "addr:postcode": "40124",
                "addr:street": "Via Luigi Carlo Farini",
                "check_date": "2024-05-30",
                "contact:email": "caterina.marmocchi@gmail.com",
                "currency:XBT": "yes",
                "name": "AVV CATERINA MARMOCCHI",
                "office": "lawyer",
                "payment:lightning": "yes",
                "payment:lightning_contactless": "no",
                "payment:onchain": "yes",
                "phone": "+39 34 9288 6313"
            }
        }
    ]
}