{
    "id": "bb-forl\u00ec-cesena",
    "name": "Bitcoin Beer Forl\u00ec Cesena",
    "lng": 44.1844464,
    "lat": 12.135094,
    "localita": "Forl\u00ec Cesena",
    "telegram_weburl": "https://web.telegram.org/a/#-1001430338961",
    "telegram_app": "https://t.me/bitcoinforlicesena",
    "telegram_members": 20.0,
    "network": "bitcoinbeer",
    "poi": [
        {
            "type": "node",
            "id": 2323216819,
            "lat": 44.1379112,
            "lon": 12.2441762,
            "timestamp": "2024-03-15T12:19:30Z",
            "version": 6,
            "changeset": 148685607,
            "user": "Danysan95",
            "uid": 4425563,
            "tags": {
                "addr:city": "Cesena",
                "addr:housenumber": "9",
                "addr:postcode": "47521",
                "addr:street": "Corso Giuseppe Mazzini",
                "cesena:ref_id": "051130009000",
                "check_date": "2024-03-15",
                "clothes": "men",
                "currency:XBT": "yes",
                "name": "Doppelg\u00e4nger",
                "payment:lightning": "no",
                "payment:lightning_contactless": "no",
                "payment:onchain": "yes",
                "phone": "054721467",
                "shop": "clothes",
                "website": "https://www.doppelganger.it/"
            }
        },
        {
            "type": "node",
            "id": 4766288526,
            "lat": 44.1983594,
            "lon": 12.0329415,
            "timestamp": "2023-01-02T20:04:57Z",
            "version": 8,
            "changeset": 130801916,
            "user": "Danysan95",
            "uid": 4425563,
            "tags": {
                "addr:city": "Forl\u00ec",
                "addr:housenumber": "277b",
                "addr:postcode": "47121",
                "addr:street": "Viale Risorgimento",
                "air_conditioning": "yes",
                "check_date:currency:XBT": "2022-12-19",
                "currency:XBT": "yes",
                "description": "Agenzia di conto vendita per privati e aziende. Pubblichiamo sul nostro sito e sui principali marketplaces foto e descrizione dei vostri prodotti ponendoci come intermediari della vendita. Offriamo assistenza in transazioni online in vendita e in acquisto",
                "email": "info@unmilione.net",
                "fax": "+39 0543 091354",
                "image": "https://unmilione.net/img/servizio/logo-16521078511.jpg",
                "name": "unmilione agenzia d'affari",
                "opening_hours": "Mo-Sa 09:00-12:30, 15:30-19:30; Th off; Su off",
                "operator": "Luca Prestianni",
                "payment:cards": "yes",
                "payment:cash": "yes",
                "payment:lightning": "yes",
                "payment:onchain": "yes",
                "phone": "+39 0543 090105",
                "phone:mobile": "+39 3332826865",
                "ref:vatin": "02624250300",
                "second_hand": "yes",
                "shop": "second_hand",
                "stroller": "yes",
                "website": "https://www.unmilione.net",
                "wheelchair": "yes"
            }
        },
        {
            "type": "node",
            "id": 6224686025,
            "lat": 44.2766438,
            "lon": 12.3444155,
            "timestamp": "2024-01-06T11:20:43Z",
            "version": 4,
            "changeset": 145952776,
            "user": "Chiarant",
            "uid": 18452174,
            "tags": {
                "addr:city": "Cervia",
                "addr:housenumber": "37",
                "addr:postcode": "48015",
                "addr:street": "Viale Ravenna",
                "check_date": "2024-01-06",
                "currency:XBT": "yes",
                "email": "mircobiondi@inlogica.it",
                "name": "inlogica",
                "office": "financial",
                "payment:bitcoin:operator": "inbitcoin.it",
                "phone": "+39 0544 71310",
                "website": "http://www.inlogica.it/"
            }
        },
        {
            "type": "node",
            "id": 10162799750,
            "lat": 44.3309194,
            "lon": 12.1329818,
            "timestamp": "2022-11-30T18:10:31Z",
            "version": 2,
            "changeset": 129571540,
            "user": "BSN21M",
            "uid": 17441326,
            "tags": {
                "addr:city": "Gambellara",
                "addr:housenumber": "44",
                "addr:postcode": "48124",
                "addr:street": "Via del Fabbro",
                "check_date:currency:XBT": "2022-11-30",
                "craft": "plumber",
                "currency:XBT": "yes",
                "email": "luca6854@gmail.com",
                "name": "Fantinelli Gabriele",
                "payment:lightning": "no",
                "payment:lightning_contactless": "no",
                "payment:onchain": "yes",
                "phone": "+39335390405",
                "survey:date": "2022-11-06",
                "website": "https://www.fantinelligabriele.it/"
            }
        },
        {
            "type": "node",
            "id": 10648841302,
            "lat": 44.2428018,
            "lon": 12.3648022,
            "timestamp": "2024-05-30T19:01:19Z",
            "version": 4,
            "changeset": 152051026,
            "user": "Furia78",
            "uid": 18489293,
            "tags": {
                "addr:city": "Pinarella di Cervia",
                "addr:housenumber": "15",
                "addr:postcode": "48015",
                "addr:street": "Piazza della Repubblica",
                "check_date:currency:XBT": "2023-02-11",
                "currency:XBT": "yes",
                "name": "Piadina da Giorgia",
                "payment:lightning": "yes",
                "payment:lightning_contactless": "no",
                "payment:onchain": "no",
                "phone": "+393490534667",
                "website": "https://www.piadinadagiorgia.it/it/"
            }
        }
    ]
}