{
    "id": "bb-faenza",
    "name": "Bitcoin Beer Faenza",
    "lng": 44.2897798,
    "lat": 11.8774255,
    "localita": "Faenza",
    "telegram_weburl": "https://web.telegram.org/a/#-1001836800144",
    "telegram_app": "https://t.me/bitcoinbeerfaenza",
    "telegram_members": 232.0,
    "network": "bitcoinbeer",
    "poi": [
        {
            "type": "node",
            "id": 2505963021,
            "lat": 44.2884029,
            "lon": 11.8721888,
            "timestamp": "2023-12-10T10:32:37Z",
            "version": 6,
            "changeset": 144959823,
            "user": "Chiarant",
            "uid": 18452174,
            "tags": {
                "addr:city": "Faenza",
                "addr:housenumber": "4",
                "addr:postcode": "48018",
                "addr:street": "Via Giovanni da Oriolo",
                "amenity": "fast_food",
                "check_date": "2023-12-10",
                "contact:facebook": "https://www.facebook.com/lovastreetfoodfaenza/",
                "cuisine": "ramen;japanese;piadina",
                "currency:XBT": "yes",
                "drive_through": "no",
                "name": "Lova street food - Ramen",
                "opening_hours": "Th-Tu 18:30-00:00",
                "phone": "+393280448481",
                "takeaway": "yes",
                "website": "https://lovastreetfood.it/",
                "website:menu": "https://lovastreetfood.it/menu/"
            }
        },
        {
            "type": "node",
            "id": 4766288526,
            "lat": 44.1983594,
            "lon": 12.0329415,
            "timestamp": "2023-01-02T20:04:57Z",
            "version": 8,
            "changeset": 130801916,
            "user": "Danysan95",
            "uid": 4425563,
            "tags": {
                "addr:city": "Forl\u00ec",
                "addr:housenumber": "277b",
                "addr:postcode": "47121",
                "addr:street": "Viale Risorgimento",
                "air_conditioning": "yes",
                "check_date:currency:XBT": "2022-12-19",
                "currency:XBT": "yes",
                "description": "Agenzia di conto vendita per privati e aziende. Pubblichiamo sul nostro sito e sui principali marketplaces foto e descrizione dei vostri prodotti ponendoci come intermediari della vendita. Offriamo assistenza in transazioni online in vendita e in acquisto",
                "email": "info@unmilione.net",
                "fax": "+39 0543 091354",
                "image": "https://unmilione.net/img/servizio/logo-16521078511.jpg",
                "name": "unmilione agenzia d'affari",
                "opening_hours": "Mo-Sa 09:00-12:30, 15:30-19:30; Th off; Su off",
                "operator": "Luca Prestianni",
                "payment:cards": "yes",
                "payment:cash": "yes",
                "payment:lightning": "yes",
                "payment:onchain": "yes",
                "phone": "+39 0543 090105",
                "phone:mobile": "+39 3332826865",
                "ref:vatin": "02624250300",
                "second_hand": "yes",
                "shop": "second_hand",
                "stroller": "yes",
                "website": "https://www.unmilione.net",
                "wheelchair": "yes"
            }
        },
        {
            "type": "node",
            "id": 10162799750,
            "lat": 44.3309194,
            "lon": 12.1329818,
            "timestamp": "2022-11-30T18:10:31Z",
            "version": 2,
            "changeset": 129571540,
            "user": "BSN21M",
            "uid": 17441326,
            "tags": {
                "addr:city": "Gambellara",
                "addr:housenumber": "44",
                "addr:postcode": "48124",
                "addr:street": "Via del Fabbro",
                "check_date:currency:XBT": "2022-11-30",
                "craft": "plumber",
                "currency:XBT": "yes",
                "email": "luca6854@gmail.com",
                "name": "Fantinelli Gabriele",
                "payment:lightning": "no",
                "payment:lightning_contactless": "no",
                "payment:onchain": "yes",
                "phone": "+39335390405",
                "survey:date": "2022-11-06",
                "website": "https://www.fantinelligabriele.it/"
            }
        },
        {
            "type": "node",
            "id": 11540666657,
            "lat": 44.3196504,
            "lon": 11.7992835,
            "timestamp": "2024-01-22T18:36:13Z",
            "version": 1,
            "changeset": 146565122,
            "user": "Rockedf",
            "uid": 7522075,
            "tags": {
                "addr:city": "Castel Bolognese",
                "addr:housenumber": "59",
                "addr:postcode": "48014",
                "addr:street": "Via Emilia Interna",
                "addr:unit": "61",
                "check_date": "2024-01-22",
                "contact:email": "info@doctoramen.it",
                "currency:XBT": "yes",
                "name": "Doctoramen",
                "office": "graphic_design",
                "payment:lightning": "yes",
                "payment:lightning_contactless": "no",
                "payment:onchain": "yes",
                "phone": "+39 32 8448 2538",
                "website": "https://www.doctoramen.it/"
            }
        }
    ]
}