{
    "id": "bb-genzano-roma",
    "name": "Bitcoin Beer Genzano Roma",
    "lng": 41.673,
    "lat": 12.704,
    "localita": "Genzano di Roma",
    "telegram_weburl": "https://web.telegram.org/a/#-1002002948863",
    "telegram_app": "https://t.me/bitcoinbeergenzanodiroma",
    "telegram_members": 21.0,
    "network": "bitcoinbeer",
    "poi": [
        {
            "type": "node",
            "id": 2623137793,
            "lat": 41.7464531,
            "lon": 12.6503522,
            "timestamp": "2024-03-09T20:38:52Z",
            "version": 5,
            "changeset": 148439365,
            "user": "Rockedf",
            "uid": 7522075,
            "tags": {
                "addr:city": "Castel Gandolfo",
                "addr:housenumber": "22",
                "addr:place": "Piazza della Libert\u00e0",
                "addr:postcode": "00073",
                "addr:unit": "23",
                "amenity": "cafe",
                "check_date": "2024-03-09",
                "currency:XBT": "yes",
                "name": "Bar Carosi",
                "opening_hours": "Tu-Su 06:30-23:00",
                "payment:lightning": "yes",
                "payment:lightning_contactless": "no",
                "payment:onchain": "yes",
                "phone": "+39 06 9320944"
            }
        },
        {
            "type": "node",
            "id": 4483864101,
            "lat": 41.8071006,
            "lon": 12.6797947,
            "timestamp": "2023-03-04T20:14:22Z",
            "version": 5,
            "changeset": 133304855,
            "user": "perpetual nomad",
            "uid": 17199501,
            "tags": {
                "addr:city": "Frascati",
                "addr:housenumber": "3",
                "addr:postcode": "00044",
                "addr:street": "Piazza Roma",
                "amenity": "cafe",
                "check_date:currency:XBT": "2023-03-04",
                "currency:XBT": "yes",
                "name": "Gran Caff\u00e8 Roma"
            }
        },
        {
            "type": "node",
            "id": 6783688068,
            "lat": 41.8079692,
            "lon": 12.6812431,
            "timestamp": "2024-05-16T12:34:03Z",
            "version": 2,
            "changeset": 151406177,
            "user": "Chiarant",
            "uid": 18452174,
            "tags": {
                "addr:city": "Frascati",
                "addr:housenumber": "14",
                "addr:postcode": "00044",
                "addr:street": "Piazza San Pietro",
                "check_date": "2024-05-16",
                "currency:XBT": "yes",
                "name": "Liguori",
                "shop": "jewelry"
            }
        },
        {
            "type": "node",
            "id": 10765722330,
            "lat": 41.5936638,
            "lon": 12.8237297,
            "timestamp": "2023-08-01T12:05:45Z",
            "version": 3,
            "changeset": 139297218,
            "user": "Igor Bubelov",
            "uid": 2104834,
            "tags": {
                "addr:city": "Cisterna di Latina",
                "addr:housenumber": "40",
                "addr:postcode": "04012",
                "addr:street": "Via Carlo Peroni",
                "check_date": "2023-03-27",
                "currency:XBT": "yes",
                "email": "info@asicmining.it",
                "name": "Asicmining.it - Asic Repair Center",
                "opening_hours": "Mo-Fr 9:00-13:00, 15:00-18:00",
                "payment:lightning": "yes",
                "payment:lightning_contactless": "no",
                "payment:onchain": "yes",
                "phone": "+39 334 594 9842",
                "shop": "repair",
                "website": "https://asicmining.it/"
            }
        },
        {
            "type": "node",
            "id": 11358052148,
            "lat": 41.8406085,
            "lon": 12.6222508,
            "timestamp": "2024-02-19T04:21:15Z",
            "version": 2,
            "changeset": 147632651,
            "user": "Igor Bubelov",
            "uid": 2104834,
            "tags": {
                "addr:city": "Roma",
                "addr:housenumber": "426",
                "addr:postcode": "00173",
                "addr:street": "Viale Luigi Schiavonetti",
                "amenity": "fast_food",
                "check_date": "2023-11-17",
                "cuisine": "kebab",
                "currency:XBT": "yes",
                "name": "kebhouze - CC Tor Vergata",
                "payment:lightning": "yes",
                "payment:lightning_contactless": "yes",
                "payment:onchain": "yes",
                "website": "https://kebhouze.com/"
            }
        },
        {
            "type": "node",
            "id": 11694127045,
            "lat": 41.7300886,
            "lon": 12.659825,
            "timestamp": "2024-03-05T14:45:53Z",
            "version": 2,
            "changeset": 148254017,
            "user": "Chiarant",
            "uid": 18452174,
            "tags": {
                "addr:city": "Albano Laziale",
                "addr:housenumber": "45",
                "addr:postcode": "00041",
                "addr:street": "Via Don Minzoni",
                "amenity": "pub",
                "check_date": "2024-03-05",
                "contact:facebook": "https://www.facebook.com/people/Dooleys-Irish-Pub/100069111750997/",
                "currency:XBT": "yes",
                "name": "Dooley's Irish Pub",
                "opening_hours": "Mo-Su 18:00-02:00",
                "payment:lightning": "yes",
                "payment:onchain": "no",
                "theme": "irish"
            }
        },
        {
            "type": "node",
            "id": 11723361058,
            "lat": 41.7309085,
            "lon": 12.6587998,
            "timestamp": "2024-05-02T13:11:05Z",
            "version": 5,
            "changeset": 150793763,
            "user": "mnestico",
            "uid": 20712493,
            "tags": {
                "addr:city": "Albano Laziale",
                "addr:housenumber": "10",
                "addr:postcode": "00041",
                "addr:street": "Largo Leonardo Murialdo",
                "check_date": "2024-05-02",
                "currency:EUR": "yes",
                "currency:XBT": "yes",
                "name": "Barber Shop da Giallo",
                "payment:lightning": "yes",
                "payment:lightning_contactless": "no",
                "payment:onchain": "yes",
                "phone": "391 420 3984",
                "shop": "hairdresser"
            }
        },
        {
            "type": "node",
            "id": 11822758657,
            "lat": 41.8119492,
            "lon": 12.6068387,
            "timestamp": "2024-04-17T15:05:07Z",
            "version": 2,
            "changeset": 150134303,
            "user": "Al_14",
            "uid": 21316887,
            "tags": {
                "addr:city": "Roma",
                "addr:housenumber": "72",
                "addr:postcode": "00118",
                "addr:street": "Via del Casale Agostinelli",
                "amenity": "dentist",
                "check_date": "2024-04-16",
                "contact:email": "alessio.petrucci.14@gmail.com",
                "currency:XBT": "yes",
                "healthcare": "dentist",
                "healthcare:speciality": "dentist",
                "name": "Dentista dott. Petrucci Alessio",
                "payment:lightning": "yes",
                "payment:lightning_contactless": "no",
                "payment:onchain": "yes",
                "phone": "+39 35 1907 3364"
            }
        }
    ]
}