{
    "id": "bb-istria",
    "name": "Bitcoin Beer Istria",
    "lng": 45.2922106,
    "lat": 13.9070363,
    "localita": "Istria",
    "idlocalita": "istria",
    "telegram_weburl": "https://web.telegram.org/a/#-1001828207471",
    "telegram_app": "http://t.me/BitcoinIstria",
    "telegram_members": 13.0,
    "network": "bitcoinbeer",
    "poi": [
        {
            "type": "node",
            "id": 269056028,
            "lat": 45.6669666,
            "lon": 13.7712051,
            "timestamp": "2025-09-30T11:06:55Z",
            "version": 8,
            "changeset": 172655192,
            "user": "btcitnet",
            "uid": 22525435,
            "tags": {
                "addr:city": "Trieste",
                "addr:housenumber": "4/c",
                "addr:postcode": "34135",
                "addr:street": "Via Montorsino",
                "brand": "Conad City",
                "brand:wikidata": "Q57543102",
                "name": "Conad City",
                "opening_hours": "Mo-Sa 07:30-20:00; PH off",
                "shop": "supermarket"
            }
        },
        {
            "type": "node",
            "id": 277577258,
            "lat": 45.6410281,
            "lon": 13.7621303,
            "timestamp": "2025-10-02T06:44:41Z",
            "version": 4,
            "changeset": 172734141,
            "user": "btcitnet",
            "uid": 22525435,
            "tags": {
                "addr:city": "Trieste",
                "addr:housenumber": "26/3",
                "addr:postcode": "34143",
                "addr:street": "Via Vittorio Locchi",
                "brand": "Conad City",
                "brand:wikidata": "Q57543102",
                "name": "Conad City",
                "shop": "supermarket"
            }
        },
        {
            "type": "node",
            "id": 298373862,
            "lat": 45.6495421,
            "lon": 13.7676496,
            "timestamp": "2024-07-17T14:57:58Z",
            "version": 12,
            "changeset": 154062586,
            "user": "macieyw",
            "uid": 19536390,
            "tags": {
                "addr:city": "Trieste",
                "addr:housenumber": "3a",
                "addr:postcode": "34121",
                "addr:street": "Piazza Unit\u00e0 d'Italia",
                "brand": "Spar",
                "brand:wikidata": "Q610492",
                "brand:wikipedia": "en:SPAR (retailer)",
                "fax": "+39 040 3472677",
                "name": "Despar",
                "opening_hours": "Mo-Sa 08:00-20:00; PH off; Su 09:00-19:00",
                "operator": "Aspiag Service S.r.l.",
                "phone": "+39 040 631064",
                "shop": "supermarket",
                "website": "https://www.despar.it/it/punto-vendita-despar/812/trieste/",
                "wheelchair": "yes"
            }
        },
        {
            "type": "node",
            "id": 599041721,
            "lat": 45.7070495,
            "lon": 13.8624686,
            "timestamp": "2025-10-04T18:25:16Z",
            "version": 11,
            "changeset": 172841856,
            "user": "btcitnet",
            "uid": 22525435,
            "tags": {
                "addr:city": "Se\u017eana",
                "addr:housenumber": "5",
                "addr:postcode": "6210",
                "addr:street": "Cesta na Lenivec",
                "brand": "Spar",
                "brand:wikidata": "Q610492",
                "name": "Spar",
                "opening_hours": "Mo-Sa 08:00-20:00",
                "operator": "Spar Slovenija d.o.o.",
                "phone": "+386 5 7300182",
                "shop": "supermarket",
                "website": "https://www.spar.si/",
                "wheelchair": "yes"
            }
        },
        {
            "type": "node",
            "id": 798808119,
            "lat": 45.6588911,
            "lon": 13.7904933,
            "timestamp": "2024-07-09T07:34:49Z",
            "version": 6,
            "changeset": 153732140,
            "user": "paulbrunner",
            "uid": 15541433,
            "tags": {
                "addr:city": "Trieste",
                "addr:housenumber": "111",
                "addr:postcode": "34127",
                "addr:street": "Via Fabio Severo",
                "brand": "Spar",
                "brand:wikidata": "Q610492",
                "brand:wikipedia": "en:SPAR (retailer)",
                "check_date": "2024-07-09",
                "name": "Despar",
                "opening_hours": "Mo-Sa 08:00-20:00; Su 08:30-13:00",
                "shop": "supermarket"
            }
        },
        {
            "type": "node",
            "id": 854384827,
            "lat": 45.6545923,
            "lon": 13.800988,
            "timestamp": "2025-10-04T18:26:07Z",
            "version": 4,
            "changeset": 172841880,
            "user": "btcitnet",
            "uid": 22525435,
            "tags": {
                "addr:city": "Trieste",
                "addr:housenumber": "14",
                "addr:postcode": "34128",
                "addr:street": "Via del Donatello",
                "brand": "Spar",
                "brand:wikidata": "Q610492",
                "brand:wikipedia": "en:SPAR (retailer)",
                "name": "Despar",
                "shop": "supermarket"
            }
        },
        {
            "type": "node",
            "id": 854478781,
            "lat": 45.6554241,
            "lon": 13.802841,
            "timestamp": "2025-10-04T18:27:00Z",
            "version": 4,
            "changeset": 172841919,
            "user": "btcitnet",
            "uid": 22525435,
            "tags": {
                "addr:city": "Trieste",
                "addr:housenumber": "19",
                "addr:postcode": "34123",
                "addr:street": "Viale Raffaello Sanzio",
                "brand": "Spar",
                "brand:wikidata": "Q610492",
                "brand:wikipedia": "en:SPAR (retailer)",
                "name": "Despar",
                "shop": "supermarket"
            }
        },
        {
            "type": "node",
            "id": 973494349,
            "lat": 45.6144709,
            "lon": 13.8246522,
            "timestamp": "2024-10-01T07:01:33Z",
            "version": 7,
            "changeset": 157324123,
            "user": "Flight777",
            "uid": 9925732,
            "tags": {
                "addr:city": "Trieste",
                "addr:housenumber": "7",
                "addr:postcode": "34147",
                "addr:street": "Via Edgardo Morpurgo",
                "branch": "Supermercato",
                "brand": "Conad",
                "brand:wikidata": "Q639075",
                "fax": "+39 040 8324861",
                "name": "Conad",
                "opening_hours": "Mo-Sa 07:30-20:00, Su 08:30-20:00; PH off",
                "operator": "Commercianti Indipendenti Associati Soc. Coop.",
                "phone": "+39 040 281173",
                "ref:vatin": "IT01269590327",
                "shop": "supermarket",
                "website": "https://www.conad.it/"
            }
        },
        {
            "type": "node",
            "id": 1180457503,
            "lat": 45.6247828,
            "lon": 13.7920055,
            "timestamp": "2025-10-04T18:28:01Z",
            "version": 5,
            "changeset": 172841955,
            "user": "btcitnet",
            "uid": 22525435,
            "tags": {
                "addr:city": "Trieste",
                "addr:housenumber": "68",
                "addr:postcode": "34148",
                "addr:street": "via Giacomo Puccini",
                "brand": "Spar",
                "brand:wikidata": "Q610492",
                "brand:wikipedia": "en:SPAR (retailer)",
                "name": "Despar",
                "operator": "DESPAR",
                "shop": "supermarket",
                "wheelchair": "yes"
            }
        },
        {
            "type": "node",
            "id": 1561401046,
            "lat": 45.646771,
            "lon": 13.7865979,
            "timestamp": "2025-09-19T21:33:00Z",
            "version": 3,
            "changeset": 172182923,
            "user": "alessandrocarmeli",
            "uid": 12294600,
            "tags": {
                "addr:city": "Trieste",
                "addr:country": "IT",
                "addr:housenumber": "7",
                "addr:postcode": "34141",
                "addr:street": "Via dei Leo",
                "brand": "Spar",
                "brand:wikidata": "Q610492",
                "brand:wikipedia": "da:Eurospar",
                "fax": "+39 040 3728097",
                "name": "Eurospar",
                "official_name": "Aspiag Service S.r.l.",
                "opening_hours": "Mo-Sa 09:00-19:30; Su 09:00-13:00,16:00-19:00",
                "phone": "+39 040 3728025",
                "ref:vatin": "IT00882800212",
                "shop": "supermarket",
                "website": "http://www.edespar.it/"
            }
        },
        {
            "type": "node",
            "id": 1569158341,
            "lat": 45.6476628,
            "lon": 13.7796293,
            "timestamp": "2025-10-04T18:28:48Z",
            "version": 6,
            "changeset": 172841975,
            "user": "btcitnet",
            "uid": 22525435,
            "tags": {
                "addr:city": "Trieste",
                "addr:housenumber": "7",
                "addr:postcode": "34129",
                "addr:street": "Largo della Barriera Vecchia",
                "brand": "Spar",
                "brand:wikidata": "Q610492",
                "brand:wikipedia": "da:Eurospar",
                "name": "Eurospar",
                "shop": "supermarket"
            }
        },
        {
            "type": "node",
            "id": 1598955966,
            "lat": 45.6501189,
            "lon": 13.7701515,
            "timestamp": "2025-09-30T11:08:55Z",
            "version": 4,
            "changeset": 172655287,
            "user": "btcitnet",
            "uid": 22525435,
            "tags": {
                "addr:city": "Trieste",
                "addr:housenumber": "5",
                "addr:postcode": "34122",
                "addr:street": "Piazza della Borsa",
                "brand": "Calzedonia",
                "brand:wikidata": "Q1027874",
                "brand:wikipedia": "en:Calzedonia",
                "clothes": "underwear",
                "name": "Calzedonia",
                "shop": "clothes"
            }
        },
        {
            "type": "node",
            "id": 1620381481,
            "lat": 45.6503078,
            "lon": 13.7746452,
            "timestamp": "2025-07-28T20:39:37Z",
            "version": 4,
            "changeset": 169635695,
            "user": "Aiman",
            "uid": 67550,
            "tags": {
                "addr:city": "Trieste",
                "addr:postcode": "34122",
                "addr:state": "36",
                "addr:street": "Via Giuseppe Mazzini",
                "brand": "La Feltrinelli",
                "brand:wikidata": "Q96311190",
                "name": "La Feltrinelli",
                "shop": "books"
            }
        },
        {
            "type": "node",
            "id": 1801570428,
            "lat": 45.6496534,
            "lon": 13.773408,
            "timestamp": "2025-10-02T10:30:19Z",
            "version": 5,
            "changeset": 172742706,
            "user": "btcitnet",
            "uid": 22525435,
            "tags": {
                "addr:city": "Trieste",
                "addr:housenumber": "11",
                "addr:postcode": "34122",
                "addr:street": "Corso Italia",
                "brand": "Intimissimi",
                "brand:wikidata": "Q305404",
                "brand:wikipedia": "en:Intimissimi",
                "clothes": "underwear",
                "name": "Intimissimi",
                "shop": "clothes"
            }
        },
        {
            "type": "node",
            "id": 2061434733,
            "lat": 45.5439948,
            "lon": 13.7414006,
            "timestamp": "2025-10-04T21:12:36Z",
            "version": 6,
            "changeset": 172846979,
            "user": "btcitnet",
            "uid": 22525435,
            "tags": {
                "addr:city": "Koper",
                "addr:housenumber": "3A",
                "addr:postcode": "6000",
                "addr:street": "Ankaranska cesta / Via Ancarano",
                "brand": "Spar",
                "brand:wikidata": "Q610492",
                "brand:wikipedia": "en:SPAR (retailer)",
                "name": "Spar",
                "shop": "supermarket",
                "wheelchair": "yes"
            }
        },
        {
            "type": "node",
            "id": 2213309239,
            "lat": 45.6521516,
            "lon": 13.7802433,
            "timestamp": "2025-01-03T15:54:41Z",
            "version": 6,
            "changeset": 160955299,
            "user": "mpbin",
            "uid": 21850090,
            "tags": {
                "addr:city": "Trieste",
                "addr:housenumber": "20",
                "addr:postcode": "34125",
                "addr:street": "Viale Venti Settembre",
                "brand": "OVS",
                "brand:wikidata": "Q2042514",
                "brand:wikipedia": "en:OVS (company)",
                "level": "0,1",
                "name": "OVS",
                "opening_hours": "Mo-Sa 09:30-20:00, Su 10:00-19:30; PH off",
                "operator": "OVS",
                "phone": "+39 040 361258",
                "ref:vatin": "IT04240010274",
                "shop": "clothes",
                "website": "https://negozi.ovs.it/"
            }
        },
        {
            "type": "node",
            "id": 2420102106,
            "lat": 45.2237545,
            "lon": 13.5974524,
            "timestamp": "2024-07-02T20:22:04Z",
            "version": 10,
            "changeset": 153475454,
            "user": "paulbrunner",
            "uid": 15541433,
            "tags": {
                "addr:city": "Pore\u010d",
                "addr:country": "HR",
                "addr:housenumber": "1a",
                "addr:postcode": "52440",
                "addr:street": "Rade Kon\u010dara",
                "brand": "Spar",
                "brand:wikidata": "Q610492",
                "brand:wikipedia": "en:SPAR (retailer)",
                "check_date": "2024-07-02",
                "name": "Spar",
                "opening_hours": "Mo-Sa 08:00-21:00; Su 08:00-18:00",
                "payment:american_express": "yes",
                "payment:cash": "yes",
                "payment:diners_club": "yes",
                "payment:maestro": "yes",
                "payment:mastercard": "yes",
                "payment:visa": "yes",
                "payment:visa_debit": "yes",
                "payment:visa_electron": "yes",
                "phone": "+385 52 427 757",
                "shop": "supermarket",
                "wheelchair": "yes"
            }
        },
        {
            "type": "node",
            "id": 2597261045,
            "lat": 45.6497704,
            "lon": 13.7744685,
            "timestamp": "2021-11-21T17:04:36Z",
            "version": 4,
            "changeset": 114065659,
            "user": "alessandrocarmeli",
            "uid": 12294600,
            "tags": {
                "addr:city": "Trieste",
                "addr:housenumber": "18",
                "addr:postcode": "34122",
                "addr:street": "Corso Italia",
                "brand": "Upim",
                "brand:wikidata": "Q1414836",
                "brand:wikipedia": "it:UPIM",
                "name": "Upim",
                "phone": "+39 040 638192",
                "shop": "department_store",
                "website": "https://www.upim.com/"
            }
        },
        {
            "type": "node",
            "id": 2793009487,
            "lat": 45.6528663,
            "lon": 13.7708434,
            "timestamp": "2025-10-04T21:13:41Z",
            "version": 6,
            "changeset": 172847005,
            "user": "btcitnet",
            "uid": 22525435,
            "tags": {
                "addr:city": "Trieste",
                "addr:housenumber": "6",
                "addr:postcode": "34132",
                "addr:street": "Via Gioachino Rossini",
                "brand": "Spar",
                "brand:wikidata": "Q610492",
                "brand:wikipedia": "en:SPAR (retailer)",
                "check_date:opening_hours": "2023-10-28",
                "name": "Despar Express",
                "opening_hours": "Mo-Sa 08:00-20:00; Su 08:30-19:30",
                "shop": "supermarket"
            }
        },
        {
            "type": "node",
            "id": 3589764218,
            "lat": 45.5443347,
            "lon": 13.7331598,
            "timestamp": "2022-05-07T15:44:11Z",
            "version": 6,
            "changeset": 120673378,
            "user": "streetcreds",
            "uid": 6533699,
            "tags": {
                "addr:city": "Koper / Capodistria",
                "addr:housenumber": "3",
                "addr:postcode": "6000",
                "addr:street": "Ferrarska ulica / Via Ferrara",
                "brand": "Spar",
                "brand:wikidata": "Q610492",
                "brand:wikipedia": "en:Spar (retailer)",
                "check_date:opening_hours": "2022-05-07",
                "name": "Spar",
                "opening_hours": "Mo-Sa 07:00-20:00",
                "shop": "supermarket",
                "wheelchair": "yes"
            }
        },
        {
            "type": "node",
            "id": 3633903157,
            "lat": 45.6474287,
            "lon": 13.765979,
            "timestamp": "2024-08-13T21:00:34Z",
            "version": 6,
            "changeset": 155214570,
            "user": "mauropili",
            "uid": 1496865,
            "tags": {
                "addr:city": "Trieste",
                "addr:housenumber": "14",
                "addr:postcode": "34124",
                "addr:street": "Via di Cavana",
                "amenity": "restaurant",
                "branch": "Trieste",
                "contact:facebook": "https://www.facebook.com/ilmelogranotrieste.online/",
                "currency:XBT": "yes",
                "name": "Il Melograno",
                "payment:lightning": "yes",
                "payment:onchain": "yes",
                "phone": "+39 040 9653254",
                "survey:date": "2024-07-09",
                "website": "https://ilmelograno.online/"
            }
        },
        {
            "type": "node",
            "id": 3633925351,
            "lat": 45.653264,
            "lon": 13.7833141,
            "timestamp": "2025-03-20T17:31:00Z",
            "version": 5,
            "changeset": 163873777,
            "user": "Comino",
            "uid": 6794624,
            "tags": {
                "addr:city": "Trieste",
                "addr:housenumber": "3",
                "addr:postcode": "34126",
                "addr:street": "Via Enea Silvio Piccolomini",
                "check_date:currency:XBT": "2025-03-20",
                "contact:email": "busetti.andrea@yahoo.it",
                "currency:EUR": "yes",
                "currency:XBT": "yes",
                "name": "Avvocato Andrea Busetti",
                "office": "lawyer",
                "opening_hours": "Mo-Fr 08:00-18:00",
                "payment:lightning": "yes",
                "payment:lightning_contactless": "no",
                "payment:onchain": "yes",
                "phone": "+39 040 9778255"
            }
        },
        {
            "type": "node",
            "id": 3671580384,
            "lat": 45.4330354,
            "lon": 13.5218636,
            "timestamp": "2022-05-13T13:46:00Z",
            "version": 2,
            "changeset": 120937298,
            "user": "Flight777",
            "uid": 9925732,
            "tags": {
                "addr:city": "Umag",
                "addr:postcode": "52470",
                "addr:street": "Ulica 1. Svibnja",
                "brand": "United Colors of Benetton",
                "brand:wikidata": "Q817139",
                "name": "United Colors of Benetton",
                "operator": "Benetton",
                "shop": "clothes",
                "short_name": "Benetton"
            }
        },
        {
            "type": "node",
            "id": 4069049389,
            "lat": 45.6411232,
            "lon": 13.7899271,
            "timestamp": "2025-05-18T22:07:09Z",
            "version": 3,
            "changeset": 166450429,
            "user": "alessandrocarmeli",
            "uid": 12294600,
            "tags": {
                "addr:city": "Trieste",
                "addr:housenumber": "9/1",
                "addr:postcode": "34138",
                "addr:street": "Via Pier Paolo Vergerio",
                "brand": "Conad City",
                "brand:wikidata": "Q57543102",
                "name": "Conad City",
                "opening_hours": "Tu-Sa 09:00-17:30; PH off",
                "phone": "+39 040 391893",
                "ref:vatin": "IT01268070321",
                "shop": "supermarket",
                "website": "http://www.novacoopts.it/"
            }
        },
        {
            "type": "node",
            "id": 4370249055,
            "lat": 45.652322,
            "lon": 13.779922,
            "timestamp": "2025-09-17T13:19:55Z",
            "version": 8,
            "changeset": 172064663,
            "user": "alessandrocarmeli",
            "uid": 12294600,
            "tags": {
                "addr:city": "Trieste",
                "addr:housenumber": "15",
                "addr:postcode": "34125",
                "addr:street": "Via Cesare Battisti",
                "brand": "Conad City",
                "brand:wikidata": "Q57543102",
                "brand:wikipedia": "it:Conad",
                "fax": "+39 040 7600974",
                "level": "-1",
                "name": "Conad City",
                "opening_hours": "Mo-Sa 07:30-21:00, Su 07:30-20:30; PH off",
                "operator": "Dea Supermercati S.n.c.",
                "phone": "+39 040 370636",
                "ref:vatin": "IT02845960307",
                "shop": "supermarket",
                "website": "https://www.conad.it/conad/home/puntivendita/dettaglio.html?idPdv=7231"
            }
        },
        {
            "type": "node",
            "id": 4405923189,
            "lat": 45.3477327,
            "lon": 14.4197242,
            "timestamp": "2025-10-04T21:14:46Z",
            "version": 4,
            "changeset": 172847045,
            "user": "btcitnet",
            "uid": 22525435,
            "tags": {
                "addr:city": "Rijeka",
                "addr:housenumber": "67a",
                "addr:postcode": "51000",
                "addr:street": "Osje\u010dka ulica",
                "brand": "Decathlon",
                "brand:wikidata": "Q509349",
                "brand:wikipedia": "en:Decathlon Group",
                "name": "Decathlon",
                "shop": "sports"
            }
        },
        {
            "type": "node",
            "id": 4745265585,
            "lat": 45.6523826,
            "lon": 13.7823748,
            "timestamp": "2025-07-29T16:27:45Z",
            "version": 6,
            "changeset": 169682450,
            "user": "Aiman",
            "uid": 67550,
            "tags": {
                "addr:city": "Trieste",
                "addr:housenumber": "28",
                "addr:street": "Viale Venti Settembre",
                "baby_feeding": "no",
                "brand": "Spar",
                "brand:wikidata": "Q610492",
                "brand:wikipedia": "en:SPAR (retailer)",
                "check_date:opening_hours": "2024-03-16",
                "kids_area": "no",
                "level": "0",
                "name": "Despar",
                "opening_hours": "Su 08:30-13:00; Mo-Sa 08:00-20:00",
                "operator": "Spar",
                "organic": "yes",
                "shop": "supermarket",
                "wheelchair": "yes"
            }
        },
        {
            "type": "node",
            "id": 4844248321,
            "lat": 45.6503203,
            "lon": 13.7697097,
            "timestamp": "2024-12-30T19:02:22Z",
            "version": 7,
            "changeset": 160804896,
            "user": "DnaX",
            "uid": 69259,
            "tags": {
                "addr:city": "Trieste",
                "addr:housenumber": "14",
                "addr:postcode": "34121",
                "addr:street": "Piazza della Borsa",
                "brand": "Doppelg\u00e4nger",
                "brand:wikidata": "Q117451227",
                "check_date:currency:XBT": "2023-05-13",
                "currency:XBT": "yes",
                "name": "Doppelg\u00e4nger",
                "payment:lightning": "no",
                "payment:lightning_contactless": "no",
                "payment:onchain": "yes",
                "phone": "0402337190",
                "shop": "clothes"
            }
        },
        {
            "type": "node",
            "id": 5163169822,
            "lat": 45.6290885,
            "lon": 13.7817574,
            "timestamp": "2025-07-21T18:50:54Z",
            "version": 15,
            "changeset": 169259463,
            "user": "Rockedf",
            "uid": 7522075,
            "tags": {
                "addr:city": "Trieste",
                "addr:housenumber": "1",
                "addr:postcode": "34145",
                "addr:street": "Via Capodistria",
                "amenity": "events_venue",
                "check_date": "2024-09-27",
                "check_date:currency:XBT": "2025-07-21",
                "currency:XBT": "yes",
                "description": "Studio abitativo di Cocioale, consulenze ed eventi formativi.",
                "email": "info@twimt.it",
                "internet_access": "yes",
                "name": "Twimt Institute - Cashflow Club Trieste - Bitcoin Trieste",
                "payment:lightning": "yes",
                "payment:lightning_contactless": "yes",
                "payment:onchain": "yes",
                "phone": "+39 3405595240",
                "website": "https://twimt.it"
            }
        },
        {
            "type": "node",
            "id": 5278740823,
            "lat": 45.6353517,
            "lon": 13.7798468,
            "timestamp": "2025-10-04T21:17:00Z",
            "version": 8,
            "changeset": 172847101,
            "user": "btcitnet",
            "uid": 22525435,
            "tags": {
                "addr:city": "Trieste",
                "addr:postcode": "34144",
                "addr:street": "Via Bartolomeo D'Alviano",
                "brand": "MediaWorld",
                "brand:wikidata": "Q2381223",
                "name": "MediaWorld",
                "operator": "MediaMarket S.p.A.",
                "ref:vatin": "IT02630120166",
                "shop": "electronics",
                "website": "https://www.mediaworld.it/negozi/trieste"
            }
        },
        {
            "type": "node",
            "id": 5535412321,
            "lat": 45.6412076,
            "lon": 13.7655272,
            "timestamp": "2025-10-04T21:18:27Z",
            "version": 4,
            "changeset": 172847139,
            "user": "btcitnet",
            "uid": 22525435,
            "tags": {
                "addr:city": "Trieste",
                "addr:housenumber": "19",
                "addr:postcode": "34143",
                "addr:street": "Via Carlo Combi",
                "brand": "Spar",
                "brand:wikidata": "Q610492",
                "brand:wikipedia": "en:SPAR (retailer)",
                "name": "Despar",
                "name:de": "Spar",
                "opening_hours": "Mo-Sa 08:00-20:00; Su 08:30-13:00",
                "shop": "supermarket"
            }
        },
        {
            "type": "node",
            "id": 6178630870,
            "lat": 45.2269524,
            "lon": 13.5950338,
            "timestamp": "2019-07-03T09:59:23Z",
            "version": 2,
            "changeset": 71852122,
            "user": "jogemu",
            "uid": 4453208,
            "tags": {
                "brand": "United Colors of Benetton",
                "brand:wikidata": "Q817139",
                "brand:wikipedia": "en:Benetton Group",
                "clothes": "children",
                "name": "United Colors of Benetton",
                "shop": "clothes",
                "short_name": "Benetton"
            }
        },
        {
            "type": "node",
            "id": 6178955226,
            "lat": 45.2273451,
            "lon": 13.5964676,
            "timestamp": "2019-07-03T09:59:23Z",
            "version": 2,
            "changeset": 71852122,
            "user": "jogemu",
            "uid": 4453208,
            "tags": {
                "brand": "United Colors of Benetton",
                "brand:wikidata": "Q817139",
                "brand:wikipedia": "en:Benetton Group",
                "clothes": "underwear",
                "name": "United Colors of Benetton",
                "shop": "clothes",
                "short_name": "Benetton"
            }
        },
        {
            "type": "node",
            "id": 6178955227,
            "lat": 45.2272049,
            "lon": 13.5963747,
            "timestamp": "2024-07-02T22:14:49Z",
            "version": 6,
            "changeset": 153478265,
            "user": "paulbrunner",
            "uid": 15541433,
            "tags": {
                "brand": "United Colors of Benetton",
                "brand:wikidata": "Q817139",
                "brand:wikipedia": "en:Benetton Group",
                "check_date": "2024-07-02",
                "clothes": "women;men",
                "name": "United Colors of Benetton",
                "shop": "clothes",
                "short_name": "Benetton",
                "wheelchair": "no"
            }
        },
        {
            "type": "node",
            "id": 6221198362,
            "lat": 45.0983422,
            "lon": 14.1151413,
            "timestamp": "2020-07-10T22:59:34Z",
            "version": 3,
            "changeset": 87839338,
            "user": "Mariusz Staniszewski",
            "uid": 2044927,
            "tags": {
                "addr:city": "Labin",
                "addr:housenumber": "2C",
                "addr:postcode": "52220",
                "addr:street": "Pulska ulica 2C",
                "brand": "Spar",
                "brand:wikidata": "Q610492",
                "brand:wikipedia": "en:Spar (retailer)",
                "name": "Spar",
                "operator": "Spar",
                "shop": "supermarket",
                "wheelchair": "yes"
            }
        },
        {
            "type": "node",
            "id": 6282640507,
            "lat": 45.3254816,
            "lon": 14.4423341,
            "timestamp": "2024-07-08T20:31:32Z",
            "version": 5,
            "changeset": 153720252,
            "user": "paulbrunner",
            "uid": 15541433,
            "tags": {
                "addr:city": "Rijeka",
                "addr:housenumber": "1",
                "addr:postcode": "51000",
                "addr:street": "Riva Boduli",
                "brand": "Spar",
                "brand:wikidata": "Q610492",
                "brand:wikipedia": "en:SPAR (retailer)",
                "check_date": "2024-07-08",
                "name": "Spar",
                "opening_hours": "Mo-Sa 07:00-21:00; Su 07:00-14:00",
                "shop": "supermarket",
                "wheelchair": "yes"
            }
        },
        {
            "type": "node",
            "id": 6745559551,
            "lat": 45.6583061,
            "lon": 13.7897197,
            "timestamp": "2024-09-18T23:11:36Z",
            "version": 9,
            "changeset": 156796338,
            "user": "alessandrocarmeli",
            "uid": 12294600,
            "tags": {
                "addr:city": "Trieste",
                "addr:country": "IT",
                "addr:housenumber": "2a",
                "addr:postcode": "34127",
                "addr:street": "Via Luigi Pecenco",
                "brand": "Spar",
                "brand:wikidata": "Q610492",
                "brand:wikipedia": "it:SPAR",
                "check_date": "2024-03-09",
                "name": "Despar",
                "opening_hours": "Mo-Sa 08:00-20:00",
                "operator": "DESPAR Pecenco srl",
                "phone": "+39 040 2037754",
                "shop": "supermarket",
                "website": "https://www.despar.it/it/punto-vendita-despar/979/trieste/"
            }
        },
        {
            "type": "node",
            "id": 6835540301,
            "lat": 45.6495521,
            "lon": 13.7720365,
            "timestamp": "2023-09-08T07:55:23Z",
            "version": 6,
            "changeset": 140973715,
            "user": "Mateusz Konieczny - bot account",
            "uid": 3199858,
            "tags": {
                "addr:city": "Trieste",
                "addr:housenumber": "2",
                "addr:postcode": "34121",
                "addr:street": "Via del Teatro Romano",
                "branch": "Teatro Romano",
                "brand": "Spar",
                "brand:wikidata": "Q610492",
                "brand:wikipedia": "en:SPAR (retailer)",
                "name": "Despar",
                "opening_hours": "Mo-Sa 08:00-20:00; Su 08:30-13:00",
                "operator": "Aspiag Service S.r.l.",
                "phone": "+39 040 630843",
                "ref:vatin": "IT00882800212",
                "shop": "supermarket"
            }
        },
        {
            "type": "node",
            "id": 7541972620,
            "lat": 45.6532833,
            "lon": 13.7820511,
            "timestamp": "2025-10-04T21:19:40Z",
            "version": 4,
            "changeset": 172847170,
            "user": "btcitnet",
            "uid": 22525435,
            "tags": {
                "addr:city": "Trieste",
                "addr:postcode": "34125",
                "addr:street": "Via Cesare Battisti",
                "brand": "Unieuro",
                "brand:wikidata": "Q4004687",
                "brand:wikipedia": "en:Unieuro",
                "name": "Unieuro",
                "opening_hours": "Mo-Sa 08:30-12:30,15:30-19:30",
                "operator": "Unieuro S.p.A.",
                "shop": "electronics"
            }
        },
        {
            "type": "node",
            "id": 7752129215,
            "lat": 45.6415752,
            "lon": 13.7854425,
            "timestamp": "2025-10-04T21:20:44Z",
            "version": 5,
            "changeset": 172847190,
            "user": "btcitnet",
            "uid": 22525435,
            "tags": {
                "addr:city": "Trieste",
                "addr:housenumber": "39/41",
                "addr:postcode": "34137",
                "addr:street": "Viale Gabriele D'Annunzio",
                "brand": "Spar",
                "brand:wikidata": "Q610492",
                "brand:wikipedia": "en:SPAR (retailer)",
                "name": "Despar",
                "opening_hours": "Mo-Sa 08:00-20:00; Su 08:30-13:00",
                "shop": "supermarket"
            }
        },
        {
            "type": "node",
            "id": 7830845224,
            "lat": 45.6505715,
            "lon": 13.7825999,
            "timestamp": "2025-10-04T21:21:39Z",
            "version": 5,
            "changeset": 172847202,
            "user": "btcitnet",
            "uid": 22525435,
            "tags": {
                "addr:city": "Trieste",
                "addr:housenumber": "4",
                "addr:postcode": "34100",
                "addr:street": "Via Carlo e Giani Stuparich",
                "brand": "Spar",
                "brand:wikidata": "Q610492",
                "brand:wikipedia": "en:SPAR (retailer)",
                "name": "Despar",
                "opening_hours": "Mo-Sa 08:30-19:30",
                "shop": "supermarket"
            }
        },
        {
            "type": "node",
            "id": 7862973946,
            "lat": 45.5930875,
            "lon": 13.8077836,
            "timestamp": "2025-09-30T11:10:20Z",
            "version": 3,
            "changeset": 172655355,
            "user": "btcitnet",
            "uid": 22525435,
            "tags": {
                "addr:city": "Muggia",
                "addr:housenumber": "119",
                "addr:postcode": "34015",
                "addr:street": "Via Flavia di Stramare",
                "brand": "H&M",
                "brand:wikidata": "Q188326",
                "brand:wikipedia": "en:H&M",
                "check_date": "2024-05-26",
                "name": "H&M",
                "shop": "clothes"
            }
        },
        {
            "type": "node",
            "id": 7862973949,
            "lat": 45.5928222,
            "lon": 13.8078649,
            "timestamp": "2025-10-02T10:32:06Z",
            "version": 2,
            "changeset": 172742763,
            "user": "btcitnet",
            "uid": 22525435,
            "tags": {
                "addr:city": "Muggia",
                "addr:postcode": "34015",
                "addr:street": "Via Flavia di Stramare",
                "brand": "Calzedonia",
                "brand:wikidata": "Q1027874",
                "brand:wikipedia": "en:Calzedonia",
                "name": "Calzedonia",
                "shop": "clothes"
            }
        },
        {
            "type": "node",
            "id": 7862973950,
            "lat": 45.5928285,
            "lon": 13.8079719,
            "timestamp": "2025-10-04T21:22:27Z",
            "version": 2,
            "changeset": 172847222,
            "user": "btcitnet",
            "uid": 22525435,
            "tags": {
                "addr:city": "Muggia",
                "addr:postcode": "34015",
                "addr:street": "Via Flavia di Stramare",
                "brand": "Intimissimi",
                "brand:wikidata": "Q305404",
                "brand:wikipedia": "en:Intimissimi",
                "clothes": "underwear",
                "name": "Intimissimi",
                "shop": "clothes"
            }
        },
        {
            "type": "node",
            "id": 7862973954,
            "lat": 45.5934279,
            "lon": 13.8077854,
            "timestamp": "2025-10-04T21:23:16Z",
            "version": 2,
            "changeset": 172847240,
            "user": "btcitnet",
            "uid": 22525435,
            "tags": {
                "addr:city": "Muggia",
                "addr:housenumber": "119/E",
                "addr:postcode": "34015",
                "addr:street": "Via Flavia di Stramare",
                "brand": "OVS",
                "brand:wikidata": "Q2042514",
                "brand:wikipedia": "en:OVS (company)",
                "name": "OVS",
                "shop": "clothes"
            }
        },
        {
            "type": "node",
            "id": 7862973960,
            "lat": 45.5933549,
            "lon": 13.8083323,
            "timestamp": "2025-10-04T21:24:12Z",
            "version": 2,
            "changeset": 172847261,
            "user": "btcitnet",
            "uid": 22525435,
            "tags": {
                "addr:city": "Muggia",
                "addr:housenumber": "119",
                "addr:postcode": "34015",
                "addr:street": "Via Flavia di Stramare",
                "brand": "Tezenis",
                "brand:wikidata": "Q28056374",
                "name": "Tezenis",
                "shop": "clothes"
            }
        },
        {
            "type": "node",
            "id": 7862973969,
            "lat": 45.5940446,
            "lon": 13.8075408,
            "timestamp": "2025-10-04T21:25:17Z",
            "version": 3,
            "changeset": 172847271,
            "user": "btcitnet",
            "uid": 22525435,
            "tags": {
                "addr:city": "Muggia",
                "addr:housenumber": "119/E",
                "addr:postcode": "34015",
                "addr:street": "Via Flavia di Stramare",
                "brand": "PittaRosso",
                "brand:wikidata": "Q105643314",
                "name": "PittaRosso",
                "shop": "shoes"
            }
        },
        {
            "type": "node",
            "id": 7862974216,
            "lat": 45.5941693,
            "lon": 13.8071195,
            "timestamp": "2025-01-01T20:13:02Z",
            "version": 2,
            "changeset": 160883808,
            "user": "mpbin",
            "uid": 21850090,
            "tags": {
                "addr:city": "Muggia",
                "addr:housenumber": "119",
                "addr:postcode": "34015",
                "addr:street": "Via Flavia di Stramare",
                "brand": "Unieuro",
                "brand:wikidata": "Q4004687",
                "brand:wikipedia": "en:Unieuro",
                "name": "Unieuro",
                "operator": "Unieuro S.p.A.",
                "shop": "electronics"
            }
        },
        {
            "type": "node",
            "id": 7881985600,
            "lat": 45.6545866,
            "lon": 13.7943198,
            "timestamp": "2025-10-04T21:26:28Z",
            "version": 3,
            "changeset": 172847297,
            "user": "btcitnet",
            "uid": 22525435,
            "tags": {
                "addr:city": "Trieste",
                "addr:housenumber": "75/3",
                "addr:postcode": "34126",
                "addr:street": "Via Giulia",
                "brand": "Unieuro",
                "brand:wikidata": "Q4004687",
                "brand:wikipedia": "en:Unieuro",
                "name": "Unieuro",
                "operator": "Unieuro S.p.A.",
                "shop": "electronics"
            }
        },
        {
            "type": "node",
            "id": 7881985601,
            "lat": 45.6546973,
            "lon": 13.7942237,
            "timestamp": "2025-10-04T21:28:03Z",
            "version": 2,
            "changeset": 172847323,
            "user": "btcitnet",
            "uid": 22525435,
            "tags": {
                "addr:city": "Trieste",
                "addr:postcode": "34126",
                "addr:street": "Via Giulia",
                "brand": "OVS",
                "brand:wikidata": "Q2042514",
                "brand:wikipedia": "en:OVS (company)",
                "name": "OVS",
                "shop": "clothes"
            }
        },
        {
            "type": "node",
            "id": 8000483293,
            "lat": 45.5401383,
            "lon": 13.734504,
            "timestamp": "2025-10-04T21:29:21Z",
            "version": 2,
            "changeset": 172847367,
            "user": "btcitnet",
            "uid": 22525435,
            "tags": {
                "addr:city": "Koper / Capodistria",
                "addr:postcode": "6000",
                "addr:street": "Ankaranska cesta / Via Ancarano",
                "brand": "Intimissimi",
                "brand:wikidata": "Q305404",
                "brand:wikipedia": "en:Intimissimi",
                "clothes": "underwear",
                "name": "Intimissimi",
                "ref": "7",
                "shop": "clothes"
            }
        },
        {
            "type": "node",
            "id": 8000483294,
            "lat": 45.5400988,
            "lon": 13.7343841,
            "timestamp": "2025-10-04T21:30:37Z",
            "version": 2,
            "changeset": 172847391,
            "user": "btcitnet",
            "uid": 22525435,
            "tags": {
                "addr:city": "Koper / Capodistria",
                "addr:postcode": "6000",
                "addr:street": "Ankaranska cesta / Via Ancarano",
                "brand": "Calzedonia",
                "brand:wikidata": "Q1027874",
                "brand:wikipedia": "en:Calzedonia",
                "name": "Calzedonia",
                "ref": "6",
                "shop": "clothes"
            }
        },
        {
            "type": "node",
            "id": 8000483327,
            "lat": 45.5394057,
            "lon": 13.7351476,
            "timestamp": "2025-10-04T21:31:36Z",
            "version": 2,
            "changeset": 172847401,
            "user": "btcitnet",
            "uid": 22525435,
            "tags": {
                "addr:city": "Koper / Capodistria",
                "addr:postcode": "6000",
                "addr:street": "Ankaranska cesta / Via Ancarano",
                "brand": "H&M",
                "brand:wikidata": "Q188326",
                "brand:wikipedia": "en:H&M",
                "name": "H&M",
                "shop": "clothes"
            }
        },
        {
            "type": "node",
            "id": 8408654624,
            "lat": 45.6509826,
            "lon": 13.7775506,
            "timestamp": "2025-10-04T21:32:31Z",
            "version": 3,
            "changeset": 172847415,
            "user": "btcitnet",
            "uid": 22525435,
            "tags": {
                "addr:city": "Trieste",
                "addr:housenumber": "20",
                "addr:postcode": "34122",
                "addr:street": "Via Giosu\u00e8 Carducci",
                "brand": "Chicco",
                "brand:wikidata": "Q27897515",
                "name": "Chicco",
                "shop": "baby_goods"
            }
        },
        {
            "type": "node",
            "id": 8677062216,
            "lat": 45.6516601,
            "lon": 13.7796665,
            "timestamp": "2025-10-04T21:33:24Z",
            "version": 7,
            "changeset": 172847441,
            "user": "btcitnet",
            "uid": 22525435,
            "tags": {
                "addr:city": "Trieste",
                "addr:housenumber": "15/a",
                "addr:postcode": "34125",
                "addr:street": "Viale Venti Settembre",
                "brand": "Spar",
                "brand:wikidata": "Q610492",
                "diet:gluten_free": "no",
                "diet:halal": "no",
                "diet:kosher": "no",
                "name": "Despar",
                "shop": "supermarket",
                "start_date": "2025-01-16",
                "wheelchair": "no"
            }
        },
        {
            "type": "node",
            "id": 8933571109,
            "lat": 45.6495304,
            "lon": 13.7747923,
            "timestamp": "2025-10-04T21:34:13Z",
            "version": 4,
            "changeset": 172847452,
            "user": "btcitnet",
            "uid": 22525435,
            "tags": {
                "addr:city": "Trieste",
                "addr:housenumber": "23",
                "addr:postcode": "34121",
                "addr:street": "Corso Italia",
                "brand": "H&M",
                "brand:wikidata": "Q188326",
                "brand:wikipedia": "en:H&M",
                "name": "H&M",
                "opening_hours": "Mo-Sa 09:30-20:00; Su 10:00-19:00",
                "shop": "clothes"
            }
        },
        {
            "type": "node",
            "id": 9105231662,
            "lat": 45.6501754,
            "lon": 13.7703407,
            "timestamp": "2025-10-04T21:35:25Z",
            "version": 3,
            "changeset": 172847486,
            "user": "btcitnet",
            "uid": 22525435,
            "tags": {
                "addr:city": "Trieste",
                "addr:housenumber": "7",
                "addr:postcode": "34100",
                "addr:street": "Piazza della Borsa",
                "brand": "Tezenis",
                "brand:wikidata": "Q28056374",
                "brand:wikipedia": "ru:Tezenis",
                "clothes": "women;underwear;swimwear;men;children",
                "name": "Tezenis",
                "shop": "clothes"
            }
        },
        {
            "type": "node",
            "id": 9105264976,
            "lat": 45.6498349,
            "lon": 13.7691277,
            "timestamp": "2021-11-21T17:04:36Z",
            "version": 3,
            "changeset": 114065659,
            "user": "alessandrocarmeli",
            "uid": 12294600,
            "tags": {
                "brand": "Bottega Verde",
                "brand:wikidata": "Q894870",
                "brand:wikipedia": "it:Bottega Verde",
                "name": "Bottega Verde",
                "shop": "cosmetics"
            }
        },
        {
            "type": "node",
            "id": 9105683671,
            "lat": 45.6496935,
            "lon": 13.7730305,
            "timestamp": "2025-10-04T21:36:20Z",
            "version": 2,
            "changeset": 172847513,
            "user": "btcitnet",
            "uid": 22525435,
            "tags": {
                "addr:city": "Trieste",
                "addr:housenumber": "7",
                "addr:postcode": "34121",
                "addr:street": "Corso Italia",
                "brand": "Foot Locker",
                "brand:wikidata": "Q63335",
                "brand:wikipedia": "en:Foot Locker",
                "name": "Foot Locker",
                "shop": "shoes"
            }
        },
        {
            "type": "node",
            "id": 9338017365,
            "lat": 45.6509399,
            "lon": 13.7764216,
            "timestamp": "2025-07-27T09:42:13Z",
            "version": 4,
            "changeset": 169547624,
            "user": "Aiman",
            "uid": 67550,
            "tags": {
                "addr:city": "Trieste",
                "addr:housenumber": "6",
                "addr:postcode": "34125",
                "addr:state": "36",
                "addr:street": "Piazza San Giovanni",
                "baby_feeding": "no",
                "brand": "Spar",
                "brand:wikidata": "Q610492",
                "brand:wikipedia": "en:SPAR (retailer)",
                "contact:phone": "+39 040 636181",
                "kids_area": "no",
                "level": "0",
                "name": "Despar",
                "opening_hours": "Mo-Sa 08:00-20:00; Su closed; PH closed",
                "operator": "ASPIAG Service srl",
                "organic": "yes",
                "ref:vatin": "IT00882800212",
                "shop": "supermarket",
                "wheelchair": "yes"
            }
        },
        {
            "type": "node",
            "id": 9802739823,
            "lat": 45.639378,
            "lon": 13.7847303,
            "timestamp": "2025-10-04T21:37:28Z",
            "version": 2,
            "changeset": 172847531,
            "user": "btcitnet",
            "uid": 22525435,
            "tags": {
                "addr:city": "Trieste",
                "addr:postcode": "34137",
                "addr:street": "Via del Molino a Vento",
                "brand": "Spar",
                "brand:wikidata": "Q610492",
                "name": "Despar",
                "shop": "supermarket"
            }
        },
        {
            "type": "node",
            "id": 9802739830,
            "lat": 45.6219912,
            "lon": 13.8000854,
            "timestamp": "2025-10-04T21:38:13Z",
            "version": 2,
            "changeset": 172847541,
            "user": "btcitnet",
            "uid": 22525435,
            "tags": {
                "addr:city": "Trieste",
                "addr:housenumber": "2",
                "addr:postcode": "34148",
                "addr:street": "Via Pietro Mascagni",
                "brand": "Spar",
                "brand:wikidata": "Q610492",
                "name": "Despar",
                "shop": "supermarket"
            }
        },
        {
            "type": "node",
            "id": 9887785800,
            "lat": 45.6404965,
            "lon": 13.8241553,
            "timestamp": "2025-04-20T08:06:49Z",
            "version": 2,
            "changeset": 165181256,
            "user": "btcitnet",
            "uid": 22525435,
            "tags": {
                "addr:city": "Trieste",
                "addr:postcode": "34139",
                "addr:street": "Via Louis Pasteur",
                "brand": "Spar",
                "brand:wikidata": "Q610492",
                "brand:wikipedia": "en:SPAR (retailer)",
                "it:fvg:ctrn:code": "4AED",
                "it:fvg:ctrn:revision": "1AM",
                "name": "Despar",
                "operator": "Despar",
                "shop": "supermarket"
            }
        },
        {
            "type": "node",
            "id": 10053710311,
            "lat": 45.3264952,
            "lon": 14.4431216,
            "timestamp": "2025-10-04T21:39:35Z",
            "version": 3,
            "changeset": 172847567,
            "user": "btcitnet",
            "uid": 22525435,
            "tags": {
                "addr:city": "Rijeka",
                "addr:housenumber": "8C",
                "addr:postcode": "51000",
                "addr:street": "Korzo",
                "brand": "Intimissimi",
                "brand:wikidata": "Q305404",
                "check_date": "2024-07-08",
                "clothes": "underwear",
                "name": "Intimissimi",
                "shop": "clothes",
                "wheelchair": "limited"
            }
        },
        {
            "type": "node",
            "id": 10053734559,
            "lat": 45.3261786,
            "lon": 14.4435777,
            "timestamp": "2025-10-04T21:40:18Z",
            "version": 2,
            "changeset": 172847580,
            "user": "btcitnet",
            "uid": 22525435,
            "tags": {
                "addr:city": "Rijeka",
                "addr:housenumber": "4",
                "addr:postcode": "51000",
                "addr:street": "Korzo",
                "brand": "Calzedonia",
                "brand:wikidata": "Q1027874",
                "check_date": "2022-09-26",
                "name": "Calzedonia",
                "shop": "clothes"
            }
        },
        {
            "type": "node",
            "id": 10053734562,
            "lat": 45.3262399,
            "lon": 14.4429925,
            "timestamp": "2025-10-04T21:41:10Z",
            "version": 2,
            "changeset": 172847597,
            "user": "btcitnet",
            "uid": 22525435,
            "tags": {
                "addr:city": "Rijeka",
                "addr:housenumber": "11",
                "addr:postcode": "51000",
                "addr:street": "Korzo",
                "brand": "Tezenis",
                "brand:wikidata": "Q28056374",
                "check_date": "2022-09-26",
                "name": "Tezenis",
                "shop": "clothes"
            }
        },
        {
            "type": "node",
            "id": 10538663052,
            "lat": 45.4097932,
            "lon": 13.6649834,
            "timestamp": "2025-06-14T14:46:18Z",
            "version": 4,
            "changeset": 167616102,
            "user": "Rockedf",
            "uid": 7522075,
            "tags": {
                "addr:city": "Buje",
                "addr:postcode": "52460",
                "addr:street": "Gospodarska",
                "check_date:currency:XBT": "2025-06-14",
                "craft": "carpenter",
                "currency:XBT": "yes",
                "email": "info@portewestern.it",
                "name": "Portewestern",
                "opening_hours": "Mo-Su 09:00-20:00",
                "payment:lightning": "yes",
                "payment:lightning_contactless": "no",
                "payment:onchain": "yes",
                "phone": "+385 91 530 2745",
                "website": "https://www.portewestern.it/"
            }
        },
        {
            "type": "node",
            "id": 10540175646,
            "lat": 44.8606155,
            "lon": 13.8244347,
            "timestamp": "2024-06-19T02:38:17Z",
            "version": 6,
            "changeset": 152871618,
            "user": "Rockedf",
            "uid": 7522075,
            "tags": {
                "addr:city": "Pula",
                "addr:housenumber": "14",
                "addr:postcode": "52100",
                "addr:street": "Stoja",
                "addr:unit": "A",
                "amenity": "atm",
                "branch": "Maxcity, Pula",
                "cash_in": "yes",
                "cash_out": "yes",
                "cash_withdrawal": "yes",
                "check_date": "2024-04-30",
                "check_date:currency:XBT": "2023-08-03",
                "contact:email": "support@shitcoins.club",
                "contact:facebook": "https://www.facebook.com/shitcoins.club",
                "contact:instagram": "https://www.instagram.com/shitcoinsclub",
                "contact:telegram": "https://t.me/shitcoinsclub",
                "contact:twitter": "https://twitter.com/BitomatCom",
                "currency:BGN": "yes",
                "currency:DASH": "yes",
                "currency:DKK": "yes",
                "currency:ETH": "yes",
                "currency:EUR": "yes",
                "currency:GBP": "yes",
                "currency:HRK": "yes",
                "currency:LTC": "yes",
                "currency:NOK": "yes",
                "currency:TRY": "yes",
                "currency:USD": "yes",
                "currency:USDC": "yes",
                "currency:USDT": "yes",
                "currency:XBT": "yes",
                "description": "ATM in Maxcity located on the first floor right next to all ATMs",
                "image": "https://shitcoins.club/resources/img/atms/HR/0photo_2022-08-05_05-31-22%20(2).png",
                "indoor": "yes",
                "level": "1",
                "name": "Bitcoin ATM - Shitcoins.club",
                "note": "Na\u0161 bitomat Pula u Maxcity se nalazi na prvom katu odmah pored svih bankomata",
                "note:en": "Bitcoin ATM Pula in Maxcity is located on the first floor right next to all ATMs",
                "opening_hours": "Mo-Sa 09:00-22:00; Su 09:00-21:00",
                "operator": "Shitcoins.club",
                "payment:cash": "yes",
                "payment:lightning": "no",
                "payment:lightning_contactless": "no",
                "payment:onchain": "yes",
                "phone": "+385 99 603 3886",
                "start_date": "2022-08-05",
                "url": "https://coinatmradar.com/bitcoin_atm/56350/bitcoin-atm-shitcoins-club-pula-maxcity/",
                "website": "https://shitcoins.club/lokalizacija-bankomata/bitcoin-atm-pula-maxcity"
            }
        },
        {
            "type": "node",
            "id": 10660627799,
            "lat": 45.4325531,
            "lon": 13.6837865,
            "timestamp": "2025-06-12T12:15:15Z",
            "version": 2,
            "changeset": 167531203,
            "user": "Rockedf",
            "uid": 7522075,
            "tags": {
                "addr:city": "Kremenje, Buje",
                "addr:postcode": "52460",
                "addr:street": "Gambocija",
                "check_date:currency:XBT": "2025-06-12",
                "currency:XBT": "yes",
                "email": "info@camelus.itg",
                "name": "Camelus Adventures",
                "payment:lightning": "yes",
                "payment:lightning_contactless": "no",
                "payment:onchain": "yes",
                "phone": "+385989976290",
                "shop": "travel_agency",
                "website": "https://www.camelus.it/"
            }
        },
        {
            "type": "node",
            "id": 10660645073,
            "lat": 45.3828315,
            "lon": 13.6980037,
            "timestamp": "2025-06-09T09:34:05Z",
            "version": 3,
            "changeset": 167386942,
            "user": "Comino",
            "uid": 6794624,
            "tags": {
                "addr:city": "Krasica, Gardossi",
                "addr:housenumber": "47",
                "addr:postcode": "52460",
                "addr:street": "Gardossi",
                "check_date:currency:XBT": "2025-06-09",
                "currency:XBT": "yes",
                "guest_house": "bed_and_breakfast",
                "name": "Al Merlo Olivo B&B",
                "payment:lightning": "yes",
                "payment:lightning_contactless": "no",
                "payment:onchain": "yes",
                "phone": "+385 91 530 2745",
                "tourism": "guest_house",
                "website": "https://www.camelus.it/al-merlo-olivo/"
            }
        },
        {
            "type": "node",
            "id": 10681029863,
            "lat": 45.6882287,
            "lon": 13.7999153,
            "timestamp": "2024-09-24T12:53:07Z",
            "version": 3,
            "changeset": 157038547,
            "user": "mpbin",
            "uid": 21850090,
            "tags": {
                "addr:city": "Trieste",
                "addr:postcode": "34151",
                "addr:street": "Via dell'Assenzio",
                "check_date": "2024-09-24",
                "check_date:currency:XBT": "2024-09-24",
                "contact:facebook": "https://www.facebook.com/portewestern/shop/",
                "currency:XBT": "yes",
                "description": "Sliding doors production and selling",
                "email": "info@portewestern.it",
                "name": "Portewestern.it (Trieste branch)",
                "payment:lightning": "yes",
                "payment:lightning_contactless": "no",
                "payment:onchain": "yes",
                "phone": "+385989976290",
                "shop": "doors",
                "website": "https://www.portewestern.it"
            }
        },
        {
            "type": "node",
            "id": 10946235303,
            "lat": 45.6503106,
            "lon": 13.7734708,
            "timestamp": "2025-10-04T21:42:54Z",
            "version": 3,
            "changeset": 172847636,
            "user": "btcitnet",
            "uid": 22525435,
            "tags": {
                "addr:city": "Trieste",
                "addr:postcode": "34121",
                "addr:street": "Via San Nicol\u00f2",
                "brand": "Calzedonia",
                "brand:wikidata": "Q1027874",
                "name": "Calzedonia",
                "opening_hours": "Tu-Sa 09:30-20:00; Su 10:00-20:00; Mo 09:30-13:00,15:30-20:00",
                "shop": "clothes"
            }
        },
        {
            "type": "node",
            "id": 11069222577,
            "lat": 45.6443262,
            "lon": 13.7831124,
            "timestamp": "2024-09-27T09:04:58Z",
            "version": 12,
            "changeset": 157161094,
            "user": "mpbin",
            "uid": 21850090,
            "tags": {
                "addr:city": "Trieste",
                "addr:housenumber": "3a",
                "addr:postcode": "34139",
                "addr:street": "Via delle Settefontane",
                "amenity": "events_venue",
                "check_date": "2024-09-27",
                "check_date:currency:XBT": "2024-09-27",
                "contact:facebook": "ilcentrostudieventitrieste",
                "currency:XBT": "yes",
                "description": "Evolutionary growth courses and events",
                "email": "ilcentrostudi@gmail.com",
                "internet_access": "yes",
                "internet_access:fee": "customers",
                "name": "Associazione Centro Studi",
                "payment:lightning": "yes",
                "payment:onchain": "yes",
                "website": "https://ilcentrostudi.com"
            }
        },
        {
            "type": "node",
            "id": 11232286435,
            "lat": 45.1477645,
            "lon": 13.6074332,
            "timestamp": "2023-10-01T18:20:26Z",
            "version": 1,
            "changeset": 141999971,
            "user": "Rockedf",
            "uid": 7522075,
            "tags": {
                "addr:city": "Vrsar",
                "addr:housenumber": "6",
                "addr:postcode": "52450",
                "addr:street": "Vala",
                "check_date": "2023-10-01",
                "currency:XBT": "yes",
                "email": "AppPapalina@gmail.com",
                "name": "Studio Apartment Papalina",
                "payment:lightning": "yes",
                "payment:lightning_contactless": "no",
                "payment:onchain": "yes",
                "phone": "+385 92 266 5941",
                "tourism": "apartment",
                "website": "https://www.apppapalina.com/"
            }
        },
        {
            "type": "node",
            "id": 11309376324,
            "lat": 45.3393062,
            "lon": 14.4153995,
            "timestamp": "2025-10-04T21:43:55Z",
            "version": 2,
            "changeset": 172847651,
            "user": "btcitnet",
            "uid": 22525435,
            "tags": {
                "addr:city": "Rijeka",
                "addr:housenumber": "8A",
                "addr:postcode": "51000",
                "addr:street": "Ulica Franje \u010candeka",
                "brand": "Spar",
                "brand:wikidata": "Q610492",
                "name": "Spar",
                "shop": "convenience"
            }
        },
        {
            "type": "node",
            "id": 11544771705,
            "lat": 45.3174036,
            "lon": 14.4695332,
            "timestamp": "2024-06-19T02:39:22Z",
            "version": 3,
            "changeset": 152871631,
            "user": "Rockedf",
            "uid": 7522075,
            "tags": {
                "addr:city": "Rijeka",
                "addr:housenumber": "81",
                "addr:postcode": "51000",
                "addr:street": "Ul. Janka Poli\u0107a Kamova",
                "addr:unit": "A",
                "amenity": "atm",
                "cash_in": "yes",
                "cash_out": "yes",
                "cash_withdrawal": "yes",
                "check_date": "2024-01-23",
                "contact:email": "support@shitcoins.club",
                "contact:facebook": "https://www.facebook.com/shitcoins.club",
                "contact:instagram": "https://www.instagram.com/shitcoinsclub",
                "contact:telegram": "https://t.me/shitcoinsclub",
                "contact:twitter": "https://twitter.com/BitomatCom",
                "currency:BGN": "yes",
                "currency:DASH": "yes",
                "currency:DKK": "yes",
                "currency:ETH": "yes",
                "currency:EUR": "yes",
                "currency:GBP": "yes",
                "currency:HRK": "yes",
                "currency:LTC": "yes",
                "currency:NOK": "yes",
                "currency:TRY": "yes",
                "currency:USD": "yes",
                "currency:USDC": "yes",
                "currency:USDT": "yes",
                "currency:XBT": "yes",
                "indoor": "yes",
                "level": "0",
                "name": "Bitcoin ATM - Shitcoins.club",
                "note": "Bankomat je u prizemlju, desno, ispred glavnog ulaza. S ulaza se jasno vidi. U susjedstvu je T-mobile salon.",
                "note:en": "The ATM is on the ground floor, on the right, in front of the main entrance. It is clearly visible from the entrance. There is a T-mobile salon next door.",
                "opening_hours": "Mo-Sa 09:00-21:00; Su 10:00-21:00",
                "operator": "Shitcoins.club",
                "payment:cash": "yes",
                "payment:lightning": "no",
                "payment:lightning_contactless": "no",
                "payment:onchain": "yes",
                "phone": "+385 99 603 3886",
                "start_date": "2022-08-06",
                "url": "https://coinatmradar.com/bitcoin_atm/56358/bitcoin-atm-shitcoins-club-rijeka-tower-rijeka/",
                "website": "https://shitcoins.club/lokalizacija-bankomata/bitcoin-atm-rijeka-tower-center"
            }
        },
        {
            "type": "node",
            "id": 11554476488,
            "lat": 45.5307787,
            "lon": 13.7336272,
            "timestamp": "2024-06-07T16:10:10Z",
            "version": 2,
            "changeset": 152383668,
            "user": "Rockedf",
            "uid": 7522075,
            "tags": {
                "addr:city": "Capodistria",
                "addr:housenumber": "1",
                "addr:postcode": "6000",
                "addr:street": "Dolinska cesta",
                "addr:unit": "A",
                "amenity": "atm",
                "branch": "Supernova Mercator Koper",
                "cash_in": "yes",
                "cash_out": "yes",
                "cash_withdrawal": "yes",
                "check_date": "2024-01-26",
                "contact:email": "support@shitcoins.club",
                "contact:facebook": "https://www.facebook.com/shitcoins.club",
                "contact:instagram": "https://www.instagram.com/shitcoinsclub",
                "contact:telegram": "https://t.me/shitcoinsclub",
                "contact:twitter": "https://twitter.com/BitomatCom",
                "currency:CHF": "yes",
                "currency:DASH": "yes",
                "currency:ETH": "yes",
                "currency:EUR": "yes",
                "currency:GBP": "yes",
                "currency:HUF": "yes",
                "currency:LTC": "yes",
                "currency:RON": "yes",
                "currency:USD": "yes",
                "currency:USDC": "yes",
                "currency:USDT": "yes",
                "currency:XBT": "yes",
                "indoor": "yes",
                "level": "0",
                "name": "Bitcoin ATM - Shitcoins.club",
                "opening_hours": "Mo-Sa 08:00-21:00",
                "operator": "Shitcoins.club",
                "payment:cash": "yes",
                "payment:lightning": "no",
                "payment:lightning_contactless": "no",
                "payment:onchain": "yes",
                "phone": "+48 667 818 257",
                "start_date": "2023-10-27",
                "url": "https://coinatmradar.com/bitcoin_atm/73036/bitcoin-atm-shitcoins-club-koper-supernova-mercator-koper/",
                "website": "https://shitcoins.club/lokacije-bitomata/bitcoin-atm-koper-supernova_mercator"
            }
        },
        {
            "type": "node",
            "id": 11928367832,
            "lat": 45.5938527,
            "lon": 13.8075047,
            "timestamp": "2024-06-13T02:34:18Z",
            "version": 3,
            "changeset": 152610721,
            "user": "Rockedf",
            "uid": 7522075,
            "tags": {
                "addr:city": "Aquilinia-Stramare",
                "addr:housenumber": "119",
                "addr:postcode": "34015",
                "addr:street": "Via Flavia di Stramare",
                "amenity": "atm",
                "cash_in": "yes",
                "cash_out": "yes",
                "cash_withdrawal": "yes",
                "check_date": "2024-05-23",
                "contact:email": "support@shitcoins.club",
                "contact:facebook": "https://www.facebook.com/shitcoins.club",
                "contact:instagram": "https://www.instagram.com/shitcoinsclub",
                "contact:telegram": "https://t.me/shitcoinsclub",
                "contact:twitter": "https://twitter.com/BitomatCom",
                "currency:CHF": "yes",
                "currency:DASH": "yes",
                "currency:ETH": "yes",
                "currency:EUR": "yes",
                "currency:GBP": "yes",
                "currency:HUF": "yes",
                "currency:LTC": "yes",
                "currency:RON": "yes",
                "currency:USD": "yes",
                "currency:USDC": "yes",
                "currency:USDT": "yes",
                "currency:XBT": "yes",
                "indoor": "yes",
                "name": "Bitcoin ATM - Shitcoins.club",
                "opening_hours": "Mo-Su 09:00-20:30",
                "operator": "Shitcoins.club",
                "payment:cash": "yes",
                "payment:lightning": "no",
                "payment:lightning_contactless": "no",
                "payment:onchain": "yes",
                "phone": "+39 34 8048 7308",
                "website": "https://shitcoins.club/localizzazione-atm/atm-bitcoin-trieste-montedoro"
            }
        },
        {
            "type": "node",
            "id": 12078224294,
            "lat": 45.3377017,
            "lon": 14.4068296,
            "timestamp": "2024-07-28T11:14:33Z",
            "version": 2,
            "changeset": 154515670,
            "user": "sus242424",
            "uid": 21704506,
            "tags": {
                "brand": "H&M",
                "brand:wikidata": "Q188326",
                "name": "H&M",
                "shop": "clothes"
            }
        },
        {
            "type": "node",
            "id": 12085991804,
            "lat": 45.3176729,
            "lon": 14.4692893,
            "timestamp": "2025-02-19T16:51:06Z",
            "version": 2,
            "changeset": 162709386,
            "user": "ronaldp85",
            "uid": 11296436,
            "tags": {
                "brand": "Spar",
                "brand:wikidata": "Q610492",
                "name": "Interspar",
                "shop": "supermarket"
            }
        },
        {
            "type": "node",
            "id": 12155453201,
            "lat": 45.5396,
            "lon": 13.7351848,
            "timestamp": "2024-10-02T22:46:57Z",
            "version": 3,
            "changeset": 157397401,
            "user": "\u0110uro Ji\u0159\u00ed",
            "uid": 14617702,
            "tags": {
                "brand": "Decathlon",
                "brand:wikidata": "Q509349",
                "brand:wikipedia": "en:Decathlon Group",
                "level": "1",
                "name": "Decathlon",
                "opening_hours": "Mo-Sa 09:00-21:00",
                "shop": "sports",
                "website": "https://www.decathlon.si/",
                "wheelchair": "yes"
            }
        },
        {
            "type": "node",
            "id": 13082333300,
            "lat": 45.6530079,
            "lon": 13.7788075,
            "timestamp": "2025-08-19T18:20:09Z",
            "version": 1,
            "changeset": 170685882,
            "user": "player_sgs",
            "uid": 9466448,
            "tags": {
                "addr:city": "Trieste",
                "addr:housenumber": "16a",
                "addr:street": "Via San Francesco d'Assisi",
                "brand": "Spar",
                "brand:wikidata": "Q610492",
                "name": "Despar",
                "shop": "supermarket"
            }
        },
        {
            "type": "node",
            "id": 13147778501,
            "lat": 45.6483696,
            "lon": 13.7668272,
            "timestamp": "2025-09-17T13:19:55Z",
            "version": 6,
            "changeset": 172064663,
            "user": "alessandrocarmeli",
            "uid": 12294600,
            "tags": {
                "addr:housenumber": "2",
                "addr:street": "Piazza di Cavana",
                "brand": "Spar",
                "brand:wikidata": "Q610492",
                "name": "Despar",
                "shop": "supermarket"
            }
        },
        {
            "type": "node",
            "id": 13158209178,
            "lat": 45.33201,
            "lon": 14.5090733,
            "timestamp": "2025-09-20T15:17:35Z",
            "version": 1,
            "changeset": 172210493,
            "user": "ronaldp85",
            "uid": 11296436,
            "tags": {
                "addr:city": "Kukuljanovo",
                "brand": "IKEA",
                "brand:wikidata": "Q54078",
                "name": "IKEA",
                "shop": "furniture"
            }
        },
        {
            "type": "way",
            "id": 36398333,
            "timestamp": "2022-06-29T21:40:17Z",
            "version": 8,
            "changeset": 123020808,
            "user": "fabiotofy",
            "uid": 684800,
            "nodes": [
                424472572,
                2532130014,
                424472573,
                424472574,
                970523079,
                424472575,
                424472576,
                2217400047,
                424472572
            ],
            "tags": {
                "brand": "Conad",
                "brand:wikidata": "Q639075",
                "brand:wikipedia": "it:Conad",
                "building": "yes",
                "name": "Conad",
                "official_name": "Nova S.r.l.",
                "opening_hours": "Mo-Sa 08:30-19:30",
                "phone": "+39 040 215433",
                "ref:vatin": "IT01016760322",
                "shop": "supermarket",
                "website": "https://www.conad.it/"
            }
        },
        {
            "type": "way",
            "id": 36688305,
            "timestamp": "2025-02-13T08:48:58Z",
            "version": 2,
            "changeset": 162457374,
            "user": "alessandrocarmeli",
            "uid": 12294600,
            "nodes": [
                12154000001,
                426498501,
                426498502,
                426498503,
                426498504,
                426498506,
                12154000001
            ],
            "tags": {
                "brand": "Spar",
                "brand:wikidata": "Q610492",
                "building": "industrial",
                "height": "7 m",
                "internet_access": "wlan",
                "it:fvg:ctrn:code": "4AIN",
                "it:fvg:ctrn:revision": "1A0",
                "man_made": "works",
                "name": "Despar",
                "opening_hours": "Mo-Sa 08:00-19:30; Su 08:30-13:00",
                "shop": "supermarket"
            }
        },
        {
            "type": "way",
            "id": 48422194,
            "timestamp": "2022-01-27T09:34:46Z",
            "version": 11,
            "changeset": 116656995,
            "user": "Janjko",
            "uid": 244754,
            "nodes": [
                614997458,
                4879812211,
                4879812210,
                614997433,
                614997440,
                614997418,
                9452231887,
                614997459,
                614997458
            ],
            "tags": {
                "addr:city": "Rijeka",
                "addr:country": "HR",
                "addr:housenumber": "29",
                "addr:postcode": "51000",
                "addr:street": "Osje\u010dka ulica",
                "brand": "Spar",
                "brand:wikidata": "Q610492",
                "brand:wikipedia": "en:SPAR (retailer)",
                "building": "retail",
                "building:levels": "1",
                "check_date:opening_hours": "2021-03-05",
                "email": "voditelj.sm104@spar.hr",
                "name": "Spar",
                "opening_hours": "Mo-Su 07:00-21:00",
                "payment:american_express": "yes",
                "payment:cash": "yes",
                "payment:diners_club": "yes",
                "payment:maestro": "yes",
                "payment:mastercard": "yes",
                "payment:visa": "yes",
                "payment:visa_debit": "yes",
                "payment:visa_electron": "yes",
                "phone": "+385 51 515 100",
                "ref:vatin": "HR46108893754",
                "shop": "supermarket",
                "wheelchair": "yes"
            }
        },
        {
            "type": "way",
            "id": 133134627,
            "timestamp": "2023-07-12T11:48:31Z",
            "version": 8,
            "changeset": 138419467,
            "user": "Cascafico",
            "uid": 361003,
            "nodes": [
                1464927909,
                1464927870,
                1464927852,
                1464927850,
                1464927846,
                1464927843,
                1464927841,
                1464927838,
                1464927845,
                1464927896,
                1674485197,
                228115007,
                1674485199,
                1464927909
            ],
            "tags": {
                "amenity": "fuel",
                "brand": "Tamoil",
                "brand:wikidata": "Q706793",
                "fuel:diesel": "yes",
                "fuel:lpg": "yes",
                "fuel:octane_100": "yes",
                "fuel:octane_98": "yes",
                "highway": "services",
                "name": "Tamoil",
                "old_name": "Repsol",
                "ref:mise": "28291",
                "toilets": "yes"
            }
        },
        {
            "type": "way",
            "id": 133742289,
            "timestamp": "2025-09-26T10:36:20Z",
            "version": 10,
            "changeset": 172478549,
            "user": "alessandrocarmeli",
            "uid": 12294600,
            "nodes": [
                8996720443,
                9692147223,
                9692142812,
                1472015855,
                1472015853,
                424647844,
                424647843,
                424647841,
                8996720441,
                8996720477,
                8996720443
            ],
            "tags": {
                "addr:city": "Trieste",
                "addr:housenumber": "102/1",
                "addr:postcode": "34137",
                "addr:street": "Via dell'Istria",
                "brand": "Spar",
                "brand:wikidata": "Q610492",
                "brand:wikipedia": "da:Eurospar",
                "building": "yes",
                "name": "Eurospar",
                "opening_hours": "Mo-Sa 08:00-20:30; Su 08:30-20:00",
                "shop": "supermarket",
                "type": "multipolygon"
            }
        },
        {
            "type": "way",
            "id": 138431085,
            "timestamp": "2025-08-20T17:47:32Z",
            "version": 10,
            "changeset": 170740336,
            "user": "Taltos02",
            "uid": 1903603,
            "nodes": [
                1517888574,
                1517888671,
                1517888640,
                1517888455,
                1517888389,
                1517888545,
                1517888574
            ],
            "tags": {
                "addr:city": "Pula",
                "addr:country": "HR",
                "addr:housenumber": "13",
                "addr:postcode": "52100",
                "addr:street": "Santoriova",
                "brand": "Spar",
                "brand:wikidata": "Q610492",
                "building": "yes",
                "check_date": "2025-08-20",
                "internet_access": "no",
                "name": "Spar",
                "opening_hours": "Mo-Sa 07:00-22:00; Su off",
                "payment:american_express": "yes",
                "payment:cash": "yes",
                "payment:diners_club": "yes",
                "payment:maestro": "yes",
                "payment:mastercard": "yes",
                "payment:visa": "yes",
                "payment:visa_debit": "yes",
                "payment:visa_electron": "yes",
                "phone": "+385 52 541 222",
                "ref:vatin": "HR30380746842",
                "shop": "supermarket",
                "website": "https://www.spar.hr/lokacije/spar-supermarket-pula-52100-santoriova-13",
                "wheelchair": "yes"
            }
        },
        {
            "type": "way",
            "id": 164988310,
            "timestamp": "2024-06-16T09:37:28Z",
            "version": 3,
            "changeset": 152752541,
            "user": "Flynn_",
            "uid": 21081459,
            "nodes": [
                1765854762,
                1765854738,
                1765854736,
                1765854732,
                1765854729,
                1765854728,
                1765854724,
                1765854725,
                1765854740,
                1765854745,
                1765854762
            ],
            "tags": {
                "addr:city": "Pula",
                "addr:country": "HR",
                "addr:housenumber": "3",
                "addr:place": "\u0160ijanska cesta",
                "addr:postcode": "52100",
                "brand": "PittaRosso",
                "brand:wikidata": "Q105643314",
                "building": "yes",
                "name": "PittaRosso",
                "shop": "shoes"
            }
        },
        {
            "type": "way",
            "id": 193292092,
            "timestamp": "2023-03-24T12:57:54Z",
            "version": 10,
            "changeset": 134066806,
            "user": "damjang",
            "uid": 97922,
            "nodes": [
                2038033625,
                9013205981,
                9013205979,
                9013205978,
                9013205980,
                2038033628,
                2038033624,
                2038033626,
                2038033632,
                2038033631,
                2038033629,
                2038033630,
                2038033625
            ],
            "tags": {
                "addr:city": "Koper",
                "addr:country": "SI",
                "addr:housenumber": "30",
                "addr:postcode": "6000",
                "addr:street": "Ulica 15. maja / Via XV maggio",
                "brand": "Spar",
                "brand:wikidata": "Q610492",
                "brand:wikipedia": "en:SPAR (retailer)",
                "building": "supermarket",
                "name": "Spar",
                "shop": "supermarket",
                "wheelchair": "yes"
            }
        },
        {
            "type": "way",
            "id": 209562982,
            "timestamp": "2023-08-23T12:59:16Z",
            "version": 9,
            "changeset": 140273663,
            "user": "albert180",
            "uid": 3276135,
            "nodes": [
                2301756924,
                2301756942,
                2301756935,
                2301756947,
                2197658790,
                2197658792,
                7690851531,
                2197658791,
                2301756924
            ],
            "tags": {
                "addr:city": "Opatija",
                "addr:country": "HR",
                "addr:housenumber": "68",
                "addr:postcode": "51410",
                "addr:street": "Nova cesta",
                "brand": "Spar",
                "brand:wikidata": "Q610492",
                "brand:wikipedia": "en:Spar (retailer)",
                "building": "yes",
                "check_date:opening_hours": "2023-08-23",
                "email": "voditelj.sm106@spar.hr",
                "name": "Spar",
                "opening_hours": "Mo-Su 07:00-21:00",
                "payment:american_express": "yes",
                "payment:cash": "yes",
                "payment:diners_club": "yes",
                "payment:maestro": "yes",
                "payment:mastercard": "yes",
                "payment:visa": "yes",
                "payment:visa_debit": "yes",
                "payment:visa_electron": "yes",
                "phone": "+385 51 712 440",
                "ref:vatin": "HR46108893754",
                "shop": "supermarket",
                "wheelchair": "yes"
            }
        },
        {
            "type": "way",
            "id": 303709836,
            "timestamp": "2021-11-24T18:27:26Z",
            "version": 4,
            "changeset": 114193008,
            "user": "weedek",
            "uid": 8285024,
            "nodes": [
                3081152684,
                3081152685,
                9281200823,
                9281200829,
                3081152686,
                9281200822,
                3081152688,
                3081152687,
                3081152690,
                3791983718,
                3081152689,
                3081152684
            ],
            "tags": {
                "addr:city": "Pivka",
                "addr:housenumber": "18a",
                "addr:postcode": "6257",
                "addr:street": "Postojnska cesta",
                "brand": "Spar",
                "brand:wikidata": "Q610492",
                "brand:wikipedia": "en:SPAR (retailer)",
                "building": "yes",
                "name": "Spar",
                "opening_hours": "Mo-Fr 08:00-20:00; Sa 08:00-17:00; Su 08:00-13:00",
                "phone": "057570311",
                "shop": "supermarket"
            }
        },
        {
            "type": "way",
            "id": 452827991,
            "timestamp": "2023-02-13T18:55:30Z",
            "version": 5,
            "changeset": 132504622,
            "user": "kvjk",
            "uid": 485392,
            "nodes": [
                4496400656,
                4496400659,
                10655958164,
                10655958163,
                4496400669,
                10655958165,
                4496400658,
                4496400656
            ],
            "tags": {
                "addr:city": "Kastav",
                "addr:country": "HR",
                "addr:housenumber": "1a",
                "addr:postcode": "51215",
                "addr:street": "\u0160porova jama",
                "brand": "Spar",
                "brand:wikidata": "Q610492",
                "brand:wikipedia": "en:Spar (retailer)",
                "building": "yes",
                "email": "voditelj.sm021@spar.hr",
                "name": "Spar",
                "opening_hours": "Mo-Sa 07:00-21:00; Su 08:00-14:00",
                "payment:american_express": "yes",
                "payment:cash": "yes",
                "payment:diners_club": "yes",
                "payment:maestro": "yes",
                "payment:mastercard": "yes",
                "payment:visa": "yes",
                "payment:visa_debit": "yes",
                "payment:visa_electron": "yes",
                "phone": "+385 51 445 710",
                "ref:vatin": "HR46108893754",
                "shop": "supermarket"
            }
        },
        {
            "type": "way",
            "id": 556914003,
            "timestamp": "2019-03-23T11:10:22Z",
            "version": 3,
            "changeset": 68441348,
            "user": "Badojo",
            "uid": 8189075,
            "nodes": [
                5620007721,
                5371730728,
                5371730727,
                5371730729,
                5620007721
            ],
            "tags": {
                "addr:street": "Bujska",
                "brand": "Spar",
                "brand:wikidata": "Q610492",
                "brand:wikipedia": "en:Spar (retailer)",
                "building": "yes",
                "name": "Spar",
                "shop": "supermarket"
            }
        },
        {
            "type": "way",
            "id": 569687122,
            "timestamp": "2025-08-11T11:41:03Z",
            "version": 11,
            "changeset": 170288634,
            "user": "Janjko",
            "uid": 244754,
            "nodes": [
                5478280568,
                5481262076,
                5478280565,
                5478280566,
                6025572332,
                6025572333,
                10580200504,
                5481262077,
                9481117098,
                5478280567,
                5478280546,
                5478280564,
                5478280568
            ],
            "tags": {
                "addr:city": "Rijeka",
                "addr:housenumber": "18",
                "addr:postcode": "51000",
                "addr:street": "Maria Gennaria",
                "brand": "Spar",
                "brand:wikidata": "Q610492",
                "building": "yes",
                "name": "Interspar",
                "opening_hours": "Mo-Su 07:00-21:00",
                "payment:american_express": "yes",
                "payment:cash": "yes",
                "payment:diners_club": "yes",
                "payment:maestro": "yes",
                "payment:mastercard": "yes",
                "payment:visa": "yes",
                "payment:visa_debit": "yes",
                "payment:visa_electron": "yes",
                "ref:vatin": "HR46108893754",
                "shop": "supermarket",
                "toilets:wheelchair": "yes",
                "website": "https://www.spar.hr/lokacije/interspar-hipermarket-rijeka-51000-ulica-maria-gennaria-18",
                "wheelchair": "yes"
            }
        },
        {
            "type": "way",
            "id": 821095346,
            "timestamp": "2025-09-09T18:31:52Z",
            "version": 4,
            "changeset": 171700902,
            "user": "Felixplore",
            "uid": 20047316,
            "nodes": [
                7666609371,
                12535109881,
                12535109882,
                7666609372,
                12535109883,
                12535109884,
                7666609373,
                7666609374,
                12535109879,
                12535109880,
                7666609371
            ],
            "tags": {
                "baby_feeding": "no",
                "brand": "Spar",
                "brand:wikidata": "Q610492",
                "brand:wikipedia": "en:Spar (retailer)",
                "building": "supermarket",
                "check_date": "2025-09-08",
                "name": "Spar",
                "opening_hours": "Mo-Sa 07:00-21:00; Su 08:00-21:00",
                "shop": "supermarket",
                "wheelchair": "yes"
            }
        },
        {
            "type": "way",
            "id": 842866519,
            "timestamp": "2023-08-12T15:55:23Z",
            "version": 2,
            "changeset": 139793331,
            "user": "alessandrocarmeli",
            "uid": 12294600,
            "nodes": [
                2258065180,
                7862974079,
                7862974080,
                7862974081,
                7862974082,
                7862974083,
                7862973924,
                7862974084,
                7862974085,
                7862974086,
                7862974087,
                2258065180
            ],
            "tags": {
                "brand": "Decathlon",
                "brand:wikidata": "Q509349",
                "brand:wikipedia": "en:Decathlon Group",
                "building:part": "yes",
                "name": "Decathlon",
                "shop": "sports"
            }
        },
        {
            "type": "way",
            "id": 846227795,
            "timestamp": "2020-09-10T21:04:19Z",
            "version": 1,
            "changeset": 90722686,
            "user": "diomascio",
            "uid": 11452467,
            "nodes": [
                424617536,
                7895088034,
                7895088035,
                7895088036,
                424617548,
                424617547,
                424617546,
                424617545,
                424617544,
                424617543,
                424617542,
                424617541,
                424617540,
                424617539,
                424617538,
                424617537,
                424617536
            ],
            "tags": {
                "brand": "Spar",
                "brand:wikidata": "Q610492",
                "brand:wikipedia": "en:Spar (retailer)",
                "building": "yes",
                "name": "Despar",
                "shop": "supermarket"
            }
        },
        {
            "type": "way",
            "id": 846248057,
            "timestamp": "2024-09-18T14:59:44Z",
            "version": 7,
            "changeset": 156777964,
            "user": "alessandrocarmeli",
            "uid": 12294600,
            "nodes": [
                7895239744,
                7895239745,
                7895239746,
                7895239747,
                7895239748,
                7895239749,
                7895239750,
                7895239751,
                7895239752,
                7895239753,
                3682303452,
                3758987482,
                3682303453,
                3682303454,
                7895239743,
                7895239744
            ],
            "tags": {
                "amenity": "fuel",
                "brand": "Tamoil",
                "brand:wikidata": "Q706793",
                "brand:wikipedia": "en:Tamoil",
                "check_date": "2024-07-09",
                "compressed_air": "yes",
                "fuel:diesel": "yes",
                "fuel:octane_95": "yes",
                "name": "Tamoil",
                "opening_hours": "24/7",
                "operator": "T.D.M. S.R.L.",
                "ref:mise": "46821",
                "self_service": "yes",
                "toilets": "no"
            }
        },
        {
            "type": "way",
            "id": 912172591,
            "timestamp": "2023-12-02T00:22:43Z",
            "version": 6,
            "changeset": 144678751,
            "user": "damjang",
            "uid": 97922,
            "nodes": [
                8473608046,
                11388700679,
                8473608047,
                8473608081,
                8473608048,
                528045590,
                8473608050,
                11388667767,
                8473608051,
                11388667766,
                11388667768,
                11388713869,
                11388713870,
                8473608052,
                8473608083,
                11388713871,
                8473608082,
                8473608046
            ],
            "tags": {
                "amenity": "fuel",
                "brand": "Tamoil",
                "brand:wikidata": "Q706793",
                "brand:wikipedia": "en:Tamoil",
                "compressed_air": "yes",
                "fuel:diesel": "yes",
                "fuel:octane_95": "yes",
                "name": "Tamoil Stazione di servizio 6234",
                "opening_hours": "Mo-Fr 08:00-12:00,15:00-19:00; Sa,Su,PH off",
                "operator": "T.D.M. S.r.l.",
                "phone:IT": "800 113330",
                "ref:mise": "47089",
                "website": "https://www.tamoil.it/"
            }
        },
        {
            "type": "way",
            "id": 969126983,
            "timestamp": "2025-08-17T12:59:52Z",
            "version": 7,
            "changeset": 170565446,
            "user": "Taltos02",
            "uid": 1903603,
            "nodes": [
                8967690300,
                8967690304,
                8967690305,
                8967690301,
                8967690300
            ],
            "tags": {
                "addr:city": "Pula",
                "addr:housenumber": "12",
                "addr:postcode": "52100",
                "addr:street": "Ulica rimske centurijacije",
                "branch": "Pula",
                "brand": "Decathlon",
                "brand:wikidata": "Q509349",
                "building": "yes",
                "check_date": "2025-08-17",
                "email": "pula@decathlon.com",
                "internet_access": "wlan",
                "internet_access:fee": "customers",
                "name": "Decathlon",
                "opening_hours": "08:00-22:00",
                "operator": "Decathlon Zagreb d.o.o.",
                "payment:cash": "yes",
                "payment:credit_cards": "yes",
                "payment:debit_cards": "yes",
                "phone": "+385 52554120",
                "shop": "sports",
                "website": "https://www.decathlon.hr/content/53-magasin-pula"
            }
        },
        {
            "type": "way",
            "id": 1259174963,
            "timestamp": "2025-06-21T13:52:56Z",
            "version": 6,
            "changeset": 167915034,
            "user": "Emanuel Loos",
            "uid": 23023829,
            "nodes": [
                11705266244,
                12849716251,
                11705266245,
                11705266246,
                11705266247,
                11705266248,
                11705266249,
                11705266250,
                11705266251,
                11705266252,
                11705266244
            ],
            "tags": {
                "brand": "Spar",
                "brand:wikidata": "Q610492",
                "building": "yes",
                "layer": "0",
                "name": "Interspar",
                "opening_hours": "Mo-Su 07:00-21:00",
                "shop": "supermarket",
                "wheelchair": "yes"
            }
        },
        {
            "type": "way",
            "id": 1395271887,
            "timestamp": "2025-06-14T14:51:53Z",
            "version": 1,
            "changeset": 167616322,
            "user": "alessandrocarmeli",
            "uid": 12294600,
            "nodes": [
                11039453912,
                11039453920,
                11039342204,
                11039453919,
                11039342203,
                11039453905,
                11043628237,
                11043628236,
                424501776,
                424896854,
                11039453912
            ],
            "tags": {
                "addr:city": "Trieste",
                "addr:housenumber": "8",
                "addr:postcode": "34132",
                "addr:street": "Piazza della Libert\u00e0",
                "brand": "Spar",
                "brand:wikidata": "Q610492",
                "brand:wikipedia": "en:SPAR (retailer)",
                "building:part": "yes",
                "check_date": "2024-07-09",
                "name": "Despar",
                "opening_hours": "Mo-Fr 06:30-20:00; Sa 08:00-14:00; Su off",
                "operator": "Despar",
                "shop": "supermarket"
            }
        }
    ],
    "telegram": []
}