{
    "id": "bb-lucca",
    "name": "Bitcoin Beer Lucca",
    "lng": 43.8365,
    "lat": 10.52112,
    "localita": "Lucca",
    "telegram_weburl": "https://web.telegram.org/a/#-1002094484696",
    "telegram_app": "https://t.me/bitcoinlucca",
    "telegram_members": 20.0,
    "network": "bitcoinbeer",
    "poi": [
        {
            "type": "node",
            "id": 1905557365,
            "lat": 43.6758569,
            "lon": 10.4754424,
            "timestamp": "2023-07-31T14:23:33Z",
            "version": 5,
            "changeset": 139256906,
            "user": "BTC Map",
            "uid": 18545877,
            "tags": {
                "brand": "Mondo Convenienza",
                "brand:wikidata": "Q55830962",
                "check_date:currency:XBT": "2023-07-31",
                "currency:XBT": "yes",
                "name": "Mondo Convenienza",
                "opening_hours": "09:30-20:30",
                "shop": "furniture"
            }
        },
        {
            "type": "node",
            "id": 2426892043,
            "lat": 43.727118,
            "lon": 10.4222469,
            "timestamp": "2023-01-30T19:46:48Z",
            "version": 7,
            "changeset": 131894576,
            "user": "perpetual nomad",
            "uid": 17199501,
            "tags": {
                "addr:city": "San Giuliano Terme",
                "addr:housenumber": "2;4",
                "addr:postcode": "56010",
                "addr:province": "Pisa",
                "addr:street": "Via Giovanni Guidiccioni",
                "addr:suburb": "Ghezzano",
                "check_date:currency:XBT": "2023-01-30",
                "computer:parts": "yes",
                "computer:repair": "yes",
                "computer:sales": "yes",
                "currency:XBT": "yes",
                "email": "info@computershop.pisa.it",
                "name": "Computer SHOP",
                "opening_hours": "Mo-Fr 09:00-13:00,15:30-19:30",
                "payment:cards": "yes",
                "payment:cash": "yes",
                "phone": "+39 050 878779",
                "shop": "computer",
                "website": "https://www.computershop.pisa.it/"
            }
        },
        {
            "type": "node",
            "id": 2575758955,
            "lat": 43.7910313,
            "lon": 10.709964,
            "timestamp": "2023-07-15T10:50:10Z",
            "version": 8,
            "changeset": 138539788,
            "user": "saunter",
            "uid": 10396321,
            "tags": {
                "addr:city": "Altopascio",
                "addr:housenumber": "116/a",
                "addr:postcode": "55011",
                "addr:street": "Via del Maggino",
                "check_date:currency:XBT": "2023-07-15",
                "craft": "carpenter",
                "currency:XBT": "yes",
                "description": "Produzione di imballaggi in legno e pallets anche a norma ISPM15 per esportazione all'estero.",
                "name": "Nardi e Banti imballaggi srl",
                "payment:litecoin": "yes",
                "phone": "+39 0583 289258",
                "website": "https://imballoinlegno.it"
            }
        },
        {
            "type": "node",
            "id": 2576987957,
            "lat": 43.8641556,
            "lon": 10.5811948,
            "timestamp": "2023-11-06T20:19:01Z",
            "version": 4,
            "changeset": 143708821,
            "user": "b-jazz-bot",
            "uid": 9451067,
            "tags": {
                "addr:city": "Lammari",
                "addr:housenumber": "44",
                "addr:street": "Viale Europa",
                "amenity": "restaurant",
                "check_date": "2022-12-20",
                "currency:XBT": "yes",
                "name": "Mara Meo Lammari",
                "payment:lightning": "yes",
                "payment:onchain": "yes",
                "phone": "+39 0583 436400",
                "website": "https://www.marameo-lucca.it/"
            }
        },
        {
            "type": "node",
            "id": 2932839621,
            "lat": 43.727148,
            "lon": 10.422235,
            "timestamp": "2023-09-26T13:55:38Z",
            "version": 13,
            "changeset": 141776040,
            "user": "descubrebitcoin",
            "uid": 17565129,
            "tags": {
                "addr:city": "San Giuliano Terme",
                "addr:housenumber": "2",
                "addr:province": "Pisa",
                "addr:street": "Via Giovanni Guidiccioni",
                "addr:suburb": "Ghezzano",
                "amenity": "atm",
                "cash_in": "yes",
                "cash_out": "no",
                "cash_withdrawal": "no",
                "check_date": "2023-09-26",
                "currency:EUR": "yes",
                "currency:XBT": "yes",
                "currency:others": "no",
                "indoor": "yes",
                "language:en": "yes",
                "language:it": "yes",
                "manufacturer": "Lamassu",
                "name": "Distributore Lamassu",
                "note": "Cryptocurrency machine is installed at Computer Shop Snc in Pisa.",
                "opening_hours": "Mo-Fr 09:00-13:00,15:30-19:30",
                "operator": "bitcoinatm.it",
                "payment:cash": "yes",
                "payment:coins": "no",
                "payment:credit_cards": "no",
                "payment:debit_cards": "no",
                "payment:lightning": "no",
                "payment:lightning_contactless": "no",
                "payment:notes": "yes",
                "payment:onchain": "yes",
                "phone": "+39 050 878779",
                "start_date": "2014-06-25",
                "url": "https://coinatmradar.com/bitcoin_atm/141/bitcoin-atm-lamassu-pisa-computer-shop-snc/",
                "website": "http://bitcoinatm.it/"
            }
        },
        {
            "type": "node",
            "id": 3109248291,
            "lat": 43.8486025,
            "lon": 10.5237788,
            "timestamp": "2023-08-19T09:11:26Z",
            "version": 5,
            "changeset": 140086443,
            "user": "Chiarant",
            "uid": 18452174,
            "tags": {
                "addr:city": "Lucca",
                "addr:housenumber": "7",
                "addr:street": "Via Papa Giovanni XXIII",
                "amenity": "cafe",
                "check_date": "2023-06-29",
                "currency:XBT": "yes",
                "email": "info@pasticceriareginalucca.it",
                "name": "Pasticceria Regina",
                "payment:bancomat": "yes",
                "payment:lightning": "yes",
                "payment:mastercard": "yes",
                "payment:onchain": "yes",
                "payment:visa": "yes",
                "phone": "+390583954475",
                "shop": "pastry",
                "survey:date": "2023-08-16",
                "website": "https://www.pasticceriareginalucca.it/"
            }
        },
        {
            "type": "node",
            "id": 3813802842,
            "lat": 43.8455129,
            "lon": 10.5106394,
            "timestamp": "2023-11-01T02:35:14Z",
            "version": 9,
            "changeset": 143450941,
            "user": "b-jazz-bot",
            "uid": 9451067,
            "tags": {
                "addr:city": "Lucca",
                "addr:postcode": "55100",
                "addr:street": "Piazza San Francesco",
                "amenity": "restaurant",
                "check_date": "2023-06-12",
                "cuisine": "italian",
                "currency:XBT": "yes",
                "email": "prenota@marameo.lucca.it",
                "name": "Mara Meo San Francesco",
                "opening_hours": "Mo-Su 12:00-15:00, 18:00-21:00",
                "outdoor_seating": "yes",
                "payment:lightning": "yes",
                "payment:onchain": "yes",
                "phone": "+39 0583 467084",
                "website": "https://www.marameo-lucca.it/"
            }
        },
        {
            "type": "node",
            "id": 5514874061,
            "lat": 43.7198192,
            "lon": 10.3972935,
            "timestamp": "2024-01-06T14:19:56Z",
            "version": 8,
            "changeset": 145958938,
            "user": "Chiarant",
            "uid": 18452174,
            "tags": {
                "addr:city": "Pisa",
                "addr:housenumber": "83",
                "addr:postcode": "56126",
                "addr:street": "Via Santa Maria",
                "amenity": "cafe",
                "atm": "yes",
                "contact:facebook": "https://www.facebook.com/PasticceriaDolcePisa",
                "cuisine": "coffee_shop;regional;italian;sandwich;pasta",
                "currency:BCH": "yes",
                "currency:ETH": "yes",
                "currency:LTC": "yes",
                "currency:XBT": "yes",
                "diet:gluten_free": "yes",
                "diet:vegan": "yes",
                "diet:vegetarian": "yes",
                "internet_access": "yes",
                "internet_access:fee": "no",
                "internet_access:ssid": "devitalia hotspot",
                "name": "Pasticceria DolcePisa",
                "opening_hours": "Mo-Su 07:20-20:00",
                "outdoor_seating": "yes",
                "payment:apple_pay": "yes",
                "payment:cash": "yes",
                "payment:google_pay": "yes",
                "payment:mastercard": "yes",
                "payment:nexi_pay": "yes",
                "payment:samsung_pay": "yes",
                "payment:visa": "yes",
                "survey:date": "2023-03-28",
                "wheelchair": "yes"
            }
        },
        {
            "type": "node",
            "id": 8820941560,
            "lat": 43.7197988,
            "lon": 10.3972635,
            "timestamp": "2024-04-14T08:52:32Z",
            "version": 4,
            "changeset": 149982089,
            "user": "Chiarant",
            "uid": 18452174,
            "tags": {
                "addr:city": "Pisa",
                "addr:housenumber": "83",
                "addr:postcode": "56126",
                "addr:street": "Via Santa Maria",
                "amenity": "atm",
                "check_date": "2024-04-14",
                "currency:BCH": "yes",
                "currency:ETH": "yes",
                "currency:LTC": "yes",
                "currency:XBT": "yes",
                "description": "Bitcoin ATM che permette di acquistare Bitcoin, Ethereum, Litecoin, Dogecoin, Bitcoin Cash, Dash, Monero. L'ATM \u00e8 situato all'interno del BAR/PASTICCERIA DOLCEPISA.",
                "email": "support@cryptolocalatm.com",
                "name": "CryptoLocalATM c/o DOLCEPISA",
                "payment:onchain": "yes",
                "phone": "+447894438974",
                "website": "https://cryptolocalatm.com"
            }
        },
        {
            "type": "node",
            "id": 9631522101,
            "lat": 43.8412423,
            "lon": 10.6167649,
            "timestamp": "2023-07-10T08:27:29Z",
            "version": 5,
            "changeset": 138326298,
            "user": "GBAB",
            "uid": 3335899,
            "tags": {
                "addr:housenumber": "5",
                "addr:street": "Via Guglielmo Marconi",
                "amenity": "cafe",
                "check_date": "2022-12-20",
                "contact:mobile": "+39 345 807 9076",
                "contact:website": "http://www.pasticceriareginalucca.it/",
                "currency:XBT": "yes",
                "name": "Pasticceria Petit Regina",
                "opening_hours": "Tu-Su 08:00-20:00",
                "payment:lightning": "yes",
                "payment:onchain": "yes"
            }
        },
        {
            "type": "node",
            "id": 10247732557,
            "lat": 43.7098897,
            "lon": 10.3986172,
            "timestamp": "2024-01-06T14:34:39Z",
            "version": 5,
            "changeset": 145959472,
            "user": "Chiarant",
            "uid": 18452174,
            "tags": {
                "addr:city": "Pisa",
                "addr:housenumber": "3",
                "addr:postcode": "56125",
                "addr:street": "Via Cesare Battisti",
                "amenity": "dentist",
                "check_date": "2024-01-06",
                "currency:XBT": "yes",
                "healthcare": "dentist",
                "healthcare:speciality": "protesi;_implantologia;_igiene_orale;_cosmetica;_ortodonzia;_conservativa;_endodonzia.",
                "name": "Studio Odontoiatrico Associato Vicard - Bianchi",
                "opening_hours": "Mo-Th 09:00-18:30, Fr 08:30-12:30",
                "operator": "Bianchi Riccardo",
                "payment:lightning": "yes",
                "payment:onchain": "yes",
                "phone": "+393925066300",
                "website": "https://www.studiobianchivicard.it"
            }
        },
        {
            "type": "node",
            "id": 10275645028,
            "lat": 44.0236074,
            "lon": 10.506139,
            "timestamp": "2023-11-06T05:40:06Z",
            "version": 3,
            "changeset": 143676783,
            "user": "b-jazz-bot",
            "uid": 9451067,
            "tags": {
                "amenity": "restaurant",
                "check_date": "2022-12-20",
                "check_date:currency:XBT": "2023-07-18",
                "contact:facebook": "https://www.facebook.com/people/Pizzeria-da-MIKE/100063618574875/",
                "cuisine": "pizza",
                "currency:XBT": "yes",
                "name": "Mara Meo Maltagliata",
                "payment:lightning": "yes",
                "payment:onchain": "yes",
                "phone": "+39 339 577 6396",
                "website": "https://www.marameo-lucca.it/"
            }
        },
        {
            "type": "node",
            "id": 10275711661,
            "lat": 43.832708,
            "lon": 10.6158035,
            "timestamp": "2022-12-20T13:26:31Z",
            "version": 1,
            "changeset": 130290756,
            "user": "saunter",
            "uid": 10396321,
            "tags": {
                "check_date": "2022-12-20",
                "currency:XBT": "yes",
                "name": "Ecoprint Lucchese",
                "office": "company",
                "payment:lightning": "yes",
                "payment:onchain": "yes",
                "phone": "+390583298474",
                "website": "http://www.ecoprintlucchese.com/home.php"
            }
        },
        {
            "type": "node",
            "id": 10275711662,
            "lat": 43.8442126,
            "lon": 10.4855757,
            "timestamp": "2023-11-01T02:36:49Z",
            "version": 3,
            "changeset": 143450983,
            "user": "b-jazz-bot",
            "uid": 9451067,
            "tags": {
                "amenity": "pharmacy",
                "check_date": "2022-12-20",
                "currency:XBT": "yes",
                "healthcare": "pharmacy",
                "name": "Parafarmacia Cura e Natura",
                "payment:lightning": "yes",
                "payment:onchain": "yes",
                "phone": "+3905831535745",
                "website": "https://www.curaenatura.com/"
            }
        },
        {
            "type": "node",
            "id": 10841646772,
            "lat": 43.6808233,
            "lon": 10.5586957,
            "timestamp": "2023-05-09T03:20:13Z",
            "version": 11,
            "changeset": 135875348,
            "user": "Igor Bubelov",
            "uid": 2104834,
            "tags": {
                "addr:city": "Cascina",
                "addr:postcode": "56021",
                "addr:street": "Via Civoli di Sotto",
                "check_date": "2023-05-06",
                "currency:XBT": "yes",
                "description": "SPECIAL PRICE FOR BITCOINER CUSTOMERS!!!\n\n*** 5% STAY DISCOUNT!!! ***",
                "email": "greenhouseaccomodation@gmail.com",
                "guest_house": "guest_house,_holiday,_stay",
                "internet_access": "wlan",
                "internet_access:fee": "customers",
                "name": "Green House Accommodation",
                "payment:app": "yes",
                "payment:cash": "yes",
                "payment:cryptocurrencies": "yes",
                "payment:lightning": "yes",
                "payment:lightning_contactless": "yes",
                "payment:onchain": "yes",
                "payment:transbank": "yes",
                "payment:wire_transfer": "yes",
                "phone": "+39 389 7688124",
                "rooms": "2",
                "tourism": "guest_house",
                "website": "https://www.booking.com/hotel/it/green-house-cucigliana.html?lang=xu"
            }
        },
        {
            "type": "node",
            "id": 11127218111,
            "lat": 43.8519625,
            "lon": 10.5074554,
            "timestamp": "2023-08-19T09:38:25Z",
            "version": 1,
            "changeset": 140087318,
            "user": "Chiarant",
            "uid": 18452174,
            "tags": {
                "addr:city": "Lucca",
                "addr:housenumber": "320",
                "addr:postcode": "55100",
                "addr:street": "Via Borgo Giannotti",
                "check_date": "2023-08-19",
                "currency:XBT": "yes",
                "email": "info@spacciotticalucca.it",
                "name": "Spacciottica",
                "payment:onchain": "yes",
                "phone": "+390583342035",
                "shop": "optician",
                "website": "https://spacciottica.it/"
            }
        },
        {
            "type": "node",
            "id": 11233246709,
            "lat": 43.8417693,
            "lon": 10.4858201,
            "timestamp": "2024-02-12T14:38:23Z",
            "version": 2,
            "changeset": 147370167,
            "user": "Igor Bubelov",
            "uid": 2104834,
            "tags": {
                "addr:city": "Lucca",
                "addr:housenumber": "492",
                "addr:postcode": "55100",
                "addr:street": "Via Pisana",
                "check_date": "2023-10-02",
                "currency:XBT": "yes",
                "description": "Negozio di assistenza computer.",
                "email": "info@mftechnology.it",
                "name": "MF Technology",
                "shop": "computer"
            }
        }
    ]
}