{
    "id": "bb-monfalcone",
    "name": "Bitcoin Beer Monfalcone",
    "lng": 45.8050923,
    "lat": 13.5329932,
    "localita": "Monfalcone",
    "telegram_weburl": "https://web.telegram.org/a/#-1001591332132",
    "telegram_app": "https://t.me/BitcoinMonfalcone",
    "network": "bitcoinbeer",
    "poi": [
        {
            "type": "node",
            "id": 3652736314,
            "lat": 45.8111161,
            "lon": 13.5198539,
            "timestamp": "2024-02-28T10:10:12Z",
            "version": 4,
            "changeset": 148006362,
            "user": "Igor Bubelov",
            "uid": 2104834,
            "tags": {
                "addr:city": "Monfalcone",
                "addr:housenumber": "1f",
                "addr:postcode": "34074",
                "addr:street": "Via Aquileia",
                "amenity": "dentist",
                "currency:XBT": "yes",
                "healthcare": "dentist",
                "healthcare:speciality": "dentista;orthodontics",
                "name": "Medical Center Poliambulatorio",
                "payment:lightning": "yes",
                "payment:onchain": "yes",
                "survey:date": "2024-02-27"
            }
        },
        {
            "type": "node",
            "id": 3652739203,
            "lat": 45.8118143,
            "lon": 13.5147518,
            "timestamp": "2024-02-27T10:21:57Z",
            "version": 5,
            "changeset": 147966698,
            "user": "Igor Bubelov",
            "uid": 2104834,
            "tags": {
                "addr:city": "Monfalcone",
                "addr:housenumber": "11",
                "addr:postcode": "34074",
                "addr:street": "Via San Nicol\u00f2",
                "addr:unit": "p.1",
                "air_conditioning": "yes",
                "check_date": "2024-02-09",
                "currency:XBT": "yes",
                "email": "info@bbdaleo.it",
                "guest_house": "bed_and_breakfast",
                "image": "https://www.bbdaleo.it/wp-content/uploads/2019/12/download-11-1.jpg",
                "internet_access": "wlan",
                "internet_access:fee": "no",
                "name": "B&B da Leo",
                "operator": "Marchione Christian",
                "payment:cash": "yes",
                "payment:cryptocurrencies": "yes",
                "phone": "+393519373736",
                "reservation": "required",
                "rooms": "2",
                "start_date": "2012-06-03",
                "tourism": "guest_house",
                "website": "https://www.bbdaleo.it"
            }
        },
        {
            "type": "node",
            "id": 3652742752,
            "lat": 45.8084141,
            "lon": 13.5370824,
            "timestamp": "2023-11-27T17:33:19Z",
            "version": 3,
            "changeset": 144517490,
            "user": "BitcoinMonfalcone",
            "uid": 20605179,
            "tags": {
                "addr:city": "Monfalcone",
                "addr:housenumber": "13",
                "addr:postcode": "34074",
                "addr:street": "Via Enrico Toti",
                "currency:XBT": "yes",
                "name": "Elisa di Ilio Avvocato",
                "office": "lawyer",
                "payment:lightning": "yes",
                "phone": "0481.286893",
                "survey:date": "2023-11-01",
                "website": "https://www.elisadiilio.it/"
            }
        },
        {
            "type": "node",
            "id": 3652778478,
            "lat": 45.8101544,
            "lon": 13.5240874,
            "timestamp": "2023-11-29T17:08:31Z",
            "version": 3,
            "changeset": 144597049,
            "user": "BitcoinMonfalcone",
            "uid": 20605179,
            "tags": {
                "addr:city": "Monfalcone",
                "addr:housenumber": "51",
                "addr:postcode": "34074",
                "addr:street": "Via Quattro Novembre",
                "currency:XBT": "yes",
                "name": "Lola's Sexy Shop",
                "operator": "Roberto Antonelli",
                "payment:lightning": "yes",
                "phone": "+39 380 866 6118",
                "shop": "erotic",
                "survey:date": "2023-11-29"
            }
        },
        {
            "type": "node",
            "id": 3652805915,
            "lat": 45.8094404,
            "lon": 13.5310711,
            "timestamp": "2023-11-29T17:09:27Z",
            "version": 4,
            "changeset": 144597084,
            "user": "BitcoinMonfalcone",
            "uid": 20605179,
            "tags": {
                "addr:city": "Monfalcone",
                "addr:housenumber": "80",
                "addr:postcode": "34074",
                "addr:street": "Via Duca d'Aosta",
                "currency:XBT": "yes",
                "name": "Gioielleria Monfalcone Cernigoi",
                "payment:lightning": "yes",
                "payment:onchain": "yes",
                "phone": "0481 410512",
                "shop": "jewelry",
                "survey:date": "2023-11-29"
            }
        },
        {
            "type": "node",
            "id": 3729193076,
            "lat": 45.8068114,
            "lon": 13.5039555,
            "timestamp": "2023-11-27T16:24:41Z",
            "version": 2,
            "changeset": 144514804,
            "user": "BitcoinMonfalcone",
            "uid": 20605179,
            "tags": {
                "addr:city": "Staranzano",
                "addr:housenumber": "6",
                "addr:postcode": "34079",
                "addr:street": "Via Giacomo Matteotti",
                "currency:XBT": "yes",
                "guest_house": "bed_and_breakfast",
                "internet_access": "yes",
                "internet_access:fee": "no",
                "name": "B&Baichin",
                "payment:lightning": "yes",
                "payment:onchain": "no",
                "phone": "339 437 3962",
                "rooms": "3",
                "survey:date": "2023-11-01",
                "tourism": "guest_house",
                "website": "https://baichin.bedsandhotels.com/"
            }
        },
        {
            "type": "node",
            "id": 10863660758,
            "lat": 45.8907668,
            "lon": 13.5032681,
            "timestamp": "2023-05-06T10:58:51Z",
            "version": 2,
            "changeset": 135772171,
            "user": "mueschel",
            "uid": 616774,
            "tags": {
                "addr:city": "Gradisca d'Isonzo",
                "addr:housenumber": "9",
                "addr:postcode": "34072",
                "addr:street": "Via Cesare Battisti",
                "check_date:currency:XBT": "2023-05-02",
                "contact:instagram": "@BATTISTICASTEL",
                "currency:XBT": "yes",
                "description": "Holiday appartment, luxury stay, hotel, B&B",
                "guest_house": "bed_and_breakfast",
                "name": "BattistiCastel",
                "payment:lightning": "yes",
                "payment:lightning_contactless": "yes",
                "payment:onchain": "yes",
                "phone": "+39 348 410 2790",
                "tourism": "guest_house",
                "website": "https://battisticastel.business.site/"
            }
        },
        {
            "type": "node",
            "id": 11369089305,
            "lat": 45.7579126,
            "lon": 13.4681633,
            "timestamp": "2023-11-22T17:45:08Z",
            "version": 2,
            "changeset": 144336547,
            "user": "BitcoinMonfalcone",
            "uid": 20605179,
            "tags": {
                "addr:city": "San Canzian d'Isonzo",
                "addr:housenumber": "16",
                "addr:postcode": "34075",
                "addr:street": "Via Grado",
                "amenity": "restaurant",
                "cuisine": "pizza;fish",
                "currency:XBT": "yes",
                "name": "Locanda ai Due Fiumi",
                "payment:cash": "yes",
                "payment:lightning": "yes",
                "payment:onchain": "no",
                "phone": "04811996487",
                "survey:date": "2023-11-22"
            }
        },
        {
            "type": "node",
            "id": 11379929752,
            "lat": 45.8094821,
            "lon": 13.5323313,
            "timestamp": "2023-11-27T17:21:36Z",
            "version": 2,
            "changeset": 144516961,
            "user": "BitcoinMonfalcone",
            "uid": 20605179,
            "tags": {
                "addr:city": "Monfalcone",
                "addr:housenumber": "15",
                "addr:place": "Piazza della Repubblica",
                "addr:postcode": "34074",
                "currency:XBT": "yes",
                "name": "Giorda Marcallo dottore commercialista",
                "office": "accountant",
                "payment:lightning": "yes",
                "phone": "0481 413048",
                "survey:date": "2023-11-01",
                "website": "http://www.serivosrl.it/"
            }
        }
    ]
}