{
    "id": "bb-malta",
    "name": "Bitcoin Beer Malta",
    "lng": 35.886192,
    "lat": 14.4508814,
    "localita": "Malta",
    "telegram_weburl": "https://web.telegram.org/a/#-1001979747988",
    "telegram_app": "https://t.me/bitcoinmaltahub",
    "telegram_members": 40.0,
    "network": "bitcoinbeer",
    "poi": [
        {
            "type": "node",
            "id": 5641889022,
            "lat": 35.9009144,
            "lon": 14.4892857,
            "timestamp": "2024-06-13T13:28:52Z",
            "version": 4,
            "changeset": 152634279,
            "user": "descubrebitcoin",
            "uid": 17565129,
            "tags": {
                "addr:city": "Il-G\u017cira",
                "addr:housenumber": "34",
                "addr:postcode": "GZR 1660",
                "addr:street": "Triq Gerry Zammit",
                "amenity": "pub",
                "currency:XBT": "yes",
                "name": "The Hatter",
                "payment:cash": "yes",
                "payment:lightning": "yes",
                "payment:lightning_contactless": "no",
                "payment:onchain": "yes",
                "payment:visa": "yes"
            }
        },
        {
            "type": "node",
            "id": 6037246303,
            "lat": 35.923766,
            "lon": 14.4892642,
            "timestamp": "2024-02-10T04:53:22Z",
            "version": 6,
            "changeset": 147280218,
            "user": "Igor Bubelov",
            "uid": 2104834,
            "tags": {
                "addr:street": "St.George's Road/Triq San Gorg, STJ 3200, Malta",
                "amenity": "atm",
                "brand": "Euronet",
                "brand:wikidata": "Q5412010",
                "brand:wikipedia": "en:Euronet Worldwide",
                "check_date": "2023-09-05",
                "currency:XBT": "yes",
                "description": "The Seven Apartments -",
                "drive_through": "no",
                "name": "Euronet",
                "operator": "Euronet",
                "operator:wikidata": "Q5412010",
                "operator:wikipedia": "en:Euronet Worldwide",
                "payment:onchain": "yes"
            }
        },
        {
            "type": "node",
            "id": 7190945438,
            "lat": 35.9280941,
            "lon": 14.4905116,
            "timestamp": "2024-03-08T16:18:42Z",
            "version": 4,
            "changeset": 148391525,
            "user": "Bitcoin Club Malta",
            "uid": 21183755,
            "tags": {
                "addr:city": "San \u0120iljan",
                "addr:street": "Triq Ix-Xatt ta' San \u0120or\u0121",
                "amenity": "restaurant",
                "check_date": "2022-11-24",
                "cuisine": "mediterranean;european",
                "currency:XBT": "yes",
                "name": "Caviar & Bull",
                "opening_hours": "Mo-Su 18:30-23:00; Oct 1-Jun 15 Su 12:00-15:00",
                "payment:american_express": "yes",
                "payment:cash": "yes",
                "payment:credit_cards": "yes",
                "payment:lightning": "yes",
                "payment:onchain": "yes",
                "phone": "+356 9999 3301",
                "website": "https://caviarandbull.com.mt/"
            }
        },
        {
            "type": "node",
            "id": 9155469717,
            "lat": 35.9280558,
            "lon": 14.4905783,
            "timestamp": "2024-03-20T13:36:33Z",
            "version": 6,
            "changeset": 148913899,
            "user": "Marvin Gauci",
            "uid": 21224493,
            "tags": {
                "addr:city": "San \u0120iljan",
                "addr:postcode": "STJ 3301",
                "amenity": "restaurant",
                "check_date": "2022-11-24",
                "cuisine": "latin_american;mediterranean",
                "currency:XBT": "yes",
                "email": "experience@solebytarragon.com",
                "name": "Sole, Seabar by Tarragon",
                "opening_hours": "Mo-Su 18:30-23:00; Su 12:00-16:00",
                "payment:cash": "yes",
                "payment:contactless": "yes",
                "payment:credit_cards": "yes",
                "payment:cryptocurrencies": "yes",
                "payment:debit_cards": "yes",
                "payment:mastercard": "yes",
                "payment:visa": "yes",
                "phone": "+356 7728 3342",
                "website": "https://solebytarragon.com/"
            }
        },
        {
            "type": "node",
            "id": 9774589017,
            "lat": 35.9105914,
            "lon": 14.5092396,
            "timestamp": "2024-03-08T16:12:38Z",
            "version": 2,
            "changeset": 148391270,
            "user": "Bitcoin Club Malta",
            "uid": 21183755,
            "tags": {
                "addr:housenumber": "44",
                "addr:postcode": "SLM 3112",
                "addr:street": "Ix-Xatt ta' Qui-Si-Sana",
                "amenity": "cafe",
                "cuisine": "coffee_shop",
                "currency:XBT": "yes",
                "name": "Coffee Circus",
                "payment:credit_cards": "yes",
                "payment:lightning": "yes",
                "payment:onchain": "yes",
                "survey:date": "2024-03-08",
                "website": "http://coffeecircus.eu"
            }
        },
        {
            "type": "node",
            "id": 10300874313,
            "lat": 35.9036742,
            "lon": 14.4875202,
            "timestamp": "2023-01-02T17:47:13Z",
            "version": 1,
            "changeset": 130797487,
            "user": "BSN21M",
            "uid": 17441326,
            "tags": {
                "addr:city": "Malta",
                "addr:postcode": "GZR 1713",
                "addr:street": "Regional",
                "check_date:currency:XBT": "2023-01-02",
                "currency:XBT": "yes",
                "description": "My Personal Trainer Malta",
                "email": "info@myptmalta.com",
                "leisure": "sports_centre",
                "name": "My Personal Trainer Malta, Tal-qroqq fitness",
                "payment:lightning": "yes",
                "payment:lightning_contactless": "no",
                "payment:onchain": "yes",
                "phone": "+35 6 7906 9474",
                "website": "https://myptmalta.com"
            }
        },
        {
            "type": "node",
            "id": 10926232059,
            "lat": 35.9146866,
            "lon": 14.4961673,
            "timestamp": "2024-03-08T16:15:01Z",
            "version": 2,
            "changeset": 148391372,
            "user": "Bitcoin Club Malta",
            "uid": 21183755,
            "tags": {
                "check_date:currency:XBT": "2023-05-25",
                "currency:XBT": "yes",
                "name": "Plan B",
                "payment:lightning": "yes",
                "payment:lightning_contactless": "no",
                "payment:onchain": "yes",
                "phone": "99319792",
                "shop": "hairdresser",
                "survey:date": "2024-03-08"
            }
        },
        {
            "type": "node",
            "id": 11182693952,
            "lat": 35.8982716,
            "lon": 14.5163685,
            "timestamp": "2024-02-20T03:56:31Z",
            "version": 3,
            "changeset": 147674548,
            "user": "Igor Bubelov",
            "uid": 2104834,
            "tags": {
                "check_date": "2023-09-11",
                "currency:XBT": "yes",
                "description": "User friendly e-commerce platform",
                "name": "EasyWebshop",
                "office": "yes",
                "payment:lightning": "yes",
                "payment:onchain": "yes",
                "website": "https://easywebshop.com"
            }
        },
        {
            "type": "node",
            "id": 11704472866,
            "lat": 35.9277705,
            "lon": 14.4899356,
            "timestamp": "2024-03-17T17:20:32Z",
            "version": 2,
            "changeset": 148782473,
            "user": "Rockedf",
            "uid": 7522075,
            "tags": {
                "addr:city": "San \u0120iljan",
                "addr:postcode": "STJ3301",
                "addr:street": "Ix-Xatt ta\u2019 San Gorg San Giljan,",
                "amenity": "restaurant",
                "check_date": "2024-03-17",
                "cuisine": "pizza;italian",
                "currency:XBT": "yes",
                "name": "Don Royale",
                "payment:cash": "yes",
                "payment:credit_cards": "yes",
                "payment:lightning": "yes",
                "payment:lightning_contactless": "no",
                "payment:onchain": "yes",
                "phone": "+356 7952 7007",
                "website": "https://donroyalerestaurant.com"
            }
        },
        {
            "type": "node",
            "id": 11742868500,
            "lat": 35.9079663,
            "lon": 14.4997513,
            "timestamp": "2024-03-19T00:31:35Z",
            "version": 1,
            "changeset": 148839222,
            "user": "Rockedf",
            "uid": 7522075,
            "tags": {
                "addr:city": "Sliema",
                "addr:housenumber": "110",
                "addr:postcode": "SLM 1020",
                "addr:street": "Triq Ix-Xatt",
                "check_date": "2024-03-18",
                "currency:XBT": "yes",
                "male": "yes",
                "name": "PLAN B Barbershop The Strand",
                "opening_hours": "Mo-Su 09:00-21:00",
                "payment:lightning": "yes",
                "payment:lightning_contactless": "no",
                "payment:onchain": "yes",
                "phone": "+35 69 931 9792",
                "shop": "hairdresser",
                "website": "https://planbbarber.simplybook.it/v2/"
            }
        },
        {
            "type": "node",
            "id": 11800276711,
            "lat": 35.9236763,
            "lon": 14.4901888,
            "timestamp": "2024-04-07T19:30:50Z",
            "version": 1,
            "changeset": 149707156,
            "user": "descubrebitcoin",
            "uid": 17565129,
            "tags": {
                "amenity": "atm",
                "branch": "Shop Express",
                "cash_in": "yes",
                "cash_out": "yes",
                "cash_withdrawal": "yes",
                "check_date": "2024-04-07",
                "currency:EUR": "yes",
                "currency:XBT": "yes",
                "indoor": "yes",
                "level": "0",
                "manufacturer": "Lamassu",
                "name": "Bitcoin ATM",
                "note": "Located inside Shop Express",
                "opening_hours": "24/7",
                "operator": "Bitlava",
                "payment:cash": "yes",
                "payment:onchain": "yes",
                "start_date": "2024-02-12",
                "url": "https://coinatmradar.com/bitcoin_atm/78448/bitcoin-atm-lamassu-st-julians-shop-express/"
            }
        }
    ]
}