{
    "id": "bb-prato",
    "name": "Bitcoin Beer Prato",
    "lng": 43.8926686,
    "lat": 11.1049362,
    "localita": "Prato",
    "telegram_weburl": "https://web.telegram.org/a/#-1001612667136",
    "telegram_app": "https://t.me/bitcoinpratohub",
    "telegram_members": 62.0,
    "network": "bitcoinbeer",
    "poi": [
        {
            "type": "node",
            "id": 2671167531,
            "lat": 43.7715336,
            "lon": 11.2599932,
            "timestamp": "2023-01-10T10:08:50Z",
            "version": 7,
            "changeset": 131099677,
            "user": "Igor Bubelov",
            "uid": 2104834,
            "tags": {
                "currency:XBT": "yes",
                "name": "Tuscan Smoking",
                "shop": "e-cigarette",
                "survey:date": "2022-08-24",
                "website": "https://aziende.virgilio.it/smokies-fumare-digitale_3"
            }
        },
        {
            "type": "node",
            "id": 3796135257,
            "lat": 43.7715247,
            "lon": 11.2599468,
            "timestamp": "2024-04-16T13:07:28Z",
            "version": 8,
            "changeset": 150084634,
            "user": "Igor Bubelov",
            "uid": 2104834,
            "tags": {
                "addr:city": "Firenze",
                "addr:housenumber": "72r",
                "addr:postcode": "50122",
                "addr:street": "Borgo degli Albizi",
                "amenity": "atm",
                "check_date": "2024-04-16",
                "currency:XBT": "yes",
                "description": "Bitcoin ATM di Chainblock, situato all'interno di Tuscan Smoking.",
                "email": "info@chainblock.it",
                "name": "Chainblock ATM",
                "website": "https://chainblock.it",
                "wheelchair": "yes"
            }
        },
        {
            "type": "node",
            "id": 10138673678,
            "lat": 43.7937509,
            "lon": 11.2199873,
            "timestamp": "2022-10-31T16:19:07Z",
            "version": 2,
            "changeset": 128307080,
            "user": "saunter",
            "uid": 10396321,
            "tags": {
                "currency:XBT": "yes",
                "name": "Ferramenta Altilio",
                "payment:lightning": "yes",
                "payment:onchain": "yes",
                "shop": "paint",
                "survey:date": "2022-10-30",
                "website": "https://www.altilioferramenta.it/"
            }
        },
        {
            "type": "node",
            "id": 10788497657,
            "lat": 43.8469029,
            "lon": 11.1427246,
            "timestamp": "2023-08-04T10:32:40Z",
            "version": 3,
            "changeset": 139434864,
            "user": "Igor Bubelov",
            "uid": 2104834,
            "tags": {
                "addr:city": "Campi Bisenzio",
                "addr:housenumber": "125",
                "addr:postcode": "50013",
                "addr:street": "Via San Quirico",
                "check_date": "2023-04-05",
                "clothes": "men",
                "currency:XBT": "yes",
                "name": "Nuvolari c.c. I Gigli",
                "payment:lightning": "no",
                "payment:lightning_contactless": "no",
                "payment:onchain": "yes",
                "phone": "0550458188",
                "shop": "clothes",
                "website": "https://www.igigli.it/shop/nuvolari/"
            }
        },
        {
            "type": "node",
            "id": 10995234405,
            "lat": 43.8947309,
            "lon": 11.0857113,
            "timestamp": "2024-02-26T05:21:12Z",
            "version": 6,
            "changeset": 147916428,
            "user": "Igor Bubelov",
            "uid": 2104834,
            "tags": {
                "addr:housenumber": "58",
                "addr:postcode": "59100",
                "addr:street": "Via Garigliano",
                "check_date:currency:XBT": "2023-12-16",
                "currency:XBT": "yes",
                "email": "info@idigservizi.it",
                "internet_access": "wlan",
                "name": "Identit\u00e0 Digitale Tommaso",
                "name:en": "Thomas Digital Identity",
                "opening_hours": "Mo-Su 09:00-13:30",
                "payment:lightning": "yes",
                "payment:onchain": "yes",
                "shop": "computer",
                "website": "https://www.idigservizi.it/"
            }
        },
        {
            "type": "node",
            "id": 11418023292,
            "lat": 43.8835574,
            "lon": 11.0824179,
            "timestamp": "2023-12-16T07:52:48Z",
            "version": 2,
            "changeset": 145175086,
            "user": "mendace",
            "uid": 20698316,
            "tags": {
                "addr:city": "Prato",
                "addr:postcode": "59100",
                "addr:street": "Via Giudo Monaco",
                "amenity": "arts_centre",
                "check_date": "2023-12-14",
                "contact:facebook": "https://www.facebook.com/LanarchicoPrato/",
                "currency:XBT": "yes",
                "email": "lanarchicoprato@gmail.com",
                "mobile": "+39 331 366 4642",
                "name": "Lanarchico",
                "payment:lightning": "yes",
                "payment:onchain": "yes",
                "website": "https://linktr.ee/lanarchico"
            }
        },
        {
            "type": "node",
            "id": 11819774023,
            "lat": 43.8253425,
            "lon": 11.127688,
            "timestamp": "2024-04-15T18:39:04Z",
            "version": 1,
            "changeset": 150053590,
            "user": "Chiarant",
            "uid": 18452174,
            "tags": {
                "addr:city": "Campi Bisenzio",
                "addr:housenumber": "30",
                "addr:street": "Via Pier Paolo Pasolini",
                "amenity": "restaurant",
                "check_date": "2024-04-15",
                "cuisine": "regional",
                "currency:XBT": "yes",
                "description": "Braceria toscana solo carne rossa",
                "diet:meat": "yes",
                "email": "info@carnam.it",
                "name": "Carnam Ciccia Club",
                "phone": "+39 378 305 3350",
                "website": "https://www.carnam.it/"
            }
        },
        {
            "type": "node",
            "id": 11925854975,
            "lat": 43.8113167,
            "lon": 11.2341989,
            "timestamp": "2024-06-11T19:39:16Z",
            "version": 3,
            "changeset": 152559157,
            "user": "Rockedf",
            "uid": 7522075,
            "tags": {
                "addr:city": "Florence",
                "addr:housenumber": "236",
                "addr:postcode": "50141",
                "addr:street": "Via delle Panche",
                "amenity": "atm",
                "cash_in": "yes",
                "cash_out": "yes",
                "cash_withdrawal": "yes",
                "check_date": "2024-05-22",
                "contact:email": "support@shitcoins.club",
                "contact:facebook": "https://www.facebook.com/shitcoins.club",
                "contact:instagram": "https://www.instagram.com/shitcoinsclub",
                "contact:telegram": "https://t.me/shitcoinsclub",
                "contact:twitter": "https://twitter.com/BitomatCom",
                "currency:CHF": "yes",
                "currency:DASH": "yes",
                "currency:ETH": "yes",
                "currency:EUR": "yes",
                "currency:GBP": "yes",
                "currency:HUF": "yes",
                "currency:LTC": "yes",
                "currency:RON": "yes",
                "currency:USD": "yes",
                "currency:USDC": "yes",
                "currency:USDT": "yes",
                "currency:XBT": "yes",
                "indoor": "yes",
                "name": "Bitcoin ATM - Shitcoins.club",
                "opening_hours": "24/7",
                "operator": "Shitcoins.club",
                "payment:cash": "yes",
                "payment:lightning": "no",
                "payment:lightning_contactless": "no",
                "payment:onchain": "yes",
                "phone": "+39 34 8048 7308",
                "website": "https://shitcoins.club/localizzazione-atm/atm-bitcoin-florence-via-delle-panche"
            }
        }
    ]
}