{
    "id": "bb-romagna",
    "name": "Bitcoin Beer Romagna",
    "lng": 44.4185898,
    "lat": 12.2011731,
    "localita": "Romagna",
    "telegram_app": "https://t.me/bitcoinomagnahub",
    "network": "bitcoinbeer",
    "poi": [
        {
            "type": "node",
            "id": 4752694126,
            "lat": 44.3960161,
            "lon": 12.179645,
            "timestamp": "2024-01-25T09:47:25Z",
            "version": 4,
            "changeset": 146665333,
            "user": "Igor Bubelov",
            "uid": 2104834,
            "tags": {
                "addr:city": "Ravenna",
                "addr:housenumber": "74",
                "addr:postcode": "48124",
                "addr:street": "Via Marco Bussato",
                "check_date": "2023-03-27",
                "clothes": "men",
                "currency:XBT": "yes",
                "name": "DOPPELG\u00c4NGER",
                "payment:lightning": "no",
                "payment:lightning_contactless": "no",
                "payment:onchain": "yes",
                "shop": "clothes"
            }
        },
        {
            "type": "node",
            "id": 4752829351,
            "lat": 44.4182506,
            "lon": 12.2018907,
            "timestamp": "2023-01-02T17:30:57Z",
            "version": 3,
            "changeset": 130796918,
            "user": "BSN21M",
            "uid": 17441326,
            "tags": {
                "addr:housenumber": "28",
                "addr:street": "Via Armando Diaz",
                "check_date:currency:XBT": "2023-01-02",
                "currency:XBT": "yes",
                "name": "Dottoressa Commercialista Maltoni Marika",
                "payment:lightning": "yes",
                "payment:lightning_contactless": "no",
                "payment:onchain": "yes",
                "shop": "yes",
                "survey:date": "2022-10-27"
            }
        },
        {
            "type": "node",
            "id": 4752889626,
            "lat": 44.4007549,
            "lon": 12.2148296,
            "timestamp": "2023-10-17T03:50:06Z",
            "version": 6,
            "changeset": 142691390,
            "user": "Igor Bubelov",
            "uid": 2104834,
            "tags": {
                "addr:city": "Ravenna",
                "addr:housenumber": "144",
                "addr:postcode": "48121",
                "addr:street": "Via Romea",
                "addr:unit": "e",
                "check_date:currency:XBT": "2023-10-05",
                "contact:phone": "0544 402300",
                "currency:XBT": "yes",
                "email": "info@tecnogasravenna.it",
                "name": "Tecnogas",
                "payment:lightning": "yes",
                "payment:lightning_contactless": "yes",
                "payment:onchain": "yes",
                "shop": "repair",
                "survey:date": "2023-06-27",
                "website": "https://tecnogasravenna.it/"
            }
        },
        {
            "type": "node",
            "id": 6224686025,
            "lat": 44.2766438,
            "lon": 12.3444155,
            "timestamp": "2024-01-06T11:20:43Z",
            "version": 4,
            "changeset": 145952776,
            "user": "Chiarant",
            "uid": 18452174,
            "tags": {
                "addr:city": "Cervia",
                "addr:housenumber": "37",
                "addr:postcode": "48015",
                "addr:street": "Viale Ravenna",
                "check_date": "2024-01-06",
                "currency:XBT": "yes",
                "email": "mircobiondi@inlogica.it",
                "name": "inlogica",
                "office": "financial",
                "payment:bitcoin:operator": "inbitcoin.it",
                "phone": "+39 0544 71310",
                "website": "http://www.inlogica.it/"
            }
        },
        {
            "type": "node",
            "id": 10162799750,
            "lat": 44.3309194,
            "lon": 12.1329818,
            "timestamp": "2022-11-30T18:10:31Z",
            "version": 2,
            "changeset": 129571540,
            "user": "BSN21M",
            "uid": 17441326,
            "tags": {
                "addr:city": "Gambellara",
                "addr:housenumber": "44",
                "addr:postcode": "48124",
                "addr:street": "Via del Fabbro",
                "check_date:currency:XBT": "2022-11-30",
                "craft": "plumber",
                "currency:XBT": "yes",
                "email": "luca6854@gmail.com",
                "name": "Fantinelli Gabriele",
                "payment:lightning": "no",
                "payment:lightning_contactless": "no",
                "payment:onchain": "yes",
                "phone": "+39335390405",
                "survey:date": "2022-11-06",
                "website": "https://www.fantinelligabriele.it/"
            }
        },
        {
            "type": "node",
            "id": 11014217449,
            "lat": 44.2793233,
            "lon": 12.3527166,
            "timestamp": "2023-08-03T23:59:52Z",
            "version": 2,
            "changeset": 139416334,
            "user": "Rockedf",
            "uid": 7522075,
            "tags": {
                "addr:city": "Milano Marittima",
                "addr:housenumber": "274",
                "addr:postcode": "48015",
                "addr:street": "Lungomare Antonio Batani",
                "amenity": "restaurant",
                "check_date:currency:XBT": "2023-08-03",
                "cuisine": "italian;italian_pizza",
                "currency:XBT": "yes",
                "currency:XBT:operator": "bitcoinpos.it",
                "name": "La Spiaggetta 274",
                "payment:lightning": "yes",
                "payment:onchain": "yes",
                "phone": "+393313874666",
                "survey:date": "2023-06-27",
                "website": "http://www.laspiaggetta274.it/"
            }
        }
    ]
}