{
    "id": "bc-modena",
    "name": "Bitcoin and crypto Modena",
    "lng": 44.62244,
    "lat": 10.8616,
    "localita": "Modena",
    "idlocalita": "modena",
    "telegram_weburl": "https://web.telegram.org/a/#-1001339469755",
    "telegram_app": "https://t.me/CryptoModena",
    "telegram_members": 138.0,
    "poi": [
        {
            "type": "node",
            "id": 1704256675,
            "lat": 44.4977004,
            "lon": 11.3481769,
            "timestamp": "2024-07-20T20:17:58Z",
            "version": 13,
            "changeset": 154194681,
            "user": "mauropili",
            "uid": 1496865,
            "tags": {
                "addr:city": "Bologna",
                "addr:country": "IT",
                "addr:district": "San Vitale",
                "addr:housenumber": "2f",
                "addr:postcode": "40126",
                "addr:street": "Via delle Moline",
                "amenity": "restaurant",
                "check_date": "2024-06-14",
                "check_date:currency:XBT": "2024-06-22",
                "cuisine": "regional;italian;coffee_shop",
                "currency:XBT": "yes",
                "email": "BOOKING@LEMOLINE.IT",
                "name": "Le Moline - Osteria",
                "opening_hours": "Mo-Su 11:30-01:00",
                "payment:lightning": "yes",
                "payment:lightning_contactless": "no",
                "payment:onchain": "yes",
                "phone": "+390513169389",
                "website": "https://www.lemoline.it/"
            }
        },
        {
            "type": "node",
            "id": 1704363751,
            "lat": 44.4684069,
            "lon": 11.3734421,
            "timestamp": "2024-07-20T20:19:31Z",
            "version": 6,
            "changeset": 154194718,
            "user": "mauropili",
            "uid": 1496865,
            "tags": {
                "addr:city": "Bologna",
                "addr:country": "IT",
                "addr:district": "Savena",
                "addr:housenumber": "3/2",
                "addr:postcode": "40141",
                "addr:street": "Via della Foscherara",
                "check_date": "2022-12-12",
                "currency:XBT": "yes",
                "email": "info@nonsolofumo.it",
                "name": "Tabaccheria Non Solo Fumo Di Mutti Claudia",
                "opening_hours": "Mo-Fr 07:30-19:30, Sa 08:00-19:30",
                "payment:lightning": "yes",
                "payment:onchain": "yes",
                "phone": "+39051472843",
                "shop": "tobacco",
                "source": "Comune di Bologna",
                "website": "https://www.nonsolofumo242.it/"
            }
        },
        {
            "type": "node",
            "id": 1704680079,
            "lat": 44.4956594,
            "lon": 11.338392,
            "timestamp": "2024-07-20T20:22:13Z",
            "version": 9,
            "changeset": 154194794,
            "user": "mauropili",
            "uid": 1496865,
            "tags": {
                "addr:city": "Bologna",
                "addr:country": "IT",
                "addr:district": "Porto",
                "addr:housenumber": "23",
                "addr:postcode": "40121",
                "addr:street": "Via Ugo Bassi",
                "amenity": "fast_food",
                "check_date": "2023-07-20",
                "check_date:currency:XBT": "2023-10-18",
                "contact:instagram": "https://www.instagram.com/sfarinapiadina/",
                "cuisine": "regional;piadina",
                "currency:XBT": "yes",
                "name": "Sfarin\u00e0",
                "payment:lightning": "yes",
                "phone": "+39 051 269282",
                "source": "Comune di Bologna",
                "website": "https://sfarina.it/"
            }
        },
        {
            "type": "node",
            "id": 3645848575,
            "lat": 44.4930935,
            "lon": 11.3437421,
            "timestamp": "2024-01-26T09:58:18Z",
            "version": 7,
            "changeset": 146703109,
            "user": "Chiarant",
            "uid": 18452174,
            "tags": {
                "addr:city": "Bologna",
                "addr:housenumber": "2",
                "addr:postcode": "40124",
                "addr:street": "Via dell'Archiginnasio",
                "amenity": "pharmacy",
                "currency:XBT": "yes",
                "currency:others": "yes",
                "dispensing": "yes",
                "email": "info@farmaciadelpavaglione.it",
                "healthcare": "pharmacy",
                "name": "Farmacia del Pavaglione",
                "name:it": "Farmacia del Pavaglione",
                "payment:cryptocurrencies": "yes",
                "payment:lightning": "yes",
                "payment:onchain": "yes",
                "phone": "+39 051 221640",
                "survey:date": "2024-01-25",
                "website": "https://farmaciadelpavaglione.it"
            }
        },
        {
            "type": "node",
            "id": 4513679325,
            "lat": 44.6953631,
            "lon": 10.4970745,
            "timestamp": "2023-11-17T18:12:13Z",
            "version": 4,
            "changeset": 144149891,
            "user": "toponomastica_comune_arenzano",
            "uid": 14257573,
            "tags": {
                "addr:city": "Barco",
                "addr:housenumber": "34a",
                "addr:postcode": "42021",
                "addr:street": "Via Nazario Sauro",
                "check_date": "2023-04-26",
                "currency:XBT": "yes",
                "email": "info@senso-unico.net",
                "name": "Senso Unico snc grafica & Design",
                "office": "graphic_design",
                "phone": "0522372351",
                "website": "https://www.senso-unico.net"
            }
        },
        {
            "type": "node",
            "id": 4524470590,
            "lat": 44.5293564,
            "lon": 11.3369088,
            "timestamp": "2024-07-06T05:57:24Z",
            "version": 5,
            "changeset": 153611292,
            "user": "mauropili",
            "uid": 1496865,
            "tags": {
                "addr:city": "Bologna",
                "addr:housenumber": "7",
                "addr:postcode": "40131",
                "addr:street": "Via Cristoforo Colombo",
                "brand": "Mondo Convenienza",
                "brand:wikidata": "Q55830962",
                "check_date:currency:XBT": "2023-07-31",
                "currency:XBT": "yes",
                "name": "Mondo Convenienza",
                "name:it": "Mondo Convenienza",
                "shop": "furniture"
            }
        },
        {
            "type": "node",
            "id": 4525313285,
            "lat": 44.6606931,
            "lon": 10.5891065,
            "timestamp": "2024-01-03T18:57:59Z",
            "version": 4,
            "changeset": 145851439,
            "user": "descubrebitcoin",
            "uid": 17565129,
            "tags": {
                "addr:city": "Reggio nell'Emilia",
                "addr:housenumber": "19/1",
                "addr:postcode": "42123",
                "addr:street": "Via della Repubblica",
                "check_date:currency:XBT": "2024-01-03",
                "currency:XBT": "yes",
                "name": "BS VILLAGE",
                "operator": "BUSINESS SHOP S.r.l.",
                "payment:onchain": "yes",
                "phone": "+39 0522 153 6417",
                "shop": "swimming_pool",
                "website": "https://www.bsvillage.com/"
            }
        },
        {
            "type": "node",
            "id": 4712453648,
            "lat": 44.6418557,
            "lon": 10.9188819,
            "timestamp": "2024-07-20T21:09:06Z",
            "version": 5,
            "changeset": 154196157,
            "user": "mauropili",
            "uid": 1496865,
            "tags": {
                "addr:city": "Modena",
                "addr:country": "IT",
                "addr:housenumber": "50",
                "addr:postcode": "41124",
                "addr:street": "Via Carlo Sigonio",
                "addr:suburb": "San Faustino- Madonnina- Quattro Ville",
                "check_date": "2024-01-17",
                "contact:facebook": "https://www.facebook.com/profile.php?id=100063804144164",
                "contact:instagram": "https://www.instagram.com/rullo__su_tela_/",
                "craft": "painter",
                "currency:XBT": "yes",
                "description": "Decorativi e Resine",
                "email": "info@rullosutela.it",
                "mobile": "+39 327 6249899",
                "name": "Rullo su tela di Soccio Nicol\u00f2",
                "opening_hours": "Mo-Sa 09:00-20:00",
                "payment:lightning": "yes",
                "payment:onchain": "yes",
                "source": "dati.emilia-romagna.it",
                "website": "https://rullosutela.it/"
            }
        },
        {
            "type": "node",
            "id": 4712458289,
            "lat": 44.6357527,
            "lon": 10.9000216,
            "timestamp": "2022-12-20T13:26:31Z",
            "version": 4,
            "changeset": 130290756,
            "user": "saunter",
            "uid": 10396321,
            "tags": {
                "addr:city": "Modena",
                "addr:country": "IT",
                "addr:housenumber": "11",
                "addr:postcode": "41126",
                "addr:street": "Strada Scaglia Est",
                "addr:suburb": "San Faustino- Madonnina- Quattro Ville",
                "amenity": "restaurant",
                "check_date": "2022-12-20",
                "contact:facebook": "https://www.facebook.com/modenaduerestaurantbar/",
                "currency:XBT": "yes",
                "name": "Modena Due Restaurant & Lounge Bar",
                "payment:onchain": "yes",
                "phone": "+393534024359",
                "source": "dati.emilia-romagna.it"
            }
        },
        {
            "type": "node",
            "id": 4712478501,
            "lat": 44.6577681,
            "lon": 10.9609136,
            "timestamp": "2023-12-17T11:38:03Z",
            "version": 12,
            "changeset": 145211507,
            "user": "Enogard96",
            "uid": 20666881,
            "tags": {
                "addr:city": "Modena",
                "addr:country": "IT",
                "addr:housenumber": "3/A",
                "addr:postcode": "41122",
                "addr:street": "Via Papa Giovanni XXIII",
                "addr:suburb": "Crocetta-San Lazzaro-Modena Est",
                "check_date": "2023-12-01",
                "check_date:currency:XBT": "2023-12-11",
                "contact:facebook": "https://www.facebook.com/litopoppi",
                "currency:XBT": "yes",
                "email": "info@litopoppi.it",
                "name": "Litotipografia Poppi",
                "opening_hours": "Mo-Fr 08:00-18:30",
                "payment:lightning": "yes",
                "payment:lightning_contactless": "no",
                "payment:onchain": "no",
                "phone": "+39059251477",
                "shop": "copyshop",
                "survey:date": "2023-12-01",
                "website": "https://www.litopoppi.it"
            }
        },
        {
            "type": "node",
            "id": 4712517944,
            "lat": 44.6469689,
            "lon": 10.925682,
            "timestamp": "2023-04-16T09:06:39Z",
            "version": 8,
            "changeset": 134966167,
            "user": "Chiarant",
            "uid": 18452174,
            "tags": {
                "addr:city": "Modena",
                "addr:country": "IT",
                "addr:housenumber": "146",
                "addr:postcode": "41121",
                "addr:street": "Via Emilia Centro",
                "addr:suburb": "Centro Storico",
                "brand": "DOPPELG\u00c4NGER",
                "check_date": "2023-04-15",
                "clothes": "men",
                "currency:XBT": "yes",
                "name": "DOPPELG\u00c4NGER",
                "phone": "0598301476",
                "shop": "clothes"
            }
        },
        {
            "type": "node",
            "id": 4755101621,
            "lat": 44.7742289,
            "lon": 10.3230526,
            "timestamp": "2023-11-21T22:38:33Z",
            "version": 2,
            "changeset": 144305159,
            "user": "Chiarant",
            "uid": 18452174,
            "tags": {
                "addr:city": "Parma",
                "addr:housenumber": "136a",
                "addr:postcode": "43124",
                "addr:street": "Strada Langhirano",
                "check_date": "2023-11-21",
                "contact:facebook": "https://www.facebook.com/people/Tennispro-Parma/100063702842288/",
                "currency:XBT": "yes",
                "email": "tennisproparma@tennispro.it",
                "name": "Tennispro Parma",
                "payment:lightning": "yes",
                "payment:onchain": "yes",
                "phone": "+39 0521 929790",
                "shop": "sports",
                "sport": "tennis;padel",
                "website": "https://www.tennispro.it/"
            }
        },
        {
            "type": "node",
            "id": 4762538120,
            "lat": 44.4883207,
            "lon": 11.2490912,
            "timestamp": "2023-08-26T09:29:13Z",
            "version": 4,
            "changeset": 140403055,
            "user": "Chiarant",
            "uid": 18452174,
            "tags": {
                "addr:city": "Casalecchio di Reno",
                "addr:housenumber": "2/30",
                "addr:postcode": "40033",
                "addr:street": "Via Marilyn Monroe",
                "check_date": "2023-08-26",
                "clothes": "men",
                "currency:XBT": "yes",
                "name": "Nuvolari c.c. Gran Reno",
                "phone": "0514985032",
                "shop": "clothes"
            }
        },
        {
            "type": "node",
            "id": 4769655683,
            "lat": 44.4776013,
            "lon": 11.011228,
            "timestamp": "2023-11-25T10:50:17Z",
            "version": 5,
            "changeset": 144436836,
            "user": "Chiarant",
            "uid": 18452174,
            "tags": {
                "addr:city": "Vignola",
                "addr:country": "IT",
                "addr:housenumber": "73",
                "addr:postcode": "41058",
                "addr:street": "Corso Italia",
                "check_date": "2023-11-25",
                "currency:XBT": "yes",
                "description": "Parrucchiere con prodotti Vegetali Reali e Italiani (NATURALMENTE-ARTEC), Salone Ecosostenibile.",
                "name": "Bio - Relax Parrucchieri",
                "payment:lightning": "yes",
                "payment:lightning_contactless": "yes",
                "payment:onchain": "yes",
                "phone": "+393450702938",
                "shop": "hairdresser",
                "survey:date": "2023-06-25",
                "unisex": "yes"
            }
        },
        {
            "type": "node",
            "id": 4769656820,
            "lat": 44.4940189,
            "lon": 11.0197123,
            "timestamp": "2023-11-25T10:52:05Z",
            "version": 9,
            "changeset": 144436871,
            "user": "Chiarant",
            "uid": 18452174,
            "tags": {
                "addr:city": "Vignola",
                "addr:housenumber": "166",
                "addr:postcode": "41058",
                "addr:street": "Via Natale Bruni",
                "amenity": "ice_cream",
                "check_date:currency:XBT": "2023-11-25",
                "currency:XBT": "yes",
                "name": "Gelateria L'Artigiano",
                "opening_hours": "Tu-Su 14:30-21:00",
                "payment:lightning": "yes",
                "payment:lightning_contactless": "yes",
                "payment:onchain": "yes",
                "phone": "+39 3501509361",
                "website": "https://www.instagram.com/l.artigianodeisapori/?hl=it"
            }
        },
        {
            "type": "node",
            "id": 4771084852,
            "lat": 44.6994619,
            "lon": 11.04406,
            "timestamp": "2023-11-01T05:33:31Z",
            "version": 6,
            "changeset": 143454984,
            "user": "Igor Bubelov",
            "uid": 2104834,
            "tags": {
                "addr:city": "Nonantola",
                "addr:hamlet": "Campazzo",
                "addr:housenumber": "50",
                "addr:postcode": "41015",
                "addr:street": "Via Selvatica",
                "check_date:currency:XBT": "2023-05-30",
                "currency:XBT": "yes",
                "description": "Situato in una strada rurale, dista 3 km da Nonantola. Le camere rustiche eccentriche, alcune caratterizzate da murales originali, sono arredate con mobili d'epoca. Le sistemazioni godono di vista sulla campagna.",
                "email": "selvatica50@gmail.com",
                "guest_house": "bed_and_breakfast",
                "name": "La Selvatica 50 B&B",
                "payment:cash": "yes",
                "payment:satispay": "yes",
                "payment:wire_transfer": "yes",
                "tourism": "guest_house"
            }
        },
        {
            "type": "node",
            "id": 4777100274,
            "lat": 44.5036687,
            "lon": 11.3088075,
            "timestamp": "2024-08-13T18:07:44Z",
            "version": 4,
            "changeset": 155208574,
            "user": "mauropili",
            "uid": 1496865,
            "tags": {
                "addr:city": "Bologna",
                "addr:housenumber": "38g",
                "addr:postcode": "40133",
                "addr:street": "Via Bruno Monterumici",
                "amenity": "fast_food",
                "check_date": "2023-07-20",
                "contact:facebook": "https://www.facebook.com/futuracaffetteria/",
                "contact:instagram": "https://www.instagram.com/caffetteriafutura",
                "currency:XBT": "yes",
                "email": "futuracaffetteria@gmail.com",
                "fast_food": "cafeteria",
                "name": "Caffetteria Futura"
            }
        },
        {
            "type": "node",
            "id": 4782380198,
            "lat": 44.46688,
            "lon": 11.4088448,
            "timestamp": "2023-12-17T14:53:36Z",
            "version": 3,
            "changeset": 145217974,
            "user": "Rockedf",
            "uid": 7522075,
            "tags": {
                "addr:city": "San Lazzaro di Savena",
                "addr:housenumber": "34",
                "addr:postcode": "40068",
                "addr:street": "Via Carlo Iussi",
                "amenity": "restaurant",
                "check_date": "2023-11-21",
                "check_date:currency:XBT": "2023-12-17",
                "cuisine": "pizza;italian;bistro",
                "currency:XBT": "yes",
                "email": "info@40068pizzaemore.com",
                "name": "40068 Pizza & More",
                "opening_hours": "Mo-Su 18:00-01:00",
                "payment:lightning": "yes",
                "phone": "+39 051 2842005",
                "website": "https://40068pizzaemore.com/"
            }
        },
        {
            "type": "node",
            "id": 6475072552,
            "lat": 44.640859,
            "lon": 10.91307,
            "timestamp": "2024-08-20T07:09:07Z",
            "version": 5,
            "changeset": 155493174,
            "user": "mauropili",
            "uid": 1496865,
            "tags": {
                "addr:city": "Modena",
                "addr:housenumber": "219",
                "addr:postcode": "41124",
                "addr:street": "Via Pietro Giardini",
                "check_date:currency:XBT": "2023-02-17",
                "currency:XBT": "yes",
                "description": "Affitto uffici arredati, sale riunioni, spazi condivisi.",
                "email": "info@modenacoworking.it",
                "name": "Modena Coworking",
                "office": "coworking",
                "phone": "+39 3356674607",
                "website": "https://www.modenacoworking.it/"
            }
        },
        {
            "type": "node",
            "id": 7244465685,
            "lat": 44.5127809,
            "lon": 11.2868027,
            "timestamp": "2024-06-11T18:44:28Z",
            "version": 5,
            "changeset": 152557178,
            "user": "Rockedf",
            "uid": 7522075,
            "tags": {
                "addr:city": "Bologna",
                "addr:housenumber": "345",
                "addr:postcode": "40132",
                "addr:street": "Via Emilia Ponente",
                "addr:unit": "D",
                "amenity": "atm",
                "branch": "Bologna",
                "cash_in": "yes",
                "cash_out": "yes",
                "cash_withdrawal": "yes",
                "check_date": "2024-01-28",
                "contact:email": "support@shitcoins.club",
                "contact:facebook": "https://www.facebook.com/shitcoins.club",
                "contact:instagram": "https://www.instagram.com/shitcoinsclub",
                "contact:telegram": "https://t.me/shitcoinsclub",
                "contact:twitter": "https://twitter.com/BitomatCom",
                "currency:CAD": "yes",
                "currency:CHF": "yes",
                "currency:DASH": "yes",
                "currency:ETH": "yes",
                "currency:EUR": "yes",
                "currency:HUF": "yes",
                "currency:LTC": "yes",
                "currency:RON": "yes",
                "currency:USD": "yes",
                "currency:USDC": "yes",
                "currency:USDT": "yes",
                "currency:XBT": "yes",
                "indoor": "yes",
                "level": "0",
                "name": "Bitcoin ATM - Shitcoins.club",
                "network": "Bitcoin",
                "note": "L'ATM Bitcoin a Bologna si trova accanto a Borgoceramica Pavimenti e Arredo Bagno.",
                "opening_hours": "24/7",
                "operator": "Shitcoins.club",
                "payment:cash": "yes",
                "payment:onchain": "yes",
                "phone": "+39 34 8048 7308",
                "start_date": "2019-10-26",
                "url": "https://coinatmradar.com/bitcoin_atm/10059/bitcoin-atm-shitcoins-club-bologna-punto-atm-bitcoin/",
                "website": "https://shitcoins.club/localizzazione-atm/atm-bitcoin-bologna-via-emilia-ponente"
            }
        },
        {
            "type": "node",
            "id": 7507278566,
            "lat": 44.4924243,
            "lon": 11.3257006,
            "timestamp": "2023-11-17T18:41:45Z",
            "version": 4,
            "changeset": 144150734,
            "user": "toponomastica_comune_arenzano",
            "uid": 14257573,
            "tags": {
                "addr:city": "Bologna",
                "addr:housenumber": "40a",
                "addr:postcode": "40134",
                "addr:street": "Via Alessandro Guidotti",
                "amenity": "veterinary",
                "check_date": "2023-05-03",
                "currency:XBT": "yes",
                "description": "Ambulatorio Veterinario per animali da compagnia / pets. Clinica, chirurgia, consulenza, reperibilit\u00e0 h24, visite domiciliari.",
                "email": "ambvetguidotti@gmail.com",
                "name": "Ambulatorio Veterinario Guidotti",
                "phone": "+39 3491007581",
                "website": "https://www.facebook.com/Ambulatorio-Veterinario-Guidotti-101227044772600"
            }
        },
        {
            "type": "node",
            "id": 8454768289,
            "lat": 44.4991796,
            "lon": 11.333816,
            "timestamp": "2023-07-17T12:22:18Z",
            "version": 3,
            "changeset": 138619824,
            "user": "Chiarant",
            "uid": 18452174,
            "tags": {
                "addr:city": "Bologna",
                "addr:housenumber": "6",
                "addr:postcode": "40122",
                "addr:street": "Via Padre Francesco Maria Grimaldi",
                "addr:unit": "e",
                "amenity": "dentist",
                "check_date": "2023-07-17",
                "currency:XBT": "yes",
                "description": "Ambulatorio odontoiatrico specializzato in odontoiatria digitale. Si effettuano sbiancamenti dentali, faccette, ortodonzia con le mascherine trasparenti, implantologia computer assistita.",
                "email": "info@centroodontoiatricogrimaldi.it",
                "healthcare": "dentist",
                "name": "Centro Odontoiatrico Grimaldi",
                "phone": "+39 0516494868",
                "website": "https://www.centroodontoiatricogrimaldi.it/"
            }
        },
        {
            "type": "node",
            "id": 8706247731,
            "lat": 44.6972465,
            "lon": 10.6272017,
            "timestamp": "2024-04-14T19:59:39Z",
            "version": 2,
            "changeset": 150008013,
            "user": "Chiarant",
            "uid": 18452174,
            "tags": {
                "addr:city": "Reggio nell'Emilia",
                "addr:housenumber": "31",
                "addr:postcode": "42121",
                "addr:street": "Corso Giuseppe Garibaldi",
                "addr:unit": "a",
                "amenity": "restaurant",
                "check_date": "2024-04-14",
                "currency:XBT": "yes",
                "name": "Oltre Restaurant",
                "phone": "+39 342 081 0328"
            }
        },
        {
            "type": "node",
            "id": 10019906287,
            "lat": 44.4991358,
            "lon": 11.3266877,
            "timestamp": "2023-07-09T14:07:36Z",
            "version": 2,
            "changeset": 138298230,
            "user": "Chiarant",
            "uid": 18452174,
            "tags": {
                "addr:city": "Bologna",
                "addr:housenumber": "3",
                "addr:postcode": "40122",
                "addr:street": "Piazza di Porta San Felice",
                "amenity": "cafe",
                "check_date": "2023-07-09",
                "cuisine": "pizza;italian;burger",
                "currency:XBT": "yes",
                "name": "Borgo Mameli",
                "phone": "+393701512014",
                "survey:date": "2022-09-13",
                "website": "https://borgomameli.it/"
            }
        },
        {
            "type": "node",
            "id": 10019917907,
            "lat": 44.4963972,
            "lon": 11.3385377,
            "timestamp": "2024-04-12T17:45:54Z",
            "version": 4,
            "changeset": 149922352,
            "user": "rabon",
            "uid": 1972608,
            "tags": {
                "addr:city": "Bologna",
                "addr:housenumber": "7",
                "addr:postcode": "40121",
                "addr:street": "Via Belvedere",
                "addr:unit": "C",
                "amenity": "bar",
                "check_date": "2024-02-29",
                "currency:XBT": "yes",
                "email": "pastis.belvedere@gmail.com",
                "name": "Pastis",
                "payment:lightning": "yes",
                "phone": "+39 051 230650",
                "survey:date": "2022-09-13",
                "website": "https://www.facebook.com/PastisBologna"
            }
        },
        {
            "type": "node",
            "id": 10255532989,
            "lat": 44.5279491,
            "lon": 11.320108,
            "timestamp": "2024-02-29T13:30:01Z",
            "version": 2,
            "changeset": 148052814,
            "user": "Chiarant",
            "uid": 18452174,
            "tags": {
                "addr:city": "Bologna",
                "addr:housenumber": "50",
                "addr:postcode": "40131",
                "addr:street": "Via della Selva Pescarola",
                "amenity": "restaurant",
                "check_date:currency:XBT": "2024-02-29",
                "currency:XBT": "yes",
                "description": "On-chain payments for groups or payments in advance",
                "name": "Il Mulino Bruciato",
                "opening_hours": "Mo-Sa 19:30-03:00",
                "payment:lightning": "yes",
                "payment:lightning_contactless": "no",
                "payment:onchain": "yes",
                "phone": "+39 051 634 3072",
                "website": "https://www.facebook.com/ilmulinobruciato/"
            }
        },
        {
            "type": "node",
            "id": 10661986526,
            "lat": 44.66928,
            "lon": 10.7403141,
            "timestamp": "2023-02-15T14:20:08Z",
            "version": 1,
            "changeset": 132584333,
            "user": "BSN21M",
            "uid": 17441326,
            "tags": {
                "addr:city": "Reggio Emilia",
                "addr:postcode": "42122",
                "addr:street": "Via Romani",
                "check_date:currency:XBT": "2023-02-15",
                "craft": "winery",
                "currency:XBT": "yes",
                "email": "dario_rota@yahoo.com",
                "name": "Cantina Rota",
                "opening_hours": "Mo-Fr 8:00-18:00",
                "payment:lightning": "no",
                "payment:lightning_contactless": "no",
                "payment:onchain": "yes",
                "phone": "+39 0522 340 118",
                "website": "https://cantinarota.com"
            }
        },
        {
            "type": "node",
            "id": 10766444254,
            "lat": 44.4787868,
            "lon": 11.3815956,
            "timestamp": "2023-11-17T18:41:45Z",
            "version": 5,
            "changeset": 144150734,
            "user": "toponomastica_comune_arenzano",
            "uid": 14257573,
            "tags": {
                "addr:city": "Bologna",
                "addr:housenumber": "4a",
                "addr:postcode": "40139",
                "addr:street": "Via Friuli Venezia Giulia",
                "check_date": "2023-03-27",
                "contact:facebook": "https://www.facebook.com/kickboxingbologna/",
                "currency:XBT": "yes",
                "description": "Specialized in ring and cage sports",
                "email": "megathai@hotmail.com",
                "leisure": "sports_hall",
                "name": "Rainbow team Bologna - Boxe club",
                "payment:lightning": "no",
                "payment:lightning_contactless": "no",
                "payment:onchain": "yes",
                "sport": "boxing;kickboxing;muay_thai;thaibox"
            }
        },
        {
            "type": "node",
            "id": 10801651077,
            "lat": 44.7897656,
            "lon": 10.3061159,
            "timestamp": "2023-08-04T07:38:33Z",
            "version": 4,
            "changeset": 139427358,
            "user": "Igor Bubelov",
            "uid": 2104834,
            "tags": {
                "addr:city": "Parma",
                "addr:housenumber": "8",
                "addr:postcode": "43125",
                "addr:street": "Via Carlo Porta",
                "check_date": "2023-04-11",
                "contact:facebook": "https://www.facebook.com/mytrico",
                "currency:XBT": "yes",
                "description": "Studio di Tricopigmentazione & Osteopatia",
                "email": "info@mytrico.it",
                "healthcare": "alternative",
                "healthcare:speciality": "osteopathy",
                "name": "MyTrico Studio",
                "website": "https://www.mytrico.it/"
            }
        },
        {
            "type": "node",
            "id": 10840421518,
            "lat": 44.6299722,
            "lon": 10.6131363,
            "timestamp": "2023-04-25T21:08:00Z",
            "version": 3,
            "changeset": 135360378,
            "user": "Chiarant",
            "uid": 18452174,
            "tags": {
                "addr:city": "Albinea",
                "addr:housenumber": "5",
                "addr:postcode": "42020",
                "addr:street": "Via Grandi",
                "addr:unit": "30",
                "check_date": "2023-04-25",
                "currency:XBT": "yes",
                "description": "Negozio di strumenti armonici: Campane tibetane, diapason, gong, tamburi...",
                "email": "info@tibetstrumentiarmonici.com",
                "name": "Armonie Sonore",
                "phone": "0522598264",
                "ref:vatin": "02540600356",
                "shop": "musical_instrument",
                "website": "https://www.tibetstrumentiarmonici.com/"
            }
        },
        {
            "type": "node",
            "id": 11069655003,
            "lat": 44.4970313,
            "lon": 11.3394695,
            "timestamp": "2023-07-26T16:49:25Z",
            "version": 1,
            "changeset": 139046931,
            "user": "Rockedf",
            "uid": 7522075,
            "tags": {
                "addr:city": "Bologna",
                "addr:housenumber": "11",
                "addr:postcode": "40121",
                "addr:street": "Via Nazario Sauro",
                "addr:unit": "C",
                "check_date": "2023-07-26",
                "check_date:currency:XBT": "2023-07-26",
                "contact:email": "granadoro@outlook.it",
                "currency:XBT": "yes",
                "name": "Granaglie",
                "opening_hours": "Mo-Sa 08:30-13:00",
                "payment:lightning": "yes",
                "payment:lightning_contactless": "no",
                "payment:onchain": "no",
                "shop": "food",
                "website": "https://docs.google.com/document/d/1OBUmPdXPE2YZD2V9wxykeESBIyrOmsccoI2SNt41prM/edit?usp=drivesdk"
            }
        },
        {
            "type": "node",
            "id": 11073966560,
            "lat": 44.5456299,
            "lon": 10.786363,
            "timestamp": "2023-12-18T03:19:08Z",
            "version": 2,
            "changeset": 145235179,
            "user": "Rockedf",
            "uid": 7522075,
            "tags": {
                "addr:city": "Sassuolo",
                "addr:housenumber": "19",
                "addr:postcode": "41049",
                "addr:street": "Via Tien An Men",
                "check_date": "2023-07-28",
                "check_date:currency:XBT": "2023-07-28",
                "contact:email": "blackmoodsrl@gmail.com",
                "currency:XBT": "yes",
                "name": "Black mood Parrucchieri",
                "payment:lightning": "yes",
                "payment:lightning_contactless": "no",
                "payment:onchain": "yes",
                "phone": "0536 1754485",
                "shop": "hairdresser",
                "website": "https://www.blackmoodparrucchieri.it/"
            }
        },
        {
            "type": "node",
            "id": 11200067892,
            "lat": 44.5041456,
            "lon": 11.3387609,
            "timestamp": "2023-10-30T03:52:28Z",
            "version": 4,
            "changeset": 143341565,
            "user": "b-jazz-bot",
            "uid": 9451067,
            "tags": {
                "addr:city": "Bologna",
                "addr:housenumber": "9",
                "addr:postcode": "40121",
                "addr:street": "Via Cairoli",
                "air_conditioning": "yes",
                "currency:EUR": "yes",
                "currency:XBT": "yes",
                "email": "info@casavacanzabologna.it",
                "guest_house": "apartment",
                "internet_access": "wlan",
                "internet_access:fee": "no",
                "name": "CVB :: Cairoli",
                "operator": "Casa Vacanza Bologna",
                "payment:bonifico_bancario": "yes",
                "payment:cryptocurrencies": "yes",
                "payment:lightning": "yes",
                "payment:lightning_contactless": "no",
                "payment:onchain": "yes",
                "payment:paypal": "yes",
                "payment:satispay": "yes",
                "rooms": "2",
                "survey:date": "2023-09-18",
                "tourism": "guest_house",
                "website": "https://www.airbnb.com/h/cairoli"
            }
        },
        {
            "type": "node",
            "id": 11200192363,
            "lat": 44.4933996,
            "lon": 11.3415021,
            "timestamp": "2023-10-30T03:58:11Z",
            "version": 3,
            "changeset": 143341751,
            "user": "b-jazz-bot",
            "uid": 9451067,
            "tags": {
                "addr:city": "Bologna",
                "addr:housenumber": "1",
                "addr:postcode": "40123",
                "addr:street": "Via Battibecco",
                "air_conditioning": "yes",
                "currency:EUR": "yes",
                "currency:XBT": "yes",
                "email": "info@casavacanzabologna.it",
                "guest_house": "apartment",
                "internet_access": "wlan",
                "internet_access:fee": "no",
                "name": "CVB :: Battibecco",
                "operator": "Casa Vacanza Bologna",
                "payment:bonifico": "yes",
                "payment:bonifico_bancario": "yes",
                "payment:cryptocurrencies": "yes",
                "payment:lightning": "yes",
                "payment:onchain": "yes",
                "payment:paypal": "yes",
                "payment:satispay": "yes",
                "rooms": "2",
                "survey:date": "2023-09-18",
                "tourism": "guest_house",
                "website": "https://www.airbnb.com/h/battibecco",
                "wheelchair": "no"
            }
        },
        {
            "type": "node",
            "id": 11255129975,
            "lat": 44.2248411,
            "lon": 11.0681653,
            "timestamp": "2024-08-17T14:18:12Z",
            "version": 19,
            "changeset": 155373316,
            "user": "Michele Cati",
            "uid": 20445873,
            "tags": {
                "addr:city": "Grizzana Morandi",
                "addr:housenumber": "26",
                "addr:postcode": "40030",
                "addr:street": "Via Archetta",
                "addr:unit": "f",
                "check_date": "2024-05-01",
                "check_date:currency:XBT": "2024-05-01",
                "currency:EPIC": "yes",
                "currency:ETH": "yes",
                "currency:XBT": "yes",
                "currency:XMR": "yes",
                "currency:ZANO": "yes",
                "email": "labalconcina@proton.me",
                "guest_house": "guest_house",
                "internet_access": "wlan",
                "internet_access:fee": "no",
                "name": "La Balconcina B&B",
                "payment:lightning": "yes",
                "payment:lightning_contactless": "no",
                "payment:onchain": "yes",
                "phone": "+39 34 8728 1656",
                "rooms": "2",
                "tourism": "guest_house",
                "website": "https://airbnb.com/h/labalconcina"
            }
        },
        {
            "type": "node",
            "id": 11255256454,
            "lat": 44.2308577,
            "lon": 11.053126,
            "timestamp": "2024-08-17T14:15:10Z",
            "version": 9,
            "changeset": 155373210,
            "user": "Michele Cati",
            "uid": 20445873,
            "tags": {
                "addr:city": "Vergato",
                "addr:housenumber": "351",
                "addr:postcode": "40038",
                "addr:street": "Via Castagnoli",
                "check_date": "2024-05-01",
                "check_date:currency:XBT": "2024-05-01",
                "contact:email": "michele@michelecati.com",
                "craft": "photographer",
                "currency:EPIC": "yes",
                "currency:ETH": "yes",
                "currency:XBT": "yes",
                "currency:XMR": "yes",
                "currency:ZANO": "yes",
                "name": "Michele Cati Fotografia",
                "operator": "Michele Cati",
                "payment:lightning": "yes",
                "payment:lightning_contactless": "no",
                "payment:onchain": "yes",
                "phone": "+39 34 8728 1656",
                "website": "https://www.michelecati.com/"
            }
        },
        {
            "type": "node",
            "id": 11255281367,
            "lat": 44.2036469,
            "lon": 11.0591517,
            "timestamp": "2024-08-17T14:11:25Z",
            "version": 15,
            "changeset": 155373005,
            "user": "Michele Cati",
            "uid": 20445873,
            "tags": {
                "addr:city": "Camugnano",
                "addr:housenumber": "54",
                "addr:postcode": "40032",
                "addr:street": "Ponte di Verzuno",
                "addr:unit": "b",
                "check_date": "2024-05-01",
                "check_date:currency:XBT": "2024-05-01",
                "contact:email": "info@mieleinformatica.com",
                "currency:EPIC": "yes",
                "currency:ETH": "yes",
                "currency:XBT": "yes",
                "currency:XMR": "yes",
                "currency:ZANO": "yes",
                "name": "Miele Informatica di Michele Cati",
                "office": "it",
                "payment:lightning": "yes",
                "payment:lightning_contactless": "no",
                "payment:onchain": "yes",
                "phone": "+39 34 8728 1656",
                "ref:vatin": "03667231207",
                "website": "https://www.mieleinformatica.com/"
            }
        },
        {
            "type": "node",
            "id": 11384696081,
            "lat": 44.7054455,
            "lon": 10.6116509,
            "timestamp": "2023-11-29T22:50:51Z",
            "version": 1,
            "changeset": 144606423,
            "user": "Chiarant",
            "uid": 18452174,
            "tags": {
                "addr:city": "Reggio nell'Emilia",
                "addr:housenumber": "17/a",
                "addr:postcode": "42124",
                "addr:street": "Via Fratelli Cervi",
                "amenity": "pub",
                "check_date": "2023-11-29",
                "contact:facebook": "https://www.facebook.com/ghigiuristopub/",
                "cuisine": "burger;pinsa",
                "currency:XBT": "yes",
                "email": "graziano-valentina@hotmail.it",
                "name": "Birreria Ghigiu Risto Pub",
                "payment:lightning": "yes",
                "payment:onchain": "yes",
                "phone": "+39 0522 303884",
                "website": "https://www.ghigiuristopub.it/"
            }
        },
        {
            "type": "node",
            "id": 11462836650,
            "lat": 44.5065792,
            "lon": 11.471508,
            "timestamp": "2023-12-28T14:10:39Z",
            "version": 1,
            "changeset": 145621752,
            "user": "Rockedf",
            "uid": 7522075,
            "tags": {
                "addr:city": "Castenaso",
                "addr:housenumber": "46",
                "addr:postcode": "40055",
                "addr:street": "Via Publio Cornelio Scipione Nasica",
                "check_date": "2023-12-28",
                "currency:XBT": "yes",
                "name": "Architetto Giampaolo Bertuzzi",
                "office": "architect",
                "payment:lightning": "yes",
                "payment:lightning_contactless": "no",
                "payment:onchain": "yes",
                "phone": "+39 33 9183 7132",
                "website": "https://www.architettobertuzzi.com/"
            }
        },
        {
            "type": "node",
            "id": 11513434803,
            "lat": 44.4942573,
            "lon": 11.338926,
            "timestamp": "2024-07-06T07:07:11Z",
            "version": 4,
            "changeset": 153612478,
            "user": "mauropili",
            "uid": 1496865,
            "tags": {
                "addr:city": "Bologna",
                "addr:housenumber": "9",
                "addr:postcode": "40121",
                "addr:street": "Via Quattro Novembre",
                "check_date": "2024-01-13",
                "currency:XBT": "yes",
                "name": "Avvocato Lorenzo Reggianini",
                "office": "lawyer",
                "website": "https://tognireggianini.it/"
            }
        },
        {
            "type": "node",
            "id": 11549468353,
            "lat": 44.4929566,
            "lon": 11.3404575,
            "timestamp": "2024-01-27T13:29:04Z",
            "version": 2,
            "changeset": 146744133,
            "user": "MarcoR",
            "uid": 175882,
            "tags": {
                "addr:city": "Bologna",
                "addr:housenumber": "5",
                "addr:postcode": "40123",
                "addr:street": "Piazza Galileo Galilei",
                "check_date:currency:XBT": "2024-01-25",
                "currency:XBT": "yes",
                "name": "Studio Legale Santoro",
                "office": "lawyer",
                "opening_hours": "24/7",
                "payment:cash": "yes",
                "payment:cryptocurrencies": "yes",
                "payment:lightning": "yes",
                "payment:lightning_contactless": "yes",
                "phone": "+39 051 6215920",
                "survey:date": "2024-01-25"
            }
        },
        {
            "type": "node",
            "id": 11676656636,
            "lat": 44.4962899,
            "lon": 11.3388262,
            "timestamp": "2024-04-21T20:32:27Z",
            "version": 2,
            "changeset": 150317932,
            "user": "Rockedf",
            "uid": 7522075,
            "tags": {
                "addr:city": "Bologna",
                "addr:housenumber": "4",
                "addr:postcode": "40121",
                "addr:street": "Via Belvedere",
                "addr:unit": "a",
                "amenity": "bar",
                "check_date": "2024-02-29",
                "check_date:currency:XBT": "2024-04-21",
                "currency:XBT": "yes",
                "email": "pastis.belvedere@gmail.com",
                "name": "Pastis Cuv\u00e8e",
                "payment:lightning": "yes"
            }
        },
        {
            "type": "node",
            "id": 11693941996,
            "lat": 44.7975679,
            "lon": 10.3312786,
            "timestamp": "2024-06-11T20:21:57Z",
            "version": 3,
            "changeset": 152560566,
            "user": "Rockedf",
            "uid": 7522075,
            "tags": {
                "addr:city": "Parma",
                "addr:housenumber": "65",
                "addr:postcode": "43121",
                "addr:street": "Borgo Felino",
                "amenity": "atm",
                "cash_in": "yes",
                "cash_out": "yes",
                "cash_withdrawal": "yes",
                "contact:email": "support@shitcoins.club",
                "contact:facebook": "https://www.facebook.com/shitcoins.club",
                "contact:instagram": "https://www.instagram.com/shitcoinsclub",
                "contact:telegram": "https://t.me/shitcoinsclub",
                "contact:twitter": "https://twitter.com/BitomatCom",
                "currency:CAD": "yes",
                "currency:CHF": "yes",
                "currency:DASH": "yes",
                "currency:ETH": "yes",
                "currency:EUR": "yes",
                "currency:HUF": "yes",
                "currency:LTC": "yes",
                "currency:RON": "yes",
                "currency:USD": "yes",
                "currency:USDC": "yes",
                "currency:USDT": "yes",
                "currency:XBT": "yes",
                "description": "L'ATM Bitcoin a Parma si trova accanto all'enoteca Bottiglia Azzurra ed \u00e8 aperto 24/7",
                "indoor": "yes",
                "name": "Bitcoin ATM - Shitcoins.club",
                "network": "shitcoins.club",
                "opening_hours": "24/7",
                "operator": "Shitcoins.club",
                "payment:cash": "yes",
                "payment:onchain": "yes",
                "phone": "+39 34 8048 7308",
                "survey:date": "2024-03-04",
                "website": "https://shitcoins.club/localizzazione-atm/atm-bitcoin-parma-borgo-felino"
            }
        },
        {
            "type": "node",
            "id": 11919563705,
            "lat": 44.2149974,
            "lon": 10.9006228,
            "timestamp": "2024-05-20T14:01:40Z",
            "version": 4,
            "changeset": 151582283,
            "user": "Benjamin De Lorenzo Gardinal",
            "uid": 21543332,
            "tags": {
                "addr:city": "Montese",
                "addr:housenumber": "500",
                "addr:postcode": "41055",
                "addr:street": "Via Ronchidoso",
                "currency:EUR": "yes",
                "currency:USD": "yes",
                "currency:XBT": "yes",
                "email": "info@xoobit.com",
                "image": "https://www.xoobit.com/themes/xoobit/frontend/images/ico.png",
                "name": "Xoobit - Sviluppo web",
                "office": "it",
                "opening_hours": "24/7",
                "payment:lightning": "no",
                "payment:lightning_contactless": "no",
                "payment:onchain": "yes",
                "phone": "+393476815600",
                "start_date": "2018-03-01",
                "survey:date": "2024-05-20",
                "website": "https://www.xoobit.com/"
            }
        },
        {
            "type": "node",
            "id": 11946024691,
            "lat": 44.4913442,
            "lon": 11.3472116,
            "timestamp": "2024-05-30T21:03:13Z",
            "version": 1,
            "changeset": 152054781,
            "user": "Rockedf",
            "uid": 7522075,
            "tags": {
                "addr:city": "Bologna",
                "addr:housenumber": "25",
                "addr:postcode": "40124",
                "addr:street": "Via Luigi Carlo Farini",
                "check_date": "2024-05-30",
                "contact:email": "caterina.marmocchi@gmail.com",
                "currency:XBT": "yes",
                "name": "AVV CATERINA MARMOCCHI",
                "office": "lawyer",
                "payment:lightning": "yes",
                "payment:lightning_contactless": "no",
                "payment:onchain": "yes",
                "phone": "+39 34 9288 6313"
            }
        },
        {
            "type": "node",
            "id": 11947970330,
            "lat": 44.8900087,
            "lon": 11.0548275,
            "timestamp": "2024-06-19T02:36:16Z",
            "version": 2,
            "changeset": 152871589,
            "user": "Rockedf",
            "uid": 7522075,
            "tags": {
                "addr:city": "Mirandola",
                "addr:housenumber": "37-3",
                "addr:postcode": "41037",
                "addr:street": "Via G. Agnini",
                "amenity": "atm",
                "cash_in": "yes",
                "cash_out": "yes",
                "cash_withdrawal": "yes",
                "check_date": "2024-05-31",
                "contact:email": "support@shitcoins.club",
                "contact:facebook": "https://www.facebook.com/shitcoins.club",
                "contact:instagram": "https://www.instagram.com/shitcoinsclub",
                "contact:telegram": "https://t.me/shitcoinsclub",
                "contact:twitter": "https://twitter.com/BitomatCom",
                "currency:CHF": "yes",
                "currency:DASH": "yes",
                "currency:ETH": "yes",
                "currency:EUR": "yes",
                "currency:GBP": "yes",
                "currency:HUF": "yes",
                "currency:LTC": "yes",
                "currency:RON": "yes",
                "currency:USD": "yes",
                "currency:USDC": "yes",
                "currency:USDT": "yes",
                "currency:XBT": "yes",
                "indoor": "yes",
                "name": "Bitcoin ATM - Shitcoins.club",
                "opening_hours": "Mo-Sa 08:30-20:30; Su 09:00-20:00",
                "operator": "Shitcoins.club",
                "payment:cash": "yes",
                "payment:lightning": "no",
                "payment:lightning_contactless": "no",
                "payment:onchain": "yes",
                "phone": "+39 34 8048 7308",
                "website": "https://shitcoins.club/localizzazione-atm/bancomat-bitcoin-Mirandola"
            }
        },
        {
            "type": "node",
            "id": 12007335643,
            "lat": 44.5590504,
            "lon": 11.3229149,
            "timestamp": "2024-06-24T17:52:50Z",
            "version": 1,
            "changeset": 153124027,
            "user": "Rockedf",
            "uid": 7522075,
            "tags": {
                "addr:city": "Castel Maggiore",
                "addr:housenumber": "215",
                "addr:postcode": "40013",
                "addr:street": "Via Lame",
                "amenity": "music_school",
                "check_date": "2024-06-24",
                "contact:email": "info@musicstation.top",
                "contact:facebook": "https://www.facebook.com/musicstation.top/",
                "currency:XBT": "yes",
                "name": "Music Station",
                "opening_hours": "Mo-Fr 09:30-00:00",
                "payment:lightning": "yes",
                "payment:lightning_contactless": "yes",
                "payment:onchain": "yes",
                "phone": "+39 05 1632 5826",
                "website": "https://www.musicstation.top/"
            }
        },
        {
            "type": "node",
            "id": 12092237702,
            "lat": 44.4842843,
            "lon": 11.0221059,
            "timestamp": "2024-08-19T13:14:16Z",
            "version": 2,
            "changeset": 155460211,
            "user": "mauropili",
            "uid": 1496865,
            "tags": {
                "addr:city": "Vignola",
                "addr:housenumber": "5",
                "addr:postcode": "41058",
                "addr:street": "Via Livello",
                "amenity": "restaurant",
                "currency:XBT": "yes",
                "name": "I Gatti Neri"
            }
        }
    ],
    "telegram": []
}