{
    "id": "bh-napoli",
    "name": "Bitcoin Hub Napoli",
    "lng": 40.7951762,
    "lat": 14.3694801,
    "localita": "Napoli",
    "idlocalita": "napoli",
    "telegram_weburl": "https://web.telegram.org/k/#?tgaddr=tg%3A%2F%2Fresolve%3Fdomain%3Dbitcoinapoli",
    "telegram_app": "https://t.me/bitcoinapoli",
    "telegram_members": 20.0,
    "poi": [
        {
            "type": "node",
            "id": 481302077,
            "lat": 40.7455861,
            "lon": 14.6091687,
            "timestamp": "2009-09-21T11:53:33Z",
            "version": 4,
            "changeset": 2554880,
            "user": "xybot",
            "uid": 70696,
            "tags": {
                "operator": "Trony",
                "shop": "supermarket"
            }
        },
        {
            "type": "node",
            "id": 2377927022,
            "lat": 40.854605,
            "lon": 14.2678392,
            "timestamp": "2024-10-10T21:23:24Z",
            "version": 9,
            "changeset": 157733863,
            "user": "mpbin",
            "uid": 21850090,
            "tags": {
                "addr:city": "Napoli",
                "addr:housenumber": "340c",
                "addr:postcode": "80139",
                "addr:street": "Corso Giuseppe Garibaldi",
                "check_date:currency:XBT": "2023-02-12",
                "currency:XBT": "yes",
                "email": "info@bnbnapoli.it",
                "mobile": "+39 366 5407 432",
                "name": "BB del Corso",
                "phone": "+39 081 204087",
                "tourism": "guest_house",
                "website": "https://bnbnapoli.it/"
            }
        },
        {
            "type": "node",
            "id": 3344792543,
            "lat": 40.8533607,
            "lon": 14.2692365,
            "timestamp": "2024-10-28T21:01:20Z",
            "version": 6,
            "changeset": 158474166,
            "user": "mpbin",
            "uid": 21850090,
            "tags": {
                "addr:city": "Napoli",
                "addr:housenumber": "109",
                "addr:postcode": "80142",
                "addr:street": "Via Milano",
                "check_date": "2024-10-28",
                "check_date:currency:XBT": "2024-10-28",
                "contact:facebook": "https://www.facebook.com/affittacameredolcevita/",
                "contact:instagram": "https://www.instagram.com/dolcevitaroomsnaples/",
                "currency:XBT": "yes",
                "email": "affittacameredolcevita@hotmail.com",
                "name": "Dolce Vita Rooms & Breakfast",
                "opening_hours": "24/7",
                "phone": "+39 333 988 8176",
                "tourism": "guest_house",
                "website": "https://www.hoteldolcevitanapoli.it/"
            }
        },
        {
            "type": "node",
            "id": 4042697618,
            "lat": 40.7406644,
            "lon": 14.5014929,
            "timestamp": "2024-03-12T15:09:24Z",
            "version": 4,
            "changeset": 148554543,
            "user": "Italian Technology",
            "uid": 10622815,
            "tags": {
                "addr:city": "Pompei",
                "addr:housenumber": "22",
                "addr:postcode": "80045",
                "addr:street": "Via Macello",
                "brand": "Conad Superstore",
                "brand:wikidata": "Q118129616",
                "name": "Conad Superstore",
                "opening_hours": "Mo-Sa 09:00-21:30; Su 09:00-14:30",
                "operator": "Conad",
                "payment:bancomat": "yes",
                "payment:cash": "yes",
                "payment:credit_cards": "yes",
                "phone": "+39 081 8636145",
                "shop": "supermarket",
                "website": "https://www.conad.it/ricerca-negozi/negozio.008591.html"
            }
        },
        {
            "type": "node",
            "id": 4042697620,
            "lat": 40.7409267,
            "lon": 14.501292,
            "timestamp": "2020-05-15T10:12:54Z",
            "version": 3,
            "changeset": 85253363,
            "user": "mascalzone67",
            "uid": 1861652,
            "tags": {
                "addr:city": "Pompei",
                "addr:housenumber": "22",
                "addr:postcode": "80045",
                "addr:street": "Via Macello",
                "amenity": "pharmacy",
                "dispensing": "no",
                "healthcare": "pharmacy",
                "name": "Parafarmacia Conad",
                "operator": "Conad"
            }
        },
        {
            "type": "node",
            "id": 5272441821,
            "lat": 40.8440301,
            "lon": 14.2279304,
            "timestamp": "2024-12-30T16:34:56Z",
            "version": 4,
            "changeset": 160799881,
            "user": "mpbin",
            "uid": 21850090,
            "tags": {
                "addr:city": "Napoli",
                "addr:housenumber": "38/44",
                "addr:postcode": "80128",
                "addr:street": "Via Gemito Vincenzo",
                "name": "Trony",
                "name:en": "Trony",
                "operator": "Trony",
                "shop": "computer"
            }
        },
        {
            "type": "node",
            "id": 5292237474,
            "lat": 40.8422875,
            "lon": 14.2497226,
            "timestamp": "2024-10-17T21:30:06Z",
            "version": 6,
            "changeset": 158027017,
            "user": "baprischka",
            "uid": 974272,
            "tags": {
                "addr:city": "Napoli",
                "addr:housenumber": "2;4;6;8",
                "addr:housenumber_1": "30",
                "addr:postcode": "80134",
                "addr:street": "Via Roberto Bracco",
                "addr:street_1": "Via Armando Diaz",
                "brand": "Conad City",
                "brand:wikidata": "Q57543102",
                "check_date": "2024-10-17",
                "name": "Conad City",
                "opening_hours": "Mo-Sa 08:00-20:30; Su 08:00-14:00",
                "operator": "Conad",
                "phone": "+39 081 5801908",
                "shop": "supermarket",
                "website": "https://www.conad.it/conad/home/puntivendita/dettaglio.html?idPdv=5157"
            }
        },
        {
            "type": "node",
            "id": 5863672777,
            "lat": 40.697485,
            "lon": 14.482456,
            "timestamp": "2023-04-13T03:40:07Z",
            "version": 3,
            "changeset": 134842842,
            "user": "Igor Bubelov",
            "uid": 2104834,
            "tags": {
                "addr:city": "Castellammare di Stabia",
                "addr:housenumber": "50",
                "addr:postcode": "80053",
                "addr:street": "Corso Vittorio Emanuele",
                "check_date:currency:XBT": "2023-04-09",
                "currency:XBT": "yes",
                "email": "coinfinanziaria@gmail.com",
                "name": "COIN",
                "office": "financial",
                "phone": "+39 081 8705399",
                "website": "https://www.facebook.com/coinfinanziaria"
            }
        },
        {
            "type": "node",
            "id": 6902000257,
            "lat": 40.825805,
            "lon": 14.2044445,
            "timestamp": "2024-04-14T09:18:22Z",
            "version": 5,
            "changeset": 149983284,
            "user": "Chiarant",
            "uid": 18452174,
            "tags": {
                "addr:city": "Napoli",
                "addr:housenumber": "4-6-8",
                "addr:postcode": "80125",
                "addr:street": "Via Giulio Cesare",
                "amenity": "atm",
                "check_date": "2024-04-14",
                "currency:XBT": "yes",
                "description": "Bitcoin ATM che permette di acquistare Bitcoin, Ethereum, Litecoin, Dogecoin, Bitcoin Cash, Dash, Monero. L'ATM \u00e8 situato all'interno del negozio di autoricambi R.A.M.I.R.A.",
                "email": "support@cryptolocalatm.com",
                "name": "CryptoLocalATM c/o R.A.M.I.R.A.",
                "payment:onchain": "yes",
                "website": "https://cryptolocalatm.com"
            }
        },
        {
            "type": "node",
            "id": 7522033127,
            "lat": 40.8362844,
            "lon": 14.1914773,
            "timestamp": "2020-05-15T10:03:45Z",
            "version": 1,
            "changeset": 85252828,
            "user": "mascalzone67",
            "uid": 1861652,
            "tags": {
                "addr:city": "Napoli",
                "addr:postcode": "80126",
                "addr:street": "Via Marco Aurelio",
                "brand": "Conad",
                "brand:wikidata": "Q639075",
                "brand:wikipedia": "it:Conad",
                "name": "Conad",
                "opening_hours": "Mo-Su 09:00-21:00",
                "operator": "Conad",
                "payment:bancomat": "yes",
                "payment:cash": "yes",
                "payment:credit_cards": "yes",
                "phone": "+39 081 7677563",
                "shop": "supermarket",
                "website": "https://www.conad.it/ricerca-negozi/negozio.009254.html"
            }
        },
        {
            "type": "node",
            "id": 7522058650,
            "lat": 40.9430413,
            "lon": 14.2171306,
            "timestamp": "2022-11-14T09:59:43Z",
            "version": 2,
            "changeset": 128881793,
            "user": "Settebello",
            "uid": 11045191,
            "tags": {
                "addr:city": "Giugliano in Campania",
                "addr:housenumber": "km 18.700",
                "addr:postcode": "80014",
                "addr:street": "Strada Statale Appia",
                "amenity": "pharmacy",
                "brand": "Conad",
                "brand:wikidata": "Q639075",
                "brand:wikipedia": "it:Conad",
                "dispensing": "no",
                "healthcare": "pharmacy",
                "name": "Parafarmacia Conad",
                "operator": "Conad"
            }
        },
        {
            "type": "node",
            "id": 7522097992,
            "lat": 40.8362296,
            "lon": 14.1912212,
            "timestamp": "2020-12-04T10:03:09Z",
            "version": 2,
            "changeset": 95285029,
            "user": "renyhp",
            "uid": 12283830,
            "tags": {
                "addr:city": "Napoli",
                "addr:postcode": "80126",
                "addr:street": "Via Marco Aurelio",
                "amenity": "pharmacy",
                "dispensing": "no",
                "healthcare": "pharmacy",
                "name": "Parafarmacia Conad",
                "opening_hours": "Mo-Su 09:00-21:00",
                "operator": "Conad"
            }
        },
        {
            "type": "node",
            "id": 7522142244,
            "lat": 41.1185381,
            "lon": 14.7571362,
            "timestamp": "2020-05-15T10:16:36Z",
            "version": 1,
            "changeset": 85253581,
            "user": "mascalzone67",
            "uid": 1861652,
            "tags": {
                "addr:city": "Benevento",
                "addr:postcode": "82100",
                "addr:street": "SS Appia",
                "amenity": "pharmacy",
                "dispensing": "no",
                "healthcare": "pharmacy",
                "name": "Parafarmacia Conad",
                "operator": "Conad"
            }
        },
        {
            "type": "node",
            "id": 7522154385,
            "lat": 41.1181174,
            "lon": 14.7559463,
            "timestamp": "2024-11-28T14:00:46Z",
            "version": 3,
            "changeset": 159703817,
            "user": "Italian Technology",
            "uid": 10622815,
            "tags": {
                "addr:city": "Benevento",
                "addr:postcode": "82100",
                "addr:street": "SS Appia",
                "brand": "Spazio Conad",
                "brand:wikidata": "Q118130063",
                "name": "Spazio Conad",
                "opening_hours": "Mo-Sa 09:00-20:00; Su off",
                "operator": "Conad",
                "payment:bancomat": "yes",
                "payment:cash": "yes",
                "payment:credit_cards": "yes",
                "phone": "+39 0824 44421",
                "shop": "supermarket",
                "website": "https://www.conad.it/ricerca-negozi/negozio.006888.html"
            }
        },
        {
            "type": "node",
            "id": 7522828528,
            "lat": 40.7117913,
            "lon": 14.7024143,
            "timestamp": "2020-05-15T13:08:26Z",
            "version": 1,
            "changeset": 85263220,
            "user": "mascalzone67",
            "uid": 1861652,
            "tags": {
                "addr:city": "Cava dei Tirreni",
                "addr:housenumber": "32",
                "addr:postcode": "84013",
                "addr:street": "Viale Riccardo Romano",
                "amenity": "pharmacy",
                "dispensing": "no",
                "healthcare": "pharmacy",
                "name": "Parafarmacia Conad",
                "operator": "Conad"
            }
        },
        {
            "type": "node",
            "id": 7522923142,
            "lat": 40.9204165,
            "lon": 14.292608,
            "timestamp": "2020-05-15T13:35:19Z",
            "version": 1,
            "changeset": 85264534,
            "user": "mascalzone67",
            "uid": 1861652,
            "tags": {
                "addr:city": "Casoria",
                "addr:housenumber": "km 8",
                "addr:postcode": "80026",
                "addr:street": "Strada Statale Sannitica",
                "amenity": "pharmacy",
                "dispensing": "no",
                "healthcare": "pharmacy",
                "name": "Parafarmacia Conad",
                "operator": "Conad"
            }
        },
        {
            "type": "node",
            "id": 7522938641,
            "lat": 40.9204246,
            "lon": 14.292018,
            "timestamp": "2023-09-09T15:44:34Z",
            "version": 3,
            "changeset": 141029645,
            "user": "Mateusz Konieczny - bot account",
            "uid": 3199858,
            "tags": {
                "addr:city": "Casoria",
                "addr:housenumber": "km 8",
                "addr:postcode": "80026",
                "addr:street": "Strada Statale Sannitica",
                "brand": "Conad",
                "brand:wikidata": "Q639075",
                "brand:wikipedia": "it:Conad",
                "name": "Conad",
                "opening_hours": "Mo-Su 08:30-21:00",
                "operator": "Conad",
                "payment:bancomat": "yes",
                "payment:cash": "yes",
                "payment:credit_cards": "yes",
                "phone": "+39 081 7588843",
                "shop": "supermarket",
                "website": "https://www.conad.it/ricerca-negozi/negozio.008292.html"
            }
        },
        {
            "type": "node",
            "id": 8046848126,
            "lat": 41.0069059,
            "lon": 14.3271132,
            "timestamp": "2023-07-31T14:23:33Z",
            "version": 6,
            "changeset": 139256906,
            "user": "BTC Map",
            "uid": 18545877,
            "tags": {
                "addr:city": "Marcianise",
                "addr:housenumber": "87",
                "addr:postcode": "81025",
                "addr:street": "Strada Statale Sannitica",
                "addr:unit": "SP336",
                "branch": "Marcianise",
                "brand": "Mondo Convenienza",
                "brand:wikidata": "Q55830962",
                "check_date:currency:XBT": "2023-07-31",
                "currency:XBT": "yes",
                "name": "Mondo Convenienza",
                "opening_hours": "Mo-Su 09:30-21:00",
                "shop": "furniture",
                "wheelchair": "yes"
            }
        },
        {
            "type": "node",
            "id": 8814952595,
            "lat": 40.8983992,
            "lon": 14.3127996,
            "timestamp": "2024-03-12T19:22:39Z",
            "version": 3,
            "changeset": 148564327,
            "user": "Italian Technology",
            "uid": 10622815,
            "tags": {
                "branch": "Superstore",
                "brand": "Conad Superstore",
                "brand:wikidata": "Q118129616",
                "name": "Conad Superstore",
                "operator": "Conad",
                "shop": "supermarket"
            }
        },
        {
            "type": "node",
            "id": 8820954032,
            "lat": 41.0808098,
            "lon": 14.3314172,
            "timestamp": "2024-04-14T09:15:30Z",
            "version": 4,
            "changeset": 149983171,
            "user": "Chiarant",
            "uid": 18452174,
            "tags": {
                "addr:city": "Caserta",
                "addr:housenumber": "178",
                "addr:postcode": "81100",
                "addr:street": "Corso Pietro Giannone",
                "amenity": "atm",
                "check_date": "2024-04-14",
                "currency:XBT": "yes",
                "description": "Bitcoin ATM che permette di acquistare Bitcoin, Ethereum, Litecoin, Dogecoin, Bitcoin Cash, Dash, Monero. L'ATM \u00e8 situato all'interno dell'agenzia viaggi MAWI VIAGGI.",
                "email": "support@cryptolocalatm.com",
                "name": "CryptoLocalATM c/o MAWI VIAGGI",
                "payment:onchain": "yes",
                "phone": "+447894438974",
                "website": "https://cryptolocalatm.com"
            }
        },
        {
            "type": "node",
            "id": 9035556496,
            "lat": 40.9430882,
            "lon": 14.2173426,
            "timestamp": "2022-11-14T09:59:43Z",
            "version": 2,
            "changeset": 128881793,
            "user": "Settebello",
            "uid": 11045191,
            "tags": {
                "brand": "Conad",
                "brand:wikidata": "Q639075",
                "brand:wikipedia": "it:Conad",
                "name": "Petstore Conad",
                "operator": "Conad",
                "shop": "pet"
            }
        },
        {
            "type": "node",
            "id": 9408705233,
            "lat": 40.8427177,
            "lon": 14.225596,
            "timestamp": "2024-07-06T19:07:17Z",
            "version": 4,
            "changeset": 153636223,
            "user": "baprischka",
            "uid": 974272,
            "tags": {
                "addr:city": "Napoli",
                "addr:housenumber": "11",
                "addr:postcode": "80127",
                "addr:street": "Via Belvedere",
                "check_date": "2023-04-13",
                "contact:facebook": "https://www.facebook.com/macelleriavegetariana/",
                "contact:instagram": "https://www.instagram.com/macelleriavegetarianaitalia/",
                "currency:XBT": "yes",
                "description": "prima macelleria vegetariana in Italia, prodotti freschi vegetariani e vegani",
                "name": "Macelleria Vegetariana Italia",
                "phone": "+39 379 1555646",
                "shop": "butcher",
                "start_date": "2016"
            }
        },
        {
            "type": "node",
            "id": 9713321069,
            "lat": 40.9024409,
            "lon": 14.3559825,
            "timestamp": "2023-11-03T11:15:35Z",
            "version": 3,
            "changeset": 143569593,
            "user": "b-jazz-bot",
            "uid": 9451067,
            "tags": {
                "addr:city": "Casalnuovo di Napoli",
                "addr:housenumber": "275",
                "addr:postcode": "80013",
                "addr:street": "Via Nazionale delle Puglie",
                "check_date:currency:XBT": "2023-07-10",
                "currency:XBT": "yes",
                "description": "Abbigliamento professionale, ingrosso e dettaglio. Forniture aziendali, stampa serigrafica, ricami personalizzati, gadgets aziendali. Abbigliamento, scarpe e accessori.",
                "email": "info@texgroupitalia.com",
                "name": "Texgroupitalia",
                "phone": "+39 0815227724",
                "shop": "clothes",
                "website": "https://www.texgroupitalia.com/"
            }
        },
        {
            "type": "node",
            "id": 10138046378,
            "lat": 40.6355767,
            "lon": 14.905946,
            "timestamp": "2024-07-06T06:45:55Z",
            "version": 6,
            "changeset": 153612126,
            "user": "mauropili",
            "uid": 1496865,
            "tags": {
                "addr:city": "Pontecagnano Faiano",
                "addr:postcode": "84098",
                "addr:street": "Via Antonio Pacinotti",
                "brand": "Mondo Convenienza",
                "brand:wikidata": "Q55830962",
                "check_date:currency:XBT": "2023-07-31",
                "currency:XBT": "yes",
                "name": "Mondo Convenienza",
                "opening_hours": "Mo-Fr 09:30-21:00; Sa,Su 09:30-21:30",
                "shop": "furniture",
                "wheelchair": "yes"
            }
        },
        {
            "type": "node",
            "id": 10267359822,
            "lat": 40.6504235,
            "lon": 14.8198807,
            "timestamp": "2024-12-30T16:46:23Z",
            "version": 3,
            "changeset": 160800313,
            "user": "mpbin",
            "uid": 21850090,
            "tags": {
                "addr:city": "Salerno",
                "addr:housenumber": "52",
                "addr:postcode": "84131",
                "addr:street": "Via San Leonardo",
                "addr:unit": "c",
                "brand": "Trony",
                "brand:wikidata": "Q3999692",
                "name": "Trony",
                "operator": "Trony",
                "shop": "electronics"
            }
        },
        {
            "type": "node",
            "id": 10879388285,
            "lat": 41.0085448,
            "lon": 14.1319408,
            "timestamp": "2023-05-08T18:22:53Z",
            "version": 1,
            "changeset": 135864776,
            "user": "Chiarant",
            "uid": 18452174,
            "tags": {
                "addr:city": "Casal di Principe",
                "addr:housenumber": "85",
                "addr:postcode": "81033",
                "addr:street": "Via Vaticale",
                "currency:XBT": "yes",
                "description": "Negozio di alimentari biologici",
                "email": "biocorner18@gmail.com",
                "name": "Bio Corner",
                "payment:lightning": "yes",
                "payment:lightning_contactless": "yes",
                "payment:onchain": "yes",
                "phone": "+39 351 961 2716",
                "shop": "convenience",
                "survey:date": "2023-05-08",
                "website": "https://www.biocorner.it/"
            }
        },
        {
            "type": "node",
            "id": 11069364721,
            "lat": 41.1181682,
            "lon": 14.7561301,
            "timestamp": "2023-07-26T15:16:55Z",
            "version": 1,
            "changeset": 139042953,
            "user": "Italian Technology",
            "uid": 10622815,
            "tags": {
                "addr:city": "Benevento",
                "addr:postcode": "82100",
                "addr:street": "Contrada San Vito",
                "amenity": "restaurant",
                "cuisine": "regional;pizza",
                "name": "Sapore Mediterraneo",
                "operator": "Conad"
            }
        },
        {
            "type": "node",
            "id": 11816197261,
            "lat": 40.7817553,
            "lon": 14.3801717,
            "timestamp": "2024-04-14T09:30:07Z",
            "version": 1,
            "changeset": 149983720,
            "user": "Chiarant",
            "uid": 18452174,
            "tags": {
                "addr:city": "Torre del Greco",
                "addr:housenumber": "67",
                "addr:postcode": "80059",
                "addr:street": "Via Nazionale",
                "amenity": "atm",
                "check_date": "2024-04-14",
                "currency:XBT": "yes",
                "description": "Bitcoin ATM che permette di acquistare Bitcoin, Ethereum, Litecoin, Dogecoin, Bitcoin Cash, Dash, Monero. L'ATM \u00e8 situato all'interno del negozio OFFICINA DI STAMPA",
                "email": "support@cryptolocalatm.com",
                "indoor": "yes",
                "name": "CryptoLocalATM c/o OFFICINA DI STAMPA",
                "payment:onchain": "yes",
                "website": "https://cryptolocalatm.com"
            }
        },
        {
            "type": "node",
            "id": 11819638430,
            "lat": 40.7369189,
            "lon": 13.8599201,
            "timestamp": "2024-10-16T20:38:55Z",
            "version": 2,
            "changeset": 157982970,
            "user": "mpbin",
            "uid": 21850090,
            "tags": {
                "addr:city": "Forio",
                "addr:housenumber": "12",
                "addr:postcode": "80075",
                "addr:street": "Via Erasmo Di Lustro",
                "check_date": "2024-10-16",
                "check_date:currency:XBT": "2024-10-16",
                "contact:email": "gioielleriaespositoischia@gmail.com",
                "contact:facebook": "https://www.facebook.com/gioielleriaespositoischia/",
                "currency:XBT": "yes",
                "name": "Gioielleria Esposito",
                "payment:lightning": "yes",
                "payment:lightning_contactless": "yes",
                "payment:onchain": "yes",
                "phone": "+39 35 1228 7762",
                "shop": "jewelry"
            }
        },
        {
            "type": "node",
            "id": 11850566833,
            "lat": 41.0881156,
            "lon": 14.2597243,
            "timestamp": "2024-05-16T11:39:09Z",
            "version": 2,
            "changeset": 151403770,
            "user": "Chiarant",
            "uid": 18452174,
            "tags": {
                "addr:city": "Santa Maria Capua Vetere",
                "addr:housenumber": "9",
                "addr:postcode": "81055",
                "addr:street": "Via Eugenio della Valle",
                "check_date": "2024-04-26",
                "currency:XBT": "yes",
                "name": "Cornetteria Dolce Notte",
                "payment:lightning": "yes",
                "payment:onchain": "yes",
                "phone": "+39  389 650 6709",
                "shop": "pastry"
            }
        },
        {
            "type": "node",
            "id": 11938374731,
            "lat": 40.9338464,
            "lon": 14.3568569,
            "timestamp": "2024-06-16T03:25:39Z",
            "version": 2,
            "changeset": 152743846,
            "user": "Rockedf",
            "uid": 7522075,
            "tags": {
                "addr:city": "Afragola",
                "addr:housenumber": "1",
                "addr:postcode": "80021",
                "addr:street": "Via Santa Maria la Nova",
                "amenity": "atm",
                "cash_in": "yes",
                "cash_out": "yes",
                "cash_withdrawal": "yes",
                "check_date": "2024-05-27",
                "contact:email": "support@shitcoins.club",
                "contact:facebook": "https://www.facebook.com/shitcoins.club",
                "contact:instagram": "https://www.instagram.com/shitcoinsclub",
                "contact:telegram": "https://t.me/shitcoinsclub",
                "contact:twitter": "https://twitter.com/BitomatCom",
                "currency:CHF": "yes",
                "currency:DASH": "yes",
                "currency:ETH": "yes",
                "currency:EUR": "yes",
                "currency:GBP": "yes",
                "currency:HUF": "yes",
                "currency:LTC": "yes",
                "currency:RON": "yes",
                "currency:USD": "yes",
                "currency:USDC": "yes",
                "currency:USDT": "yes",
                "currency:XBT": "yes",
                "indoor": "yes",
                "name": "Bitcoin ATM - Shitcoins.club",
                "opening_hours": "Mo-Fr 09:00-21:00; Sa-Su 19:00-21:00",
                "operator": "Shitcoins.club",
                "payment:cash": "yes",
                "payment:lightning": "no",
                "payment:lightning_contactless": "no",
                "payment:onchain": "yes",
                "phone": "+39 34 8048 7308",
                "website": "https://shitcoins.club/localizzazione-atm/bitcoin-bancomat-napoli-centro-commerciale-le-porte-di-napoli"
            }
        },
        {
            "type": "node",
            "id": 11954291648,
            "lat": 40.8793936,
            "lon": 14.1126243,
            "timestamp": "2024-06-03T18:00:05Z",
            "version": 1,
            "changeset": 152211461,
            "user": "Rockedf",
            "uid": 7522075,
            "tags": {
                "addr:city": "Napoli",
                "addr:housenumber": "76",
                "addr:postcode": "80010",
                "addr:street": "Via Masullo",
                "amenity": "atm",
                "cash_in": "yes",
                "cash_out": "yes",
                "cash_withdrawal": "yes",
                "check_date": "2024-06-03",
                "contact:email": "support@shitcoins.club",
                "contact:facebook": "https://www.facebook.com/shitcoins.club",
                "contact:instagram": "https://www.instagram.com/shitcoinsclub",
                "contact:telegram": "https://t.me/shitcoinsclub",
                "contact:twitter": "https://twitter.com/BitomatCom",
                "currency:CHF": "yes",
                "currency:DASH": "yes",
                "currency:ETH": "yes",
                "currency:EUR": "yes",
                "currency:GBP": "yes",
                "currency:HUF": "yes",
                "currency:LTC": "yes",
                "currency:RON": "yes",
                "currency:USD": "yes",
                "currency:USDC": "yes",
                "currency:USDT": "yes",
                "currency:XBT": "yes",
                "indoor": "yes",
                "name": "Bitcoin ATM - Shitcoins.club",
                "opening_hours": "Mo-Sa 09:00-21:00; Su 10:00-21:00",
                "operator": "Shitcoins.club",
                "payment:cash": "yes",
                "payment:lightning": "no",
                "payment:lightning_contactless": "no",
                "payment:onchain": "yes",
                "phone": "+39 34 8048 7308",
                "website": "https://shitcoins.club/localizzazione-atm/bitcoin-bancomat-napoli-centro-commerciale-quarto-nuovo-"
            }
        }
    ],
    "telegram": []
}