{
    "id": "bitcoin-trieste",
    "name": "Bitcoin Trieste",
    "lng": 45.6460821,
    "lat": 13.7769859,
    "localita": "Trieste",
    "idlocalita": "trieste",
    "telegram_weburl": "https://web.telegram.org/a/#-1001054825457",
    "telegram_app": "https://t.me/bitcointrieste",
    "telegram_members": 106.0,
    "network": "bitcoinbeer",
    "poi": [
        {
            "type": "node",
            "id": 3633903157,
            "lat": 45.6474287,
            "lon": 13.765979,
            "timestamp": "2024-08-13T21:00:34Z",
            "version": 6,
            "changeset": 155214570,
            "user": "mauropili",
            "uid": 1496865,
            "tags": {
                "addr:city": "Trieste",
                "addr:housenumber": "14",
                "addr:postcode": "34124",
                "addr:street": "Via di Cavana",
                "amenity": "restaurant",
                "branch": "Trieste",
                "contact:facebook": "https://www.facebook.com/ilmelogranotrieste.online/",
                "currency:XBT": "yes",
                "name": "Il Melograno",
                "payment:lightning": "yes",
                "payment:onchain": "yes",
                "phone": "+39 040 9653254",
                "survey:date": "2024-07-09",
                "website": "https://ilmelograno.online/"
            }
        },
        {
            "type": "node",
            "id": 3652736314,
            "lat": 45.8111161,
            "lon": 13.5198539,
            "timestamp": "2024-02-28T10:10:12Z",
            "version": 4,
            "changeset": 148006362,
            "user": "Igor Bubelov",
            "uid": 2104834,
            "tags": {
                "addr:city": "Monfalcone",
                "addr:housenumber": "1f",
                "addr:postcode": "34074",
                "addr:street": "Via Aquileia",
                "amenity": "dentist",
                "currency:XBT": "yes",
                "healthcare": "dentist",
                "healthcare:speciality": "dentista;orthodontics",
                "name": "Medical Center Poliambulatorio",
                "payment:lightning": "yes",
                "payment:onchain": "yes",
                "survey:date": "2024-02-27"
            }
        },
        {
            "type": "node",
            "id": 3652739203,
            "lat": 45.8118143,
            "lon": 13.5147518,
            "timestamp": "2024-02-27T10:21:57Z",
            "version": 5,
            "changeset": 147966698,
            "user": "Igor Bubelov",
            "uid": 2104834,
            "tags": {
                "addr:city": "Monfalcone",
                "addr:housenumber": "11",
                "addr:postcode": "34074",
                "addr:street": "Via San Nicol\u00f2",
                "addr:unit": "p.1",
                "air_conditioning": "yes",
                "check_date": "2024-02-09",
                "currency:XBT": "yes",
                "email": "info@bbdaleo.it",
                "guest_house": "bed_and_breakfast",
                "image": "https://www.bbdaleo.it/wp-content/uploads/2019/12/download-11-1.jpg",
                "internet_access": "wlan",
                "internet_access:fee": "no",
                "name": "B&B da Leo",
                "operator": "Marchione Christian",
                "payment:cash": "yes",
                "payment:cryptocurrencies": "yes",
                "phone": "+393519373736",
                "reservation": "required",
                "rooms": "2",
                "start_date": "2012-06-03",
                "tourism": "guest_house",
                "website": "https://www.bbdaleo.it"
            }
        },
        {
            "type": "node",
            "id": 3652742752,
            "lat": 45.8084141,
            "lon": 13.5370824,
            "timestamp": "2023-11-27T17:33:19Z",
            "version": 3,
            "changeset": 144517490,
            "user": "BitcoinMonfalcone",
            "uid": 20605179,
            "tags": {
                "addr:city": "Monfalcone",
                "addr:housenumber": "13",
                "addr:postcode": "34074",
                "addr:street": "Via Enrico Toti",
                "currency:XBT": "yes",
                "name": "Elisa di Ilio Avvocato",
                "office": "lawyer",
                "payment:lightning": "yes",
                "phone": "0481.286893",
                "survey:date": "2023-11-01",
                "website": "https://www.elisadiilio.it/"
            }
        },
        {
            "type": "node",
            "id": 3652778478,
            "lat": 45.8101544,
            "lon": 13.5240874,
            "timestamp": "2023-11-29T17:08:31Z",
            "version": 3,
            "changeset": 144597049,
            "user": "BitcoinMonfalcone",
            "uid": 20605179,
            "tags": {
                "addr:city": "Monfalcone",
                "addr:housenumber": "51",
                "addr:postcode": "34074",
                "addr:street": "Via Quattro Novembre",
                "currency:XBT": "yes",
                "name": "Lola's Sexy Shop",
                "operator": "Roberto Antonelli",
                "payment:lightning": "yes",
                "phone": "+39 380 866 6118",
                "shop": "erotic",
                "survey:date": "2023-11-29"
            }
        },
        {
            "type": "node",
            "id": 3652805915,
            "lat": 45.8094404,
            "lon": 13.5310711,
            "timestamp": "2023-11-29T17:09:27Z",
            "version": 4,
            "changeset": 144597084,
            "user": "BitcoinMonfalcone",
            "uid": 20605179,
            "tags": {
                "addr:city": "Monfalcone",
                "addr:housenumber": "80",
                "addr:postcode": "34074",
                "addr:street": "Via Duca d'Aosta",
                "currency:XBT": "yes",
                "name": "Gioielleria Monfalcone Cernigoi",
                "payment:lightning": "yes",
                "payment:onchain": "yes",
                "phone": "0481 410512",
                "shop": "jewelry",
                "survey:date": "2023-11-29"
            }
        },
        {
            "type": "node",
            "id": 3729193076,
            "lat": 45.8068114,
            "lon": 13.5039555,
            "timestamp": "2023-11-27T16:24:41Z",
            "version": 2,
            "changeset": 144514804,
            "user": "BitcoinMonfalcone",
            "uid": 20605179,
            "tags": {
                "addr:city": "Staranzano",
                "addr:housenumber": "6",
                "addr:postcode": "34079",
                "addr:street": "Via Giacomo Matteotti",
                "currency:XBT": "yes",
                "guest_house": "bed_and_breakfast",
                "internet_access": "yes",
                "internet_access:fee": "no",
                "name": "B&Baichin",
                "payment:lightning": "yes",
                "payment:onchain": "no",
                "phone": "339 437 3962",
                "rooms": "3",
                "survey:date": "2023-11-01",
                "tourism": "guest_house",
                "website": "https://baichin.bedsandhotels.com/"
            }
        },
        {
            "type": "node",
            "id": 4844248321,
            "lat": 45.6503203,
            "lon": 13.7697097,
            "timestamp": "2023-05-12T22:47:43Z",
            "version": 6,
            "changeset": 136036838,
            "user": "saunter",
            "uid": 10396321,
            "tags": {
                "addr:city": "Trieste",
                "addr:housenumber": "14",
                "addr:postcode": "34121",
                "addr:street": "Piazza della Borsa",
                "check_date:currency:XBT": "2023-05-13",
                "currency:XBT": "yes",
                "name": "Doppelg\u00e4nger",
                "payment:lightning": "no",
                "payment:lightning_contactless": "no",
                "payment:onchain": "yes",
                "phone": "0402337190",
                "shop": "clothes"
            }
        },
        {
            "type": "node",
            "id": 5163169822,
            "lat": 45.6290885,
            "lon": 13.7817574,
            "timestamp": "2024-01-25T08:47:24Z",
            "version": 13,
            "changeset": 146662915,
            "user": "cocioale",
            "uid": 1914234,
            "tags": {
                "addr:city": "Trieste",
                "addr:housenumber": "1",
                "addr:postcode": "34145",
                "addr:street": "Via Capodistria",
                "amenity": "events_venue",
                "check_date:currency:XBT": "2023-07-26",
                "currency:XBT": "yes",
                "description": "Studio abitativo di Cocioale, consulenze ed eventi formativi.",
                "email": "info@twimt.it",
                "internet_access": "yes",
                "name": "Twimt Institute - Cashflow Club Trieste - Bitcoin Trieste",
                "phone": "+39 3405595240",
                "website": "https://twimt.it"
            }
        },
        {
            "type": "node",
            "id": 7099334476,
            "lat": 45.9025372,
            "lon": 13.3112255,
            "timestamp": "2024-07-10T11:28:54Z",
            "version": 3,
            "changeset": 153779859,
            "user": "Chiarant",
            "uid": 18452174,
            "tags": {
                "addr:city": "Palmanova",
                "addr:housenumber": "34",
                "addr:postcode": "33057",
                "addr:street": "Contrada Villachiara",
                "amenity": "restaurant",
                "currency:XBT": "yes",
                "name": "Il Melograno",
                "payment:lightning": "yes",
                "payment:onchain": "yes",
                "phone": "+39 0432 920271",
                "survey:date": "2024-07-08",
                "website": "https://ilmelograno.online/"
            }
        },
        {
            "type": "node",
            "id": 10538663052,
            "lat": 45.4097932,
            "lon": 13.6649834,
            "timestamp": "2023-10-30T16:20:12Z",
            "version": 3,
            "changeset": 143374889,
            "user": "b-jazz-bot",
            "uid": 9451067,
            "tags": {
                "addr:city": "Buje",
                "addr:postcode": "52460",
                "addr:street": "Gospodarska",
                "check_date:currency:XBT": "2023-01-11",
                "craft": "carpenter",
                "currency:XBT": "yes",
                "email": "info@portewestern.it",
                "name": "Portewestern",
                "opening_hours": "Mo-Su 09:00-20:00",
                "payment:lightning": "yes",
                "payment:lightning_contactless": "no",
                "payment:onchain": "yes",
                "phone": "+385 91 530 2745",
                "website": "https://www.portewestern.it/"
            }
        },
        {
            "type": "node",
            "id": 10660627799,
            "lat": 45.4325531,
            "lon": 13.6837865,
            "timestamp": "2023-02-15T07:00:10Z",
            "version": 1,
            "changeset": 132566881,
            "user": "BSN21M",
            "uid": 17441326,
            "tags": {
                "addr:city": "Kremenje, Buje",
                "addr:postcode": "52460",
                "addr:street": "Gambocija",
                "check_date:currency:XBT": "2023-02-15",
                "currency:XBT": "yes",
                "email": "info@camelus.itg",
                "name": "Camelus Adventures",
                "payment:lightning": "yes",
                "payment:lightning_contactless": "no",
                "payment:onchain": "yes",
                "phone": "+385989976290",
                "shop": "travel_agency",
                "website": "https://www.camelus.it/"
            }
        },
        {
            "type": "node",
            "id": 10660645073,
            "lat": 45.3828918,
            "lon": 13.6980332,
            "timestamp": "2023-02-15T06:55:42Z",
            "version": 1,
            "changeset": 132566710,
            "user": "BSN21M",
            "uid": 17441326,
            "tags": {
                "addr:city": "Krasica, Gardossi",
                "addr:postcode": "52460",
                "addr:street": "Gardossi",
                "check_date:currency:XBT": "2023-02-15",
                "currency:XBT": "yes",
                "email": "info@camelus.it",
                "guest_house": "bed_and_breakfast",
                "name": "Al Merlo Olivo B&B",
                "payment:lightning": "yes",
                "payment:lightning_contactless": "no",
                "payment:onchain": "yes",
                "phone": "+385 91 530 2745",
                "tourism": "guest_house",
                "website": "https://www.camelus.it/"
            }
        },
        {
            "type": "node",
            "id": 10681029863,
            "lat": 45.6882287,
            "lon": 13.7999153,
            "timestamp": "2023-08-02T11:46:44Z",
            "version": 2,
            "changeset": 139343689,
            "user": "Igor Bubelov",
            "uid": 2104834,
            "tags": {
                "addr:city": "Trieste",
                "addr:postcode": "34151",
                "addr:street": "Via dell'Assenzio",
                "check_date": "2023-02-20",
                "contact:facebook": "https://www.facebook.com/portewestern/shop/",
                "currency:XBT": "yes",
                "description": "Sliding doors production and selling",
                "email": "info@portewestern.it",
                "name": "Portewestern.it (Trieste branch)",
                "payment:lightning": "yes",
                "payment:lightning_contactless": "no",
                "payment:onchain": "yes",
                "phone": "+385989976290",
                "shop": "doors",
                "website": "https://www.portewestern.it"
            }
        },
        {
            "type": "node",
            "id": 10863660758,
            "lat": 45.8907668,
            "lon": 13.5032681,
            "timestamp": "2023-05-06T10:58:51Z",
            "version": 2,
            "changeset": 135772171,
            "user": "mueschel",
            "uid": 616774,
            "tags": {
                "addr:city": "Gradisca d'Isonzo",
                "addr:housenumber": "9",
                "addr:postcode": "34072",
                "addr:street": "Via Cesare Battisti",
                "check_date:currency:XBT": "2023-05-02",
                "contact:instagram": "@BATTISTICASTEL",
                "currency:XBT": "yes",
                "description": "Holiday appartment, luxury stay, hotel, B&B",
                "guest_house": "bed_and_breakfast",
                "name": "BattistiCastel",
                "payment:lightning": "yes",
                "payment:lightning_contactless": "yes",
                "payment:onchain": "yes",
                "phone": "+39 348 410 2790",
                "tourism": "guest_house",
                "website": "https://battisticastel.business.site/"
            }
        },
        {
            "type": "node",
            "id": 11069222577,
            "lat": 45.6443262,
            "lon": 13.7831124,
            "timestamp": "2024-02-17T23:35:46Z",
            "version": 11,
            "changeset": 147591458,
            "user": "damjang",
            "uid": 97922,
            "tags": {
                "addr:city": "Trieste",
                "addr:housenumber": "3a",
                "addr:postcode": "34139",
                "addr:street": "Via delle Settefontane",
                "amenity": "events_venue",
                "check_date:currency:XBT": "2023-12-18",
                "contact:facebook": "ilcentrostudieventitrieste",
                "currency:XBT": "yes",
                "description": "Evolutionary growth courses and events",
                "email": "ilcentrostudi@gmail.com",
                "internet_access": "yes",
                "internet_access:fee": "customers",
                "name": "Associazione Centro Studi",
                "payment:lightning": "yes",
                "payment:onchain": "yes",
                "website": "https://ilcentrostudi.com"
            }
        },
        {
            "type": "node",
            "id": 11369089305,
            "lat": 45.7579126,
            "lon": 13.4681633,
            "timestamp": "2023-11-22T17:45:08Z",
            "version": 2,
            "changeset": 144336547,
            "user": "BitcoinMonfalcone",
            "uid": 20605179,
            "tags": {
                "addr:city": "San Canzian d'Isonzo",
                "addr:housenumber": "16",
                "addr:postcode": "34075",
                "addr:street": "Via Grado",
                "amenity": "restaurant",
                "cuisine": "pizza;fish",
                "currency:XBT": "yes",
                "name": "Locanda ai Due Fiumi",
                "payment:cash": "yes",
                "payment:lightning": "yes",
                "payment:onchain": "no",
                "phone": "04811996487",
                "survey:date": "2023-11-22"
            }
        },
        {
            "type": "node",
            "id": 11379929752,
            "lat": 45.8094821,
            "lon": 13.5323313,
            "timestamp": "2023-11-27T17:21:36Z",
            "version": 2,
            "changeset": 144516961,
            "user": "BitcoinMonfalcone",
            "uid": 20605179,
            "tags": {
                "addr:city": "Monfalcone",
                "addr:housenumber": "15",
                "addr:place": "Piazza della Repubblica",
                "addr:postcode": "34074",
                "currency:XBT": "yes",
                "name": "Giorda Marcallo dottore commercialista",
                "office": "accountant",
                "payment:lightning": "yes",
                "phone": "0481 413048",
                "survey:date": "2023-11-01",
                "website": "http://www.serivosrl.it/"
            }
        },
        {
            "type": "node",
            "id": 11467342354,
            "lat": 45.9018373,
            "lon": 13.2483191,
            "timestamp": "2023-12-30T00:24:29Z",
            "version": 1,
            "changeset": 145681346,
            "user": "Rockedf",
            "uid": 7522075,
            "tags": {
                "addr:city": "Gonars",
                "addr:housenumber": "111",
                "addr:postcode": "33050",
                "addr:street": "Via Gorizia",
                "addr:unit": "A",
                "check_date": "2023-12-14",
                "contact:email": "cottage.lenone@gmail.com",
                "currency:XBT": "yes",
                "guest_house": "guest_house",
                "name": "Cottage \"Le None\"",
                "payment:lightning": "no",
                "payment:lightning_contactless": "no",
                "payment:onchain": "yes",
                "phone": "+39 38 8861 2544",
                "tourism": "guest_house",
                "website": "https://cottage-le-none.business.site/?utm_source=gmb&utm_medium=referral"
            }
        },
        {
            "type": "node",
            "id": 11554476488,
            "lat": 45.5307787,
            "lon": 13.7336272,
            "timestamp": "2024-06-07T16:10:10Z",
            "version": 2,
            "changeset": 152383668,
            "user": "Rockedf",
            "uid": 7522075,
            "tags": {
                "addr:city": "Capodistria",
                "addr:housenumber": "1",
                "addr:postcode": "6000",
                "addr:street": "Dolinska cesta",
                "addr:unit": "A",
                "amenity": "atm",
                "branch": "Supernova Mercator Koper",
                "cash_in": "yes",
                "cash_out": "yes",
                "cash_withdrawal": "yes",
                "check_date": "2024-01-26",
                "contact:email": "support@shitcoins.club",
                "contact:facebook": "https://www.facebook.com/shitcoins.club",
                "contact:instagram": "https://www.instagram.com/shitcoinsclub",
                "contact:telegram": "https://t.me/shitcoinsclub",
                "contact:twitter": "https://twitter.com/BitomatCom",
                "currency:CHF": "yes",
                "currency:DASH": "yes",
                "currency:ETH": "yes",
                "currency:EUR": "yes",
                "currency:GBP": "yes",
                "currency:HUF": "yes",
                "currency:LTC": "yes",
                "currency:RON": "yes",
                "currency:USD": "yes",
                "currency:USDC": "yes",
                "currency:USDT": "yes",
                "currency:XBT": "yes",
                "indoor": "yes",
                "level": "0",
                "name": "Bitcoin ATM - Shitcoins.club",
                "opening_hours": "Mo-Sa 08:00-21:00",
                "operator": "Shitcoins.club",
                "payment:cash": "yes",
                "payment:lightning": "no",
                "payment:lightning_contactless": "no",
                "payment:onchain": "yes",
                "phone": "+48 667 818 257",
                "start_date": "2023-10-27",
                "url": "https://coinatmradar.com/bitcoin_atm/73036/bitcoin-atm-shitcoins-club-koper-supernova-mercator-koper/",
                "website": "https://shitcoins.club/lokacije-bitomata/bitcoin-atm-koper-supernova_mercator"
            }
        },
        {
            "type": "node",
            "id": 11928367832,
            "lat": 45.5938527,
            "lon": 13.8075047,
            "timestamp": "2024-06-13T02:34:18Z",
            "version": 3,
            "changeset": 152610721,
            "user": "Rockedf",
            "uid": 7522075,
            "tags": {
                "addr:city": "Aquilinia-Stramare",
                "addr:housenumber": "119",
                "addr:postcode": "34015",
                "addr:street": "Via Flavia di Stramare",
                "amenity": "atm",
                "cash_in": "yes",
                "cash_out": "yes",
                "cash_withdrawal": "yes",
                "check_date": "2024-05-23",
                "contact:email": "support@shitcoins.club",
                "contact:facebook": "https://www.facebook.com/shitcoins.club",
                "contact:instagram": "https://www.instagram.com/shitcoinsclub",
                "contact:telegram": "https://t.me/shitcoinsclub",
                "contact:twitter": "https://twitter.com/BitomatCom",
                "currency:CHF": "yes",
                "currency:DASH": "yes",
                "currency:ETH": "yes",
                "currency:EUR": "yes",
                "currency:GBP": "yes",
                "currency:HUF": "yes",
                "currency:LTC": "yes",
                "currency:RON": "yes",
                "currency:USD": "yes",
                "currency:USDC": "yes",
                "currency:USDT": "yes",
                "currency:XBT": "yes",
                "indoor": "yes",
                "name": "Bitcoin ATM - Shitcoins.club",
                "opening_hours": "Mo-Su 09:00-20:30",
                "operator": "Shitcoins.club",
                "payment:cash": "yes",
                "payment:lightning": "no",
                "payment:lightning_contactless": "no",
                "payment:onchain": "yes",
                "phone": "+39 34 8048 7308",
                "website": "https://shitcoins.club/localizzazione-atm/atm-bitcoin-trieste-montedoro"
            }
        }
    ],
    "telegram": []
}