{
    "id": "bitcoin-in-venice",
    "name": "Bitcoin in Venice",
    "lng": 45.4321393,
    "lat": 12.3346526,
    "localita": "Venezia",
    "telegram_weburl": "https://web.telegram.org/a/#-1001539944101",
    "telegram_app": "https://t.me/bitcoininvenice",
    "telegram_members": 85.0,
    "network": "bitcoinbeer",
    "poi": [
        {
            "type": "node",
            "id": 3010651735,
            "lat": 45.4385355,
            "lon": 12.3214867,
            "timestamp": "2024-07-11T20:51:52Z",
            "version": 13,
            "changeset": 153829539,
            "user": "mauropili",
            "uid": 1496865,
            "tags": {
                "addr:city": "Venezia",
                "addr:housenumber": "220",
                "addr:street": "Fondamenta dei Tolentini",
                "amenity": "fast_food",
                "check_date": "2023-06-16",
                "check_date:currency:XBT": "2024-02-13",
                "contact:facebook": "https://www.facebook.com/atledmeatlab/",
                "contact:instagram": "https://www.instagram.com/atled_meatlab/",
                "contact:pinterest": "https://it.pinterest.com/AtledMeatLab/",
                "cuisine": "burger;sandwich",
                "currency:XBT": "yes",
                "diet:meat": "yes",
                "name": "Atled Meat Lab",
                "payment:lightning": "yes",
                "phone": "+39 041 458 8914",
                "website": "https://www.atledmeatlab.it/"
            }
        },
        {
            "type": "node",
            "id": 3396925558,
            "lat": 45.4386847,
            "lon": 12.3213929,
            "timestamp": "2024-07-14T21:06:25Z",
            "version": 6,
            "changeset": 153947208,
            "user": "Rockedf",
            "uid": 7522075,
            "tags": {
                "addr:city": "Venezia",
                "addr:housenumber": "225",
                "addr:postcode": "30135",
                "addr:street": "Fondamenta dei Tolentini",
                "amenity": "restaurant",
                "check_date:currency:XBT": "2024-07-14",
                "currency:XBT": "yes",
                "currency:XBT:operator": "bitcoinpos.it",
                "name": "Hostaria Vecio Biavarol",
                "payment:lightning": "yes"
            }
        },
        {
            "type": "node",
            "id": 4234614970,
            "lat": 45.4362405,
            "lon": 12.3357088,
            "timestamp": "2023-08-26T09:45:56Z",
            "version": 7,
            "changeset": 140403740,
            "user": "Chiarant",
            "uid": 18452174,
            "tags": {
                "addr:city": "Venezia",
                "addr:housenumber": "4558",
                "addr:postcode": "30124",
                "addr:street": "Campo San Luca",
                "check_date": "2023-08-26",
                "clothes": "men",
                "currency:XBT": "yes",
                "name": "Doppelganger",
                "opening_hours": "Mo-Sa 09:30-19:30; Su 11:00-19:30",
                "phone": "0415209251",
                "shop": "clothes"
            }
        },
        {
            "type": "node",
            "id": 4377025289,
            "lat": 45.5475583,
            "lon": 12.3039652,
            "timestamp": "2023-07-31T14:23:33Z",
            "version": 2,
            "changeset": 139256906,
            "user": "BTC Map",
            "uid": 18545877,
            "tags": {
                "check_date:currency:XBT": "2023-07-31",
                "currency:XBT": "yes",
                "name": "Mondo Convenienza",
                "name:it": "Mondo Convenienza",
                "shop": "furniture"
            }
        },
        {
            "type": "node",
            "id": 5949063053,
            "lat": 45.438858,
            "lon": 12.321292,
            "timestamp": "2023-04-24T03:13:21Z",
            "version": 5,
            "changeset": 135282704,
            "user": "Igor Bubelov",
            "uid": 2104834,
            "tags": {
                "addr:city": "Venezia",
                "addr:housenumber": "231",
                "addr:place": "Santa Croce",
                "addr:postcode": "30135",
                "amenity": "restaurant",
                "check_date:currency:XBT": "2023-04-24",
                "currency:XBT": "yes",
                "description": "Osteria veneziana.",
                "email": "info@zanze.it",
                "name": "Zanze XVI",
                "phone": "+39 041715394",
                "website": "https://zanze.it/"
            }
        },
        {
            "type": "node",
            "id": 6503288231,
            "lat": 45.435037,
            "lon": 12.340914,
            "timestamp": "2024-02-19T04:27:46Z",
            "version": 13,
            "changeset": 147632766,
            "user": "Igor Bubelov",
            "uid": 2104834,
            "tags": {
                "addr:city": "Venezia",
                "addr:housenumber": "4318",
                "addr:place": "Castello",
                "addr:postcode": "30122",
                "addr:street": "Rugheta Sant'Apollonia",
                "check_date": "2023-11-17",
                "currency:XBT": "yes",
                "description": "Negozio laboratorio di produzione gioielli in oro e pietre preziose: moretti ed altri gioielli esclusivi personalizzati realizzati a mano, teschi vanitas, corniole incise, gioielli con opali e molto altro.",
                "email": "info@webjewels.it",
                "name": "Oreficeria Gioielleria Dogale",
                "note": "Domenica chiuso (luglio e agosto chiuso anche il sabato pomeriggio) Sunday closed (July and August also closed on Saturday afternoons)",
                "opening_hours": "Mo-Sa 09:40-12:40,15:30-18:40",
                "payment:cash": "yes",
                "payment:credit_cards": "yes",
                "payment:lightning": "yes",
                "payment:onchain": "yes",
                "phone": "+39 0415287549",
                "shop": "jewelry",
                "start_date": "1952",
                "website": "https://www.gioiellivenezia.com/"
            }
        },
        {
            "type": "node",
            "id": 9483808945,
            "lat": 45.4358531,
            "lon": 12.3351141,
            "timestamp": "2023-05-21T07:08:47Z",
            "version": 3,
            "changeset": 136360971,
            "user": "Igor Bubelov",
            "uid": 2104834,
            "tags": {
                "addr:city": "Venezia",
                "addr:housenumber": "4590",
                "addr:postcode": "30124",
                "addr:street": "Campo San Luca",
                "check_date:currency:XBT": "2023-05-21",
                "currency:XBT": "yes",
                "flag:type": "municipal",
                "name": "Destination Venice",
                "phone": "+39 041 528 3547",
                "shop": "travel_agency"
            }
        },
        {
            "type": "node",
            "id": 10035938701,
            "lat": 45.4542033,
            "lon": 12.3510493,
            "timestamp": "2022-09-22T06:09:00Z",
            "version": 2,
            "changeset": 126489243,
            "user": "Igor Bubelov",
            "uid": 2104834,
            "tags": {
                "addr:city": "Murano",
                "addr:housenumber": "6",
                "addr:postcode": "30141",
                "addr:street": "Ramo Domenico Gisberti",
                "currency:XBT": "yes",
                "name": "Sunset Yogurt",
                "phone": "+39 3703689211",
                "shop": "jewelry",
                "survey:date": "2022-09-22",
                "website": "https://sunsetyogurt.com/"
            }
        },
        {
            "type": "node",
            "id": 10222087379,
            "lat": 45.4770977,
            "lon": 12.2016531,
            "timestamp": "2023-12-13T13:45:22Z",
            "version": 3,
            "changeset": 145076091,
            "user": "Rockedf",
            "uid": 7522075,
            "tags": {
                "addr:city": "Venezia",
                "addr:housenumber": "14",
                "addr:postcode": "30175",
                "addr:street": "Via Bottenigo",
                "check_date:currency:XBT": "2023-12-13",
                "currency:XBT": "yes",
                "email": "artigianafoto@mail.com",
                "name": "Artigiana Foto",
                "operator": "Artigiana Foto",
                "payment:lightning": "yes",
                "payment:lightning_contactless": "yes",
                "payment:onchain": "yes",
                "phone": "+39041923438",
                "shop": "photo"
            }
        },
        {
            "type": "node",
            "id": 10561952509,
            "lat": 45.4314612,
            "lon": 12.3561868,
            "timestamp": "2024-01-24T10:46:46Z",
            "version": 2,
            "changeset": 146624011,
            "user": "Igor Bubelov",
            "uid": 2104834,
            "tags": {
                "addr:city": "Venezia",
                "addr:housenumber": "1044",
                "addr:postcode": "30122",
                "addr:street": "Calle de le Ancore",
                "check_date": "2023-01-17",
                "currency:XBT": "yes",
                "description": "Tre appartamenti distanti pochi metri dalla Biennale di Venezia e a 15 minuti a piedi da Piazza San Marco.",
                "email": "homeveniceapartments@gmail.com",
                "name": "Home Venice Apartments - Biennale",
                "phone": "+39 3423920076",
                "tourism": "apartment",
                "website": "https://www.homeveniceapartments.it"
            }
        },
        {
            "type": "node",
            "id": 10568121547,
            "lat": 45.4381785,
            "lon": 12.333332,
            "timestamp": "2024-04-29T14:05:02Z",
            "version": 3,
            "changeset": 150665455,
            "user": "MarcoZampiva",
            "uid": 238904,
            "tags": {
                "addr:city": "Venezia",
                "addr:housenumber": "977",
                "addr:place": "San Polo",
                "addr:postcode": "30125",
                "check_date": "2023-01-19",
                "currency:XBT": "yes",
                "description": "Appartamenti distanti pochi metri dal Ponte di Rialto e a 15 minuti a piedi da Piazza San Marco.",
                "email": "homeveniceapartments@gmail.com",
                "name": "Home Venice Apartments - Rialto",
                "phone": "+39 3423920076",
                "tourism": "apartment",
                "website": "https://www.homeveniceapartments.it"
            }
        },
        {
            "type": "node",
            "id": 10568157405,
            "lat": 45.4352777,
            "lon": 12.3307798,
            "timestamp": "2024-04-30T07:13:55Z",
            "version": 3,
            "changeset": 150692489,
            "user": "MarcoZampiva",
            "uid": 238904,
            "tags": {
                "addr:city": "Venezia",
                "addr:housenumber": "3870",
                "addr:place": "San Marco",
                "addr:postcode": "30124",
                "check_date": "2023-09-06",
                "currency:XBT": "yes",
                "description": "Servizi per la compravendita di immobili sia residenziali che commerciali; consulenze gestionali in tutte le fasi della trattativa.",
                "email": "agenziaquinvest@gmail.com",
                "name": "Quinvest Srl",
                "office": "estate_agent",
                "phone": "+39 041 8473628",
                "website": "https://www.quinvestagenzia.it"
            }
        },
        {
            "type": "node",
            "id": 10788160129,
            "lat": 45.4586063,
            "lon": 12.2134184,
            "timestamp": "2023-08-02T13:13:40Z",
            "version": 3,
            "changeset": 139347502,
            "user": "Igor Bubelov",
            "uid": 2104834,
            "tags": {
                "addr:city": "Venezia",
                "addr:housenumber": "1",
                "addr:postcode": "30175",
                "addr:street": "Via Pietro Arduino",
                "check_date": "2023-08-02",
                "clothes": "men",
                "currency:XBT": "yes",
                "name": "DOPPELG\u00c4NGER",
                "phone": "041924659",
                "shop": "clothes",
                "website": "https://www.doppelganger.it/"
            }
        },
        {
            "type": "node",
            "id": 11331183190,
            "lat": 45.4583868,
            "lon": 12.2127619,
            "timestamp": "2023-11-07T14:04:09Z",
            "version": 1,
            "changeset": 143738826,
            "user": "Chiarant",
            "uid": 18452174,
            "tags": {
                "addr:city": "Venezia",
                "addr:housenumber": "20",
                "addr:postcode": "30175",
                "addr:street": "Via Pietro Arduino",
                "amenity": "fast_food",
                "check_date": "2023-11-07",
                "cuisine": "kebab",
                "currency:XBT": "yes",
                "name": "Kebhouze - Nave de Vero",
                "payment:lightning": "yes",
                "payment:lightning_contactless": "yes",
                "payment:onchain": "yes",
                "website": "https://kebhouze.com"
            }
        },
        {
            "type": "node",
            "id": 11404313408,
            "lat": 45.4451233,
            "lon": 12.3290784,
            "timestamp": "2024-07-06T07:04:13Z",
            "version": 5,
            "changeset": 153612433,
            "user": "mauropili",
            "uid": 1496865,
            "tags": {
                "addr:city": "Venezia",
                "addr:housenumber": "2690/A",
                "addr:postcode": "30121",
                "addr:street": "Sestiere Cannaregio",
                "amenity": "restaurant",
                "check_date:currency:XBT": "2024-02-28",
                "cuisine": "regional;italian",
                "currency:XBT": "yes",
                "currency:XBT:operator": "walletofsatoshi.com",
                "name": "Osteria Marcianino",
                "payment:lightning": "yes",
                "payment:onchain": "yes",
                "phone": "+39 041 476 7531",
                "survey:date": "2024-02-28"
            }
        }
    ]
}