{
    "id": "bitcoin-hub-bosa",
    "name": "Bitcoin Hub Bosa",
    "lng": 40.30228,
    "lat": 8.50176,
    "localita": "Bosa",
    "idlocalita": "bosa",
    "telegram_weburl": "https://web.telegram.org/a/#-1001816429245",
    "telegram_app": "https://t.me/bitcoinbosa",
    "telegram_members": 18.0,
    "network": "bitcoinbeer",
    "poi": [
        {
            "type": "node",
            "id": 2063363742,
            "lat": 40.7195952,
            "lon": 8.5781659,
            "timestamp": "2020-05-10T18:32:58Z",
            "version": 5,
            "changeset": 84982542,
            "user": "mascalzone67",
            "uid": 1861652,
            "tags": {
                "addr:city": "Sassari",
                "addr:housenumber": "1",
                "addr:postcode": "07100",
                "addr:street": "Via Antonio Gramsci",
                "brand": "Conad",
                "brand:wikidata": "Q639075",
                "brand:wikipedia": "it:Conad",
                "name": "Conad",
                "opening_hours": "Mo-Sa 08:30-21:00; Su 09:00-20:30",
                "operator": "Conad",
                "payment:bancomat": "yes",
                "payment:cash": "yes",
                "payment:credit_cards": "yes",
                "phone": "+39 079 274495",
                "shop": "supermarket",
                "website": "https://www.conad.it/ricerca-negozi/negozio.007879.html"
            }
        },
        {
            "type": "node",
            "id": 2278971102,
            "lat": 40.7374111,
            "lon": 8.5359587,
            "timestamp": "2020-10-07T18:24:32Z",
            "version": 7,
            "changeset": 92127607,
            "user": "mascalzone67",
            "uid": 1861652,
            "tags": {
                "addr:city": "Sassari",
                "addr:postcode": "07100",
                "addr:street": "Via Porto Torres",
                "brand": "Conad",
                "brand:wikidata": "Q639075",
                "brand:wikipedia": "it:Conad",
                "name": "Conad",
                "operator": "Conad",
                "payment:bancomat": "yes",
                "payment:cash": "yes",
                "payment:credit_cards": "yes",
                "shop": "supermarket",
                "start_date": "2020-10-08",
                "toilets": "yes",
                "website": "https://www.conad.it/ricerca-negozi/negozio.010113.html"
            }
        },
        {
            "type": "node",
            "id": 2422699726,
            "lat": 40.7155919,
            "lon": 8.5835674,
            "timestamp": "2024-07-20T20:35:17Z",
            "version": 9,
            "changeset": 154195138,
            "user": "mauropili",
            "uid": 1496865,
            "tags": {
                "addr:city": "Sassari",
                "addr:housenumber": "2",
                "addr:postcode": "07100",
                "addr:street": "Via Nenni",
                "check_date": "2024-03-12",
                "contact:facebook": "https://www.facebook.com/hotelmarini",
                "currency:XBT": "yes",
                "description": "Hote, ristorante, centro congressi, parcheggio.",
                "email": "info@hotelmarini.com",
                "name": "Hotel Marini",
                "phone": "+39 079 277282",
                "tourism": "hotel",
                "website": "http://www.hotelmarini.com"
            }
        },
        {
            "type": "node",
            "id": 4209731935,
            "lat": 40.7489199,
            "lon": 8.5141185,
            "timestamp": "2023-11-15T20:01:24Z",
            "version": 5,
            "changeset": 144067022,
            "user": "toponomastica_comune_arenzano",
            "uid": 14257573,
            "tags": {
                "addr:city": "Sassari",
                "addr:housenumber": "10c",
                "addr:postcode": "07100",
                "addr:street": "Via Pietro Camboni",
                "brand": "Conad",
                "brand:wikidata": "Q639075",
                "name": "Conad",
                "opening_hours": "Mo-Sa 07:30-20:30, Su, PH 08:30-13:30",
                "operator": "Conad",
                "payment:bancomat": "yes",
                "payment:cash": "yes",
                "payment:credit_cards": "yes",
                "phone": "+39 079 3027095",
                "shop": "supermarket",
                "source": "https://www.gdonews.it/2023/03/29/a-sassari-inaugura-il-nuovo-conad-di-via-pietro-camboni/",
                "start_date": "2023-03-30"
            }
        },
        {
            "type": "node",
            "id": 4419249248,
            "lat": 40.7275617,
            "lon": 8.5482208,
            "timestamp": "2023-06-24T18:33:05Z",
            "version": 6,
            "changeset": 137731255,
            "user": "Linfindel",
            "uid": 12507004,
            "tags": {
                "addr:city": "Sassari",
                "addr:housenumber": "1",
                "addr:postcode": "07100",
                "addr:street": "Via Caniga",
                "brand": "Decathlon",
                "brand:wikidata": "Q509349",
                "name": "Decathlon",
                "operator": "Decathlon",
                "shop": "sports"
            }
        },
        {
            "type": "node",
            "id": 7504123638,
            "lat": 40.7194985,
            "lon": 8.578288,
            "timestamp": "2020-05-10T18:31:05Z",
            "version": 1,
            "changeset": 84982486,
            "user": "mascalzone67",
            "uid": 1861652,
            "tags": {
                "addr:city": "Sassari",
                "addr:housenumber": "1",
                "addr:postcode": "07100",
                "addr:street": "Via Antonio Gramsci",
                "amenity": "pharmacy",
                "dispensing": "no",
                "healthcare": "pharmacy",
                "name": "Parafarmacia Conad",
                "operator": "Conad"
            }
        },
        {
            "type": "node",
            "id": 7504139186,
            "lat": 40.7118021,
            "lon": 8.5501329,
            "timestamp": "2020-05-10T18:27:45Z",
            "version": 1,
            "changeset": 84982387,
            "user": "mascalzone67",
            "uid": 1861652,
            "tags": {
                "addr:city": "Sassari",
                "addr:postcode": "07100",
                "addr:street": "Via Budapest",
                "amenity": "pharmacy",
                "dispensing": "no",
                "healthcare": "pharmacy",
                "name": "Parafarmacia Conad",
                "operator": "Conad"
            }
        },
        {
            "type": "node",
            "id": 7985734277,
            "lat": 40.737268,
            "lon": 8.5357455,
            "timestamp": "2020-10-07T18:25:58Z",
            "version": 1,
            "changeset": 92127656,
            "user": "mascalzone67",
            "uid": 1861652,
            "tags": {
                "addr:city": "Sassari",
                "addr:postcode": "07100",
                "addr:street": "Viale Porto Torres",
                "amenity": "pharmacy",
                "dispensing": "no",
                "healthcare": "pharmacy",
                "name": "Parafarmacia Conad",
                "operator": "Conad",
                "start_date": "2020-10-08"
            }
        },
        {
            "type": "node",
            "id": 10106351131,
            "lat": 40.0229753,
            "lon": 8.414785,
            "timestamp": "2024-07-07T17:29:42Z",
            "version": 3,
            "changeset": 153671835,
            "user": "mauropili",
            "uid": 1496865,
            "tags": {
                "addr:city": "Putzu Idu",
                "addr:postcode": "09070",
                "addr:street": "Lungomare Sa Punt'e S'Incudine",
                "currency:XBT": "yes",
                "name": "Nature Resort by Ginepro & Co.",
                "payment:lightning": "yes",
                "payment:lightning_contactless": "yes",
                "payment:onchain": "yes",
                "phone": "+393474424153",
                "survey:date": "2022-11-03",
                "tourism": "hotel",
                "website": "https://nature-resort.ginepro.co/"
            }
        },
        {
            "type": "way",
            "id": 279202770,
            "timestamp": "2024-12-31T17:11:32Z",
            "version": 14,
            "changeset": 160841881,
            "user": "mpbin",
            "uid": 21850090,
            "nodes": [
                2834378308,
                2834377975,
                5412753349,
                2834378181,
                2834378308
            ],
            "tags": {
                "addr:city": "Oristano",
                "addr:housenumber": "2",
                "addr:postcode": "09170",
                "addr:street": "Via Cagliari",
                "air_conditioning": "yes",
                "brand": "Unieuro",
                "brand:wikidata": "Q4004687",
                "brand:wikipedia": "en:Unieuro",
                "building": "commercial",
                "building:levels": "2",
                "email": "unioristano@gruppounieuro.com",
                "fax": "+39 0783 030227",
                "height": "9",
                "name": "Unieuro",
                "opening_hours": "Mo-Su 09:00-21:00; PH off",
                "operator": "Unieuro S.p.A.",
                "phone": "+39 0783 030171",
                "shop": "electronics",
                "stroller": "yes",
                "website": "https://www.unieuro.it/punti-vendita/oristano?Name=ORISTANO",
                "wheelchair": "yes"
            }
        },
        {
            "type": "way",
            "id": 279269098,
            "timestamp": "2024-11-09T18:10:08Z",
            "version": 5,
            "changeset": 158944483,
            "user": "aboc",
            "uid": 21696131,
            "nodes": [
                2314320415,
                9978671265,
                9978671264,
                9978671263,
                2834883542,
                2834883478,
                2834883563,
                2834884213,
                2314320415
            ],
            "tags": {
                "addr:city": "Alghero",
                "addr:street": "Via Giuseppe Mazzini",
                "brand": "Conad",
                "brand:wikidata": "Q639075",
                "building": "retail",
                "name": "Conad",
                "opening_hours": "Mo-Su 08:00-21:00",
                "operator": "CONAD Soc. Coop.",
                "shop": "supermarket"
            }
        },
        {
            "type": "way",
            "id": 285942769,
            "timestamp": "2023-07-31T14:41:06Z",
            "version": 4,
            "changeset": 139257764,
            "user": "BTC Map",
            "uid": 18545877,
            "nodes": [
                2895834758,
                2895834606,
                2895834610,
                2895834703,
                2895834702,
                2895834766,
                2895834758
            ],
            "tags": {
                "brand": "Mondo Convenienza",
                "brand:wikidata": "Q55830962",
                "building": "industrial",
                "check_date:currency:XBT": "2023-07-31",
                "currency:XBT": "yes",
                "name": "Mondo Convenienza",
                "shop": "furniture"
            }
        },
        {
            "type": "way",
            "id": 1337557595,
            "timestamp": "2024-11-24T19:39:01Z",
            "version": 1,
            "changeset": 159547092,
            "user": "vogelfreier",
            "uid": 74746,
            "nodes": [
                3117166238,
                12372247431,
                12372247430,
                12372247429,
                3117166238
            ],
            "tags": {
                "access": "customers",
                "amenity": "parking",
                "fee": "no",
                "name": "Conad",
                "operator": "Conad",
                "parking": "surface"
            }
        }
    ],
    "telegram": []
}