{
    "id": "bitcoin-bologna-ss",
    "name": "Bitcoin Bologna & Satoshi Spritz",
    "lng": 44.4943668,
    "lat": 11.3417208,
    "localita": "Bologna",
    "idlocalita": "bologna",
    "telegram_weburl": "https://web.telegram.org/a/#-1001884823223",
    "telegram_app": "https://t.me/SatoshiSpritzBologna",
    "telegram_members": 512.0,
    "network": "satoshispritz",
    "poi": [
        {
            "type": "node",
            "id": 264195191,
            "lat": 44.3623958,
            "lon": 11.6988603,
            "timestamp": "2025-09-04T06:20:39Z",
            "version": 10,
            "changeset": 171435516,
            "user": "Danysan95",
            "uid": 4425563,
            "tags": {
                "addr:housenumber": "129",
                "addr:street": "Viale Giovanni Amendola",
                "air_conditioning": "yes",
                "brand": "MediaWorld",
                "brand:wikidata": "Q76504823",
                "check_date": "2025-09-02",
                "internet_access": "wlan",
                "internet_access:fee": "no",
                "level": "0",
                "name": "MediaWorld",
                "operator": "MediaMarket S.p.A.",
                "payment:cash": "yes",
                "payment:credit_cards": "yes",
                "payment:debit_cards": "yes",
                "ref:vatin": "IT02630120166",
                "shop": "electronics",
                "toilets": "no",
                "wheelchair": "yes"
            }
        },
        {
            "type": "node",
            "id": 362497485,
            "lat": 44.6305606,
            "lon": 11.1926698,
            "timestamp": "2024-12-30T22:36:50Z",
            "version": 8,
            "changeset": 160812902,
            "user": "mpbin",
            "uid": 21850090,
            "tags": {
                "addr:city": "San Giovanni in Persiceto",
                "addr:housenumber": "110",
                "addr:postcode": "40017",
                "addr:street": "Via Bologna",
                "brand": "Conad",
                "brand:wikidata": "Q639075",
                "brand:wikipedia": "it:Conad",
                "contact:phone": "+39 051 825990",
                "name": "Conad",
                "operator": "Conad",
                "shop": "supermarket",
                "source": "ds4273",
                "wheelchair": "yes"
            }
        },
        {
            "type": "node",
            "id": 362497608,
            "lat": 44.6407127,
            "lon": 11.1885049,
            "timestamp": "2024-10-31T15:52:27Z",
            "version": 9,
            "changeset": 158587547,
            "user": "Zio Pino",
            "uid": 511708,
            "tags": {
                "addr:city": "San Giovanni in Persiceto",
                "addr:housenumber": "21",
                "addr:postcode": "40017",
                "addr:street": "Circonvallazione Dante Alighieri",
                "branch": "San Giovanni in Persiceto",
                "brand": "Conad City",
                "brand:wikidata": "Q57543102",
                "contact:phone": "+39 051 6871082",
                "name": "Conad City",
                "operator": "Conad",
                "shop": "supermarket",
                "source": "ds4273",
                "wheelchair": "yes"
            }
        },
        {
            "type": "node",
            "id": 412437085,
            "lat": 44.5885429,
            "lon": 11.3675284,
            "timestamp": "2020-05-12T18:48:21Z",
            "version": 5,
            "changeset": 85101770,
            "user": "mascalzone67",
            "uid": 1861652,
            "tags": {
                "addr:city": "Argelato",
                "addr:housenumber": "26",
                "addr:postcode": "40050",
                "addr:street": "Via Don Francesco Pasti",
                "brand": "Conad",
                "brand:wikidata": "Q639075",
                "brand:wikipedia": "it:Conad",
                "email": "SuperconadFuno_E000492B@DI-NET.IT",
                "name": "Conad",
                "opening_hours": "Mo-Sa 07:30-20:30; Su 08:30-13:00",
                "operator": "Conad",
                "payment:bancomat": "yes",
                "payment:cash": "yes",
                "payment:credit_cards": "yes",
                "phone": "+39 051 6646340",
                "shop": "supermarket",
                "website": "https://www.conad.it/ricerca-negozi/negozio.000297.html"
            }
        },
        {
            "type": "node",
            "id": 420776812,
            "lat": 44.4952195,
            "lon": 11.3246362,
            "timestamp": "2024-12-05T13:22:34Z",
            "version": 12,
            "changeset": 159957206,
            "user": "Loppi",
            "uid": 2457192,
            "tags": {
                "addr:city": "Bologna",
                "addr:housenumber": "47",
                "addr:postcode": "40134",
                "addr:street": "Via Andrea Costa",
                "amenity": "pharmacy",
                "check_date": "2019-03-08",
                "currency:XBT": "yes",
                "dispensing": "yes",
                "drive_through": "no",
                "email": "farmacialodi@yahoo.it",
                "healthcare": "pharmacy",
                "name": "Lodi",
                "name:it": "Lodi",
                "payment:cards": "yes",
                "payment:cash": "yes",
                "payment:coins": "yes",
                "payment:contactless": "yes",
                "payment:credit_cards": "yes",
                "payment:debit_cards": "yes",
                "payment:google_pay": "yes",
                "payment:maestro": "yes",
                "payment:mastercard": "yes",
                "payment:notes": "yes",
                "payment:visa": "yes",
                "phone": "+39 0516143978"
            }
        },
        {
            "type": "node",
            "id": 878621223,
            "lat": 44.5949687,
            "lon": 11.1012558,
            "timestamp": "2024-12-30T22:54:27Z",
            "version": 5,
            "changeset": 160813315,
            "user": "mpbin",
            "uid": 21850090,
            "tags": {
                "addr:city": "Castelfranco Emilia",
                "addr:housenumber": "3/5",
                "addr:postcode": "41013",
                "addr:street": "Via Nazario Sauro",
                "brand": "Conad",
                "brand:wikidata": "Q639075",
                "name": "Conad",
                "operator": "Conad",
                "shop": "supermarket"
            }
        },
        {
            "type": "node",
            "id": 1704256675,
            "lat": 44.4977004,
            "lon": 11.3481769,
            "timestamp": "2025-03-27T09:47:49Z",
            "version": 16,
            "changeset": 164155397,
            "user": "olecky",
            "uid": 20578352,
            "tags": {
                "addr:city": "Bologna",
                "addr:country": "IT",
                "addr:district": "San Vitale",
                "addr:housenumber": "2f",
                "addr:postcode": "40126",
                "addr:street": "Via delle Moline",
                "amenity": "restaurant",
                "check_date": "2025-03-27",
                "check_date:currency:XBT": "2025-02-10",
                "check_date:diet:vegetarian": "2025-03-27",
                "contact:facebook": "https://www.facebook.com/lemolinebologna/",
                "contact:instagram": "https://www.instagram.com/lemolinebologna/",
                "cuisine": "regional;italian;coffee_shop",
                "currency:XBT": "yes",
                "diet:vegetarian": "yes",
                "email": "BOOKING@LEMOLINE.IT",
                "name": "Le Moline - Osteria",
                "opening_hours": "Mo-Su 11:30-01:00",
                "payment:lightning": "yes",
                "payment:lightning_contactless": "no",
                "payment:onchain": "yes",
                "phone": "+390513169389",
                "website": "https://www.lemoline.it/"
            }
        },
        {
            "type": "node",
            "id": 1704363751,
            "lat": 44.4684069,
            "lon": 11.3734421,
            "timestamp": "2024-07-20T20:19:31Z",
            "version": 6,
            "changeset": 154194718,
            "user": "mauropili",
            "uid": 1496865,
            "tags": {
                "addr:city": "Bologna",
                "addr:country": "IT",
                "addr:district": "Savena",
                "addr:housenumber": "3/2",
                "addr:postcode": "40141",
                "addr:street": "Via della Foscherara",
                "check_date": "2022-12-12",
                "currency:XBT": "yes",
                "email": "info@nonsolofumo.it",
                "name": "Tabaccheria Non Solo Fumo Di Mutti Claudia",
                "opening_hours": "Mo-Fr 07:30-19:30, Sa 08:00-19:30",
                "payment:lightning": "yes",
                "payment:onchain": "yes",
                "phone": "+39051472843",
                "shop": "tobacco",
                "source": "Comune di Bologna",
                "website": "https://www.nonsolofumo242.it/"
            }
        },
        {
            "type": "node",
            "id": 1704680079,
            "lat": 44.4960606,
            "lon": 11.3380048,
            "timestamp": "2025-02-20T15:21:15Z",
            "version": 10,
            "changeset": 162746271,
            "user": "Liongrass",
            "uid": 1836965,
            "tags": {
                "addr:city": "Bologna",
                "addr:country": "IT",
                "addr:district": "Porto",
                "addr:housenumber": "23",
                "addr:postcode": "40121",
                "addr:street": "Via Ugo Bassi",
                "amenity": "fast_food",
                "check_date": "2025-02-20",
                "check_date:currency:XBT": "2025-02-20",
                "contact:instagram": "https://www.instagram.com/sfarinapiadina/",
                "cuisine": "regional;piadina",
                "currency:XBT": "yes",
                "name": "Sfarin\u00e0",
                "payment:lightning": "yes",
                "payment:lightning_contactless": "no",
                "payment:onchain": "no",
                "phone": "+39 051 269282",
                "source": "Comune di Bologna",
                "website": "https://sfarina.it/"
            }
        },
        {
            "type": "node",
            "id": 2529770201,
            "lat": 44.4696435,
            "lon": 11.6333493,
            "timestamp": "2025-04-20T08:58:23Z",
            "version": 6,
            "changeset": 165183061,
            "user": "DavAlb",
            "uid": 65589,
            "tags": {
                "addr:city": "Medicina",
                "addr:housenumber": "594",
                "addr:postcode": "40059",
                "addr:street": "Via San Paolo",
                "brand": "Conad",
                "brand:wikidata": "Q639075",
                "brand:wikipedia": "it:Conad",
                "name": "Conad",
                "opening_hours": "Mo-Sa 08:00-20:00; Su 08:30-13:00",
                "operator": "Conad",
                "payment:cash": "yes",
                "payment:credit_cards": "yes",
                "payment:debit_cards": "yes",
                "shop": "supermarket"
            }
        },
        {
            "type": "node",
            "id": 2552989684,
            "lat": 44.4872842,
            "lon": 11.252044,
            "timestamp": "2025-01-06T14:35:28Z",
            "version": 10,
            "changeset": 161060790,
            "user": "mpbin",
            "uid": 21850090,
            "tags": {
                "addr:city": "Casalecchio di Reno",
                "addr:housenumber": "6",
                "addr:postcode": "40033",
                "addr:street": "Via John Lennon",
                "brand": "IKEA",
                "brand:wikidata": "Q54078",
                "brand:wikipedia": "en:IKEA",
                "currency:EUR": "yes",
                "name": "IKEA",
                "opening_hours": "Mo-Su 10:00-21:00",
                "operator": "Ikea Italia Retail S.r.l.",
                "payment:cash": "yes",
                "payment:credit_cards": "yes",
                "phone": "+39199114646",
                "shop": "furniture",
                "website": "https://www.ikea.it/",
                "wheelchair": "yes"
            }
        },
        {
            "type": "node",
            "id": 3181471853,
            "lat": 44.5004445,
            "lon": 11.3294849,
            "timestamp": "2025-04-22T13:50:43Z",
            "version": 8,
            "changeset": 165287249,
            "user": "Plaintelive",
            "uid": 11644547,
            "tags": {
                "addr:city": "Bologna",
                "addr:street": "Viale Antonio Silvani",
                "brand": "Conad",
                "brand:wikidata": "Q639075",
                "check_date": "2024-05-02",
                "contact:phone": "+39 051 6494577",
                "name": "Conad",
                "opening_hours": "Mo-Su",
                "operator": "Conad",
                "shop": "supermarket",
                "source": "ds4273"
            }
        },
        {
            "type": "node",
            "id": 3612422366,
            "lat": 44.5134234,
            "lon": 11.4019779,
            "timestamp": "2025-01-03T16:13:01Z",
            "version": 8,
            "changeset": 160956085,
            "user": "mpbin",
            "uid": 21850090,
            "tags": {
                "addr:city": "Bologna",
                "addr:housenumber": "33",
                "addr:postcode": "40127",
                "addr:street": "Viale Tito Carnacini",
                "brand": "OVS",
                "brand:wikidata": "Q2042514",
                "brand:wikipedia": "en:OVS (company)",
                "name": "OVS",
                "opening_hours": "Mo-Sa 09:00-21:00; Su 10:00-20:00",
                "operator": "OVS",
                "shop": "clothes"
            }
        },
        {
            "type": "node",
            "id": 3645734962,
            "lat": 44.4951798,
            "lon": 11.3399817,
            "timestamp": "2025-09-18T12:47:40Z",
            "version": 5,
            "changeset": 172111311,
            "user": "Plaintelive",
            "uid": 11644547,
            "tags": {
                "addr:city": "Bologna",
                "addr:housenumber": "6",
                "addr:postcode": "40121",
                "addr:street": "Via Ugo Bassi",
                "brand": "OVS",
                "brand:wikidata": "Q2042514",
                "check_date": "2024-05-03",
                "name": "OVS",
                "operator": "OVS",
                "shop": "clothes"
            }
        },
        {
            "type": "node",
            "id": 3645848575,
            "lat": 44.4930935,
            "lon": 11.3437421,
            "timestamp": "2025-02-20T15:21:15Z",
            "version": 9,
            "changeset": 162746271,
            "user": "Liongrass",
            "uid": 1836965,
            "tags": {
                "addr:city": "Bologna",
                "addr:housenumber": "2",
                "addr:postcode": "40124",
                "addr:street": "Via dell'Archiginnasio",
                "amenity": "pharmacy",
                "check_date": "2025-02-02",
                "currency:XBT": "yes",
                "currency:others": "yes",
                "dispensing": "yes",
                "email": "info@farmaciadelpavaglione.it",
                "healthcare": "pharmacy",
                "name": "Farmacia del Pavaglione",
                "name:it": "Farmacia del Pavaglione",
                "payment:lightning": "yes",
                "payment:lightning_contactless": "no",
                "payment:onchain": "yes",
                "phone": "+39 051 221640",
                "survey:date": "2025-02-14",
                "website": "https://farmaciadelpavaglione.it"
            }
        },
        {
            "type": "node",
            "id": 3645888439,
            "lat": 44.4936143,
            "lon": 11.3450924,
            "timestamp": "2025-06-16T10:57:19Z",
            "version": 2,
            "changeset": 167687857,
            "user": "btcitnet",
            "uid": 22525435,
            "tags": {
                "addr:city": "Bologna",
                "addr:housenumber": "5",
                "addr:postcode": "40124",
                "addr:street": "Via Drapperie",
                "contact:facebook": "https://www.facebook.com/AlbergoDelleDrapperie",
                "contact:instagram": "https://www.instagram.com/albergodrapperie/",
                "currency:XBT": "yes",
                "email": "info@albergodrapperie.com",
                "name": "Albergo delle Drapperie",
                "payment:lightning": "yes",
                "phone": "+39 051 223955",
                "tourism": "hotel",
                "website": "https://www.albergodrapperie.com/"
            }
        },
        {
            "type": "node",
            "id": 3646417556,
            "lat": 44.4941748,
            "lon": 11.3460064,
            "timestamp": "2025-09-14T10:36:07Z",
            "version": 9,
            "changeset": 171910135,
            "user": "scai",
            "uid": 118134,
            "tags": {
                "addr:city": "Bologna",
                "addr:housenumber": "9",
                "addr:postcode": "40125",
                "addr:street": "Via Francesco Rizzoli",
                "brand": "Decathlon",
                "brand:wikidata": "Q509349",
                "check_date": "2025-09-14",
                "check_date:opening_hours": "2025-09-14",
                "name": "Decathlon",
                "opening_hours": "Mo-Su 10:00-20:00",
                "operator": "Decathlon",
                "shop": "sports",
                "sport": "hiking;cycling;swimming;basketball",
                "was:name": "Desigual",
                "was:shop": "clothes",
                "wheelchair": "yes"
            }
        },
        {
            "type": "node",
            "id": 4167115097,
            "lat": 44.56181,
            "lon": 10.84536,
            "timestamp": "2021-07-03T06:16:52Z",
            "version": 2,
            "changeset": 107340529,
            "user": "Silverium",
            "uid": 13566882,
            "tags": {
                "addr:city": "Formigine",
                "addr:country": "IT",
                "addr:housenumber": "50",
                "addr:street": "Via quattro Passi",
                "name": "Conad",
                "operator": "CONAD Soc. Coop.",
                "shop": "supermarket"
            }
        },
        {
            "type": "node",
            "id": 4167164601,
            "lat": 44.6050327,
            "lon": 10.8671238,
            "timestamp": "2020-05-12T07:23:37Z",
            "version": 2,
            "changeset": 85067751,
            "user": "mascalzone67",
            "uid": 1861652,
            "tags": {
                "addr:city": "Modena",
                "addr:country": "IT",
                "addr:housenumber": "205",
                "addr:postcode": "41126",
                "addr:street": "Via L. Settembrini",
                "brand": "Conad",
                "brand:wikidata": "Q639075",
                "brand:wikipedia": "it:Conad",
                "email": "ModenaPiusrlPvBaggiovara_E211034B@di-net.it",
                "name": "Conad",
                "opening_hours": "Mo-Sa 08:00-20:00; Su 09:00-13:00",
                "operator": "CONAD Soc. Coop.",
                "payment:bancomat": "yes",
                "payment:cash": "yes",
                "payment:credit_cards": "yes",
                "phone": "+39 059 511086",
                "shop": "supermarket",
                "website": "https://www.conad.it/ricerca-negozi/negozio.007632.html"
            }
        },
        {
            "type": "node",
            "id": 4167165490,
            "lat": 44.5330785,
            "lon": 10.8429688,
            "timestamp": "2021-07-03T06:16:51Z",
            "version": 2,
            "changeset": 107340529,
            "user": "Silverium",
            "uid": 13566882,
            "tags": {
                "addr:city": "Fiorano Modenese",
                "addr:country": "IT",
                "addr:housenumber": "30",
                "addr:street": "Piazza Falcone e Borsellino",
                "name": "Conad",
                "operator": "CONAD Soc. Coop.",
                "shop": "supermarket"
            }
        },
        {
            "type": "node",
            "id": 4187490224,
            "lat": 44.5018469,
            "lon": 11.3501244,
            "timestamp": "2024-11-07T21:25:35Z",
            "version": 9,
            "changeset": 158872635,
            "user": "mircozorzo",
            "uid": 224342,
            "tags": {
                "addr:city": "Bologna",
                "addr:housenumber": "8",
                "addr:postcode": "40126",
                "addr:street": "Via Angelo Finelli",
                "brand": "Conad City",
                "brand:wikidata": "Q57543102",
                "check_date": "2024-03-09",
                "contact:phone": "+39 051 241518",
                "name": "Conad City",
                "opening_hours": "Mo-Sa 08:15-19:45",
                "operator": "Conad",
                "shop": "supermarket",
                "source": "ds4273",
                "wheelchair": "yes"
            }
        },
        {
            "type": "node",
            "id": 4460402552,
            "lat": 44.4842291,
            "lon": 11.2686901,
            "timestamp": "2025-01-01T18:09:58Z",
            "version": 7,
            "changeset": 160879401,
            "user": "mpbin",
            "uid": 21850090,
            "tags": {
                "addr:city": "Casalecchio di Reno",
                "addr:housenumber": "50",
                "addr:postcode": "40033",
                "addr:street": "Via Aldo Moro",
                "brand": "Unieuro",
                "brand:wikidata": "Q4004687",
                "layer": "0",
                "name": "Unieuro",
                "name:it": "Unieuro",
                "operator": "Unieuro S.p.A.",
                "shop": "electronics",
                "wheelchair": "yes"
            }
        },
        {
            "type": "node",
            "id": 4472691189,
            "lat": 44.4883672,
            "lon": 11.2496361,
            "timestamp": "2025-09-26T15:12:11Z",
            "version": 19,
            "changeset": 172490741,
            "user": "btcitnet",
            "uid": 22525435,
            "tags": {
                "addr:city": "Casalecchio di Reno",
                "addr:housenumber": "2/56",
                "addr:postcode": "40033",
                "addr:street": "Via Marilyn Monroe",
                "brand": "MediaWorld",
                "brand:wikidata": "Q2381223",
                "name": "MediaWorld",
                "name:it": "Mediaworld",
                "opening_hours": "Mo-Sa 09:00-21:00; Su 09:00-20:00",
                "operator": "MediaMarket S.p.A.",
                "phone": "+39 0514 581111",
                "shop": "electronics",
                "website": "https://www.mediaworld.it/"
            }
        },
        {
            "type": "node",
            "id": 4498852691,
            "lat": 44.5192256,
            "lon": 11.264168,
            "timestamp": "2025-06-09T21:26:54Z",
            "version": 7,
            "changeset": 167418813,
            "user": "Plaintelive",
            "uid": 11644547,
            "tags": {
                "addr:city": "Bologna",
                "addr:housenumber": "186",
                "addr:postcode": "40132",
                "addr:street": "Via Marco Emilio Lepido",
                "brand": "Unieuro",
                "brand:wikidata": "Q4004687",
                "name": "Unieuro",
                "name:it": "Unieuro",
                "opening_hours": "Mo-Sa 09:00-20:30; Su 10:00-20:00",
                "operator": "Unieuro S.p.A.",
                "shop": "electronics"
            }
        },
        {
            "type": "node",
            "id": 4523372992,
            "lat": 44.5674722,
            "lon": 11.3573297,
            "timestamp": "2025-01-01T18:12:30Z",
            "version": 8,
            "changeset": 160879465,
            "user": "mpbin",
            "uid": 21850090,
            "tags": {
                "addr:city": "Castel Maggiore",
                "addr:housenumber": "8",
                "addr:postcode": "40013",
                "addr:street": "Via Pio La Torre",
                "brand": "Unieuro",
                "brand:wikidata": "Q4004687",
                "brand:wikipedia": "en:Unieuro",
                "name": "Unieuro",
                "opening_hours": "Mo-Sa 09:00-20:00; Su 10:00-20:00",
                "operator": "Unieuro S.p.A.",
                "shop": "electronics"
            }
        },
        {
            "type": "node",
            "id": 4524470590,
            "lat": 44.5293564,
            "lon": 11.3369088,
            "timestamp": "2024-07-06T05:57:24Z",
            "version": 5,
            "changeset": 153611292,
            "user": "mauropili",
            "uid": 1496865,
            "tags": {
                "addr:city": "Bologna",
                "addr:housenumber": "7",
                "addr:postcode": "40131",
                "addr:street": "Via Cristoforo Colombo",
                "brand": "Mondo Convenienza",
                "brand:wikidata": "Q55830962",
                "check_date:currency:XBT": "2023-07-31",
                "currency:XBT": "yes",
                "name": "Mondo Convenienza",
                "name:it": "Mondo Convenienza",
                "shop": "furniture"
            }
        },
        {
            "type": "node",
            "id": 4524470789,
            "lat": 44.5301809,
            "lon": 11.3372746,
            "timestamp": "2025-01-01T18:13:21Z",
            "version": 6,
            "changeset": 160879494,
            "user": "mpbin",
            "uid": 21850090,
            "tags": {
                "addr:city": "Bologna",
                "addr:housenumber": "7",
                "addr:postcode": "40131",
                "addr:street": "Via Cristoforo Colombo",
                "brand": "Unieuro",
                "brand:wikidata": "Q4004687",
                "check_date": "2024-03-19",
                "name": "Unieuro",
                "operator": "Unieuro S.p.A.",
                "shop": "electronics",
                "wheelchair": "yes"
            }
        },
        {
            "type": "node",
            "id": 4524778590,
            "lat": 44.497533,
            "lon": 11.3924623,
            "timestamp": "2025-01-03T16:29:51Z",
            "version": 4,
            "changeset": 160956775,
            "user": "mpbin",
            "uid": 21850090,
            "tags": {
                "addr:city": "Bologna",
                "addr:housenumber": "10",
                "addr:postcode": "40138",
                "addr:street": "Via Larga",
                "brand": "OVS",
                "brand:wikidata": "Q2042514",
                "brand:wikipedia": "en:OVS (company)",
                "name": "OVS",
                "name:it": "OVS",
                "operator": "OVS",
                "shop": "clothes"
            }
        },
        {
            "type": "node",
            "id": 4535817693,
            "lat": 44.4919228,
            "lon": 11.4222657,
            "timestamp": "2025-01-01T18:16:32Z",
            "version": 5,
            "changeset": 160879564,
            "user": "mpbin",
            "uid": 21850090,
            "tags": {
                "addr:city": "Castenaso",
                "addr:housenumber": "29",
                "addr:postcode": "40055",
                "addr:street": "Via Villanova",
                "brand": "Unieuro",
                "brand:wikidata": "Q4004687",
                "brand:wikipedia": "en:Unieuro",
                "name": "Unieuro",
                "opening_hours": "Mo-Sa 08:00-20:00",
                "operator": "Unieuro S.p.A.",
                "shop": "electronics"
            }
        },
        {
            "type": "node",
            "id": 4712453648,
            "lat": 44.6418557,
            "lon": 10.9188819,
            "timestamp": "2024-09-23T12:39:57Z",
            "version": 7,
            "changeset": 156993966,
            "user": "mpbin",
            "uid": 21850090,
            "tags": {
                "addr:city": "Modena",
                "addr:country": "IT",
                "addr:housenumber": "50",
                "addr:postcode": "41124",
                "addr:street": "Via Carlo Sigonio",
                "addr:suburb": "San Faustino- Madonnina- Quattro Ville",
                "check_date": "2024-09-20",
                "check_date:currency:XBT": "2024-09-20",
                "contact:facebook": "https://www.facebook.com/profile.php?id=100063804144164",
                "contact:instagram": "https://www.instagram.com/rullo__su_tela_/",
                "craft": "painter",
                "currency:XBT": "yes",
                "description": "Decorativi e Resine",
                "email": "info@rullosutela.it",
                "mobile": "+39 327 6249899",
                "name": "Rullo su tela di Soccio Nicol\u00f2",
                "opening_hours": "Mo-Sa 09:00-20:00",
                "payment:lightning": "yes",
                "payment:onchain": "yes",
                "source": "dati.emilia-romagna.it",
                "website": "https://rullosutela.it/"
            }
        },
        {
            "type": "node",
            "id": 4712458289,
            "lat": 44.6357527,
            "lon": 10.9000216,
            "timestamp": "2022-12-20T13:26:31Z",
            "version": 4,
            "changeset": 130290756,
            "user": "saunter",
            "uid": 10396321,
            "tags": {
                "addr:city": "Modena",
                "addr:country": "IT",
                "addr:housenumber": "11",
                "addr:postcode": "41126",
                "addr:street": "Strada Scaglia Est",
                "addr:suburb": "San Faustino- Madonnina- Quattro Ville",
                "amenity": "restaurant",
                "check_date": "2022-12-20",
                "contact:facebook": "https://www.facebook.com/modenaduerestaurantbar/",
                "currency:XBT": "yes",
                "name": "Modena Due Restaurant & Lounge Bar",
                "payment:onchain": "yes",
                "phone": "+393534024359",
                "source": "dati.emilia-romagna.it"
            }
        },
        {
            "type": "node",
            "id": 4712517944,
            "lat": 44.6469689,
            "lon": 10.925682,
            "timestamp": "2025-01-09T09:45:44Z",
            "version": 9,
            "changeset": 161162555,
            "user": "DnaX",
            "uid": 69259,
            "tags": {
                "addr:city": "Modena",
                "addr:country": "IT",
                "addr:housenumber": "146",
                "addr:postcode": "41121",
                "addr:street": "Via Emilia Centro",
                "addr:suburb": "Centro Storico",
                "brand": "Doppelg\u00e4nger",
                "brand:wikidata": "Q117451227",
                "check_date": "2023-04-15",
                "clothes": "men",
                "currency:XBT": "yes",
                "name": "Doppelg\u00e4nger",
                "phone": "0598301476",
                "shop": "clothes"
            }
        },
        {
            "type": "node",
            "id": 4751582388,
            "lat": 44.285424,
            "lon": 11.8840253,
            "timestamp": "2025-01-03T16:33:14Z",
            "version": 3,
            "changeset": 160956892,
            "user": "mpbin",
            "uid": 21850090,
            "tags": {
                "addr:city": "Faenza",
                "addr:housenumber": "15",
                "addr:postcode": "48018",
                "addr:street": "Corso Aurelio Saffi",
                "brand": "OVS",
                "brand:wikidata": "Q2042514",
                "brand:wikipedia": "en:OVS (company)",
                "name": "OVS",
                "operator": "OVS",
                "shop": "clothes"
            }
        },
        {
            "type": "node",
            "id": 4751588835,
            "lat": 44.2904897,
            "lon": 11.8751158,
            "timestamp": "2021-10-12T08:24:52Z",
            "version": 4,
            "changeset": 112406288,
            "user": "gabriele_sani",
            "uid": 7078274,
            "tags": {
                "addr:city": "Faenza",
                "addr:housenumber": "30",
                "addr:postcode": "48018",
                "addr:street": "Via Marcello Valgimigli",
                "brand": "Conad City",
                "brand:wikidata": "Q57543102",
                "name": "Conad City",
                "operator": "Conad",
                "shop": "supermarket"
            }
        },
        {
            "type": "node",
            "id": 4751657913,
            "lat": 44.2891809,
            "lon": 11.8873738,
            "timestamp": "2025-01-01T18:19:30Z",
            "version": 3,
            "changeset": 160879638,
            "user": "mpbin",
            "uid": 21850090,
            "tags": {
                "addr:city": "Faenza",
                "addr:housenumber": "10b",
                "addr:street": "Viale delle Ceramiche",
                "brand": "Unieuro",
                "brand:wikidata": "Q4004687",
                "brand:wikipedia": "en:Unieuro",
                "name": "Unieuro",
                "operator": "Unieuro S.p.A.",
                "shop": "electronics"
            }
        },
        {
            "type": "node",
            "id": 4762181065,
            "lat": 44.3709626,
            "lon": 11.7303471,
            "timestamp": "2025-04-07T21:44:58Z",
            "version": 3,
            "changeset": 164654037,
            "user": "Danysan95",
            "uid": 4425563,
            "tags": {
                "addr:city": "Imola",
                "addr:housenumber": "37b",
                "addr:street": "Via Provinciale Selice",
                "brand": "Trony",
                "brand:wikidata": "Q3999692",
                "check_date": "2025-04-01",
                "email": "imola@trony.it",
                "name": "Trony",
                "operator": "Trony",
                "phone": "+39 0542 643413",
                "shop": "electronics",
                "website": "https://www.trony.it/imola-TRO422/"
            }
        },
        {
            "type": "node",
            "id": 4762426943,
            "lat": 44.3536282,
            "lon": 11.7295042,
            "timestamp": "2024-11-04T13:55:01Z",
            "version": 8,
            "changeset": 158741752,
            "user": "Zio Pino",
            "uid": 511708,
            "tags": {
                "addr:city": "Imola",
                "addr:housenumber": "34",
                "addr:postcode": "40026",
                "addr:street": "Via Benedetto Croce",
                "brand": "Conad",
                "brand:wikidata": "Q639075",
                "brand:wikipedia": "it:Conad",
                "name": "Conad Imola via B.Croce",
                "opening_hours": "Mo-Sa 07:30-19:30; Su 08:30-12:30",
                "operator": "Conad",
                "payment:cash": "yes",
                "payment:credit_cards": "yes",
                "phone": "+39 0542 26198",
                "shop": "supermarket",
                "source": "ds4273",
                "website": "https://www.conad.it/ricerca-negozi/negozio.000301.html",
                "wheelchair": "yes"
            }
        },
        {
            "type": "node",
            "id": 4762538120,
            "lat": 44.4883207,
            "lon": 11.2490912,
            "timestamp": "2025-01-10T09:57:48Z",
            "version": 5,
            "changeset": 161198340,
            "user": "DnaX",
            "uid": 69259,
            "tags": {
                "addr:city": "Casalecchio di Reno",
                "addr:housenumber": "2/30",
                "addr:postcode": "40033",
                "addr:street": "Via Marilyn Monroe",
                "branch": "c c  Gran Reno",
                "brand": "Nuvolari",
                "brand:wikidata": "Q130702590",
                "check_date": "2023-08-26",
                "clothes": "men",
                "currency:XBT": "yes",
                "name": "Nuvolari",
                "phone": "0514985032",
                "shop": "clothes"
            }
        },
        {
            "type": "node",
            "id": 4769655683,
            "lat": 44.4776013,
            "lon": 11.011228,
            "timestamp": "2025-08-21T06:19:33Z",
            "version": 6,
            "changeset": 170758489,
            "user": "mantocolumbro",
            "uid": 23202821,
            "tags": {
                "addr:city": "Vignola",
                "addr:country": "IT",
                "addr:housenumber": "73",
                "addr:postcode": "41058",
                "addr:street": "Corso Italia",
                "check_date": "2023-11-25",
                "currency:XBT": "yes",
                "description": "Parrucchiere con prodotti Vegetali Reali e Italiani (NATURALMENTE-ARTEC), Salone Ecosostenibile.",
                "female:signed": "no",
                "male:signed": "no",
                "name": "Bio - Relax Parrucchieri",
                "payment:lightning": "yes",
                "payment:lightning_contactless": "yes",
                "payment:onchain": "yes",
                "phone": "+393450702938",
                "shop": "hairdresser",
                "survey:date": "2023-06-25"
            }
        },
        {
            "type": "node",
            "id": 4769656820,
            "lat": 44.4940189,
            "lon": 11.0197123,
            "timestamp": "2023-11-25T10:52:05Z",
            "version": 9,
            "changeset": 144436871,
            "user": "Chiarant",
            "uid": 18452174,
            "tags": {
                "addr:city": "Vignola",
                "addr:housenumber": "166",
                "addr:postcode": "41058",
                "addr:street": "Via Natale Bruni",
                "amenity": "ice_cream",
                "check_date:currency:XBT": "2023-11-25",
                "currency:XBT": "yes",
                "name": "Gelateria L'Artigiano",
                "opening_hours": "Tu-Su 14:30-21:00",
                "payment:lightning": "yes",
                "payment:lightning_contactless": "yes",
                "payment:onchain": "yes",
                "phone": "+39 3501509361",
                "website": "https://www.instagram.com/l.artigianodeisapori/?hl=it"
            }
        },
        {
            "type": "node",
            "id": 4770998265,
            "lat": 44.5947946,
            "lon": 11.0528082,
            "timestamp": "2025-01-03T14:09:46Z",
            "version": 7,
            "changeset": 160950911,
            "user": "mpbin",
            "uid": 21850090,
            "tags": {
                "addr:city": "Castelfranco Emilia",
                "addr:country": "IT",
                "addr:housenumber": "235",
                "addr:postcode": "41013",
                "addr:street": "Corso Martiri",
                "branch": "Kids",
                "brand": "OVS",
                "brand:wikidata": "Q2042514",
                "name": "OVS",
                "opening_hours": "Mo-Sa 09:00-12:30,15:30-19:30",
                "operator": "OVS",
                "shop": "clothes",
                "wheelchair": "yes"
            }
        },
        {
            "type": "node",
            "id": 4771084852,
            "lat": 44.6994619,
            "lon": 11.04406,
            "timestamp": "2024-09-27T13:22:09Z",
            "version": 7,
            "changeset": 157171166,
            "user": "mpbin",
            "uid": 21850090,
            "tags": {
                "addr:city": "Nonantola",
                "addr:hamlet": "Campazzo",
                "addr:housenumber": "50",
                "addr:postcode": "41015",
                "addr:street": "Via Selvatica",
                "check_date": "2024-09-27",
                "check_date:currency:XBT": "2024-09-27",
                "currency:XBT": "yes",
                "description": "Situato in una strada rurale, dista 3 km da Nonantola. Le camere rustiche eccentriche, alcune caratterizzate da murales originali, sono arredate con mobili d'epoca. Le sistemazioni godono di vista sulla campagna.",
                "email": "selvatica50@gmail.com",
                "guest_house": "bed_and_breakfast",
                "name": "La Selvatica 50 B&B",
                "payment:cash": "yes",
                "payment:satispay": "yes",
                "payment:wire_transfer": "yes",
                "tourism": "guest_house"
            }
        },
        {
            "type": "node",
            "id": 4771282665,
            "lat": 44.891258,
            "lon": 11.0514941,
            "timestamp": "2025-01-01T18:21:36Z",
            "version": 5,
            "changeset": 160879740,
            "user": "mpbin",
            "uid": 21850090,
            "tags": {
                "addr:city": "Mirandola",
                "addr:housenumber": "65",
                "addr:postcode": "41037",
                "addr:street": "Via Gregorio Agnini",
                "brand": "Unieuro",
                "brand:wikidata": "Q4004687",
                "contact:website": "https://www.unieuro.it/online/negozi/Unieuro-Mirandola",
                "name": "Unieuro",
                "operator": "Unieuro S.p.A.",
                "shop": "electronics",
                "wheelchair": "yes"
            }
        },
        {
            "type": "node",
            "id": 4777100274,
            "lat": 44.5036687,
            "lon": 11.3088075,
            "timestamp": "2024-08-13T18:07:44Z",
            "version": 4,
            "changeset": 155208574,
            "user": "mauropili",
            "uid": 1496865,
            "tags": {
                "addr:city": "Bologna",
                "addr:housenumber": "38g",
                "addr:postcode": "40133",
                "addr:street": "Via Bruno Monterumici",
                "amenity": "fast_food",
                "check_date": "2023-07-20",
                "contact:facebook": "https://www.facebook.com/futuracaffetteria/",
                "contact:instagram": "https://www.instagram.com/caffetteriafutura",
                "currency:XBT": "yes",
                "email": "futuracaffetteria@gmail.com",
                "fast_food": "cafeteria",
                "name": "Caffetteria Futura"
            }
        },
        {
            "type": "node",
            "id": 4778357929,
            "lat": 44.228753,
            "lon": 11.3447045,
            "timestamp": "2024-11-19T13:24:10Z",
            "version": 6,
            "changeset": 159324565,
            "user": "mpbin",
            "uid": 21850090,
            "tags": {
                "addr:city": "Monghidoro",
                "addr:housenumber": "24",
                "addr:postcode": "40063",
                "addr:province": "Bologna",
                "addr:street": "Via Sumbilla",
                "contact:instagram": "https://www.instagram.com/datasapiens_",
                "contact:twitter": "https://x.com/datasapiens__",
                "currency:XBT": "yes",
                "description": "Datasapiens eroga competenze e specifici devices con lo scopo di tutelare il flusso informatico e finanziario di persone ed aziende in ottica privacy",
                "email": "info@datasapiens.online",
                "name": "Datasapiens S.R.L.",
                "office": "consulting",
                "payment:lightning": "yes",
                "phone": "+39 3454566438",
                "website": "https://datasapiens.online/"
            }
        },
        {
            "type": "node",
            "id": 4782380198,
            "lat": 44.46688,
            "lon": 11.4088448,
            "timestamp": "2023-12-17T14:53:36Z",
            "version": 3,
            "changeset": 145217974,
            "user": "Rockedf",
            "uid": 7522075,
            "tags": {
                "addr:city": "San Lazzaro di Savena",
                "addr:housenumber": "34",
                "addr:postcode": "40068",
                "addr:street": "Via Carlo Iussi",
                "amenity": "restaurant",
                "check_date": "2023-11-21",
                "check_date:currency:XBT": "2023-12-17",
                "cuisine": "pizza;italian;bistro",
                "currency:XBT": "yes",
                "email": "info@40068pizzaemore.com",
                "name": "40068 Pizza & More",
                "opening_hours": "Mo-Su 18:00-01:00",
                "payment:lightning": "yes",
                "phone": "+39 051 2842005",
                "website": "https://40068pizzaemore.com/"
            }
        },
        {
            "type": "node",
            "id": 5301076558,
            "lat": 44.4913946,
            "lon": 11.5579672,
            "timestamp": "2025-08-27T20:44:36Z",
            "version": 5,
            "changeset": 171104013,
            "user": "Comino",
            "uid": 6794624,
            "tags": {
                "addr:city": "Medicina",
                "addr:housenumber": "611",
                "addr:postcode": "40059",
                "addr:street": "Via Sabbionara",
                "check_date": "2023-04-26",
                "currency:XBT": "yes",
                "email": "commerciale@cnika.it",
                "name": "Cnika",
                "office": "engineer",
                "phone": "051853172",
                "website": "https://www.cnika.it/"
            }
        },
        {
            "type": "node",
            "id": 5339460276,
            "lat": 44.4814654,
            "lon": 11.3900978,
            "timestamp": "2025-01-01T18:36:54Z",
            "version": 5,
            "changeset": 160880209,
            "user": "mpbin",
            "uid": 21850090,
            "tags": {
                "addr:city": "Bologna",
                "addr:housenumber": "5",
                "addr:postcode": "40139",
                "addr:street": "Viale Abramo Lincoln",
                "brand": "Unieuro",
                "brand:wikidata": "Q4004687",
                "brand:wikipedia": "en:Unieuro",
                "name": "Unieuro",
                "operator": "Unieuro S.p.A.",
                "phone": "+39 051493319",
                "shop": "electronics"
            }
        },
        {
            "type": "node",
            "id": 5339464860,
            "lat": 44.4801127,
            "lon": 11.6332881,
            "timestamp": "2025-01-01T18:37:31Z",
            "version": 5,
            "changeset": 160880243,
            "user": "mpbin",
            "uid": 21850090,
            "tags": {
                "addr:city": "Medicina",
                "addr:housenumber": "150a",
                "addr:postcode": "40059",
                "addr:street": "Via Licurgo Fava",
                "brand": "Unieuro",
                "brand:wikidata": "Q4004687",
                "brand:wikipedia": "en:Unieuro",
                "name": "Unieuro",
                "operator": "Unieuro S.p.A.",
                "phone": "+39 051850853",
                "shop": "electronics"
            }
        },
        {
            "type": "node",
            "id": 5805243372,
            "lat": 44.8920806,
            "lon": 11.6166262,
            "timestamp": "2025-01-03T14:14:05Z",
            "version": 3,
            "changeset": 160951093,
            "user": "mpbin",
            "uid": 21850090,
            "tags": {
                "addr:city": "Santa Maria Maddalena",
                "addr:housenumber": "30",
                "addr:postcode": "45030",
                "addr:street": "Via Maestri del Lavoro",
                "name": "OVS",
                "opening_hours": "Mo-Fr 09:00-12:30, 15:30-19:30; Sa 09:30-13:00, 15:00-19:30",
                "operator": "OVS",
                "shop": "clothes",
                "wheelchair": "yes"
            }
        },
        {
            "type": "node",
            "id": 6404069985,
            "lat": 44.3546356,
            "lon": 11.6897262,
            "timestamp": "2024-10-09T20:34:26Z",
            "version": 4,
            "changeset": 157689018,
            "user": "Danysan95",
            "uid": 4425563,
            "tags": {
                "addr:city": "Imola",
                "addr:housenumber": "5c",
                "addr:postcode": "40026",
                "addr:street": "Via Montericco",
                "amenity": "pharmacy",
                "brand": "Parafarmacia Conad",
                "check_date": "2024-10-09",
                "dispensing": "no",
                "healthcare": "pharmacy",
                "name": "Parafarmacia Conad",
                "operator": "Conad"
            }
        },
        {
            "type": "node",
            "id": 6475072552,
            "lat": 44.640859,
            "lon": 10.91307,
            "timestamp": "2024-08-20T07:09:07Z",
            "version": 5,
            "changeset": 155493174,
            "user": "mauropili",
            "uid": 1496865,
            "tags": {
                "addr:city": "Modena",
                "addr:housenumber": "219",
                "addr:postcode": "41124",
                "addr:street": "Via Pietro Giardini",
                "check_date:currency:XBT": "2023-02-17",
                "currency:XBT": "yes",
                "description": "Affitto uffici arredati, sale riunioni, spazi condivisi.",
                "email": "info@modenacoworking.it",
                "name": "Modena Coworking",
                "office": "coworking",
                "phone": "+39 3356674607",
                "website": "https://www.modenacoworking.it/"
            }
        },
        {
            "type": "node",
            "id": 7244465685,
            "lat": 44.5127809,
            "lon": 11.2868027,
            "timestamp": "2024-06-11T18:44:28Z",
            "version": 5,
            "changeset": 152557178,
            "user": "Rockedf",
            "uid": 7522075,
            "tags": {
                "addr:city": "Bologna",
                "addr:housenumber": "345",
                "addr:postcode": "40132",
                "addr:street": "Via Emilia Ponente",
                "addr:unit": "D",
                "amenity": "atm",
                "branch": "Bologna",
                "cash_in": "yes",
                "cash_out": "yes",
                "cash_withdrawal": "yes",
                "check_date": "2024-01-28",
                "contact:email": "support@shitcoins.club",
                "contact:facebook": "https://www.facebook.com/shitcoins.club",
                "contact:instagram": "https://www.instagram.com/shitcoinsclub",
                "contact:telegram": "https://t.me/shitcoinsclub",
                "contact:twitter": "https://twitter.com/BitomatCom",
                "currency:CAD": "yes",
                "currency:CHF": "yes",
                "currency:DASH": "yes",
                "currency:ETH": "yes",
                "currency:EUR": "yes",
                "currency:HUF": "yes",
                "currency:LTC": "yes",
                "currency:RON": "yes",
                "currency:USD": "yes",
                "currency:USDC": "yes",
                "currency:USDT": "yes",
                "currency:XBT": "yes",
                "indoor": "yes",
                "level": "0",
                "name": "Bitcoin ATM - Shitcoins.club",
                "network": "Bitcoin",
                "note": "L'ATM Bitcoin a Bologna si trova accanto a Borgoceramica Pavimenti e Arredo Bagno.",
                "opening_hours": "24/7",
                "operator": "Shitcoins.club",
                "payment:cash": "yes",
                "payment:onchain": "yes",
                "phone": "+39 34 8048 7308",
                "start_date": "2019-10-26",
                "url": "https://coinatmradar.com/bitcoin_atm/10059/bitcoin-atm-shitcoins-club-bologna-punto-atm-bitcoin/",
                "website": "https://shitcoins.club/localizzazione-atm/atm-bitcoin-bologna-via-emilia-ponente"
            }
        },
        {
            "type": "node",
            "id": 7507084208,
            "lat": 44.4976768,
            "lon": 11.3907944,
            "timestamp": "2025-03-28T10:39:17Z",
            "version": 4,
            "changeset": 164201215,
            "user": "Plaintelive",
            "uid": 11644547,
            "tags": {
                "addr:city": "Bologna",
                "addr:housenumber": "10",
                "addr:postcode": "40138",
                "addr:street": "Galleria Vialarga",
                "amenity": "pharmacy",
                "brand": "Parafarmacia Conad",
                "dispensing": "no",
                "healthcare": "pharmacy",
                "name": "Parafarmacia Conad",
                "operator": "Conad",
                "ref:msal": "002203"
            }
        },
        {
            "type": "node",
            "id": 7507133420,
            "lat": 44.4840967,
            "lon": 11.3739435,
            "timestamp": "2025-06-11T19:26:42Z",
            "version": 3,
            "changeset": 167506206,
            "user": "Cybermanx",
            "uid": 22604600,
            "tags": {
                "addr:city": "Bologna",
                "addr:housenumber": "6",
                "addr:postcode": "40139",
                "addr:street": "Via Emilia Levante",
                "amenity": "pharmacy",
                "check_date": "2025-06-11",
                "dispensing": "no",
                "healthcare": "pharmacy",
                "name": "Parafarmacia Conad",
                "operator": "Conad"
            }
        },
        {
            "type": "node",
            "id": 7507278566,
            "lat": 44.4924243,
            "lon": 11.3257006,
            "timestamp": "2023-11-17T18:41:45Z",
            "version": 4,
            "changeset": 144150734,
            "user": "toponomastica_comune_arenzano",
            "uid": 14257573,
            "tags": {
                "addr:city": "Bologna",
                "addr:housenumber": "40a",
                "addr:postcode": "40134",
                "addr:street": "Via Alessandro Guidotti",
                "amenity": "veterinary",
                "check_date": "2023-05-03",
                "currency:XBT": "yes",
                "description": "Ambulatorio Veterinario per animali da compagnia / pets. Clinica, chirurgia, consulenza, reperibilit\u00e0 h24, visite domiciliari.",
                "email": "ambvetguidotti@gmail.com",
                "name": "Ambulatorio Veterinario Guidotti",
                "phone": "+39 3491007581",
                "website": "https://www.facebook.com/Ambulatorio-Veterinario-Guidotti-101227044772600"
            }
        },
        {
            "type": "node",
            "id": 7512067632,
            "lat": 44.5885521,
            "lon": 11.3672303,
            "timestamp": "2020-05-12T18:46:06Z",
            "version": 1,
            "changeset": 85101684,
            "user": "mascalzone67",
            "uid": 1861652,
            "tags": {
                "addr:city": "Argelato",
                "addr:housenumber": "26",
                "addr:postcode": "40050",
                "addr:street": "Via Don Francesco Pasti",
                "amenity": "pharmacy",
                "dispensing": "no",
                "healthcare": "pharmacy",
                "name": "Parafarmacia Conad",
                "operator": "Conad"
            }
        },
        {
            "type": "node",
            "id": 7513054227,
            "lat": 44.2977378,
            "lon": 11.8864091,
            "timestamp": "2023-11-30T07:04:45Z",
            "version": 3,
            "changeset": 144613416,
            "user": "paulbrunner",
            "uid": 15541433,
            "tags": {
                "addr:city": "Faenza",
                "addr:housenumber": "28",
                "addr:postcode": "48018",
                "addr:street": "Via della Costituzione",
                "amenity": "pharmacy",
                "dispensing": "no",
                "healthcare": "pharmacy",
                "name": "Parafarmacia Conad",
                "operator": "Conad",
                "phone": "+39 0546 25808"
            }
        },
        {
            "type": "node",
            "id": 8454768289,
            "lat": 44.4991838,
            "lon": 11.3337694,
            "timestamp": "2025-06-08T10:41:32Z",
            "version": 5,
            "changeset": 167344611,
            "user": "Plaintelive",
            "uid": 11644547,
            "tags": {
                "addr:city": "Bologna",
                "addr:housenumber": "6",
                "addr:postcode": "40122",
                "addr:street": "Via Padre Francesco Maria Grimaldi",
                "addr:unit": "e",
                "amenity": "dentist",
                "check_date": "2023-07-17",
                "check_date:currency:XBT": "2024-10-27",
                "currency:XBT": "yes",
                "description": "Ambulatorio odontoiatrico specializzato in odontoiatria digitale. Si effettuano sbiancamenti dentali, faccette, ortodonzia con le mascherine trasparenti, implantologia computer assistita.",
                "email": "info@centroodontoiatricogrimaldi.it",
                "healthcare": "dentist",
                "name": "Centro Odontoiatrico Grimaldi",
                "phone": "+39 0516494868",
                "website": "https://www.centroodontoiatricogrimaldi.it/"
            }
        },
        {
            "type": "node",
            "id": 8932752006,
            "lat": 44.5472429,
            "lon": 10.8591775,
            "timestamp": "2025-01-01T22:38:21Z",
            "version": 2,
            "changeset": 160887730,
            "user": "mpbin",
            "uid": 21850090,
            "tags": {
                "addr:city": "Fiorano Modenese",
                "addr:street": "Via Giardini",
                "brand": "Trony",
                "brand:wikidata": "Q3999692",
                "brand:wikipedia": "it:Trony",
                "name": "Trony",
                "operator": "Trony",
                "shop": "electronics"
            }
        },
        {
            "type": "node",
            "id": 9407485099,
            "lat": 44.2964812,
            "lon": 11.8610237,
            "timestamp": "2024-12-31T09:28:55Z",
            "version": 2,
            "changeset": 160824520,
            "user": "mpbin",
            "uid": 21850090,
            "tags": {
                "addr:city": "Faenza",
                "addr:housenumber": "4",
                "addr:postcode": "48018",
                "addr:street": "Via Galileo Galilei",
                "brand": "Conad",
                "brand:wikidata": "Q639075",
                "brand:wikipedia": "it:Conad",
                "name": "Conad",
                "operator": "Conad",
                "shop": "supermarket"
            }
        },
        {
            "type": "node",
            "id": 9592583716,
            "lat": 44.3275961,
            "lon": 11.9041411,
            "timestamp": "2025-01-02T22:00:35Z",
            "version": 3,
            "changeset": 160927768,
            "user": "mpbin",
            "uid": 21850090,
            "tags": {
                "addr:city": "Faenza",
                "addr:housenumber": "1",
                "addr:postcode": "48018",
                "addr:street": "Via Bisaura",
                "brand": "Trony",
                "brand:wikidata": "Q3999692",
                "brand:wikipedia": "it:Trony",
                "check_date": "2024-04-26",
                "email": "faenza@trony.it",
                "name": "Trony",
                "operator": "Trony",
                "phone": "+39 0546 46408",
                "shop": "electronics"
            }
        },
        {
            "type": "node",
            "id": 10019906287,
            "lat": 44.4991358,
            "lon": 11.3266877,
            "timestamp": "2024-10-11T19:59:26Z",
            "version": 3,
            "changeset": 157771698,
            "user": "mpbin",
            "uid": 21850090,
            "tags": {
                "addr:city": "Bologna",
                "addr:housenumber": "3",
                "addr:postcode": "40122",
                "addr:street": "Piazza di Porta San Felice",
                "amenity": "cafe",
                "check_date": "2023-07-09",
                "cuisine": "pizza;italian;burger",
                "currency:XBT": "yes",
                "email": "info@borgomameli.it",
                "name": "Borgo Mameli",
                "phone": "+393701512014",
                "survey:date": "2022-09-13",
                "website": "https://borgomameli.it/"
            }
        },
        {
            "type": "node",
            "id": 10019917907,
            "lat": 44.4963972,
            "lon": 11.3385377,
            "timestamp": "2025-02-20T15:21:15Z",
            "version": 6,
            "changeset": 162746271,
            "user": "Liongrass",
            "uid": 1836965,
            "tags": {
                "addr:city": "Bologna",
                "addr:housenumber": "7",
                "addr:postcode": "40121",
                "addr:street": "Via Belvedere",
                "addr:unit": "C",
                "amenity": "bar",
                "check_date": "2025-02-09",
                "contact:facebook": "https://www.facebook.com/PastisBologna",
                "currency:XBT": "yes",
                "email": "pastis.belvedere@gmail.com",
                "name": "Pastis",
                "payment:lightning": "yes",
                "payment:lightning_contactless": "no",
                "payment:onchain": "no",
                "phone": "+39 051 230650",
                "survey:date": "2025-02-09"
            }
        },
        {
            "type": "node",
            "id": 10044774234,
            "lat": 44.8506302,
            "lon": 11.6265662,
            "timestamp": "2024-10-11T20:21:19Z",
            "version": 4,
            "changeset": 157772368,
            "user": "mpbin",
            "uid": 21850090,
            "tags": {
                "addr:city": "Ferrara",
                "addr:housenumber": "103",
                "addr:postcode": "44121",
                "addr:street": "Via Riccardo Bacchelli",
                "amenity": "restaurant",
                "check_date": "2022-12-17",
                "currency:XBT": "yes",
                "email": "prenotazioni.bacchelli@gmail.com",
                "name": "Kaf\u00e8 Bacchelli",
                "website": "https://kafebacchelli.it/"
            }
        },
        {
            "type": "node",
            "id": 10221479372,
            "lat": 44.5014066,
            "lon": 11.3440584,
            "timestamp": "2024-12-17T18:50:10Z",
            "version": 5,
            "changeset": 160316175,
            "user": "Rockedf",
            "uid": 7522075,
            "tags": {
                "addr:city": "Bologna",
                "addr:housenumber": "3a",
                "addr:postcode": "40121",
                "addr:street": "Via dei Mille",
                "amenity": "ice_cream",
                "check_date": "2024-12-17",
                "contact:email": "sablegelato@gmail.com",
                "contact:instagram": "https://www.instagram.com/sable_gelato/",
                "currency:XBT": "yes",
                "name": "Sabl\u00e9 gelato",
                "opening_hours": "We-Su 11:30-19:00",
                "outdoor_seating": "yes",
                "payment:lightning": "yes",
                "payment:lightning_contactless": "yes",
                "payment:onchain": "yes",
                "website": "https://sablegelato.com/"
            }
        },
        {
            "type": "node",
            "id": 10253175451,
            "lat": 44.4003562,
            "lon": 11.5885832,
            "timestamp": "2024-01-17T00:26:52Z",
            "version": 3,
            "changeset": 146342972,
            "user": "yhic4uw",
            "uid": 2104834,
            "tags": {
                "addr:city": "Castel San Pietro Terme",
                "addr:housenumber": "4",
                "addr:postcode": "40024",
                "addr:street": "Via Fratelli Cervi",
                "check_date": "2023-04-26",
                "currency:XBT": "yes",
                "name": "Studio Gualandi Di Gualandi Alessandra",
                "office": "consulting",
                "phone": "+390516958704"
            }
        },
        {
            "type": "node",
            "id": 10255532989,
            "lat": 44.5279491,
            "lon": 11.320108,
            "timestamp": "2024-02-29T13:30:01Z",
            "version": 2,
            "changeset": 148052814,
            "user": "Chiarant",
            "uid": 18452174,
            "tags": {
                "addr:city": "Bologna",
                "addr:housenumber": "50",
                "addr:postcode": "40131",
                "addr:street": "Via della Selva Pescarola",
                "amenity": "restaurant",
                "check_date:currency:XBT": "2024-02-29",
                "currency:XBT": "yes",
                "description": "On-chain payments for groups or payments in advance",
                "name": "Il Mulino Bruciato",
                "opening_hours": "Mo-Sa 19:30-03:00",
                "payment:lightning": "yes",
                "payment:lightning_contactless": "no",
                "payment:onchain": "yes",
                "phone": "+39 051 634 3072",
                "website": "https://www.facebook.com/ilmulinobruciato/"
            }
        },
        {
            "type": "node",
            "id": 10576219949,
            "lat": 44.8938149,
            "lon": 11.610334,
            "timestamp": "2023-07-18T16:34:03Z",
            "version": 2,
            "changeset": 138678234,
            "user": "saunter",
            "uid": 10396321,
            "tags": {
                "addr:city": "Occhiobello",
                "addr:housenumber": "9",
                "addr:postcode": "45030",
                "addr:street": "Vicolo A. Fleming",
                "check_date:currency:XBT": "2023-07-18",
                "currency:XBT": "yes",
                "email": "mabiz66@gmail.com",
                "name": "Studio Ingegneria ing. Bizzi Marco",
                "payment:onchain": "yes",
                "phone": "+39 348 6902866",
                "shop": "yes"
            }
        },
        {
            "type": "node",
            "id": 10766444254,
            "lat": 44.4787868,
            "lon": 11.3815956,
            "timestamp": "2024-11-22T17:23:07Z",
            "version": 6,
            "changeset": 159468740,
            "user": "Rockedf",
            "uid": 7522075,
            "tags": {
                "addr:city": "Bologna",
                "addr:housenumber": "4a",
                "addr:postcode": "40139",
                "addr:street": "Via Friuli Venezia Giulia",
                "check_date": "2023-03-27",
                "check_date:currency:XBT": "2024-11-22",
                "contact:facebook": "https://www.facebook.com/kickboxingbologna/",
                "currency:XBT": "yes",
                "description": "Specialized in ring and cage sports",
                "email": "megathai@hotmail.com",
                "leisure": "sports_hall",
                "name": "Rainbow team Bologna - Boxe club",
                "payment:lightning": "no",
                "payment:lightning_contactless": "no",
                "payment:onchain": "yes",
                "sport": "boxing;kickboxing;muay_thai;thaibox"
            }
        },
        {
            "type": "node",
            "id": 11069655003,
            "lat": 44.4970313,
            "lon": 11.3394695,
            "timestamp": "2025-02-20T15:21:15Z",
            "version": 2,
            "changeset": 162746271,
            "user": "Liongrass",
            "uid": 1836965,
            "tags": {
                "addr:city": "Bologna",
                "addr:housenumber": "11",
                "addr:postcode": "40121",
                "addr:street": "Via Nazario Sauro",
                "addr:unit": "C",
                "check_date": "2025-02-20",
                "check_date:currency:XBT": "2025-02-20",
                "contact:email": "granadoro@outlook.it",
                "currency:XBT": "yes",
                "name": "Granaglie",
                "opening_hours": "Mo-Sa 08:30-13:00",
                "payment:lightning": "yes",
                "payment:lightning_contactless": "no",
                "payment:onchain": "no",
                "shop": "food",
                "website": "https://docs.google.com/document/d/1OBUmPdXPE2YZD2V9wxykeESBIyrOmsccoI2SNt41prM/edit?usp=drivesdk"
            }
        },
        {
            "type": "node",
            "id": 11200067892,
            "lat": 44.5041456,
            "lon": 11.3387609,
            "timestamp": "2023-10-30T03:52:28Z",
            "version": 4,
            "changeset": 143341565,
            "user": "b-jazz-bot",
            "uid": 9451067,
            "tags": {
                "addr:city": "Bologna",
                "addr:housenumber": "9",
                "addr:postcode": "40121",
                "addr:street": "Via Cairoli",
                "air_conditioning": "yes",
                "currency:EUR": "yes",
                "currency:XBT": "yes",
                "email": "info@casavacanzabologna.it",
                "guest_house": "apartment",
                "internet_access": "wlan",
                "internet_access:fee": "no",
                "name": "CVB :: Cairoli",
                "operator": "Casa Vacanza Bologna",
                "payment:bonifico_bancario": "yes",
                "payment:cryptocurrencies": "yes",
                "payment:lightning": "yes",
                "payment:lightning_contactless": "no",
                "payment:onchain": "yes",
                "payment:paypal": "yes",
                "payment:satispay": "yes",
                "rooms": "2",
                "survey:date": "2023-09-18",
                "tourism": "guest_house",
                "website": "https://www.airbnb.com/h/cairoli"
            }
        },
        {
            "type": "node",
            "id": 11200140615,
            "lat": 44.2520768,
            "lon": 11.4329193,
            "timestamp": "2024-08-30T19:41:15Z",
            "version": 8,
            "changeset": 155989423,
            "user": "Resist2020",
            "uid": 20644993,
            "tags": {
                "addr:city": "Monterenzio",
                "addr:housenumber": "1",
                "addr:postcode": "40050",
                "addr:street": "Via Casoni di Romagna",
                "check_date": "2023-09-18",
                "check_date:currency:XBT": "2024-07-27",
                "currency:EUR": "yes",
                "currency:XBT": "yes",
                "delivery": "yes",
                "delivery:zone": "IT",
                "name": "Azienda Agricola Ca' dei Signori",
                "organic": "only",
                "payment:cash": "yes",
                "payment:coins": "yes",
                "payment:cryptocurrencies": "yes",
                "payment:lightning": "yes",
                "payment:lightning_contactless": "no",
                "payment:notes": "yes",
                "payment:onchain": "yes",
                "payment:paypal": "yes",
                "payment:satispay": "yes",
                "produce": "honey,plants,aromatics",
                "shop": "farm",
                "website": "https://www.aziendacadeisignori.it/"
            }
        },
        {
            "type": "node",
            "id": 11200192363,
            "lat": 44.4933996,
            "lon": 11.3415021,
            "timestamp": "2023-10-30T03:58:11Z",
            "version": 3,
            "changeset": 143341751,
            "user": "b-jazz-bot",
            "uid": 9451067,
            "tags": {
                "addr:city": "Bologna",
                "addr:housenumber": "1",
                "addr:postcode": "40123",
                "addr:street": "Via Battibecco",
                "air_conditioning": "yes",
                "currency:EUR": "yes",
                "currency:XBT": "yes",
                "email": "info@casavacanzabologna.it",
                "guest_house": "apartment",
                "internet_access": "wlan",
                "internet_access:fee": "no",
                "name": "CVB :: Battibecco",
                "operator": "Casa Vacanza Bologna",
                "payment:bonifico": "yes",
                "payment:bonifico_bancario": "yes",
                "payment:cryptocurrencies": "yes",
                "payment:lightning": "yes",
                "payment:onchain": "yes",
                "payment:paypal": "yes",
                "payment:satispay": "yes",
                "rooms": "2",
                "survey:date": "2023-09-18",
                "tourism": "guest_house",
                "website": "https://www.airbnb.com/h/battibecco",
                "wheelchair": "no"
            }
        },
        {
            "type": "node",
            "id": 11255129975,
            "lat": 44.2247739,
            "lon": 11.0680565,
            "timestamp": "2025-09-21T06:47:36Z",
            "version": 29,
            "changeset": 172231482,
            "user": "Michele Cati",
            "uid": 20445873,
            "tags": {
                "addr:city": "Grizzana Morandi",
                "addr:housenumber": "26F",
                "addr:postcode": "40030",
                "addr:street": "Via Archetta",
                "check_date": "2025-09-21",
                "check_date:currency:XBT": "2025-09-21",
                "currency:ALPH": "yes",
                "currency:EPIC": "yes",
                "currency:ETH": "yes",
                "currency:FIRO": "yes",
                "currency:KAS": "yes",
                "currency:XBT": "yes",
                "currency:XMR": "yes",
                "currency:ZANO": "yes",
                "description": "Un appartamento unico dove rilassarsi, in un borgo edificato dal Conte Cesare Mattei, a due passi dalla sua famosa Rocchetta Mattei. Grizzana Morandi (Bo).",
                "email": "info@labalconcina.it",
                "guest_house": "guest_house",
                "internet_access": "wlan",
                "internet_access:fee": "no",
                "name": "La Balconcina B&B",
                "payment:lightning": "yes",
                "payment:lightning_contactless": "no",
                "payment:onchain": "yes",
                "phone": "+39 34 8728 1656",
                "rooms": "2",
                "tourism": "guest_house",
                "website": "https://www.labalconcina.it"
            }
        },
        {
            "type": "node",
            "id": 11255256454,
            "lat": 44.2248592,
            "lon": 11.0681222,
            "timestamp": "2025-09-21T06:46:00Z",
            "version": 18,
            "changeset": 172231445,
            "user": "Michele Cati",
            "uid": 20445873,
            "tags": {
                "addr:city": "Grizzana Morandi",
                "addr:housenumber": "26F",
                "addr:postcode": "40030",
                "addr:street": "Via Archetta",
                "check_date": "2025-09-21",
                "check_date:currency:XBT": "2025-09-21",
                "contact:email": "michele@michelecati.com",
                "craft": "photographer",
                "currency:ALPH": "yes",
                "currency:EPIC": "yes",
                "currency:ETH": "yes",
                "currency:FIRO": "yes",
                "currency:KAS": "yes",
                "currency:XBT": "yes",
                "currency:XMR": "yes",
                "currency:ZANO": "yes",
                "name": "Michele Cati Fotografia",
                "operator": "Michele Cati",
                "payment:lightning": "yes",
                "payment:lightning_contactless": "no",
                "payment:onchain": "yes",
                "phone": "+39 34 8728 1656",
                "website": "https://www.michelecati.com"
            }
        },
        {
            "type": "node",
            "id": 11255281367,
            "lat": 44.2036469,
            "lon": 11.0591517,
            "timestamp": "2025-09-21T06:30:22Z",
            "version": 24,
            "changeset": 172231071,
            "user": "Michele Cati",
            "uid": 20445873,
            "tags": {
                "addr:city": "Camugnano",
                "addr:housenumber": "54B",
                "addr:postcode": "40032",
                "addr:street": "Ponte di Verzuno",
                "check_date": "2025-09-21",
                "check_date:currency:XBT": "2025-09-21",
                "contact:email": "info@mieleinformatica.com",
                "currency:ALPH": "yes",
                "currency:EPIC": "yes",
                "currency:ETH": "yes",
                "currency:FIRO": "yes",
                "currency:KAS": "yes",
                "currency:XBT": "yes",
                "currency:XMR": "yes",
                "currency:ZANO": "yes",
                "description": "Configurazione di PC e periferiche, server e NAS, infrastrutture di rete, firewall e VPN. Videosorveglianza.\nSoluzioni privacy-centriche. Intelligenza artificiale.",
                "name": "Miele Informatica di Michele Cati",
                "office": "it",
                "payment:lightning": "yes",
                "payment:lightning_contactless": "no",
                "payment:onchain": "yes",
                "phone": "+39 34 8728 1656",
                "ref:vatin": "03667231207",
                "website": "https://www.mieleinformatica.com"
            }
        },
        {
            "type": "node",
            "id": 11303836956,
            "lat": 44.5307104,
            "lon": 11.3349132,
            "timestamp": "2025-09-08T20:32:59Z",
            "version": 3,
            "changeset": 171655501,
            "user": "Cybermanx",
            "uid": 22604600,
            "tags": {
                "addr:city": "Bologna",
                "addr:housenumber": "7/38",
                "addr:postcode": "40131",
                "addr:street": "Via Cristoforo Colombo",
                "amenity": "pharmacy",
                "dispensing": "no",
                "healthcare": "pharmacy",
                "name": "Parafarmacia Conad",
                "operator": "Conad",
                "source": "https://www.gdonews.it/2023/10/31/doppia-inaugurazione-conad-nel-parco-commerciale-navile-di-bologna/"
            }
        },
        {
            "type": "node",
            "id": 11303837006,
            "lat": 44.5307162,
            "lon": 11.3354148,
            "timestamp": "2023-11-01T06:41:28Z",
            "version": 2,
            "changeset": 143456972,
            "user": "mascalzone67",
            "uid": 1861652,
            "tags": {
                "addr:city": "Bologna",
                "addr:housenumber": "7/37",
                "addr:postcode": "40131",
                "addr:street": "Via Cristoforo Colombo",
                "brand": "Conad",
                "brand:wikidata": "Q639075",
                "name": "Conad",
                "opening_hours": "Mo-Sa 08:30-21:00, Su 09:00-20:30",
                "operator": "Conad",
                "payment:bancomat": "yes",
                "payment:cards": "yes",
                "payment:cash": "yes",
                "shop": "supermarket",
                "source": "https://www.gdonews.it/2023/10/31/doppia-inaugurazione-conad-nel-parco-commerciale-navile-di-bologna/",
                "start_date": "2023-10-31"
            }
        },
        {
            "type": "node",
            "id": 11358406790,
            "lat": 44.2981883,
            "lon": 11.8859703,
            "timestamp": "2025-01-01T21:20:53Z",
            "version": 2,
            "changeset": 160885863,
            "user": "mpbin",
            "uid": 21850090,
            "tags": {
                "addr:city": "Faenza",
                "addr:housenumber": "28/int.24",
                "addr:postcode": "48018",
                "addr:street": "Via della Costituzione",
                "brand": "Unieuro",
                "brand:wikidata": "Q4004687",
                "name": "Unieuro",
                "operator": "Unieuro S.p.A.",
                "phone": "+39 0546 667282",
                "shop": "electronics"
            }
        },
        {
            "type": "node",
            "id": 11462836650,
            "lat": 44.5065792,
            "lon": 11.471508,
            "timestamp": "2023-12-28T14:10:39Z",
            "version": 1,
            "changeset": 145621752,
            "user": "Rockedf",
            "uid": 7522075,
            "tags": {
                "addr:city": "Castenaso",
                "addr:housenumber": "46",
                "addr:postcode": "40055",
                "addr:street": "Via Publio Cornelio Scipione Nasica",
                "check_date": "2023-12-28",
                "currency:XBT": "yes",
                "name": "Architetto Giampaolo Bertuzzi",
                "office": "architect",
                "payment:lightning": "yes",
                "payment:lightning_contactless": "no",
                "payment:onchain": "yes",
                "phone": "+39 33 9183 7132",
                "website": "https://www.architettobertuzzi.com/"
            }
        },
        {
            "type": "node",
            "id": 11513434803,
            "lat": 44.4942573,
            "lon": 11.338926,
            "timestamp": "2024-07-06T07:07:11Z",
            "version": 4,
            "changeset": 153612478,
            "user": "mauropili",
            "uid": 1496865,
            "tags": {
                "addr:city": "Bologna",
                "addr:housenumber": "9",
                "addr:postcode": "40121",
                "addr:street": "Via Quattro Novembre",
                "check_date": "2024-01-13",
                "currency:XBT": "yes",
                "name": "Avvocato Lorenzo Reggianini",
                "office": "lawyer",
                "website": "https://tognireggianini.it/"
            }
        },
        {
            "type": "node",
            "id": 11540666657,
            "lat": 44.3196504,
            "lon": 11.7992835,
            "timestamp": "2024-01-22T18:36:13Z",
            "version": 1,
            "changeset": 146565122,
            "user": "Rockedf",
            "uid": 7522075,
            "tags": {
                "addr:city": "Castel Bolognese",
                "addr:housenumber": "59",
                "addr:postcode": "48014",
                "addr:street": "Via Emilia Interna",
                "addr:unit": "61",
                "check_date": "2024-01-22",
                "contact:email": "info@doctoramen.it",
                "currency:XBT": "yes",
                "name": "Doctoramen",
                "office": "graphic_design",
                "payment:lightning": "yes",
                "payment:lightning_contactless": "no",
                "payment:onchain": "yes",
                "phone": "+39 32 8448 2538",
                "website": "https://www.doctoramen.it/"
            }
        },
        {
            "type": "node",
            "id": 11549468353,
            "lat": 44.4929566,
            "lon": 11.3404575,
            "timestamp": "2024-10-28T20:53:00Z",
            "version": 3,
            "changeset": 158473913,
            "user": "mpbin",
            "uid": 21850090,
            "tags": {
                "addr:city": "Bologna",
                "addr:housenumber": "5",
                "addr:postcode": "40123",
                "addr:street": "Piazza Galileo Galilei",
                "check_date": "2024-10-28",
                "check_date:currency:XBT": "2024-10-28",
                "currency:XBT": "yes",
                "email": "santoroalessandro22@gmail.com",
                "name": "Studio Legale Santoro",
                "office": "lawyer",
                "opening_hours": "24/7",
                "payment:cash": "yes",
                "payment:cryptocurrencies": "yes",
                "payment:lightning": "yes",
                "payment:lightning_contactless": "yes",
                "phone": "+39 051 6215920",
                "survey:date": "2024-01-25"
            }
        },
        {
            "type": "node",
            "id": 11665770786,
            "lat": 44.3361454,
            "lon": 11.4042206,
            "timestamp": "2024-03-29T21:58:21Z",
            "version": 6,
            "changeset": 149331897,
            "user": "pajero982",
            "uid": 638396,
            "tags": {
                "addr:city": "Monterenzio",
                "addr:housenumber": "159",
                "addr:postcode": "40050",
                "addr:street": "Via Idice",
                "check_date": "2024-02-26",
                "currency:EUR": "yes",
                "currency:XBT": "yes",
                "name": "Autofficina Monterenzio Snc",
                "opening_hours": "Mo-Fr 08:00-18:00",
                "operator": "Autoriparazioni Gommista Elettrauto",
                "payment:apple_pay": "yes",
                "payment:cash": "yes",
                "payment:contactless": "yes",
                "payment:credit_cards": "yes",
                "payment:cryptocurrencies": "yes",
                "payment:debit_cards": "yes",
                "payment:google_pay": "yes",
                "payment:maestro": "yes",
                "payment:mastercard": "yes",
                "payment:notes": "yes",
                "payment:paypal": "yes",
                "payment:visa": "yes",
                "phone": "+39051929155",
                "service:vehicle:air_conditioning": "yes",
                "service:vehicle:alignment": "yes",
                "service:vehicle:batteries": "yes",
                "service:vehicle:brakes": "yes",
                "service:vehicle:car_parts": "yes",
                "service:vehicle:car_repair": "yes",
                "service:vehicle:diagnostics": "yes",
                "service:vehicle:electrical": "yes",
                "service:vehicle:glass": "yes",
                "service:vehicle:inspection": "yes",
                "service:vehicle:muffler": "yes",
                "service:vehicle:oil_change": "yes",
                "service:vehicle:transmission": "yes",
                "service:vehicle:tyres": "yes",
                "shop": "car_repair"
            }
        },
        {
            "type": "node",
            "id": 11676656636,
            "lat": 44.4962949,
            "lon": 11.3388182,
            "timestamp": "2025-09-18T21:58:35Z",
            "version": 4,
            "changeset": 172134570,
            "user": "Plaintelive",
            "uid": 11644547,
            "tags": {
                "addr:city": "Bologna",
                "addr:housenumber": "4",
                "addr:postcode": "40121",
                "addr:street": "Via Belvedere",
                "addr:unit": "a",
                "amenity": "bar",
                "check_date": "2025-02-14",
                "check_date:currency:XBT": "2025-02-14",
                "currency:XBT": "yes",
                "email": "pastis.belvedere@gmail.com",
                "name": "Pastis Cuv\u00e8e",
                "payment:lightning": "yes",
                "payment:lightning_contactless": "no",
                "payment:onchain": "no"
            }
        },
        {
            "type": "node",
            "id": 11900935588,
            "lat": 44.7780622,
            "lon": 10.8635467,
            "timestamp": "2025-01-02T22:30:12Z",
            "version": 3,
            "changeset": 160928491,
            "user": "mpbin",
            "uid": 21850090,
            "tags": {
                "addr:city": "Carpi",
                "addr:housenumber": "22",
                "addr:postcode": "41012",
                "addr:street": "Via Dell'Integrazione",
                "brand": "Trony",
                "brand:wikidata": "Q3999692",
                "name": "Trony",
                "operator": "Trony",
                "shop": "electronics",
                "wheelchair": "yes"
            }
        },
        {
            "type": "node",
            "id": 11919563705,
            "lat": 44.2149974,
            "lon": 10.9006228,
            "timestamp": "2024-05-20T14:01:40Z",
            "version": 4,
            "changeset": 151582283,
            "user": "Benjamin De Lorenzo Gardinal",
            "uid": 21543332,
            "tags": {
                "addr:city": "Montese",
                "addr:housenumber": "500",
                "addr:postcode": "41055",
                "addr:street": "Via Ronchidoso",
                "currency:EUR": "yes",
                "currency:USD": "yes",
                "currency:XBT": "yes",
                "email": "info@xoobit.com",
                "image": "https://www.xoobit.com/themes/xoobit/frontend/images/ico.png",
                "name": "Xoobit - Sviluppo web",
                "office": "it",
                "opening_hours": "24/7",
                "payment:lightning": "no",
                "payment:lightning_contactless": "no",
                "payment:onchain": "yes",
                "phone": "+393476815600",
                "start_date": "2018-03-01",
                "survey:date": "2024-05-20",
                "website": "https://www.xoobit.com/"
            }
        },
        {
            "type": "node",
            "id": 11925847081,
            "lat": 44.8449059,
            "lon": 11.6482092,
            "timestamp": "2024-06-11T19:13:47Z",
            "version": 3,
            "changeset": 152558252,
            "user": "Rockedf",
            "uid": 7522075,
            "tags": {
                "addr:city": "Ferrara",
                "addr:housenumber": "132",
                "addr:postcode": "44123",
                "addr:street": "Via Copparo",
                "amenity": "atm",
                "cash_in": "yes",
                "cash_out": "yes",
                "cash_withdrawal": "yes",
                "check_date": "2024-05-22",
                "contact:email": "support@shitcoins.club",
                "contact:facebook": "https://www.facebook.com/shitcoins.club",
                "contact:instagram": "https://www.instagram.com/shitcoinsclub",
                "contact:telegram": "https://t.me/shitcoinsclub",
                "contact:twitter": "https://twitter.com/BitomatCom",
                "currency:CHF": "yes",
                "currency:DASH": "yes",
                "currency:ETH": "yes",
                "currency:EUR": "yes",
                "currency:GBP": "yes",
                "currency:HUF": "yes",
                "currency:LTC": "yes",
                "currency:RON": "yes",
                "currency:USD": "yes",
                "currency:USDC": "yes",
                "currency:USDT": "yes",
                "currency:XBT": "yes",
                "indoor": "yes",
                "name": "Bitcoin ATM - Shitcoins.club",
                "opening_hours": "Mo-Sa 08:30-21:00; Su 09:00-20:00",
                "operator": "Shitcoins.club",
                "payment:cash": "yes",
                "payment:lightning": "no",
                "payment:lightning_contactless": "no",
                "payment:onchain": "yes",
                "phone": "+39 34 8048 7308",
                "website": "https://shitcoins.club/localizzazione-atm/atm-bitcoin-ferrara-le-mura-centro-commerciale"
            }
        },
        {
            "type": "node",
            "id": 11946024691,
            "lat": 44.4913442,
            "lon": 11.3472116,
            "timestamp": "2025-08-27T20:43:50Z",
            "version": 2,
            "changeset": 171103994,
            "user": "Comino",
            "uid": 6794624,
            "tags": {
                "addr:city": "Bologna",
                "addr:housenumber": "25",
                "addr:postcode": "40124",
                "addr:street": "Via Luigi Carlo Farini",
                "check_date": "2024-05-30",
                "contact:email": "caterina.marmocchi@gmail.com",
                "currency:XBT": "yes",
                "name": "Avv Caterina Marmocchi",
                "office": "lawyer",
                "payment:lightning": "yes",
                "payment:lightning_contactless": "no",
                "payment:onchain": "yes",
                "phone": "+39 34 9288 6313"
            }
        },
        {
            "type": "node",
            "id": 11947970330,
            "lat": 44.8900087,
            "lon": 11.0548275,
            "timestamp": "2024-06-19T02:36:16Z",
            "version": 2,
            "changeset": 152871589,
            "user": "Rockedf",
            "uid": 7522075,
            "tags": {
                "addr:city": "Mirandola",
                "addr:housenumber": "37-3",
                "addr:postcode": "41037",
                "addr:street": "Via G. Agnini",
                "amenity": "atm",
                "cash_in": "yes",
                "cash_out": "yes",
                "cash_withdrawal": "yes",
                "check_date": "2024-05-31",
                "contact:email": "support@shitcoins.club",
                "contact:facebook": "https://www.facebook.com/shitcoins.club",
                "contact:instagram": "https://www.instagram.com/shitcoinsclub",
                "contact:telegram": "https://t.me/shitcoinsclub",
                "contact:twitter": "https://twitter.com/BitomatCom",
                "currency:CHF": "yes",
                "currency:DASH": "yes",
                "currency:ETH": "yes",
                "currency:EUR": "yes",
                "currency:GBP": "yes",
                "currency:HUF": "yes",
                "currency:LTC": "yes",
                "currency:RON": "yes",
                "currency:USD": "yes",
                "currency:USDC": "yes",
                "currency:USDT": "yes",
                "currency:XBT": "yes",
                "indoor": "yes",
                "name": "Bitcoin ATM - Shitcoins.club",
                "opening_hours": "Mo-Sa 08:30-20:30; Su 09:00-20:00",
                "operator": "Shitcoins.club",
                "payment:cash": "yes",
                "payment:lightning": "no",
                "payment:lightning_contactless": "no",
                "payment:onchain": "yes",
                "phone": "+39 34 8048 7308",
                "website": "https://shitcoins.club/localizzazione-atm/bancomat-bitcoin-Mirandola"
            }
        },
        {
            "type": "node",
            "id": 12007335643,
            "lat": 44.5590504,
            "lon": 11.3229149,
            "timestamp": "2024-10-15T08:02:12Z",
            "version": 2,
            "changeset": 157908605,
            "user": "mpbin",
            "uid": 21850090,
            "tags": {
                "addr:city": "Castel Maggiore",
                "addr:housenumber": "215",
                "addr:postcode": "40013",
                "addr:street": "Via Lame",
                "amenity": "music_school",
                "check_date": "2024-10-15",
                "check_date:currency:XBT": "2024-10-15",
                "contact:email": "info@musicstation.top",
                "contact:facebook": "https://www.facebook.com/musicstation.top/",
                "currency:XBT": "yes",
                "name": "Music Station",
                "opening_hours": "Mo-Fr 09:30-00:00",
                "payment:lightning": "yes",
                "payment:lightning_contactless": "yes",
                "payment:onchain": "yes",
                "phone": "+39 05 1632 5826",
                "website": "https://www.musicstation.top/"
            }
        },
        {
            "type": "node",
            "id": 12092237702,
            "lat": 44.4842843,
            "lon": 11.0221059,
            "timestamp": "2024-11-03T20:24:03Z",
            "version": 4,
            "changeset": 158715880,
            "user": "mpbin",
            "uid": 21850090,
            "tags": {
                "addr:city": "Vignola",
                "addr:housenumber": "5",
                "addr:postcode": "41058",
                "addr:street": "Via Livello",
                "amenity": "restaurant",
                "check_date": "2024-11-03",
                "check_date:currency:XBT": "2024-11-03",
                "contact:facebook": "https://www.facebook.com/p/Il-Gatto-Nero-100042247496245/",
                "currency:XBT": "yes",
                "email": "adriraika@libero.it",
                "name": "I Gatti Neri",
                "phone:mobile": "+39 389 917 1476"
            }
        },
        {
            "type": "node",
            "id": 12120060972,
            "lat": 44.6360071,
            "lon": 10.9503807,
            "timestamp": "2025-01-01T20:08:10Z",
            "version": 4,
            "changeset": 160883672,
            "user": "mpbin",
            "uid": 21850090,
            "tags": {
                "addr:city": "Modena",
                "addr:housenumber": "750",
                "addr:postcode": "41125",
                "addr:street": "Via Emilia Est",
                "brand": "Unieuro",
                "brand:wikidata": "Q4004687",
                "name": "Unieuro",
                "opening_hours": "Mo-Sa 09:00-19:30; Su 10:00-13:00, 15:00-19:30",
                "operator": "Unieuro S.p.A.",
                "payment:cash": "yes",
                "payment:debit_cards": "yes",
                "phone": "+39059365818",
                "shop": "electronics",
                "website": "https://www.unieuro.it/",
                "wheelchair": "yes"
            }
        },
        {
            "type": "node",
            "id": 12168280526,
            "lat": 44.2100373,
            "lon": 11.490843,
            "timestamp": "2024-10-08T19:06:23Z",
            "version": 2,
            "changeset": 157642260,
            "user": "mpbin",
            "uid": 21850090,
            "tags": {
                "addr:city": "Castel del Rio",
                "addr:housenumber": "1229",
                "addr:postcode": "40022",
                "addr:street": "Via della Casaccia",
                "check_date": "2024-10-08",
                "check_date:currency:XBT": "2024-10-08",
                "contact:telegram": "https://t.me/VincoCdR",
                "currency:XBT": "yes",
                "description": "Appartamento ammobiliato ad uso turistico",
                "email": "leobetta.vinco@gmail.com",
                "name": "Vinco",
                "payment:lightning": "yes",
                "phone": "+39 349 368 0615",
                "tourism": "apartment",
                "website": "http://vinco.altervista.org/"
            }
        },
        {
            "type": "node",
            "id": 12409497843,
            "lat": 44.4973065,
            "lon": 11.4263143,
            "timestamp": "2024-12-10T14:22:05Z",
            "version": 1,
            "changeset": 160131507,
            "user": "quibitcoin",
            "uid": 2201521,
            "tags": {
                "addr:city": "Castenaso",
                "addr:housenumber": "197",
                "addr:postcode": "40055",
                "addr:street": "Via Bruno Tosarelli",
                "craft": "hvac",
                "currency:XBT": "yes",
                "description": "Installazione e riparazione sistemi tecnologici, impianti idrici, riscaldamento e raffrescamento.",
                "email": "idroclimatica@hotmail.com",
                "name": "IDROCLIMATICA di Arcangelo Ciottariello",
                "phone": "+39 3397882638"
            }
        },
        {
            "type": "node",
            "id": 12687606433,
            "lat": 44.5181428,
            "lon": 11.341917,
            "timestamp": "2025-04-02T13:32:34Z",
            "version": 2,
            "changeset": 164421795,
            "user": "quibitcoin",
            "uid": 2201521,
            "tags": {
                "addr:city": "Bologna",
                "addr:housenumber": "2",
                "addr:postcode": "40129",
                "addr:street": "Via dell'Arcoveggio",
                "currency:XBT": "yes",
                "name": "Fisioterapia a domicilio",
                "office": "therapist",
                "phone": "+39 3299699161"
            }
        },
        {
            "type": "node",
            "id": 13151602852,
            "lat": 44.1194654,
            "lon": 11.3787814,
            "timestamp": "2025-09-17T22:21:03Z",
            "version": 3,
            "changeset": 172087256,
            "user": "Comino",
            "uid": 6794624,
            "tags": {
                "addr:city": "Firenzuola",
                "addr:housenumber": "72",
                "addr:postcode": "50033",
                "addr:street": "Via Giovanni Villani",
                "amenity": "restaurant",
                "check_date": "2025-09-17",
                "check_date:currency:XBT": "2025-09-17",
                "cuisine": "pizza",
                "currency:XBT": "yes",
                "name": "Rapizza",
                "opening_hours": "Mo-Sa 11:00-14:30, 17:00-22:30; Tu off; Su 17:00-22:30",
                "payment:lightning": "yes",
                "payment:lightning_contactless": "no",
                "payment:onchain": "yes",
                "phone": "+39 331 982 1366"
            }
        },
        {
            "type": "way",
            "id": 32340192,
            "timestamp": "2010-08-15T10:20:13Z",
            "version": 2,
            "changeset": 5497941,
            "user": "alpert",
            "uid": 49045,
            "nodes": [
                364066436,
                364066437,
                364066438,
                364066439,
                364066440,
                364066436
            ],
            "tags": {
                "building": "yes",
                "operator": "Conad",
                "shop": "supermarket"
            }
        },
        {
            "type": "way",
            "id": 149242642,
            "timestamp": "2022-02-21T19:48:36Z",
            "version": 3,
            "changeset": 117698638,
            "user": "LvdT",
            "uid": 1834719,
            "nodes": [
                1622443181,
                9525377637,
                9525377636,
                1622447797,
                1622446722,
                1622442338,
                9525377634,
                9525377635,
                1622443181
            ],
            "tags": {
                "addr:city": "Sassuolo",
                "addr:country": "IT",
                "addr:housenumber": "16",
                "addr:street": "Via Bologna",
                "brand": "Conad",
                "brand:wikidata": "Q639075",
                "brand:wikipedia": "it:Conad",
                "building": "yes",
                "name": "Conad",
                "operator": "CONAD Soc. Coop.",
                "shop": "supermarket",
                "source": "Regione Emilia Romagna"
            }
        },
        {
            "type": "way",
            "id": 150412155,
            "timestamp": "2025-03-30T10:09:36Z",
            "version": 8,
            "changeset": 164280430,
            "user": "Cybermanx",
            "uid": 22604600,
            "nodes": [
                1633312354,
                1633312368,
                1633312410,
                1633312594,
                1633312657,
                1633312932,
                1633312870,
                1633312795,
                1633312764,
                1633312609,
                1633312638,
                1633312644,
                1633312628,
                1633312529,
                1633312535,
                1633312542,
                1633312592,
                1633312636,
                1633312575,
                1633312568,
                1633312328,
                1633312325,
                1633312297,
                1633312295,
                1633312316,
                1633312298,
                1633312429,
                1633312421,
                1633312330,
                1633312322,
                1633312256,
                1633312266,
                1633312258,
                1633312268,
                1633312270,
                1633312320,
                5951674935,
                1633312354
            ],
            "tags": {
                "brand": "Conad",
                "brand:wikidata": "Q639075",
                "brand:wikipedia": "it:Conad",
                "building": "retail",
                "building:part": "yes",
                "email": "BolognaEstPvViaEmiliaLevante_E211263B@di-net.it",
                "name": "Conad",
                "opening_hours": "Mo-Sa 08:00-21:00; Su 09:00-20:30",
                "operator": "Conad",
                "payment:bancomat": "yes",
                "payment:cash": "yes",
                "payment:credit_cards": "yes",
                "phone": "+39 051 540300",
                "shop": "supermarket",
                "website": "https://www.conad.it/ricerca-negozi/negozio.000313.html"
            }
        },
        {
            "type": "way",
            "id": 151931064,
            "timestamp": "2025-08-25T14:41:49Z",
            "version": 5,
            "changeset": 170981048,
            "user": "Paolo mappeR",
            "uid": 552608,
            "nodes": [
                1647692652,
                1647692687,
                1647692692,
                1647692737,
                1647692744,
                1647692865,
                1647692696,
                1647692668,
                1647692663,
                1647692641,
                1647692515,
                1647692652
            ],
            "tags": {
                "addr:city": "Faenza",
                "addr:housenumber": "1",
                "addr:postcode": "48018",
                "addr:street": "Via Lamberto Caffarelli",
                "branch": "Arena",
                "brand": "Conad",
                "brand:wikidata": "Q639075",
                "brand:wikipedia": "it:Conad",
                "building": "yes",
                "check_date": "2025-03-31",
                "name": "Conad Arena",
                "operator": "Conad",
                "shop": "supermarket",
                "source": "Regione Emilia Romagna"
            }
        },
        {
            "type": "way",
            "id": 167125618,
            "timestamp": "2024-02-09T12:34:53Z",
            "version": 4,
            "changeset": 147255111,
            "user": "ivanbranco",
            "uid": 11220113,
            "nodes": [
                1785115970,
                1785116397,
                1785115244,
                1785114609,
                4736464882,
                1785115970
            ],
            "tags": {
                "addr:city": "Modena",
                "addr:country": "IT",
                "addr:housenumber": "60",
                "addr:postcode": "41100",
                "addr:street": "Via Ludwig Van Beethoven",
                "brand": "Conad",
                "brand:wikidata": "Q639075",
                "building": "industrial",
                "name": "Conad",
                "opening_hours": "Mo-Sa 07:30-19:30; Su 8:30 - 12:30",
                "operator": "Conad",
                "shop": "supermarket",
                "source": "Regione Emilia Romagna",
                "website": "https://www.conad.it/",
                "wheelchair": "limited"
            }
        },
        {
            "type": "way",
            "id": 168537031,
            "timestamp": "2023-06-03T17:05:20Z",
            "version": 2,
            "changeset": 136909608,
            "user": "LvdT",
            "uid": 1834719,
            "nodes": [
                1797864186,
                1797864586,
                1797864422,
                1797864005,
                1797864186
            ],
            "tags": {
                "addr:city": "Casalgrande",
                "addr:country": "IT",
                "addr:housenumber": "29",
                "addr:street": "Via Canale",
                "brand": "Conad",
                "brand:wikidata": "Q639075",
                "brand:wikipedia": "it:Conad",
                "building": "industrial",
                "name": "Conad",
                "operator": "CONAD Soc. Coop.",
                "shop": "supermarket",
                "source": "Regione Emilia Romagna"
            }
        },
        {
            "type": "way",
            "id": 184750835,
            "timestamp": "2023-11-17T15:34:03Z",
            "version": 4,
            "changeset": 144144164,
            "user": "gabriele_sani",
            "uid": 7078274,
            "nodes": [
                1952665034,
                1952665036,
                1952665042,
                1952665044,
                1952665049,
                1952665053,
                1952665059,
                1952665057,
                1952665061,
                1952665066,
                1952665064,
                1952665051,
                1952665040,
                1952665007,
                1952665008,
                1952664999,
                1952665001,
                1952664993,
                1990977778,
                1952664997,
                1952665005,
                1952665009,
                1952665014,
                1952665011,
                1952665013,
                1952665017,
                1952665037,
                1952665034
            ],
            "tags": {
                "addr:housenumber": "28",
                "addr:street": "Via della Costituzione",
                "building": "retail",
                "email": "info@centrolafilanda.it",
                "fax": "+39 0546 699428",
                "name": "Shopping Center La Filanda",
                "opening_hours": "Mo-Sa 07:30-20:30; Su 08:30-13:00",
                "operator": "Conad",
                "phone": "+39 0546 25437",
                "shop": "mall",
                "website": "https://www.centrolafilanda.it/"
            }
        },
        {
            "type": "way",
            "id": 220734350,
            "timestamp": "2025-02-27T17:36:06Z",
            "version": 3,
            "changeset": 163022324,
            "user": "Stefano Manfredini",
            "uid": 5721717,
            "nodes": [
                2298264868,
                2298264869,
                2298264870,
                9646876463,
                9646876462,
                9646876461,
                9646876460,
                9646876464,
                2298264871,
                2298264868
            ],
            "tags": {
                "addr:street": "Via Zenzalose",
                "branch": "Montale",
                "brand": "Conad",
                "brand:wikidata": "Q639075",
                "building": "yes",
                "name": "Conad",
                "operator": "Conad",
                "shop": "supermarket"
            }
        },
        {
            "type": "way",
            "id": 416724522,
            "timestamp": "2025-05-20T08:02:28Z",
            "version": 8,
            "changeset": 166510658,
            "user": "Tatti Barletta",
            "uid": 6693292,
            "nodes": [
                10099249315,
                4174394658,
                4174394648,
                4174394643,
                4174394637,
                4174394638,
                4174394635,
                4174394634,
                4174394633,
                4174394626,
                4174394632,
                4174394630,
                1978269296,
                10099249316,
                10099249313,
                10099249314,
                10099249315
            ],
            "tags": {
                "addr:city": "Modena",
                "addr:housenumber": "500",
                "addr:postcode": "41126",
                "addr:street": "Strada Morane",
                "brand": "Conad",
                "brand:wikidata": "Q639075",
                "brand:wikipedia": "it:Conad",
                "check_date": "2025-05-19",
                "email": "Boxmo@nordiconad.it",
                "indoor": "room",
                "level": "0",
                "name": "Conad",
                "opening_hours": "Mo-Su 08:30-20:00",
                "operator": "Conad",
                "payment:bancomat": "yes",
                "payment:cash": "yes",
                "payment:credit_cards": "yes",
                "phone": "+39 059 448111",
                "shop": "supermarket",
                "website": "https://www.conad.it/ricerca-negozi/negozio.003417.html"
            }
        },
        {
            "type": "way",
            "id": 456605064,
            "timestamp": "2016-11-29T15:21:01Z",
            "version": 1,
            "changeset": 44036733,
            "user": "marco_MTB",
            "uid": 3510338,
            "nodes": [
                4528575881,
                4528575882,
                4528575883,
                4528575884,
                4528575881
            ],
            "tags": {
                "building": "yes",
                "operator": "Conad",
                "shop": "mall"
            }
        },
        {
            "type": "way",
            "id": 507945369,
            "timestamp": "2025-08-18T21:53:15Z",
            "version": 16,
            "changeset": 170641678,
            "user": "Danysan95",
            "uid": 4425563,
            "nodes": [
                4973542667,
                4973542668,
                4973542669,
                4978730194,
                4973542667
            ],
            "tags": {
                "addr:city": "Imola",
                "addr:housenumber": "5c",
                "addr:postcode": "40026",
                "addr:street": "Via Montericco",
                "brand": "Conad Superstore",
                "brand:wikidata": "Q118129616",
                "brand:wikipedia": "it:Conad",
                "building": "retail",
                "building:levels": "1",
                "check_date": "2025-01-16",
                "email": "Montericco_E211102B@di-net.it",
                "name": "Conad Superstore",
                "opening_hours": "Mo-Sa 08:30-20:00; Su 09:00-20:00",
                "operator": "Conad",
                "payment:bancomat": "yes",
                "payment:cash": "yes",
                "payment:credit_cards": "yes",
                "phone": "+39 0542 44554",
                "shop": "supermarket",
                "source": "ds4273",
                "website": "https://www.conad.it/ricerca-negozi/negozio.009424.html",
                "wheelchair": "yes"
            }
        },
        {
            "type": "way",
            "id": 554472890,
            "timestamp": "2020-05-11T13:45:28Z",
            "version": 3,
            "changeset": 85028965,
            "user": "mascalzone67",
            "uid": 1861652,
            "nodes": [
                5350859475,
                5350859476,
                5350859477,
                5350859478,
                5350859475
            ],
            "tags": {
                "addr:city": "Formigine",
                "addr:housenumber": "19",
                "addr:postcode": "41043",
                "addr:street": "Via Claudio Treves",
                "brand": "Conad",
                "brand:wikidata": "Q639075",
                "brand:wikipedia": "it:Conad",
                "building": "retail",
                "email": "FontanaSrlPvViaTreves_E211081B@di-net.it",
                "name": "Conad",
                "opening_hours": "Mo-Sa 07:30-20:30; Su 09:00-13:00",
                "operator": "Conad",
                "payment:bancomat": "yes",
                "payment:cash": "yes",
                "payment:credit_cards": "yes",
                "phone": "+39 059 5750631",
                "shop": "supermarket",
                "website": "https://www.conad.it/ricerca-negozi/negozio.009392.html"
            }
        },
        {
            "type": "way",
            "id": 623944291,
            "timestamp": "2025-09-03T15:52:30Z",
            "version": 8,
            "changeset": 171414359,
            "user": "Stefano Manfredini",
            "uid": 5721717,
            "nodes": [
                5891725943,
                5891725944,
                5891725946,
                5891747770,
                10730962250,
                5891725947,
                5891725943
            ],
            "tags": {
                "addr:city": "Modena",
                "addr:housenumber": "537",
                "addr:postcode": "41121",
                "addr:street": "Via Nonantolana",
                "brand": "Spar",
                "brand:wikidata": "Q610492",
                "building": "retail",
                "name": "Eurospar",
                "operator": "Despar",
                "phone": "+39 059 250344",
                "shop": "supermarket",
                "website": "https://www.despar.it/",
                "wheelchair": "yes"
            }
        },
        {
            "type": "way",
            "id": 665882922,
            "timestamp": "2025-03-30T09:48:50Z",
            "version": 6,
            "changeset": 164279766,
            "user": "Cybermanx",
            "uid": 22604600,
            "nodes": [
                6233292703,
                6233292702,
                6233292709,
                6233292710,
                11053885587,
                6233292704,
                11053885579,
                6233292703
            ],
            "tags": {
                "brand": "Spar",
                "brand:wikidata": "Q610492",
                "brand:wikipedia": "en:Spar (retailer)",
                "building": "retail",
                "name": "Eurospar",
                "operator": "Despar",
                "payment:cash": "yes",
                "payment:credit_cards": "yes",
                "payment:debit_cards": "yes",
                "payment:mastercard": "yes",
                "payment:visa": "yes",
                "shop": "supermarket",
                "wheelchair": "yes"
            }
        },
        {
            "type": "way",
            "id": 813473387,
            "timestamp": "2024-12-03T20:27:07Z",
            "version": 3,
            "changeset": 159895867,
            "user": "mpbin",
            "uid": 21850090,
            "nodes": [
                7598692490,
                7598692491,
                7598692492,
                7598692493,
                7598692490
            ],
            "tags": {
                "brand": "Trony",
                "brand:wikidata": "Q3999692",
                "brand:wikipedia": "it:Trony",
                "building": "retail",
                "name": "Trony",
                "operator": "Trony",
                "shop": "electronics"
            }
        },
        {
            "type": "way",
            "id": 849257441,
            "timestamp": "2020-09-19T14:42:55Z",
            "version": 1,
            "changeset": 91152192,
            "user": "stefano93",
            "uid": 11617002,
            "nodes": [
                7923378927,
                7923378928,
                7923378929,
                7923378930,
                7923378927
            ],
            "tags": {
                "addr:city": "Maranello",
                "addr:housenumber": "2",
                "addr:postcode": "41053",
                "addr:street": "Piazza Unit\u00e0 D'italia",
                "brand": "Conad",
                "brand:wikidata": "Q639075",
                "brand:wikipedia": "it:Conad",
                "building": "yes",
                "name": "Conad",
                "opening_hours": "Mo-Sa 07:00-20:00",
                "operator": "Conad",
                "shop": "supermarket"
            }
        },
        {
            "type": "way",
            "id": 1103664763,
            "timestamp": "2025-05-20T08:02:28Z",
            "version": 3,
            "changeset": 166510658,
            "user": "Tatti Barletta",
            "uid": 6693292,
            "nodes": [
                4965712896,
                10099249315,
                10099249314,
                10099249313,
                4965712896
            ],
            "tags": {
                "addr:city": "Modena",
                "addr:housenumber": "500",
                "addr:postcode": "41126",
                "addr:street": "Strada Morane",
                "amenity": "pharmacy",
                "check_date": "2025-05-19",
                "dispensing": "no",
                "healthcare": "pharmacy",
                "indoor": "yes",
                "level": "0",
                "name": "ConCura - Parafarmacia e Ottico",
                "operator": "Conad"
            }
        },
        {
            "type": "way",
            "id": 1105602757,
            "timestamp": "2023-11-14T14:15:00Z",
            "version": 2,
            "changeset": 144012871,
            "user": "LvdT",
            "uid": 1834719,
            "nodes": [
                10117181317,
                1992806254,
                11348654393,
                10117181319,
                10117181320,
                11348654394,
                10117181321,
                10117181322,
                10117181323,
                10117181317
            ],
            "tags": {
                "addr:city": "Pavullo nel Frignano",
                "addr:housenumber": "5",
                "addr:postcode": "41026",
                "addr:street": "Via Giuseppe Minelli",
                "brand": "Conad",
                "brand:wikidata": "Q639075",
                "brand:wikipedia": "it:Conad",
                "building": "commercial",
                "email": "FrialPdvPavullo_E210655B@di-net.it",
                "name": "Conad",
                "opening_hours": "Mo-Sa 08:00-20:00; Su 08:00-13:00",
                "operator": "Conad",
                "payment:bancomat": "yes",
                "payment:cash": "yes",
                "payment:credit_cards": "yes",
                "phone": "+39 0536 20151",
                "shop": "supermarket",
                "website": "https://www.conad.it/ricerca-negozi/negozio.007123.html"
            }
        },
        {
            "type": "relation",
            "id": 2223354,
            "timestamp": "2024-12-27T18:16:06Z",
            "version": 3,
            "changeset": 160687506,
            "user": "Rockedf",
            "uid": 7522075,
            "members": [
                {
                    "type": "way",
                    "ref": 166775357,
                    "role": "outer"
                },
                {
                    "type": "way",
                    "ref": 166775290,
                    "role": "inner"
                }
            ],
            "tags": {
                "addr:city": "Carpi",
                "addr:housenumber": "7",
                "addr:postcode": "41012",
                "addr:street": "Via Santa Chiara",
                "building": "yes",
                "check_date:currency:XBT": "2024-12-27",
                "currency:XBT": "yes",
                "layer": "1",
                "name": "Natural Mystic",
                "payment:lightning": "yes",
                "phone": "059654312",
                "shop": "cannabis",
                "type": "multipolygon",
                "website": "https://www.naturalmystic.it/"
            }
        },
        {
            "type": "relation",
            "id": 2223361,
            "timestamp": "2024-10-25T08:27:33Z",
            "version": 2,
            "changeset": 158326173,
            "user": "parrotoshi",
            "uid": 22107124,
            "members": [
                {
                    "type": "way",
                    "ref": 166775245,
                    "role": "outer"
                },
                {
                    "type": "way",
                    "ref": 166775367,
                    "role": "inner"
                }
            ],
            "tags": {
                "addr:city": "Carpi",
                "addr:housenumber": "28",
                "addr:postcode": "41012",
                "addr:street": "Corso Sandro Cabassi",
                "building": "yes",
                "currency:XBT": "yes",
                "name": "Bisi Gioielli",
                "payment:cash": "yes",
                "payment:credit_cards": "yes",
                "payment:debit_cards": "yes",
                "payment:lightning": "yes",
                "payment:onchain": "yes",
                "phone": "059 686868",
                "shop": "jewelry",
                "type": "multipolygon"
            }
        }
    ],
    "telegram": []
}