{
    "id": "bitcoin-parma",
    "name": "Bitcoin Parma",
    "lng": 44.8005585,
    "lat": 10.3288969,
    "localita": "Parma",
    "idlocalita": "parma",
    "telegram_weburl": "https://web.telegram.org/a/#-1001588009167_1",
    "telegram_app": "https://t.me/BitcoinParma",
    "telegram_members": 29.0,
    "network": "bitcoinbeer",
    "poi": [
        {
            "type": "node",
            "id": 4513679325,
            "lat": 44.6953631,
            "lon": 10.4970745,
            "timestamp": "2024-09-27T13:04:48Z",
            "version": 5,
            "changeset": 157170443,
            "user": "mpbin",
            "uid": 21850090,
            "tags": {
                "addr:city": "Barco",
                "addr:housenumber": "34a",
                "addr:postcode": "42021",
                "addr:street": "Via Nazario Sauro",
                "check_date": "2024-09-27",
                "check_date:currency:XBT": "2024-09-27",
                "currency:XBT": "yes",
                "email": "info@senso-unico.net",
                "name": "Senso Unico snc grafica & Design",
                "office": "graphic_design",
                "phone": "0522372351",
                "website": "https://www.senso-unico.net"
            }
        },
        {
            "type": "node",
            "id": 4525313285,
            "lat": 44.6606931,
            "lon": 10.5891065,
            "timestamp": "2024-01-03T18:57:59Z",
            "version": 4,
            "changeset": 145851439,
            "user": "descubrebitcoin",
            "uid": 17565129,
            "tags": {
                "addr:city": "Reggio nell'Emilia",
                "addr:housenumber": "19/1",
                "addr:postcode": "42123",
                "addr:street": "Via della Repubblica",
                "check_date:currency:XBT": "2024-01-03",
                "currency:XBT": "yes",
                "name": "BS VILLAGE",
                "operator": "BUSINESS SHOP S.r.l.",
                "payment:onchain": "yes",
                "phone": "+39 0522 153 6417",
                "shop": "swimming_pool",
                "website": "https://www.bsvillage.com/"
            }
        },
        {
            "type": "node",
            "id": 4712453648,
            "lat": 44.6418557,
            "lon": 10.9188819,
            "timestamp": "2024-09-23T12:39:57Z",
            "version": 7,
            "changeset": 156993966,
            "user": "mpbin",
            "uid": 21850090,
            "tags": {
                "addr:city": "Modena",
                "addr:country": "IT",
                "addr:housenumber": "50",
                "addr:postcode": "41124",
                "addr:street": "Via Carlo Sigonio",
                "addr:suburb": "San Faustino- Madonnina- Quattro Ville",
                "check_date": "2024-09-20",
                "check_date:currency:XBT": "2024-09-20",
                "contact:facebook": "https://www.facebook.com/profile.php?id=100063804144164",
                "contact:instagram": "https://www.instagram.com/rullo__su_tela_/",
                "craft": "painter",
                "currency:XBT": "yes",
                "description": "Decorativi e Resine",
                "email": "info@rullosutela.it",
                "mobile": "+39 327 6249899",
                "name": "Rullo su tela di Soccio Nicol\u00f2",
                "opening_hours": "Mo-Sa 09:00-20:00",
                "payment:lightning": "yes",
                "payment:onchain": "yes",
                "source": "dati.emilia-romagna.it",
                "website": "https://rullosutela.it/"
            }
        },
        {
            "type": "node",
            "id": 4712458289,
            "lat": 44.6357527,
            "lon": 10.9000216,
            "timestamp": "2022-12-20T13:26:31Z",
            "version": 4,
            "changeset": 130290756,
            "user": "saunter",
            "uid": 10396321,
            "tags": {
                "addr:city": "Modena",
                "addr:country": "IT",
                "addr:housenumber": "11",
                "addr:postcode": "41126",
                "addr:street": "Strada Scaglia Est",
                "addr:suburb": "San Faustino- Madonnina- Quattro Ville",
                "amenity": "restaurant",
                "check_date": "2022-12-20",
                "contact:facebook": "https://www.facebook.com/modenaduerestaurantbar/",
                "currency:XBT": "yes",
                "name": "Modena Due Restaurant & Lounge Bar",
                "payment:onchain": "yes",
                "phone": "+393534024359",
                "source": "dati.emilia-romagna.it"
            }
        },
        {
            "type": "node",
            "id": 4755101621,
            "lat": 44.7742289,
            "lon": 10.3230526,
            "timestamp": "2023-11-21T22:38:33Z",
            "version": 2,
            "changeset": 144305159,
            "user": "Chiarant",
            "uid": 18452174,
            "tags": {
                "addr:city": "Parma",
                "addr:housenumber": "136a",
                "addr:postcode": "43124",
                "addr:street": "Strada Langhirano",
                "check_date": "2023-11-21",
                "contact:facebook": "https://www.facebook.com/people/Tennispro-Parma/100063702842288/",
                "currency:XBT": "yes",
                "email": "tennisproparma@tennispro.it",
                "name": "Tennispro Parma",
                "payment:lightning": "yes",
                "payment:onchain": "yes",
                "phone": "+39 0521 929790",
                "shop": "sports",
                "sport": "tennis;padel",
                "website": "https://www.tennispro.it/"
            }
        },
        {
            "type": "node",
            "id": 4756783299,
            "lat": 44.8610971,
            "lon": 10.0676522,
            "timestamp": "2024-03-14T17:04:28Z",
            "version": 2,
            "changeset": 148652536,
            "user": "Chiarant",
            "uid": 18452174,
            "tags": {
                "addr:city": "Fidenza",
                "addr:housenumber": "3",
                "addr:postcode": "43036",
                "addr:street": "Via Francesco Baracca",
                "check_date": "2024-03-14",
                "contact:facebook": "https://www.facebook.com/p/Dolcepasta-Cavallo-100064162410169/",
                "currency:XBT": "yes",
                "description": "Siamo un laboratorio/vendita di pasta fresca, dolci caserecci e piccola gastronomia.\nTutto esclusivamente di nostra produzione.",
                "name": "DolcePasta Cavallo di Dioni Barbara",
                "payment:lightning": "yes",
                "payment:lightning_contactless": "no",
                "payment:onchain": "no",
                "phone": "+39 347 149 5268",
                "shop": "pasta"
            }
        },
        {
            "type": "node",
            "id": 5742258055,
            "lat": 45.1336971,
            "lon": 10.0232059,
            "timestamp": "2023-06-02T13:31:15Z",
            "version": 4,
            "changeset": 136868712,
            "user": "paulbrunner",
            "uid": 15541433,
            "tags": {
                "addr:city": "Cremona",
                "addr:housenumber": "20",
                "addr:postcode": "26100",
                "addr:street": "Piazza Antonio Stradivari",
                "amenity": "cafe",
                "check_date": "2022-12-20",
                "currency:XBT": "yes",
                "name": "Chocabeck",
                "opening_hours": "Tu-Fr 12:00-15:00,18:00-26:00",
                "operator": "Mama S.r.l.",
                "payment:lightning": "yes",
                "payment:onchain": "yes",
                "phone": "+39037234988",
                "ref:vatin": "IT01572680195",
                "website": "https://chocabeck.net/"
            }
        },
        {
            "type": "node",
            "id": 6185696785,
            "lat": 45.1336065,
            "lon": 10.0227861,
            "timestamp": "2024-03-03T11:08:27Z",
            "version": 3,
            "changeset": 148161072,
            "user": "Chiarant",
            "uid": 18452174,
            "tags": {
                "addr:city": "Cremona",
                "addr:housenumber": "17",
                "addr:postcode": "26100",
                "addr:street": "Piazza Antonio Stradivari",
                "amenity": "bar",
                "check_date": "2024-03-03",
                "currency:XBT": "yes",
                "name": "Di Bianco",
                "payment:lightning": "no",
                "payment:onchain": "yes"
            }
        },
        {
            "type": "node",
            "id": 6475072552,
            "lat": 44.640859,
            "lon": 10.91307,
            "timestamp": "2024-08-20T07:09:07Z",
            "version": 5,
            "changeset": 155493174,
            "user": "mauropili",
            "uid": 1496865,
            "tags": {
                "addr:city": "Modena",
                "addr:housenumber": "219",
                "addr:postcode": "41124",
                "addr:street": "Via Pietro Giardini",
                "check_date:currency:XBT": "2023-02-17",
                "currency:XBT": "yes",
                "description": "Affitto uffici arredati, sale riunioni, spazi condivisi.",
                "email": "info@modenacoworking.it",
                "name": "Modena Coworking",
                "office": "coworking",
                "phone": "+39 3356674607",
                "website": "https://www.modenacoworking.it/"
            }
        },
        {
            "type": "node",
            "id": 6758886855,
            "lat": 44.8432632,
            "lon": 10.0157361,
            "timestamp": "2024-10-11T13:41:06Z",
            "version": 11,
            "changeset": 157757849,
            "user": "Chiarant",
            "uid": 18452174,
            "tags": {
                "addr:city": "Fidenza",
                "addr:housenumber": "32",
                "addr:place": "Ponte Ghiara",
                "addr:postcode": "43036",
                "amenity": "restaurant",
                "check_date": "2024-10-11",
                "contact:email": "info@bar50special.it",
                "contact:facebook": "https://www.facebook.com/bar50special/",
                "cuisine": "pizza;coffee_shop;italian",
                "currency:XBT": "yes",
                "email": "info@bar50special.it",
                "name": "50 Special",
                "opening_hours": "Mo-Su 07:00-01:30",
                "payment:lightning": "yes",
                "payment:lightning_contactless": "yes",
                "payment:onchain": "no",
                "phone": "+39 0524 202364"
            }
        },
        {
            "type": "node",
            "id": 8706247731,
            "lat": 44.6972465,
            "lon": 10.6272017,
            "timestamp": "2024-04-14T19:59:39Z",
            "version": 2,
            "changeset": 150008013,
            "user": "Chiarant",
            "uid": 18452174,
            "tags": {
                "addr:city": "Reggio nell'Emilia",
                "addr:housenumber": "31",
                "addr:postcode": "42121",
                "addr:street": "Corso Giuseppe Garibaldi",
                "addr:unit": "a",
                "amenity": "restaurant",
                "check_date": "2024-04-14",
                "currency:XBT": "yes",
                "name": "Oltre Restaurant",
                "phone": "+39 342 081 0328"
            }
        },
        {
            "type": "node",
            "id": 10661986526,
            "lat": 44.66928,
            "lon": 10.7403141,
            "timestamp": "2023-02-15T14:20:08Z",
            "version": 1,
            "changeset": 132584333,
            "user": "BSN21M",
            "uid": 17441326,
            "tags": {
                "addr:city": "Reggio Emilia",
                "addr:postcode": "42122",
                "addr:street": "Via Romani",
                "check_date:currency:XBT": "2023-02-15",
                "craft": "winery",
                "currency:XBT": "yes",
                "email": "dario_rota@yahoo.com",
                "name": "Cantina Rota",
                "opening_hours": "Mo-Fr 8:00-18:00",
                "payment:lightning": "no",
                "payment:lightning_contactless": "no",
                "payment:onchain": "yes",
                "phone": "+39 0522 340 118",
                "website": "https://cantinarota.com"
            }
        },
        {
            "type": "node",
            "id": 10801651077,
            "lat": 44.7897656,
            "lon": 10.3061159,
            "timestamp": "2023-08-04T07:38:33Z",
            "version": 4,
            "changeset": 139427358,
            "user": "Igor Bubelov",
            "uid": 2104834,
            "tags": {
                "addr:city": "Parma",
                "addr:housenumber": "8",
                "addr:postcode": "43125",
                "addr:street": "Via Carlo Porta",
                "check_date": "2023-04-11",
                "contact:facebook": "https://www.facebook.com/mytrico",
                "currency:XBT": "yes",
                "description": "Studio di Tricopigmentazione & Osteopatia",
                "email": "info@mytrico.it",
                "healthcare": "alternative",
                "healthcare:speciality": "osteopathy",
                "name": "MyTrico Studio",
                "website": "https://www.mytrico.it/"
            }
        },
        {
            "type": "node",
            "id": 10840421518,
            "lat": 44.6299722,
            "lon": 10.6131363,
            "timestamp": "2023-04-25T21:08:00Z",
            "version": 3,
            "changeset": 135360378,
            "user": "Chiarant",
            "uid": 18452174,
            "tags": {
                "addr:city": "Albinea",
                "addr:housenumber": "5",
                "addr:postcode": "42020",
                "addr:street": "Via Grandi",
                "addr:unit": "30",
                "check_date": "2023-04-25",
                "currency:XBT": "yes",
                "description": "Negozio di strumenti armonici: Campane tibetane, diapason, gong, tamburi...",
                "email": "info@tibetstrumentiarmonici.com",
                "name": "Armonie Sonore",
                "phone": "0522598264",
                "ref:vatin": "02540600356",
                "shop": "musical_instrument",
                "website": "https://www.tibetstrumentiarmonici.com/"
            }
        },
        {
            "type": "node",
            "id": 11104778454,
            "lat": 44.8156263,
            "lon": 9.9773502,
            "timestamp": "2024-09-15T06:12:43Z",
            "version": 3,
            "changeset": 156634732,
            "user": "paulbrunner",
            "uid": 15541433,
            "tags": {
                "addr:city": "Salsomaggiore Terme",
                "addr:housenumber": "9",
                "addr:postcode": "43039",
                "addr:street": "Via Loschi",
                "check_date": "2024-09-14",
                "contact:facebook": "https://www.facebook.com/diegopaccini.macelleria.streetfood.catering/",
                "currency:XBT": "yes",
                "email": "info@diegopaccini.it",
                "name": "Macelleria Paccini",
                "payment:lightning": "yes",
                "payment:onchain": "yes",
                "phone": "+39 0524 573219",
                "shop": "butcher",
                "website": "https://diegopaccini.it/",
                "wheelchair": "limited"
            }
        },
        {
            "type": "node",
            "id": 11384696081,
            "lat": 44.7054455,
            "lon": 10.6116509,
            "timestamp": "2024-10-30T19:11:53Z",
            "version": 2,
            "changeset": 158555912,
            "user": "mpbin",
            "uid": 21850090,
            "tags": {
                "addr:city": "Reggio nell'Emilia",
                "addr:housenumber": "17/a",
                "addr:postcode": "42124",
                "addr:street": "Via Fratelli Cervi",
                "amenity": "pub",
                "check_date": "2023-11-29",
                "contact:facebook": "https://www.facebook.com/ghigiuristopub/",
                "cuisine": "burger;pinsa",
                "currency:XBT": "yes",
                "email": "graziano-valentina@hotmail.it",
                "mobile": "+39 348 876 6518",
                "name": "Birreria Ghigiu Risto Pub",
                "payment:lightning": "yes",
                "payment:onchain": "yes",
                "phone": "+39 0522 303884",
                "website": "https://www.ghigiuristopub.it/"
            }
        },
        {
            "type": "node",
            "id": 11693941996,
            "lat": 44.7975679,
            "lon": 10.3312786,
            "timestamp": "2024-06-11T20:21:57Z",
            "version": 3,
            "changeset": 152560566,
            "user": "Rockedf",
            "uid": 7522075,
            "tags": {
                "addr:city": "Parma",
                "addr:housenumber": "65",
                "addr:postcode": "43121",
                "addr:street": "Borgo Felino",
                "amenity": "atm",
                "cash_in": "yes",
                "cash_out": "yes",
                "cash_withdrawal": "yes",
                "contact:email": "support@shitcoins.club",
                "contact:facebook": "https://www.facebook.com/shitcoins.club",
                "contact:instagram": "https://www.instagram.com/shitcoinsclub",
                "contact:telegram": "https://t.me/shitcoinsclub",
                "contact:twitter": "https://twitter.com/BitomatCom",
                "currency:CAD": "yes",
                "currency:CHF": "yes",
                "currency:DASH": "yes",
                "currency:ETH": "yes",
                "currency:EUR": "yes",
                "currency:HUF": "yes",
                "currency:LTC": "yes",
                "currency:RON": "yes",
                "currency:USD": "yes",
                "currency:USDC": "yes",
                "currency:USDT": "yes",
                "currency:XBT": "yes",
                "description": "L'ATM Bitcoin a Parma si trova accanto all'enoteca Bottiglia Azzurra ed \u00e8 aperto 24/7",
                "indoor": "yes",
                "name": "Bitcoin ATM - Shitcoins.club",
                "network": "shitcoins.club",
                "opening_hours": "24/7",
                "operator": "Shitcoins.club",
                "payment:cash": "yes",
                "payment:onchain": "yes",
                "phone": "+39 34 8048 7308",
                "survey:date": "2024-03-04",
                "website": "https://shitcoins.club/localizzazione-atm/atm-bitcoin-parma-borgo-felino"
            }
        },
        {
            "type": "node",
            "id": 11907356017,
            "lat": 45.1588719,
            "lon": 10.1061461,
            "timestamp": "2024-09-14T12:51:59Z",
            "version": 7,
            "changeset": 156611202,
            "user": "Rockedf",
            "uid": 7522075,
            "tags": {
                "addr:city": "Gadesco Pieve Delmona",
                "addr:country": "IT",
                "addr:housenumber": "20",
                "addr:postcode": "26030",
                "addr:street": "Via Sandro Pertini",
                "amenity": "marketplace",
                "check_date:currency:XBT": "2024-09-14",
                "currency:XBT": "yes",
                "name": "Spend Your Sats",
                "payment:lightning": "yes",
                "payment:lightning_contactless": "yes",
                "payment:onchain": "yes",
                "website": "https://www.spendsats.org"
            }
        }
    ],
    "telegram": []
}