{
    "id": "bitcoin-biella",
    "name": "Bitcoin Biella",
    "lng": 45.5614642,
    "lat": 8.0557548,
    "localita": "Biella",
    "telegram_weburl": "https://web.telegram.org/a/#-1001936455956",
    "telegram_app": "https://t.me/bitcoinbiella",
    "telegram_members": 34.0,
    "network": "bitcoinbeer",
    "poi": [
        {
            "type": "node",
            "id": 1472092588,
            "lat": 45.3247592,
            "lon": 8.4221038,
            "timestamp": "2024-07-10T20:42:36Z",
            "version": 18,
            "changeset": 153800330,
            "user": "ivanbranco",
            "uid": 11220113,
            "tags": {
                "check_date": "2024-05-04",
                "clothes": "men",
                "contact:city": "Vercelli",
                "contact:housenumber": "115",
                "contact:postcode": "13100",
                "contact:street": "Corso Libert\u00e0",
                "currency:XBT": "yes",
                "email": "vercelli@doppelganger.it",
                "name": "Doppelg\u00e4nger",
                "opening_hours": "09:00-13:00,15:30-19:30; Th-Sa 09:00-19:30",
                "operator": "International Retail Development s.r.l.",
                "phone": "+39 0161 249050",
                "ref:vatin": "IT10471441005",
                "shop": "clothes"
            }
        },
        {
            "type": "node",
            "id": 2621227929,
            "lat": 45.610388,
            "lon": 8.5223509,
            "timestamp": "2023-11-26T01:14:21Z",
            "version": 6,
            "changeset": 144457836,
            "user": "b-jazz-bot",
            "uid": 9451067,
            "tags": {
                "addr:city": "Suno",
                "addr:country": "IT",
                "addr:housenumber": "21",
                "addr:postcode": "28041",
                "addr:street": "Via Novara",
                "check_date": "2023-07-03",
                "currency:XBT": "yes",
                "description": "Produzione Display a LED",
                "name": "Tech Display Srl",
                "phone": "+39 0322 858688",
                "shop": "electronics",
                "website": "https://techsrl.it/"
            }
        },
        {
            "type": "node",
            "id": 3202700592,
            "lat": 45.5612291,
            "lon": 8.0593489,
            "timestamp": "2024-01-16T12:41:29Z",
            "version": 2,
            "changeset": 146322362,
            "user": "Andrea Musuruane",
            "uid": 90379,
            "tags": {
                "addr:city": "Biella",
                "addr:housenumber": "19b",
                "addr:postcode": "13900",
                "addr:street": "Via Torino",
                "amenity": "pub",
                "check_date": "2024-01-14",
                "contact:facebook": "https://www.facebook.com/Afterglow.Pub.Biella/",
                "currency:XBT": "yes",
                "name": "Afterglow",
                "payment:lightning": "yes",
                "payment:lightning_contactless": "yes",
                "payment:onchain": "yes"
            }
        },
        {
            "type": "node",
            "id": 3202704672,
            "lat": 45.5595519,
            "lon": 8.0522034,
            "timestamp": "2024-01-28T09:16:16Z",
            "version": 4,
            "changeset": 146770557,
            "user": "Igor Bubelov",
            "uid": 2104834,
            "tags": {
                "addr:city": "Biella",
                "addr:housenumber": "2a",
                "addr:postcode": "13900",
                "addr:street": "Via Tancredi Galimberti",
                "check_date": "2023-06-24",
                "currency:XBT": "yes",
                "name": "Ortopedia Pozzato",
                "shop": "medical_supply",
                "website": "https://ortopediapozzato.it/"
            }
        },
        {
            "type": "node",
            "id": 5234612263,
            "lat": 45.5669961,
            "lon": 8.1746731,
            "timestamp": "2024-07-06T08:47:30Z",
            "version": 7,
            "changeset": 153614835,
            "user": "Andrea Musuruane",
            "uid": 90379,
            "tags": {
                "check_date": "2023-06-24",
                "contact:city": "Cossato",
                "contact:housenumber": "1",
                "contact:postcode": "13836",
                "contact:street": "Via Giacomo Matteotti",
                "currency:XBT": "yes",
                "medical_supply": "orthopedic",
                "name": "Ortopedia Pozzato",
                "shop": "medical_supply",
                "website": "https://ortopediapozzato.it/"
            }
        },
        {
            "type": "node",
            "id": 5436083947,
            "lat": 45.5877383,
            "lon": 8.0533195,
            "timestamp": "2024-01-17T00:28:14Z",
            "version": 5,
            "changeset": 146342990,
            "user": "Igor Bubelov",
            "uid": 2104834,
            "tags": {
                "addr:city": "Tollegno",
                "addr:housenumber": "1",
                "addr:postcode": "13818",
                "addr:street": "Via Arrigo Craveia",
                "check_date": "2023-04-26",
                "currency:XBT": "yes",
                "name": "BETTIN PARRUCCHIERI di Bettin Simone",
                "phone": "3883663299",
                "shop": "hairdresser"
            }
        },
        {
            "type": "node",
            "id": 6170203902,
            "lat": 45.5679624,
            "lon": 8.0780618,
            "timestamp": "2023-04-27T10:07:57Z",
            "version": 3,
            "changeset": 135420415,
            "user": "Chiarant",
            "uid": 18452174,
            "tags": {
                "addr:city": "Biella",
                "addr:housenumber": "66bis",
                "addr:postcode": "13900",
                "addr:street": "Via Milano",
                "check_date": "2023-04-27",
                "currency:XBT": "yes",
                "email": "nonsolocalcio@libero.it",
                "name": "Fuorigioco Non Solo Calcio",
                "phone": "+39 015 8409365",
                "shop": "sports",
                "website": "https://www.fuorigiocononsolocalcio.it/"
            }
        },
        {
            "type": "node",
            "id": 6425340685,
            "lat": 45.5795973,
            "lon": 8.2589514,
            "timestamp": "2024-03-12T16:41:09Z",
            "version": 5,
            "changeset": 148558127,
            "user": "Andrea Musuruane",
            "uid": 90379,
            "tags": {
                "addr:city": "Brusnengo",
                "addr:housenumber": "13",
                "addr:postcode": "13862",
                "addr:street": "Via Torino",
                "contact:facebook": "https://www.facebook.com/NuovaNordaffari.Auto.Camper",
                "contact:website": "https://www.nordaffari.com",
                "currency:XBT": "yes",
                "description": "Concessionaria auto, camper, van e rimorchi, vendita e noleggio e montaggio accessori. Campingcar and car sales e rent",
                "email": "nordaffari@nordaffari.com",
                "name": "Nuova Nordaffari srl",
                "opening_hours": "Tu-Fr 09:00-12:30,14:00-18:30; Sa 09:00-12:30",
                "payment:lightning": "yes",
                "payment:lightning_contactless": "no",
                "payment:onchain": "yes",
                "phone": "+39 015 9867755",
                "shop": "caravan",
                "survey:date": "2023-05-15"
            }
        },
        {
            "type": "node",
            "id": 6795519406,
            "lat": 45.5986572,
            "lon": 8.1418177,
            "timestamp": "2024-01-17T09:25:02Z",
            "version": 5,
            "changeset": 146354600,
            "user": "Andrea Musuruane",
            "uid": 90379,
            "tags": {
                "addr:city": "Valle San Nicolao",
                "addr:housenumber": "1",
                "addr:place": "Frazione Cereia",
                "addr:postcode": "13847",
                "check_date": "2023-04-26",
                "craft": "electrician",
                "currency:XBT": "yes",
                "name": "Alberto Parise Impianti Elettrici",
                "phone": "3452743410"
            }
        },
        {
            "type": "node",
            "id": 6993123531,
            "lat": 45.5652378,
            "lon": 8.1674295,
            "timestamp": "2023-11-07T12:46:55Z",
            "version": 5,
            "changeset": 143735703,
            "user": "Chiarant",
            "uid": 18452174,
            "tags": {
                "addr:city": "Quaregna Cerreto",
                "addr:housenumber": "2a",
                "addr:postcode": "13854",
                "addr:street": "Via Guglielmo Marconi",
                "amenity": "cafe",
                "check_date": "2023-10-29",
                "currency:XBT": "yes",
                "name": "Caff\u00e8 della Rotonda",
                "opening_hours": "Mo-Sa 06:00-20:00",
                "payment:lightning": "yes",
                "payment:onchain": "yes"
            }
        },
        {
            "type": "node",
            "id": 7038993536,
            "lat": 45.5735089,
            "lon": 8.1788237,
            "timestamp": "2023-08-26T09:53:09Z",
            "version": 4,
            "changeset": 140404037,
            "user": "Chiarant",
            "uid": 18452174,
            "tags": {
                "addr:city": "Cossato",
                "addr:housenumber": "40",
                "addr:postcode": "13836",
                "addr:street": "Via Giacomo Matteotti",
                "check_date:currency:XBT": "2023-08-26",
                "currency:XBT": "yes",
                "mobile": "+39 329 2554090",
                "name": "WindTRE RV comunicazione",
                "shop": "mobile_phone"
            }
        },
        {
            "type": "node",
            "id": 7039007748,
            "lat": 45.5680788,
            "lon": 8.1797981,
            "timestamp": "2024-02-01T18:05:01Z",
            "version": 5,
            "changeset": 146956808,
            "user": "Andrea Musuruane",
            "uid": 90379,
            "tags": {
                "addr:city": "Cossato",
                "addr:housenumber": "32",
                "addr:postcode": "13836",
                "addr:street": "Via Giuseppe Mazzini",
                "check_date": "2023-06-24",
                "currency:XBT": "yes",
                "name": "Ottica Zonco",
                "shop": "optician",
                "website": "https://www.otticazoncocossato.it"
            }
        },
        {
            "type": "node",
            "id": 7039010555,
            "lat": 45.5760992,
            "lon": 8.1798257,
            "timestamp": "2023-07-25T06:10:47Z",
            "version": 3,
            "changeset": 138969865,
            "user": "paulbrunner",
            "uid": 15541433,
            "tags": {
                "addr:city": "Cossato",
                "addr:housenumber": "79",
                "addr:postcode": "13836",
                "addr:street": "Via Guglielmo Marconi",
                "amenity": "restaurant",
                "check_date": "2023-01-10",
                "cuisine": "pizza",
                "currency:XBT": "yes",
                "name": "Pizzeria da Mike",
                "opening_hours": "Tu-Su 12:00-13:30,18:00-22:30",
                "payment:lightning": "no",
                "payment:lightning_contactless": "no",
                "payment:onchain": "yes",
                "phone": "+39 339 577 6396"
            }
        },
        {
            "type": "node",
            "id": 7039011255,
            "lat": 45.5678468,
            "lon": 8.1785539,
            "timestamp": "2023-07-25T06:10:47Z",
            "version": 3,
            "changeset": 138969865,
            "user": "paulbrunner",
            "uid": 15541433,
            "tags": {
                "addr:city": "Cossato",
                "addr:housenumber": "13",
                "addr:postcode": "13836",
                "addr:street": "Via Giuseppe Mazzini",
                "amenity": "restaurant",
                "check_date": "2022-12-20",
                "contact:facebook": "https://www.facebook.com/ArteBiancaCossato/",
                "cuisine": "pizza",
                "currency:XBT": "yes",
                "name": "Arte Bianca Pizzeria Gourmet",
                "opening_hours": "Tu-Su 17:30-22:00",
                "payment:lightning": "yes",
                "payment:onchain": "yes"
            }
        },
        {
            "type": "node",
            "id": 8071333930,
            "lat": 45.5660752,
            "lon": 8.0829197,
            "timestamp": "2023-12-11T17:49:22Z",
            "version": 8,
            "changeset": 145009049,
            "user": "Andrea Musuruane",
            "uid": 90379,
            "tags": {
                "addr:city": "Biella",
                "addr:housenumber": "82",
                "addr:postcode": "13900",
                "addr:street": "Via Milano",
                "addr:unit": "18",
                "craft": "electrician",
                "currency:XBT": "yes",
                "description": "Impianti elettrici civili ed industriali, soluzioni smart, grandi impianti e richieste speciali, uffici, show-room, domotica e soluzioni per ville e unit\u00e0 luxury.",
                "email": "svelettrotecnica@gmail.com",
                "name": "SV Elettrotecnica di Stefano Vanna",
                "opening_hours": "Mo-Sa 08:00-18:00",
                "opening_hours:covid19": "Mo-Su 08:00-20:00",
                "operator": "Stefano Vanna",
                "payment:lightning": "yes",
                "payment:lightning_contactless": "no",
                "payment:onchain": "yes",
                "phone": "+39 349 1768495",
                "survey:date": "2022-11-09",
                "website": "https://www.svelettrotecnica.it/"
            }
        },
        {
            "type": "node",
            "id": 10788589036,
            "lat": 45.4467945,
            "lon": 8.5998451,
            "timestamp": "2023-08-04T07:20:00Z",
            "version": 3,
            "changeset": 139426639,
            "user": "Igor Bubelov",
            "uid": 2104834,
            "tags": {
                "addr:city": "Novara",
                "addr:housenumber": "7",
                "addr:postcode": "28100",
                "addr:street": "Via Ugo Porzio Giovanola",
                "check_date": "2023-04-05",
                "clothes": "men",
                "currency:XBT": "yes",
                "name": "Nuvolari",
                "payment:lightning": "no",
                "payment:lightning_contactless": "no",
                "payment:onchain": "yes",
                "phone": "03211835619",
                "shop": "clothes",
                "website": "https://www.nuvolari.biz/"
            }
        },
        {
            "type": "node",
            "id": 11113855890,
            "lat": 45.1899449,
            "lon": 7.8895998,
            "timestamp": "2023-11-16T17:19:58Z",
            "version": 4,
            "changeset": 144105369,
            "user": "DA CHOCHO'S",
            "uid": 20074357,
            "tags": {
                "addr:city": "Chivasso",
                "addr:housenumber": "2b",
                "addr:postcode": "10034",
                "addr:street": "Piazza della Repubblica",
                "check_date:currency:XBT": "2023-08-25",
                "clothes": "women",
                "currency:XBT": "yes",
                "name": "AMALO OUTLET",
                "opening_hours": "Mo-Sa 10:00-19:30",
                "payment:cards": "yes",
                "payment:cash": "yes",
                "payment:contactless": "yes",
                "payment:credit_cards": "yes",
                "payment:debit_cards": "yes",
                "payment:mastercard": "yes",
                "payment:notes": "yes",
                "payment:visa": "yes",
                "phone": "+393770808666",
                "shop": "clothes"
            }
        },
        {
            "type": "node",
            "id": 11113880257,
            "lat": 45.1985522,
            "lon": 7.8765691,
            "timestamp": "2024-06-18T08:28:14Z",
            "version": 6,
            "changeset": 152836345,
            "user": "matg83",
            "uid": 17375742,
            "tags": {
                "addr:city": "Chivasso",
                "addr:housenumber": "102",
                "addr:postcode": "10034",
                "addr:street": "Via Monte Grappa",
                "air_conditioning": "yes",
                "currency:XBT": "yes",
                "description": "Da Chocho's offre ai suoi ospiti un tranquillo posto dove poter pernottare",
                "email": "info@dachochos.it",
                "guest_house": "bed_and_breakfast",
                "internet_access": "wlan",
                "internet_access:fee": "no",
                "name": "DA CHOCHO'S",
                "opening_hours": "Mo-Su 08:00-22:00",
                "operator": "Privato",
                "payment:cash": "yes",
                "payment:credit_cards": "yes",
                "payment:lightning": "yes",
                "payment:lightning_contactless": "yes",
                "payment:onchain": "yes",
                "phone": "+39 339 3398222",
                "reservation": "required",
                "smoking": "outside",
                "survey:date": "2023-08-14",
                "tourism": "guest_house",
                "website": "https://www.dachochos.it/"
            }
        },
        {
            "type": "node",
            "id": 11297873411,
            "lat": 45.5696632,
            "lon": 8.18297,
            "timestamp": "2023-10-29T13:38:59Z",
            "version": 1,
            "changeset": 143312766,
            "user": "Chiarant",
            "uid": 18452174,
            "tags": {
                "addr:city": "Cossato",
                "addr:housenumber": "4",
                "addr:postcode": "13836",
                "addr:street": "Piazza Piave",
                "brand": "EuroSpin",
                "brand:wikidata": "Q1374674",
                "check_date": "2023-10-29",
                "currency:XBT": "yes",
                "name": "EuroSpin",
                "shop": "supermarket"
            }
        },
        {
            "type": "node",
            "id": 11299275660,
            "lat": 45.5641542,
            "lon": 8.1491261,
            "timestamp": "2024-07-12T09:23:02Z",
            "version": 3,
            "changeset": 153846640,
            "user": "Andrea Musuruane",
            "uid": 90379,
            "tags": {
                "check_date": "2023-10-29",
                "contact:city": "Quaregna Cerreto",
                "contact:housenumber": "62",
                "contact:postcode": "13854",
                "contact:street": "Via Quintino Sella",
                "craft": "photographic_laboratory",
                "currency:XBT": "yes",
                "email": "customer@myphotomania.com",
                "name": "myPhotomania S.N.C. di Casaliggi Fabrizio e Rinolfi Stefano",
                "phone": "+39 015 0992312",
                "website": "https://myphotomania.com/"
            }
        },
        {
            "type": "node",
            "id": 11753095210,
            "lat": 45.4609447,
            "lon": 7.7709235,
            "timestamp": "2024-03-22T15:04:29Z",
            "version": 2,
            "changeset": 149017925,
            "user": "Giorgio Minguzzi",
            "uid": 21232339,
            "tags": {
                "addr:city": "Alice Superiore, TO",
                "addr:housenumber": "15",
                "addr:postcode": "10010",
                "addr:street": "Via Prov. Valchiusella",
                "amenity": "dentist",
                "currency:XBT": "yes",
                "healthcare": "dentist",
                "healthcare:speciality": "general",
                "name": "Studio Dentistico Valchiusella",
                "opening_hours": "By appointment only.",
                "operator": "Piergiacomo Drappero",
                "payment:lightning": "yes",
                "payment:onchain": "yes",
                "survey:date": "2024-03-22"
            }
        }
    ]
}