{
    "id": "bitcoin-brescia-ss",
    "name": "Bitcoin Brescia & Satoshispritz",
    "lng": 45.53993052,
    "lat": 10.21910323,
    "localita": "Brescia",
    "idlocalita": "brescia",
    "telegram_weburl": "https://web.telegram.org/a/#-1001070935145",
    "telegram_app": "http://telegram.me/joinchat/AMVfUj_VLGlWoZTRMlQw-A",
    "telegram_members": 178.0,
    "network": "satoshispritz",
    "poi": [
        {
            "type": "node",
            "id": 1457569224,
            "lat": 45.6167719,
            "lon": 10.1137122,
            "timestamp": "2024-07-10T19:47:18Z",
            "version": 4,
            "changeset": 153798635,
            "user": "mauropili",
            "uid": 1496865,
            "tags": {
                "addr:city": "Ome",
                "addr:housenumber": "16",
                "addr:postcode": "25050",
                "addr:street": "Via dei Sabbioni",
                "check_date": "2024-02-27",
                "contact:facebook": "https://www.facebook.com/lafontehotelfranciacorta/",
                "contact:instagram": "https://www.instagram.com/lafontehotel/",
                "currency:XBT": "yes",
                "email": "info@lafontehotel.eu",
                "name": "Hotel La Fonte",
                "phone": "+39 030 6527842",
                "tourism": "hotel",
                "website": "https://www.lafontehotelfranciacorta.it/"
            }
        },
        {
            "type": "node",
            "id": 1814218229,
            "lat": 45.5116142,
            "lon": 10.4047716,
            "timestamp": "2024-04-10T14:07:48Z",
            "version": 11,
            "changeset": 149821960,
            "user": "Igor Bubelov",
            "uid": 2104834,
            "tags": {
                "addr:city": "Bedizzole",
                "addr:housenumber": "17/b",
                "addr:postcode": "25081",
                "addr:street": "Via Giuseppe Garibaldi",
                "amenity": "fuel",
                "brand": "Eni",
                "brand:wikidata": "Q565594",
                "check_date": "2024-04-10",
                "currency:XBT": "yes",
                "name": "Distributore Carburanti AGIP",
                "operator": "Pasquato Faustino",
                "payment:bitcoin:operator": "inbitcoin.it",
                "ref:mise": "8064",
                "website": "https://www.facebook.com/distributorepasquato/"
            }
        },
        {
            "type": "node",
            "id": 1862315452,
            "lat": 45.5929125,
            "lon": 10.1523402,
            "timestamp": "2024-09-02T17:45:37Z",
            "version": 8,
            "changeset": 156110386,
            "user": "mpbin",
            "uid": 21850090,
            "tags": {
                "addr:city": "Gussago",
                "addr:housenumber": "4",
                "addr:postcode": "25064",
                "addr:street": "Piazza Vittorio Veneto",
                "amenity": "cafe",
                "check_date": "2022-12-09",
                "currency:XBT": "yes",
                "internet_access": "yes",
                "name": "Caff\u00e8 Danesi",
                "opening_hours": "Mo-We 06:45-21:00; Fr 06:45-23:30; Sa 06:45-12:30,14:00-24:00; Su 08:00-12:30,14:00-22:00",
                "operator": "Caff\u00e8 Danesi S.n.c.",
                "payment:lightning": "yes",
                "payment:onchain": "yes",
                "phone": "+39 030 2520980",
                "website": "https://www.gelateriadanesi.it"
            }
        },
        {
            "type": "node",
            "id": 2389503405,
            "lat": 45.3536264,
            "lon": 9.6636353,
            "timestamp": "2022-11-08T07:54:20Z",
            "version": 2,
            "changeset": 128627733,
            "user": "BSN21M",
            "uid": 17441326,
            "tags": {
                "addr:city": "Crema",
                "addr:postcode": "26013",
                "addr:street": "Via Cappuccini",
                "currency:XBT": "yes",
                "name": "Matilde Parrucchiera",
                "payment:lightning": "no",
                "payment:lightning_contactless": "no",
                "payment:onchain": "yes",
                "phone": "+39 037330293",
                "shop": "hairdresser",
                "survey:date": "2022-11-08",
                "unisex": "yes",
                "website": "https://www.facebook.com/matildeparrucchiera/"
            }
        },
        {
            "type": "node",
            "id": 2897005252,
            "lat": 45.8162101,
            "lon": 10.0740126,
            "timestamp": "2024-04-10T12:07:02Z",
            "version": 7,
            "changeset": 149816752,
            "user": "Igor Bubelov",
            "uid": 2104834,
            "tags": {
                "addr:city": "Lovere",
                "addr:housenumber": "21",
                "addr:postcode": "24065",
                "addr:street": "Vicolo delle Rose",
                "check_date": "2024-04-10",
                "craft": "handicraft",
                "currency:XBT": "yes",
                "name": "Ceramiche Artigianali Rota Michele",
                "opening_hours": "Tu-Sa 09:00-12:00,15:30-19:30",
                "phone": "+39 035 962193",
                "website": "https://ceramicherota.com/"
            }
        },
        {
            "type": "node",
            "id": 3450199481,
            "lat": 45.682301,
            "lon": 9.7891972,
            "timestamp": "2023-07-20T09:21:29Z",
            "version": 7,
            "changeset": 138753929,
            "user": "saunter",
            "uid": 10396321,
            "tags": {
                "addr:city": "San Paolo d'Argon",
                "addr:housenumber": "32",
                "addr:postcode": "24060",
                "addr:street": "Via Bergamo",
                "check_date:currency:XBT": "2023-07-20",
                "currency:XBT": "yes",
                "healthcare": "physiotherapist",
                "name": "Marco Capogrosso",
                "note": "Consulente Benessere - Optionwinner",
                "website": "http://holystica.net/esserebenessere/marco-capogrosso",
                "website_1": "http://twimt.it/index.php?aid=13"
            }
        },
        {
            "type": "node",
            "id": 4243022470,
            "lat": 45.6886754,
            "lon": 9.6648271,
            "timestamp": "2023-11-16T22:05:56Z",
            "version": 13,
            "changeset": 144115418,
            "user": "paulbrunner",
            "uid": 15541433,
            "tags": {
                "addr:city": "Bergamo",
                "addr:housenumber": "67c",
                "addr:postcode": "24122",
                "addr:street": "Via Don Luigi Palazzolo",
                "amenity": "cafe",
                "biergarten": "yes",
                "check_date": "2023-11-16",
                "currency:XBT": "yes",
                "loc_ref": "52407",
                "name": "Superbar Wine Food Drink",
                "opening_hours": "Mo-Sa 06:00-02:00",
                "payment:lightning": "yes",
                "source": "survey",
                "survey:date": "2023-04-12",
                "wheelchair": "no"
            }
        },
        {
            "type": "node",
            "id": 4855618125,
            "lat": 45.4604358,
            "lon": 10.5677196,
            "timestamp": "2024-07-20T21:11:31Z",
            "version": 7,
            "changeset": 154196210,
            "user": "mauropili",
            "uid": 1496865,
            "tags": {
                "addr:city": "Desenzano del Garda",
                "addr:housenumber": "44",
                "addr:postcode": "25015",
                "addr:street": "Via Parrocchiale",
                "amenity": "restaurant",
                "check_date": "2023-12-29",
                "contact:facebook": "https://www.facebook.com/bruschetterianose/",
                "contact:instagram": "https://www.instagram.com/bruschetterianose/",
                "currency:XBT": "yes",
                "description": "Nasce nel marzo 2015 con l\u2019obiettivo di rendere la bruschetta la vera e propria protagonista. Nel corso degli anni siamo cresciuti, imparando diverse tecniche e lavorazioni. Oggi utilizziamo il nostro pane a lievitazione naturale e prodotti ricercati.",
                "email": "info@bruschetterianose.it",
                "name": "Bruschetteria Nose",
                "phone": "+393896946385",
                "toilets:wheelchair": "yes",
                "website": "https://www.bruschetterianose.it/",
                "wheelchair": "yes",
                "wheelchair:description": "Es gibt Sitzpl\u00e4tze vor der Bruschetteria, in den Gastraum f\u00fchrt eine Edelstahlrampe. Tische und St\u00fchle sind teilweise eng gestellt. Zur einzigen ( Rollstuhlgerechten ) Toilette f\u00fchrt eine Schiebet\u00fcr."
            }
        },
        {
            "type": "node",
            "id": 5351518575,
            "lat": 45.3020694,
            "lon": 9.7554851,
            "timestamp": "2024-06-18T11:33:47Z",
            "version": 11,
            "changeset": 152844218,
            "user": "descubrebitcoin",
            "uid": 17565129,
            "tags": {
                "addr:city": "Castelleone",
                "addr:housenumber": "9",
                "addr:postcode": "26012",
                "addr:street": "Via Mariani",
                "amenity": "dentist",
                "check_date:currency:XBT": "2018-01-20",
                "currency:XBT": "yes",
                "email": "mar_anti@yahoo.it",
                "healthcare": "dentist",
                "healthcare:speciality": "orthodontics",
                "name": "Studio dentistico dott. Marco Antinori",
                "operator": "Dott. Marco Antinori",
                "payment:litecoin": "yes",
                "phone": "+39 037457727",
                "website": "http://studioantinori.com"
            }
        },
        {
            "type": "node",
            "id": 5414154626,
            "lat": 45.6614336,
            "lon": 10.0495364,
            "timestamp": "2023-06-20T22:27:40Z",
            "version": 9,
            "changeset": 137581062,
            "user": "paulbrunner",
            "uid": 15541433,
            "tags": {
                "addr:city": "Iseo",
                "addr:housenumber": "2c",
                "addr:postcode": "25049",
                "addr:street": "Vicolo Bargnani",
                "check_date:currency:XBT": "2023-05-28",
                "currency:XBT": "yes",
                "email": "nicolasverzeletti@gmail.com",
                "name": "La Capsuleria Iseo",
                "opening_hours": "Tu-Sa 09:00-12:30, 14:00-18:00; Su 09:00-12:30; Mo off",
                "payment:lightning": "yes",
                "payment:lightning_contactless": "no",
                "payment:onchain": "yes",
                "phone": "030980881",
                "shop": "coffee",
                "wheelchair": "yes"
            }
        },
        {
            "type": "node",
            "id": 5508069822,
            "lat": 45.517822,
            "lon": 10.178514,
            "timestamp": "2023-08-04T07:33:23Z",
            "version": 6,
            "changeset": 139427172,
            "user": "Igor Bubelov",
            "uid": 2104834,
            "tags": {
                "addr:city": "Brescia",
                "addr:housenumber": "5",
                "addr:postcode": "25125",
                "addr:street": "Via dei Gelsi",
                "amenity": "restaurant",
                "check_date:currency:XBT": "2023-07-20",
                "contact:email": "info@carneespito.it",
                "contact:phone": "+39 2070441",
                "contact:website": "http://www.carneespirito.it",
                "cuisine": "steak_house;italian",
                "currency:XBT": "yes",
                "description": "Steakhouse, carne selezionate alla griglia",
                "email": "info@carneespirito.it",
                "name": "Carne & Spirito",
                "outdoor_seating": "yes",
                "phone": "+39 0302070441",
                "website": "https://www.carneespirito.it/"
            }
        },
        {
            "type": "node",
            "id": 5742258055,
            "lat": 45.1336971,
            "lon": 10.0232059,
            "timestamp": "2023-06-02T13:31:15Z",
            "version": 4,
            "changeset": 136868712,
            "user": "paulbrunner",
            "uid": 15541433,
            "tags": {
                "addr:city": "Cremona",
                "addr:housenumber": "20",
                "addr:postcode": "26100",
                "addr:street": "Piazza Antonio Stradivari",
                "amenity": "cafe",
                "check_date": "2022-12-20",
                "currency:XBT": "yes",
                "name": "Chocabeck",
                "opening_hours": "Tu-Fr 12:00-15:00,18:00-26:00",
                "operator": "Mama S.r.l.",
                "payment:lightning": "yes",
                "payment:onchain": "yes",
                "phone": "+39037234988",
                "ref:vatin": "IT01572680195",
                "website": "https://chocabeck.net/"
            }
        },
        {
            "type": "node",
            "id": 6143256149,
            "lat": 45.542386,
            "lon": 10.2083413,
            "timestamp": "2023-11-06T14:05:45Z",
            "version": 3,
            "changeset": 143695073,
            "user": "b-jazz-bot",
            "uid": 9451067,
            "tags": {
                "addr:city": "Brescia",
                "addr:housenumber": "7e",
                "addr:postcode": "25126",
                "addr:street": "Via Milano",
                "amenity": "pharmacy",
                "check_date": "2023-10-16",
                "currency:XBT": "yes",
                "dispensing": "yes",
                "email": "info@farmaciabuatier.it",
                "healthcare": "pharmacy",
                "name": "Farmacia Buatier",
                "opening_hours": "Mo-Fr 09:00-13:00,15:00-19:30; Sa 09:00-12:30,15:00-19:30",
                "payment:cash": "yes",
                "phone": "+39  030 430 50",
                "website": "https://www.farmaciabuatier.it/"
            }
        },
        {
            "type": "node",
            "id": 6185696785,
            "lat": 45.1336065,
            "lon": 10.0227861,
            "timestamp": "2024-03-03T11:08:27Z",
            "version": 3,
            "changeset": 148161072,
            "user": "Chiarant",
            "uid": 18452174,
            "tags": {
                "addr:city": "Cremona",
                "addr:housenumber": "17",
                "addr:postcode": "26100",
                "addr:street": "Piazza Antonio Stradivari",
                "amenity": "bar",
                "check_date": "2024-03-03",
                "currency:XBT": "yes",
                "name": "Di Bianco",
                "payment:lightning": "no",
                "payment:onchain": "yes"
            }
        },
        {
            "type": "node",
            "id": 6239397409,
            "lat": 45.5093375,
            "lon": 10.3213635,
            "timestamp": "2023-05-30T21:26:11Z",
            "version": 4,
            "changeset": 136763976,
            "user": "paulbrunner",
            "uid": 15541433,
            "tags": {
                "addr:city": "Rezzato",
                "addr:housenumber": "52",
                "addr:postcode": "25086",
                "addr:street": "Via Giuseppe Garibaldi",
                "amenity": "restaurant",
                "check_date": "2022-12-11",
                "cuisine": "chicken",
                "currency:XBT": "yes",
                "name": "Sbaff",
                "opening_hours": "Mo-Su 11:30-14:30,18:00-24:00",
                "operator": "Sbaff S.r.l.",
                "payment:lightning": "yes",
                "payment:onchain": "yes",
                "phone": "+393274530665",
                "ref:vatin": "IT03956760981",
                "website": "https://sbaff.it/"
            }
        },
        {
            "type": "node",
            "id": 6853720953,
            "lat": 45.524629,
            "lon": 10.210243,
            "timestamp": "2024-08-20T07:10:05Z",
            "version": 6,
            "changeset": 155493199,
            "user": "mauropili",
            "uid": 1496865,
            "tags": {
                "addr:city": "Brescia",
                "addr:housenumber": "66",
                "addr:postcode": "25124",
                "addr:street": "Via Cipro",
                "currency:XBT": "yes",
                "description": "Bitcoin People \u00e8 una startup che offre soluzioni software e consulenza per facilitare l'uso di Bitcoin come metodo di pagamento, attraverso il suo gateway BPay.",
                "name": "Bitcoin People",
                "office": "coworking",
                "opening_hours": "Mo-Fr 09:00-18:30",
                "payment:bitcoin": "yes",
                "payment:lightning": "yes",
                "payment:lightning_contactless": "yes",
                "payment:onchain": "yes",
                "phone": "+39 347 637 8826",
                "survey:date": "2024-08-09",
                "website": "https://bitcoinpeople.it/"
            }
        },
        {
            "type": "node",
            "id": 6961538410,
            "lat": 45.2942693,
            "lon": 9.7636712,
            "timestamp": "2023-11-03T20:49:15Z",
            "version": 5,
            "changeset": 143591052,
            "user": "b-jazz-bot",
            "uid": 9451067,
            "tags": {
                "addr:city": "Castelleone",
                "addr:housenumber": "5",
                "addr:postcode": "26012",
                "addr:street": "Via Garibaldi",
                "air_conditioning": "yes",
                "check_date:currency:XBT": "2022-12-09",
                "craft": "photographer",
                "currency:XBT": "yes",
                "email": "info@fotorizzotti.it",
                "internet_access": "wlan",
                "name": "Foto Rizzotti",
                "payment:lightning": "yes",
                "payment:onchain": "yes",
                "phone": "+39 0374350151",
                "website": "https://www.fotorizzotti.it/",
                "wheelchair": "yes"
            }
        },
        {
            "type": "node",
            "id": 7040170285,
            "lat": 45.6940802,
            "lon": 9.6593869,
            "timestamp": "2023-11-08T19:02:50Z",
            "version": 15,
            "changeset": 143794210,
            "user": "Fruffu",
            "uid": 20572340,
            "tags": {
                "addr:city": "Bergamo",
                "addr:housenumber": "7",
                "addr:postcode": "24128",
                "addr:street": "Via Francesco Nullo",
                "addr:unit": "a",
                "amenity": "restaurant",
                "cuisine": "italian;coffee_shop",
                "currency:XBT": "yes",
                "name": "Osteria Risi.co",
                "opening_hours": "Mo 11:30-15:30,18:00-24:30; Tu-Fr 18:00-24:30,18:00-24:30; Sa-Su 12:00-15:00,18:00-24:30",
                "payment:bancomat": "yes",
                "payment:cash": "yes",
                "payment:lightning": "yes",
                "phone": "+39 035217732",
                "survey:date": "2023-05-01",
                "website": "http://www.osteriarisico.it"
            }
        },
        {
            "type": "node",
            "id": 7938117286,
            "lat": 45.5858387,
            "lon": 10.2854244,
            "timestamp": "2023-01-25T17:36:22Z",
            "version": 9,
            "changeset": 131704964,
            "user": "BSN21M",
            "uid": 17441326,
            "tags": {
                "addr:city": "Nave",
                "addr:housenumber": "46d",
                "addr:postcode": "25075",
                "addr:street": "Via Brescia",
                "check_date:currency:XBT": "2023-01-25",
                "currency:XBT": "yes",
                "email": "info@tecnicocomputer.com",
                "name": "Punto Com Informatica",
                "payment:contanti": "yes",
                "payment:credit_cards": "yes",
                "payment:lightning": "yes",
                "payment:lightning_contactless": "no",
                "payment:onchain": "no",
                "payment:satispay": "yes",
                "shop": "computer",
                "website": "https://www.ricondizionatipro.it"
            }
        },
        {
            "type": "node",
            "id": 8288630965,
            "lat": 45.6920266,
            "lon": 9.6726737,
            "timestamp": "2023-09-15T11:09:59Z",
            "version": 3,
            "changeset": 141297857,
            "user": "morsi",
            "uid": 139580,
            "tags": {
                "addr:housenumber": "104",
                "addr:postcode": "24121",
                "addr:street": "Viale Papa Giovanni Ventitreesimo",
                "amenity": "bank",
                "atm": "yes",
                "check_date": "2023-09-15",
                "currency:XBT": "yes",
                "name": "BCC Milano",
                "website": "https://www.ecotaurus.it/",
                "wheelchair": "yes"
            }
        },
        {
            "type": "node",
            "id": 8334378919,
            "lat": 45.4618162,
            "lon": 10.5271708,
            "timestamp": "2023-11-10T12:27:54Z",
            "version": 3,
            "changeset": 143861202,
            "user": "b-jazz-bot",
            "uid": 9451067,
            "tags": {
                "addr:city": "Desenzano",
                "addr:housenumber": "1",
                "addr:postcode": "25015",
                "addr:street": "Via Adua",
                "amenity": "doctors",
                "currency:XBT": "yes",
                "email": "bianchi.osteopata@gmail.com",
                "healthcare": "doctor",
                "internet_access": "wlan",
                "name": "NeoClinic",
                "name:en": "Osteopath - Bianchi Tommaso D.O. BSc Ost.",
                "name:it": "Osteopata - Bianchi Tommaso D.O. BSc Ost.",
                "opening_hours": "Mo-Sa 00:00-24:00",
                "payment:lightning": "yes",
                "payment:lightning_contactless": "yes",
                "payment:onchain": "yes",
                "phone": "3470483429",
                "survey:date": "2022-10-24",
                "website": "https://bianchiosteopata.it/"
            }
        },
        {
            "type": "node",
            "id": 8397238367,
            "lat": 45.7121595,
            "lon": 10.4016698,
            "timestamp": "2023-11-01T11:38:44Z",
            "version": 3,
            "changeset": 143470292,
            "user": "b-jazz-bot",
            "uid": 9451067,
            "tags": {
                "addr:city": "Vestone",
                "addr:housenumber": "87",
                "addr:postcode": "25078",
                "addr:street": "Via Fiamme Verdi",
                "check_date:currency:XBT": "2023-07-19",
                "currency:XBT": "yes",
                "description": "Negozio di prodotti tipici bresciani e del lago di Garda.",
                "email": "info@bbuono.it",
                "name": "bbuono.it",
                "phone": "+39 3335440014",
                "shop": "deli",
                "website": "https://www.bbuono.it/"
            }
        },
        {
            "type": "node",
            "id": 8753174032,
            "lat": 45.6229994,
            "lon": 9.7675411,
            "timestamp": "2023-11-05T20:26:08Z",
            "version": 6,
            "changeset": 143665115,
            "user": "Mannivu",
            "uid": 1950277,
            "tags": {
                "amenity": "taxi",
                "check_date:currency:XBT": "2023-07-21",
                "currency:XBT": "yes",
                "email": "easytransfer.bg@gmail.com",
                "name": "Easytransfer Ncc",
                "phone": "+39 379 156 3588",
                "website": "https://www.easytransferbergamo.it"
            }
        },
        {
            "type": "node",
            "id": 9992677315,
            "lat": 45.8794503,
            "lon": 10.1815482,
            "timestamp": "2024-01-18T15:31:42Z",
            "version": 9,
            "changeset": 146410215,
            "user": "Rockedf",
            "uid": 7522075,
            "tags": {
                "addr:city": "Darfo Boario Terme",
                "addr:housenumber": "37",
                "addr:postcode": "25047",
                "addr:street": "Via Roma",
                "check_date:currency:XBT": "2024-01-18",
                "consulting": "bitcoin;lightning_network;education;gadget;books;consultant",
                "currency:EUR": "yes",
                "currency:XBT": "yes",
                "email": "info@villaggiobitcoin.it",
                "name": "Villaggio Bitcoin",
                "office": "consulting",
                "operator": "Villaggio Bitcoin",
                "payment:lightning": "yes",
                "payment:lightning_contactless": "no",
                "payment:onchain": "yes",
                "phone": "+39 351 6755119",
                "website": "https://www.villaggiobitcoin.it/"
            }
        },
        {
            "type": "node",
            "id": 10165712913,
            "lat": 45.3555613,
            "lon": 9.6627822,
            "timestamp": "2022-11-07T08:23:25Z",
            "version": 1,
            "changeset": 128585645,
            "user": "BSN21M",
            "uid": 17441326,
            "tags": {
                "addr:city": "Crema",
                "addr:postcode": "26013",
                "addr:street": "Via Cappuccini",
                "craft": "painter",
                "currency:XBT": "yes",
                "name": "DOLDI LUCA IMBIANCHINO",
                "payment:lightning": "no",
                "payment:lightning_contactless": "no",
                "payment:onchain": "yes",
                "phone": "+39 3384808366",
                "survey:date": "2022-11-07"
            }
        },
        {
            "type": "node",
            "id": 10165750730,
            "lat": 45.356339,
            "lon": 9.6515674,
            "timestamp": "2022-11-07T08:18:54Z",
            "version": 1,
            "changeset": 128585463,
            "user": "BSN21M",
            "uid": 17441326,
            "tags": {
                "addr:city": "Crema",
                "addr:postcode": "26013",
                "addr:street": "Via Pandino",
                "amenity": "restaurant",
                "currency:XBT": "yes",
                "email": "scorse_89@hotmail.it",
                "name": "Dal Barbarossa",
                "payment:lightning": "no",
                "payment:lightning_contactless": "no",
                "payment:onchain": "yes",
                "phone": "+393491745630",
                "survey:date": "2022-11-07",
                "website": "https://it-it.facebook.com/dalbarbarossaOBV/"
            }
        },
        {
            "type": "node",
            "id": 10219441366,
            "lat": 45.8245299,
            "lon": 10.0899457,
            "timestamp": "2023-11-17T21:48:09Z",
            "version": 6,
            "changeset": 144155940,
            "user": "toponomastica_comune_arenzano",
            "uid": 14257573,
            "tags": {
                "addr:city": "Costa Volpino",
                "addr:housenumber": "42f",
                "addr:postcode": "24062",
                "addr:street": "Via Nazionale",
                "check_date:currency:XBT": "2023-01-24",
                "currency:XBT": "yes",
                "email": "info@adamellotappeti.it",
                "name": "Adamello Tappeti",
                "opening_hours": "Mo-Fr 09:00-17:00",
                "payment:lightning": "no",
                "payment:lightning_contactless": "no",
                "payment:onchain": "yes",
                "phone": "+39 035 972052",
                "shop": "carpet",
                "website": "https://adamellotappeti.it/"
            }
        },
        {
            "type": "node",
            "id": 10228582932,
            "lat": 45.5445077,
            "lon": 10.2198795,
            "timestamp": "2022-12-10T17:06:10Z",
            "version": 3,
            "changeset": 129939982,
            "user": "Goffredo",
            "uid": 194751,
            "tags": {
                "addr:city": "Brescia",
                "addr:housenumber": "93/a",
                "addr:postcode": "25122",
                "addr:street": "Via San Faustino",
                "amenity": "cafe",
                "check_date": "2022-12-10",
                "contact:facebook": "https://www.facebook.com/cyrclecafebs/",
                "currency:XBT": "yes",
                "name": "CYRCLEcaf\u00e9",
                "payment:lightning": "yes",
                "payment:onchain": "yes",
                "phone": "+39 339 8552307"
            }
        },
        {
            "type": "node",
            "id": 10228582934,
            "lat": 45.5363144,
            "lon": 10.2290017,
            "timestamp": "2023-02-05T09:48:25Z",
            "version": 4,
            "changeset": 132102420,
            "user": "osm_fede",
            "uid": 5631066,
            "tags": {
                "addr:city": "Brescia",
                "addr:housenumber": "71",
                "addr:postcode": "25121",
                "addr:street": "Corso Magenta",
                "amenity": "dentist",
                "check_date": "2022-12-12",
                "check_date:opening_hours": "2023-02-05",
                "currency:XBT": "yes",
                "healthcare": "dentist",
                "name": "Studio Dentistico Implantologico Valli",
                "opening_hours:signed": "no",
                "payment:lightning": "yes",
                "payment:onchain": "yes",
                "website": "https://www.medicodentista.it/",
                "wheelchair": "no"
            }
        },
        {
            "type": "node",
            "id": 10247809017,
            "lat": 45.38398,
            "lon": 10.492286,
            "timestamp": "2024-07-06T06:47:41Z",
            "version": 3,
            "changeset": 153612144,
            "user": "mauropili",
            "uid": 1496865,
            "tags": {
                "addr:city": "Castiglione delle Stiviere",
                "addr:housenumber": "55",
                "addr:postcode": "46043",
                "addr:street": "Via Giuseppe Mazzini",
                "addr:unit": "c",
                "check_date": "2022-12-09",
                "currency:XBT": "yes",
                "name": "FunPlanet",
                "opening_hours": "Mo-Sa 09:00-12:30, 14:30-19:00",
                "payment:lightning": "yes",
                "payment:onchain": "yes",
                "phone": "+390376670942",
                "shop": "mobile_phone",
                "website": "https://www.funplanet.it/"
            }
        },
        {
            "type": "node",
            "id": 10248975069,
            "lat": 45.6004262,
            "lon": 9.9862922,
            "timestamp": "2024-08-31T16:44:35Z",
            "version": 3,
            "changeset": 156023943,
            "user": "mpbin",
            "uid": 21850090,
            "tags": {
                "addr:city": "Erbusco",
                "addr:housenumber": "24/26",
                "addr:postcode": "25030",
                "addr:street": "Via Campanili",
                "amenity": "events_venue",
                "check_date": "2022-12-09",
                "contact:facebook": "https://it-it.facebook.com/TenutaColleParadisoErbusco/",
                "contact:instagram": "https://www.instagram.com/tenutacolleparadiso",
                "currency:XBT": "yes",
                "description": "Immersa nei vigneti della Franciacorta offre un servizio con cucina interna fino a 280 ospiti con vista sul lago d\u2019Iseo",
                "name": "Tenuta Colle Paradiso",
                "payment:lightning": "yes",
                "payment:onchain": "yes",
                "phone": "+39 338 836 8541",
                "website": "https://www.tenutacolleparadiso.it/"
            }
        },
        {
            "type": "node",
            "id": 10250750356,
            "lat": 45.59965,
            "lon": 9.6970208,
            "timestamp": "2023-05-30T21:12:29Z",
            "version": 2,
            "changeset": 136763638,
            "user": "paulbrunner",
            "uid": 15541433,
            "tags": {
                "addr:city": "Urgnano",
                "addr:housenumber": "39",
                "addr:postcode": "24059",
                "addr:street": "Via Edmondo De Amicis",
                "check_date": "2022-12-10",
                "craft": "photographer",
                "currency:XBT": "yes",
                "name": "Nice Shot Art",
                "opening_hours": "Mo-Sa 09:30-12:30,15:30-19:30",
                "payment:lightning": "yes",
                "payment:onchain": "yes",
                "phone": "+393452329629",
                "website": "https://www.niceshotart.it/"
            }
        },
        {
            "type": "node",
            "id": 10250750357,
            "lat": 45.3462702,
            "lon": 10.1350625,
            "timestamp": "2022-12-10T14:01:40Z",
            "version": 1,
            "changeset": 129934597,
            "user": "saunter",
            "uid": 10396321,
            "tags": {
                "addr:city": "Manerbio",
                "addr:housenumber": "10",
                "addr:postcode": "25025",
                "addr:street": "Via Cremona",
                "amenity": "fast_food",
                "check_date": "2022-12-12",
                "cuisine": "italian;sandwich",
                "currency:XBT": "yes",
                "name": "La Piadineria",
                "payment:lightning": "yes",
                "payment:onchain": "yes",
                "phone": "+390309938067",
                "website": "https://www.lapiadineria.com/"
            }
        },
        {
            "type": "node",
            "id": 10250750358,
            "lat": 45.5453125,
            "lon": 10.2251195,
            "timestamp": "2024-04-07T09:35:15Z",
            "version": 4,
            "changeset": 149683616,
            "user": "osm_fede",
            "uid": 5631066,
            "tags": {
                "addr:city": "Brescia",
                "addr:housenumber": "4",
                "addr:postcode": "25128",
                "addr:street": "Via Cesare Lombroso",
                "amenity": "fast_food",
                "check_date": "2022-12-12",
                "cuisine": "italian;sandwich",
                "currency:XBT": "yes",
                "indoor_seating": "yes",
                "name": "La Piadineria",
                "opening_hours": "Mo-Th 11:30-15:00+; Fr,Sa 11:30-15:00,18:30-21:30+; PH,Su off",
                "outdoor_seating": "yes",
                "payment:lightning": "yes",
                "payment:onchain": "yes",
                "phone": "+39 030 3099205",
                "website": "https://www.lapiadineria.com/"
            }
        },
        {
            "type": "node",
            "id": 10251001609,
            "lat": 45.5342114,
            "lon": 10.2138447,
            "timestamp": "2022-12-10T17:06:10Z",
            "version": 2,
            "changeset": 129939982,
            "user": "Goffredo",
            "uid": 194751,
            "tags": {
                "addr:city": "Brescia",
                "addr:housenumber": "6",
                "addr:postcode": "25122",
                "addr:street": "Via Venti Settembre",
                "check_date": "2022-12-10",
                "currency:XBT": "yes",
                "name": "Centro Estetico Madison",
                "opening_hours": "Mo-Su 09:00-19:00",
                "payment:lightning": "yes",
                "payment:onchain": "yes",
                "phone": "+39 030 4194101",
                "shop": "beauty",
                "website": "https://madisonbrescia.com/"
            }
        },
        {
            "type": "node",
            "id": 10273236375,
            "lat": 45.2226058,
            "lon": 9.7706893,
            "timestamp": "2024-08-31T16:40:12Z",
            "version": 2,
            "changeset": 156023778,
            "user": "mpbin",
            "uid": 21850090,
            "tags": {
                "addr:city": "Formigara",
                "addr:housenumber": "1",
                "addr:postcode": "26020",
                "addr:street": "Via Castello",
                "check_date": "2022-12-19",
                "contact:facebook": "https://www.facebook.com/MaisCorvino/",
                "contact:instagram": "https://www.instagram.com/mais_corvino/",
                "currency:XBT": "yes",
                "email": "info@maiscorvino.it",
                "name": "Mais Corvino",
                "payment:lightning": "yes",
                "payment:onchain": "yes",
                "phone": "+393477191733",
                "shop": "health_food",
                "website": "https://www.maiscorvino.it/"
            }
        },
        {
            "type": "node",
            "id": 10275711660,
            "lat": 45.9156741,
            "lon": 10.0574035,
            "timestamp": "2022-12-20T13:26:31Z",
            "version": 1,
            "changeset": 130290756,
            "user": "saunter",
            "uid": 10396321,
            "tags": {
                "addr:city": "Castione della Presolana",
                "addr:housenumber": "3",
                "addr:postcode": "24020",
                "addr:street": "Via Gaetano Donizetti",
                "currency:XBT": "yes",
                "name": "Noemi Patelli: Presolana Real Estate",
                "office": "estate_agent",
                "payment:lightning": "yes",
                "payment:onchain": "yes",
                "phone": "+39034631084",
                "survey:date": "2022-12-12",
                "website": "https://www.presolanarealestate.it/"
            }
        },
        {
            "type": "node",
            "id": 10568110036,
            "lat": 45.8780886,
            "lon": 10.1799839,
            "timestamp": "2024-01-17T00:32:28Z",
            "version": 6,
            "changeset": 146343042,
            "user": "Igor Bubelov",
            "uid": 2104834,
            "tags": {
                "addr:city": "Darfo Boario Terme",
                "addr:housenumber": "56",
                "addr:postcode": "25047",
                "addr:street": "Via Roma",
                "check_date": "2023-04-28",
                "check_date:currency": "2022-10-10",
                "currency:XBT": "yes",
                "name": "IDEA Serving Communication",
                "office": "advertising_agency",
                "opening_hours": "Mo-Fr 09:00-18:00",
                "payment:lightning": "no",
                "payment:lightning_contactless": "no",
                "payment:onchain": "yes",
                "phone": "0364 538085",
                "website": "http://idea.vg/"
            }
        },
        {
            "type": "node",
            "id": 10568110037,
            "lat": 45.878501,
            "lon": 10.1811276,
            "timestamp": "2023-03-31T07:40:46Z",
            "version": 7,
            "changeset": 134331800,
            "user": "Villaggio Bitcoin",
            "uid": 17001488,
            "tags": {
                "addr:city": "Darfo Boario Terme",
                "addr:housenumber": "7",
                "addr:postcode": "25047",
                "addr:street": "Piazza Federici",
                "check_date:currency:XBT": "2023-01-24",
                "currency:XBT": "yes",
                "name": "Studio ARS Rusconi Architetto",
                "office": "architect",
                "opening_hours": "Mo-Fr 09:00-18:00",
                "payment:lightning": "no",
                "payment:lightning_contactless": "no",
                "payment:onchain": "yes",
                "phone": "+39 0364 536700",
                "website": "https://www.architettorusconi.com/"
            }
        },
        {
            "type": "node",
            "id": 10576227636,
            "lat": 45.8245281,
            "lon": 10.0899162,
            "timestamp": "2024-02-19T04:30:18Z",
            "version": 6,
            "changeset": 147632825,
            "user": "Igor Bubelov",
            "uid": 2104834,
            "tags": {
                "addr:city": "Costa Volpino",
                "addr:housenumber": "42e",
                "addr:postcode": "24062",
                "addr:street": "Via Nazionale",
                "check_date": "2023-04-28",
                "currency:XBT": "yes",
                "email": "mascia.franzoni@libero.it",
                "name": "FAI FESTA Gi\u00f2 Concept",
                "opening_hours": "Mo-Sa 08:00-18:00",
                "payment:lightning": "yes",
                "payment:onchain": "yes",
                "phone": "+39 035 971639",
                "shop": "party",
                "website": "https://faifestagioconcept.it/"
            }
        },
        {
            "type": "node",
            "id": 10576227637,
            "lat": 45.8844969,
            "lon": 10.1800539,
            "timestamp": "2023-09-04T09:57:22Z",
            "version": 5,
            "changeset": 140796273,
            "user": "Chiarant",
            "uid": 18452174,
            "tags": {
                "addr:city": "Darfo Boario Terme",
                "addr:postcode": "25047",
                "addr:street": "Corso Roberto Enea Lepetit",
                "check_date:currency:XBT": "2023-09-04",
                "currency:XBT": "yes",
                "email": "aacidlab@gmail.com",
                "name": "ACID LAB Sneakers+Streetwear boutique",
                "opening_hours": "Mo-Fr 09:00-17:00",
                "payment:lightning": "no",
                "payment:onchain": "yes",
                "phone": "+39 342 57 222 67",
                "shop": "shoes"
            }
        },
        {
            "type": "node",
            "id": 10734936913,
            "lat": 45.8467872,
            "lon": 10.160024,
            "timestamp": "2023-08-01T09:05:44Z",
            "version": 5,
            "changeset": 139289273,
            "user": "Igor Bubelov",
            "uid": 2104834,
            "tags": {
                "addr:city": "Artogne",
                "addr:housenumber": "5",
                "addr:postcode": "25040",
                "addr:street": "Via Maserade",
                "agrarian": "oil;cannabis;cbd_oil;honey;hemp;canapa",
                "check_date": "2023-08-01",
                "contact:facebook": "https://www.facebook.com/camunacannabi",
                "contact:instagram": "https://www.instagram.com/camunacannabis/",
                "currency:XBT": "yes",
                "email": "shop@camunacannabis.it",
                "name": "Camuna Cannabis",
                "phone": "+39 347 758 1642",
                "shop": "cannabis",
                "website": "https://camunacannabis.it"
            }
        },
        {
            "type": "node",
            "id": 10752403498,
            "lat": 45.6355513,
            "lon": 10.0466078,
            "timestamp": "2023-03-31T07:40:46Z",
            "version": 2,
            "changeset": 134331800,
            "user": "Villaggio Bitcoin",
            "uid": 17001488,
            "tags": {
                "addr:city": "Provaglio d'Iseo",
                "addr:housenumber": "12",
                "addr:postcode": "25050",
                "addr:street": "Via Roma",
                "check_date": "2023-03-21",
                "currency:XBT": "yes",
                "name": "TAX CARE SRL",
                "office": "accountant",
                "payment:lightning": "yes",
                "payment:onchain": "yes",
                "phone": "030 557 7197",
                "website": "https://www.taxcare.it"
            }
        },
        {
            "type": "node",
            "id": 10788484126,
            "lat": 45.5338749,
            "lon": 10.164534,
            "timestamp": "2023-08-04T10:31:20Z",
            "version": 3,
            "changeset": 139434797,
            "user": "Igor Bubelov",
            "uid": 2104834,
            "tags": {
                "addr:city": "Roncadelle",
                "addr:postcode": "25030",
                "addr:street": "Via Luigi Einaudi",
                "check_date": "2023-04-05",
                "clothes": "men",
                "currency:XBT": "yes",
                "name": "Nuvolari c.c. Eln\u00f2s",
                "payment:lightning": "no",
                "payment:lightning_contactless": "no",
                "payment:onchain": "yes",
                "phone": "0307827945",
                "shop": "clothes",
                "website": "https://www.nuvolari.biz/stores/brescia-c-c-elnos"
            }
        },
        {
            "type": "node",
            "id": 10844464866,
            "lat": 45.3120876,
            "lon": 9.9985,
            "timestamp": "2024-08-31T16:22:43Z",
            "version": 3,
            "changeset": 156023018,
            "user": "mpbin",
            "uid": 21850090,
            "tags": {
                "addr:city": "Quinzano D'Oglio",
                "addr:housenumber": "30",
                "addr:postcode": "25027",
                "addr:street": "Via Luigi Ciocca",
                "check_date": "2023-04-26",
                "currency:XBT": "yes",
                "email": "info@2fsas.com",
                "name": "2F Computer",
                "phone": "+390309924331",
                "shop": "computer",
                "website": "https://www.2fsas.com"
            }
        },
        {
            "type": "node",
            "id": 10856232632,
            "lat": 45.5363818,
            "lon": 10.217417,
            "timestamp": "2023-12-31T14:05:34Z",
            "version": 4,
            "changeset": 145734731,
            "user": "Chiarant",
            "uid": 18452174,
            "tags": {
                "addr:city": "Brescia",
                "addr:housenumber": "24",
                "addr:street": "Contrada del Cavalletto",
                "association": "cultural",
                "check_date": "2023-12-31",
                "contact:instagram": "@h4ckbs",
                "contact:twitter": "@h4ckbs",
                "currency:XBT": "yes",
                "name": "hack.bs",
                "office": "association",
                "website": "https://hack.bs.it/"
            }
        },
        {
            "type": "node",
            "id": 10884255574,
            "lat": 45.5515645,
            "lon": 10.5414466,
            "timestamp": "2023-05-10T18:09:05Z",
            "version": 2,
            "changeset": 135947471,
            "user": "Chiarant",
            "uid": 18452174,
            "tags": {
                "addr:city": "Manerba del Garda",
                "addr:housenumber": "4",
                "addr:postcode": "25080",
                "addr:street": "Vicolo del Poggio",
                "check_date": "2023-05-10",
                "currency:XBT": "yes",
                "email": "bebanticoborgogarda@gmail.com",
                "guest_house": "bed_and_breakfast",
                "name": "Antico Borgo B&B",
                "payment:lightning": "yes",
                "phone": "+39 348 821 0167",
                "tourism": "guest_house",
                "website": "https://www.anticoborgogarda.eu/"
            }
        },
        {
            "type": "node",
            "id": 10979607312,
            "lat": 45.4565873,
            "lon": 10.5850851,
            "timestamp": "2024-01-28T04:24:38Z",
            "version": 2,
            "changeset": 146766313,
            "user": "Igor Bubelov",
            "uid": 2104834,
            "tags": {
                "addr:city": "Desenzano del Garda",
                "addr:postcode": "25015",
                "addr:street": "Via Adriano",
                "amenity": "restaurant",
                "check_date": "2023-06-15",
                "currency:XBT": "yes",
                "email": "gristoreen@gmail.com",
                "name": "RistoGreen",
                "payment:lightning": "yes",
                "payment:lightning_contactless": "no",
                "payment:onchain": "yes",
                "phone": "+39 3402487689"
            }
        },
        {
            "type": "node",
            "id": 10997191065,
            "lat": 45.5518736,
            "lon": 10.1899364,
            "timestamp": "2023-07-20T09:18:49Z",
            "version": 3,
            "changeset": 138753755,
            "user": "saunter",
            "uid": 10396321,
            "tags": {
                "addr:city": "Brescia",
                "addr:housenumber": "10",
                "addr:postcode": "25127",
                "addr:street": "Via Chiusure",
                "amenity": "dentist",
                "check_date:currency:XBT": "2023-07-20",
                "currency:XBT": "yes",
                "email": "info@dentalparkstudios.com",
                "healthcare": "dentist",
                "healthcare:speciality": "dental_oral_maxillo_facial_surgery;dental;dentistry",
                "name": "Dental Park StudioS",
                "payment:lightning": "yes",
                "payment:onchain": "yes",
                "phone": "+39 030 314750",
                "website": "https://www.augustopezzola.com/"
            }
        },
        {
            "type": "node",
            "id": 11019852717,
            "lat": 45.5536322,
            "lon": 10.7226305,
            "timestamp": "2023-07-02T11:59:52Z",
            "version": 2,
            "changeset": 138020615,
            "user": "Bea1812",
            "uid": 19744243,
            "tags": {
                "addr:city": "Bardolino",
                "addr:housenumber": "1",
                "addr:postcode": "37011",
                "addr:street": "Via dei Poggi",
                "currency:XBT": "yes",
                "email": "beatrice.p18@gmail.com",
                "internet_access": "yes",
                "internet_access:fee": "customers",
                "name": "Luminosa Casetta",
                "operator": "Privato",
                "phone": "+393886907700",
                "rooms": "2",
                "survey:date": "2023-07-02",
                "tourism": "apartment"
            }
        },
        {
            "type": "node",
            "id": 11037149088,
            "lat": 45.6819699,
            "lon": 9.6324476,
            "timestamp": "2023-07-10T10:52:21Z",
            "version": 1,
            "changeset": 138331822,
            "user": "Chiarant",
            "uid": 18452174,
            "tags": {
                "addr:city": "Treviolo",
                "addr:housenumber": "42",
                "addr:postcode": "24080",
                "addr:street": "Via Mohandas Karamchand Gandhi",
                "check_date": "2023-07-10",
                "currency:XBT": "yes",
                "email": "info@yourbiz.it",
                "name": "Yourbiz srl",
                "office": "advertising_agency",
                "phone": "+39 035.4327284",
                "website": "https://www.yourbiz.it/"
            }
        },
        {
            "type": "node",
            "id": 11074846173,
            "lat": 45.5522841,
            "lon": 10.2164389,
            "timestamp": "2023-07-29T11:40:50Z",
            "version": 1,
            "changeset": 139169690,
            "user": "Rockedf",
            "uid": 7522075,
            "tags": {
                "addr:city": "Brescia",
                "addr:housenumber": "68",
                "addr:postcode": "25128",
                "addr:street": "Via Vittorio Veneto",
                "check_date": "2023-07-29",
                "check_date:currency:XBT": "2023-07-29",
                "contact:email": "morena.scaranivolpi@gmail.com",
                "currency:XBT": "yes",
                "healthcare": "alternative",
                "healthcare:speciality": "naturopathy;olistic",
                "name": "Morena Scarani Volpi",
                "opening_hours": "Mo-Fr 10:00-19:00",
                "payment:lightning": "yes",
                "payment:lightning_contactless": "no",
                "payment:onchain": "yes",
                "phone": "00393336433815",
                "website": "https://www.micoterapianews.com/"
            }
        },
        {
            "type": "node",
            "id": 11131443393,
            "lat": 45.5364552,
            "lon": 10.2210378,
            "timestamp": "2023-08-20T12:31:03Z",
            "version": 1,
            "changeset": 140130623,
            "user": "Chiarant",
            "uid": 18452174,
            "tags": {
                "addr:city": "Brescia",
                "addr:housenumber": "30",
                "addr:street": "Corso Giuseppe Zanardelli",
                "addr:unit": "D",
                "amenity": "ice_cream",
                "check_date": "2023-08-19",
                "cuisine": "frozen_yogurt",
                "currency:XBT": "yes",
                "name": "Yogorino",
                "phone": "+39 3341979171"
            }
        },
        {
            "type": "node",
            "id": 11137193120,
            "lat": 45.5287045,
            "lon": 10.2261737,
            "timestamp": "2023-08-22T21:00:14Z",
            "version": 1,
            "changeset": 140246762,
            "user": "Chiarant",
            "uid": 18452174,
            "tags": {
                "addr:city": "Brescia",
                "addr:housenumber": "51",
                "addr:street": "Via Armando Soldini",
                "amenity": "nightclub",
                "check_date": "2023-08-22",
                "currency:XBT": "yes",
                "email": "spettrovenue@gmail.com",
                "name": "Spettro",
                "website": "https://spettro.info/"
            }
        },
        {
            "type": "node",
            "id": 11155583652,
            "lat": 45.5059229,
            "lon": 10.334484,
            "timestamp": "2023-12-31T13:51:59Z",
            "version": 3,
            "changeset": 145734031,
            "user": "Chiarant",
            "uid": 18452174,
            "tags": {
                "addr:city": "Rezzato",
                "addr:housenumber": "24",
                "addr:postcode": "25086",
                "addr:street": "Via Treponti",
                "check_date": "2023-12-31",
                "currency:XBT": "yes",
                "email": "info@open-one.it",
                "name": "Open One S.r.l. - Consulenza informatica e app",
                "office": "consulting",
                "phone": "+39 030 2590260",
                "website": "https://www.open-one.it/"
            }
        },
        {
            "type": "node",
            "id": 11267531754,
            "lat": 45.5256797,
            "lon": 10.1582278,
            "timestamp": "2023-10-16T18:58:52Z",
            "version": 1,
            "changeset": 142680156,
            "user": "Chiarant",
            "uid": 18452174,
            "tags": {
                "addr:city": "Roncadelle",
                "addr:housenumber": "98",
                "addr:postcode": "25030",
                "addr:street": "Via Martiri della Libert\u00e0",
                "amenity": "bar",
                "check_date": "2023-10-16",
                "currency:XBT": "yes",
                "description": "Lounge bar con narghil\u00e8",
                "email": "info@shisha-relax.it",
                "name": "Shisha Relax Bar",
                "phone": "+39 327 280 7453",
                "website": "https://shisha-relax.it/"
            }
        },
        {
            "type": "node",
            "id": 11336264626,
            "lat": 45.6642906,
            "lon": 9.6956887,
            "timestamp": "2023-11-09T17:03:59Z",
            "version": 1,
            "changeset": 143831448,
            "user": "Chiarant",
            "uid": 18452174,
            "tags": {
                "addr:city": "Orio al Serio",
                "addr:housenumber": "71",
                "addr:postcode": "24050",
                "addr:street": "Via Portico",
                "amenity": "fast_food",
                "check_date": "2023-11-09",
                "cuisine": "kebab",
                "currency:XBT": "yes",
                "name": "Kebhouze",
                "payment:lightning": "yes",
                "payment:lightning_contactless": "yes",
                "payment:onchain": "yes",
                "website": "https://kebhouze.com/"
            }
        },
        {
            "type": "node",
            "id": 11336329268,
            "lat": 45.6822616,
            "lon": 9.6108279,
            "timestamp": "2024-02-25T16:03:36Z",
            "version": 3,
            "changeset": 147897537,
            "user": "Mannivu",
            "uid": 1950277,
            "tags": {
                "addr:city": "Curno",
                "addr:housenumber": "1",
                "addr:postcode": "24035",
                "addr:street": "Via Enrico Fermi",
                "amenity": "fast_food",
                "check_date": "2023-11-09",
                "cuisine": "kebab",
                "currency:XBT": "yes",
                "name": "Kebhouze",
                "payment:lightning": "yes",
                "payment:onchain": "yes",
                "phone": "+39 035 305 3459",
                "website": "https://kebhouze.com/"
            }
        },
        {
            "type": "node",
            "id": 11372230244,
            "lat": 45.695933,
            "lon": 9.6330144,
            "timestamp": "2024-07-09T00:12:20Z",
            "version": 4,
            "changeset": 153724446,
            "user": "Rockedf",
            "uid": 7522075,
            "tags": {
                "addr:city": "Bergamo",
                "addr:housenumber": "33c",
                "addr:postcode": "24129",
                "addr:street": "Via Guglielmo Lochis",
                "amenity": "restaurant",
                "check_date": "2023-11-29",
                "check_date:currency:XBT": "2024-07-08",
                "currency:XBT": "yes",
                "description": "Pizzeria e gastronomia da asporto. Qualche posto per sedersi all'interno.",
                "name": "Mauro Pizzeria e Gastronomia",
                "phone": "+39 035259665",
                "website": "https://mauropizzeriaegastronomia.it/"
            }
        },
        {
            "type": "node",
            "id": 11669846020,
            "lat": 45.5329544,
            "lon": 10.2116886,
            "timestamp": "2024-02-27T19:19:03Z",
            "version": 1,
            "changeset": 147986770,
            "user": "Chiarant",
            "uid": 18452174,
            "tags": {
                "addr:city": "Brescia",
                "addr:housenumber": "6",
                "addr:postcode": "25122",
                "addr:street": "Via Giulio Togni",
                "check_date": "2024-02-27",
                "currency:XBT": "yes",
                "description": "Centro assistenza irp apple, mac, iPhone samsung, oppo, vivo, huawei, realme, xiaomi, poco, asus, lenovo, msi",
                "name": "IT COM",
                "phone": "+39 339 158 8888",
                "shop": "electronics",
                "website": "http://www.itcombrescia.it/"
            }
        },
        {
            "type": "node",
            "id": 11709472481,
            "lat": 45.6959709,
            "lon": 9.6309427,
            "timestamp": "2024-03-11T04:14:59Z",
            "version": 3,
            "changeset": 148487566,
            "user": "Igor Bubelov",
            "uid": 2104834,
            "tags": {
                "addr:city": "Bergamo",
                "addr:housenumber": "1/A",
                "addr:postcode": "24129",
                "addr:street": "Via Bellini",
                "check_date": "2024-03-09",
                "currency:XBT": "yes",
                "description": "Frutta, verdura e molto di pi\u00f9.",
                "email": "ilupomangiafrutta@gmail.com",
                "name": "Il lupo mangiafrutta",
                "phone": "+39 3519021831",
                "shop": "greengrocer"
            }
        },
        {
            "type": "node",
            "id": 11907356017,
            "lat": 45.1588719,
            "lon": 10.1061461,
            "timestamp": "2024-09-14T12:51:59Z",
            "version": 7,
            "changeset": 156611202,
            "user": "Rockedf",
            "uid": 7522075,
            "tags": {
                "addr:city": "Gadesco Pieve Delmona",
                "addr:country": "IT",
                "addr:housenumber": "20",
                "addr:postcode": "26030",
                "addr:street": "Via Sandro Pertini",
                "amenity": "marketplace",
                "check_date:currency:XBT": "2024-09-14",
                "currency:XBT": "yes",
                "name": "Spend Your Sats",
                "payment:lightning": "yes",
                "payment:lightning_contactless": "yes",
                "payment:onchain": "yes",
                "website": "https://www.spendsats.org"
            }
        },
        {
            "type": "node",
            "id": 11925744888,
            "lat": 45.5467891,
            "lon": 10.2264055,
            "timestamp": "2024-06-11T18:46:10Z",
            "version": 3,
            "changeset": 152557236,
            "user": "Rockedf",
            "uid": 7522075,
            "tags": {
                "addr:city": "Brescia",
                "addr:housenumber": "10",
                "addr:postcode": "25128",
                "addr:street": "Via Giovanni Lipella",
                "amenity": "atm",
                "cash_in": "yes",
                "cash_out": "yes",
                "cash_withdrawal": "yes",
                "check_date": "2024-05-22",
                "contact:email": "support@shitcoins.club",
                "contact:facebook": "https://www.facebook.com/shitcoins.club",
                "contact:instagram": "https://www.instagram.com/shitcoinsclub",
                "contact:telegram": "https://t.me/shitcoinsclub",
                "contact:twitter": "https://twitter.com/BitomatCom",
                "currency:CHF": "yes",
                "currency:DASH": "yes",
                "currency:ETH": "yes",
                "currency:EUR": "yes",
                "currency:GBP": "yes",
                "currency:HUF": "yes",
                "currency:LTC": "yes",
                "currency:RON": "yes",
                "currency:RUB": "yes",
                "currency:USD": "yes",
                "currency:USDC": "yes",
                "currency:USDT": "yes",
                "currency:XBT": "yes",
                "indoor": "yes",
                "name": "Bitcoin ATM - Shitcoins.club",
                "opening_hours": "24/7",
                "operator": "Shitcoins.club",
                "payment:cash": "yes",
                "payment:lightning": "no",
                "payment:lightning_contactless": "no",
                "payment:onchain": "yes",
                "phone": "+39 34 8048 7308",
                "website": "https://shitcoins.club/localizzazione-atm/atm-bitcoin-brescia-via-giovanni-lipella"
            }
        }
    ],
    "telegram": []
}