{
    "id": "bitcoin-genova",
    "name": "Bitcoin Genova",
    "lng": 44.4046185,
    "lat": 8.9484919,
    "localita": "Genova",
    "telegram_weburl": "https://web.telegram.org/a/#-1001731437379",
    "telegram_app": "https://t.me/BitcoinGenova",
    "telegram_members": 74.0,
    "network": "bitcoinbeer",
    "poi": [
        {
            "type": "node",
            "id": 610543489,
            "lat": 44.4081634,
            "lon": 8.930681,
            "timestamp": "2024-06-30T20:18:46Z",
            "version": 5,
            "changeset": 153384621,
            "user": "b-jazz-bot",
            "uid": 9451067,
            "tags": {
                "addr:housenumber": "16",
                "addr:postcode": "16123",
                "addr:street": "Piazza di San Lorenzo",
                "check_date": "2023-10-14",
                "contact:email": "gabriele.minoggio@gmail.com",
                "currency:XBT": "yes",
                "name": "Locanda di Palazzo Cicala",
                "opening_hours": "24/7",
                "payment:lightning": "yes",
                "payment:lightning_contactless": "no",
                "payment:onchain": "yes",
                "phone": "+39 34 8584 8481",
                "stars": "4",
                "tourism": "hotel",
                "website": "https://www.palazzocicala.it/"
            }
        },
        {
            "type": "node",
            "id": 5256602087,
            "lat": 44.4766016,
            "lon": 8.9182544,
            "timestamp": "2023-07-21T12:49:04Z",
            "version": 6,
            "changeset": 138811977,
            "user": "Chiarant",
            "uid": 18452174,
            "tags": {
                "addr:city": "Sant'Olcese",
                "addr:housenumber": "3",
                "addr:postcode": "16010",
                "addr:street": "Via Giacomo Poir\u00e8",
                "check_date": "2023-07-21",
                "contact:facebook": "https://www.facebook.com/agogo.manesseno/",
                "contact:twitter": "@AgogoOttica",
                "currency:XBT": "yes",
                "email": "agogo.manesseno@gmail.com",
                "name": "Ottica Agogo Manesseno",
                "payment:lightning": "yes",
                "payment:onchain": "yes",
                "phone": "+39 010714790;+39 3770831389",
                "shop": "optician"
            }
        },
        {
            "type": "node",
            "id": 5297758822,
            "lat": 44.335032,
            "lon": 9.213549,
            "timestamp": "2023-06-27T11:38:49Z",
            "version": 4,
            "changeset": 137831867,
            "user": "Chiarant",
            "uid": 18452174,
            "tags": {
                "addr:city": "Santa Margherita Ligure",
                "addr:housenumber": "25",
                "addr:postcode": "16038",
                "addr:street": "Via Palestro",
                "check_date": "2023-06-27",
                "currency:XBT": "yes",
                "description": "Lenti a contatto, occhiali da sole e occhiali da vista.",
                "email": "info@occhialiotticaprisma.it",
                "name": "Ottica Prisma di L. Costa & C.",
                "payment:dogecoin": "yes",
                "payment:ethereum": "yes",
                "payment:tether": "yes",
                "phone": "+39 0185284027",
                "shop": "optician"
            }
        },
        {
            "type": "node",
            "id": 5429215821,
            "lat": 44.424849,
            "lon": 8.814021,
            "timestamp": "2023-11-04T21:20:43Z",
            "version": 4,
            "changeset": 143630277,
            "user": "toponomastica_comune_arenzano",
            "uid": 14257573,
            "tags": {
                "addr:city": "Genova",
                "addr:housenumber": "235r",
                "addr:postcode": "16156",
                "addr:street": "Lungomare di Pegli",
                "check_date": "2023-06-27",
                "currency:XBT": "yes",
                "description": "Negozio di occhiali e lenti a contatto con visita.",
                "email": "fabio.rattaro@gmail.com",
                "name": "Ottico Rattaro Camillo",
                "phone": "+39 010 697 5004",
                "shop": "optician",
                "website": "https://www.otticorattaro.it/"
            }
        },
        {
            "type": "node",
            "id": 6832770546,
            "lat": 44.4097027,
            "lon": 8.9375801,
            "timestamp": "2023-08-26T09:38:23Z",
            "version": 4,
            "changeset": 140403381,
            "user": "Chiarant",
            "uid": 18452174,
            "tags": {
                "addr:city": "Genova",
                "addr:housenumber": "87 rosso",
                "addr:postcode": "16121",
                "addr:street": "Via Roma",
                "check_date": "2023-08-26",
                "clothes": "men",
                "currency:XBT": "yes",
                "name": "DOPPELG\u00c4NGER",
                "phone": "+39 0102925215",
                "shop": "clothes"
            }
        },
        {
            "type": "node",
            "id": 7889635660,
            "lat": 44.424844,
            "lon": 8.814064,
            "timestamp": "2024-04-14T08:09:44Z",
            "version": 5,
            "changeset": 149980582,
            "user": "Chiarant",
            "uid": 18452174,
            "tags": {
                "addr:city": "Genova",
                "addr:housenumber": "235r",
                "addr:postcode": "16156",
                "addr:street": "Lungomare di Pegli",
                "amenity": "atm",
                "check_date": "2024-04-14",
                "currency:XBT": "yes",
                "description": "Bitcoin ATM che permette di acquistare Bitcoin, Ethereum, Litecoin, Dogecoin, Bitcoin Cash, Dash, Monero. L'ATM \u00e8 situato all'interno del negozio Ottico Rattaro.",
                "email": "support@cryptolocalatm.com",
                "name": "CryptoLocalATM C/o Ottico Rattaro",
                "website": "https://cryptolocalatm.com"
            }
        },
        {
            "type": "node",
            "id": 8482436005,
            "lat": 44.4274761,
            "lon": 8.7785353,
            "timestamp": "2023-10-16T12:47:00Z",
            "version": 5,
            "changeset": 142664664,
            "user": "Igor Bubelov",
            "uid": 2104834,
            "tags": {
                "addr:city": "Genova",
                "addr:housenumber": "1",
                "addr:postcode": "16100",
                "addr:street": "Via Taggia",
                "check_date": "2023-06-25",
                "consulting": "marketing",
                "currency:XBT": "yes",
                "description": "Digital marketing e comunicazione, web design, grafica, social media, SEO e SEM.",
                "email": "info@managerads.it",
                "name": "Manager Ads",
                "office": "advertising_agency",
                "phone": "+39 010 84 802 95",
                "website": "https://managerads.it"
            }
        },
        {
            "type": "node",
            "id": 9757907692,
            "lat": 44.4090541,
            "lon": 8.9557045,
            "timestamp": "2024-02-19T04:19:45Z",
            "version": 4,
            "changeset": 147632629,
            "user": "Igor Bubelov",
            "uid": 2104834,
            "tags": {
                "addr:city": "Genova",
                "addr:housenumber": "165",
                "addr:postcode": "16142",
                "addr:street": "Corso Sardegna",
                "amenity": "fast_food",
                "check_date": "2023-11-17",
                "cuisine": "kebab",
                "currency:XBT": "yes",
                "diet:vegan": "yes",
                "diet:vegetarian": "yes",
                "name": "Kebhouze",
                "payment:lightning": "yes",
                "payment:lightning_contactless": "yes",
                "payment:onchain": "yes",
                "website": "https://kebhouze.com/"
            }
        },
        {
            "type": "node",
            "id": 10116684680,
            "lat": 44.4097991,
            "lon": 8.9400911,
            "timestamp": "2024-02-17T10:54:53Z",
            "version": 4,
            "changeset": 147565309,
            "user": "Igor Bubelov",
            "uid": 2104834,
            "tags": {
                "addr:city": "Genova",
                "addr:housenumber": "20r",
                "addr:postcode": "16121",
                "addr:street": "Via dei Santi Giacomo e Filippo",
                "check_date": "2022-10-20",
                "currency:XBT": "yes",
                "description": "Negozio per animali a Genova, in centro. Mangimi e accessori per cani e gatti.",
                "email": "lacucciadileo@libero.it",
                "name": "La cuccia di Leo",
                "phone": "+39 010581970",
                "shop": "pet"
            }
        },
        {
            "type": "node",
            "id": 10766224644,
            "lat": 44.4125762,
            "lon": 8.8831936,
            "timestamp": "2023-08-01T12:12:04Z",
            "version": 3,
            "changeset": 139297484,
            "user": "Igor Bubelov",
            "uid": 2104834,
            "tags": {
                "addr:city": "Genova",
                "addr:housenumber": "15",
                "addr:postcode": "16149",
                "addr:street": "Via Fiumara",
                "check_date": "2023-03-27",
                "clothes": "men",
                "currency:XBT": "yes",
                "name": "DOPPELG\u00c4NGER",
                "phone": "0106454980",
                "shop": "clothes",
                "website": "https://www.doppelganger.it/it/"
            }
        },
        {
            "type": "node",
            "id": 10788363560,
            "lat": 44.4125457,
            "lon": 8.8822408,
            "timestamp": "2023-08-04T04:51:48Z",
            "version": 3,
            "changeset": 139421792,
            "user": "Igor Bubelov",
            "uid": 2104834,
            "tags": {
                "addr:city": "Genova",
                "addr:housenumber": "15/16",
                "addr:postcode": "16149",
                "addr:street": "Via Fiumara",
                "check_date": "2023-04-05",
                "clothes": "men",
                "currency:XBT": "yes",
                "name": "Nuvolari c.c. Fiumara",
                "phone": "0107980042",
                "shop": "clothes"
            }
        },
        {
            "type": "node",
            "id": 10844335675,
            "lat": 44.4119347,
            "lon": 8.9395141,
            "timestamp": "2023-04-26T17:06:20Z",
            "version": 1,
            "changeset": 135395767,
            "user": "Chiarant",
            "uid": 18452174,
            "tags": {
                "addr:city": "Genova",
                "addr:housenumber": "10",
                "addr:postcode": "16122",
                "addr:street": "Via Palestro",
                "check_date": "2023-04-26",
                "currency:XBT": "yes",
                "name": "Studio Sciandra & Associati - Genova",
                "office": "accountant",
                "phone": "010 856 8243",
                "website": "https://www.studiosciandra.com"
            }
        },
        {
            "type": "node",
            "id": 11037816659,
            "lat": 44.4043076,
            "lon": 8.9480556,
            "timestamp": "2024-02-17T05:55:55Z",
            "version": 3,
            "changeset": 147557614,
            "user": "Igor Bubelov",
            "uid": 2104834,
            "tags": {
                "addr:city": "Genova",
                "addr:housenumber": "40",
                "addr:postcode": "16129",
                "addr:street": "Piazza Borgo Pila",
                "check_date": "2023-07-10",
                "currency:XBT": "yes",
                "name": "ABIRK ITALIA",
                "office": "it",
                "website": "https://www.abirk.com/"
            }
        },
        {
            "type": "node",
            "id": 11925827361,
            "lat": 44.4051032,
            "lon": 8.9492792,
            "timestamp": "2024-06-11T19:41:48Z",
            "version": 4,
            "changeset": 152559244,
            "user": "Rockedf",
            "uid": 7522075,
            "tags": {
                "addr:city": "Genova",
                "addr:housenumber": "65",
                "addr:postcode": "16129",
                "addr:street": "Via Giovanni Tommaso Invrea",
                "amenity": "atm",
                "cash_in": "yes",
                "cash_out": "yes",
                "cash_withdrawal": "yes",
                "check_date": "2024-05-22",
                "contact:email": "support@shitcoins.club",
                "contact:facebook": "https://www.facebook.com/shitcoins.club",
                "contact:instagram": "https://www.instagram.com/shitcoinsclub",
                "contact:telegram": "https://t.me/shitcoinsclub",
                "contact:twitter": "https://twitter.com/BitomatCom",
                "currency:CHF": "yes",
                "currency:DASH": "yes",
                "currency:ETH": "yes",
                "currency:EUR": "yes",
                "currency:GBP": "yes",
                "currency:HUF": "yes",
                "currency:LTC": "yes",
                "currency:RON": "yes",
                "currency:USD": "yes",
                "currency:USDC": "yes",
                "currency:USDT": "yes",
                "currency:XBT": "yes",
                "indoor": "yes",
                "name": "Bitcoin ATM - Shitcoins.club",
                "opening_hours": "24/7",
                "operator": "Shitcoins.club",
                "payment:cash": "yes",
                "payment:lightning": "no",
                "payment:lightning_contactless": "no",
                "payment:onchain": "yes",
                "phone": "+39 34 8048 7308",
                "website": "https://shitcoins.club/localizzazione-atm/atm-bitcoin-genova-via-giovanni-tommaso-invrea"
            }
        }
    ]
}