{
    "id": "bitcoin-pordenone",
    "name": "Bitcoin Pordenone",
    "lng": 45.9628504,
    "lat": 12.6551973,
    "localita": "Pordenone",
    "telegram_weburl": "https://web.telegram.org/a/#-1001742172532",
    "telegram_app": "https://t.me/bitcoinpordenone",
    "telegram_members": 23.0,
    "network": "bitcoinbeer",
    "poi": [
        {
            "type": "node",
            "id": 3765116375,
            "lat": 45.9582864,
            "lon": 12.6622506,
            "timestamp": "2023-03-03T06:26:24Z",
            "version": 6,
            "changeset": 133237405,
            "user": "Igor Bubelov",
            "uid": 2104834,
            "tags": {
                "addr:city": "Pordenone",
                "addr:housenumber": "5",
                "addr:postcode": "33170",
                "addr:street": "Piazzetta dei Domenicani",
                "check_date:currency:XBT": "2023-03-03",
                "currency:XBT": "yes",
                "name": "Zeta Gold Banco Metalli",
                "shop": "gold_buyer",
                "website": "https://www.francopadovan.com/"
            }
        },
        {
            "type": "node",
            "id": 10718692223,
            "lat": 45.9584492,
            "lon": 12.6586746,
            "timestamp": "2024-02-19T21:10:46Z",
            "version": 2,
            "changeset": 147668334,
            "user": "Chiarant",
            "uid": 18452174,
            "tags": {
                "addr:city": "Pordenone",
                "addr:housenumber": "29",
                "addr:postcode": "33170",
                "addr:street": "Piazzale Venti Settembre",
                "check_date": "2024-02-19",
                "currency:XBT": "yes",
                "email": "info@valbershop.it",
                "name": "Valber Shop - Only Pordenone",
                "phone": "+39 0434 177 7825",
                "shop": "clothes",
                "website": "https://www.valbershop.it/"
            }
        },
        {
            "type": "node",
            "id": 11600298458,
            "lat": 45.7886513,
            "lon": 12.6778123,
            "timestamp": "2024-02-09T00:49:18Z",
            "version": 1,
            "changeset": 147237744,
            "user": "Carlofrc",
            "uid": 588899,
            "tags": {
                "addr:city": "Annone Veneto",
                "addr:housenumber": "30/A",
                "addr:postcode": "30020",
                "addr:street": "Via Oltrefossa",
                "check_date:currency:XBT": "2023-02-21",
                "currency:XBT": "yes",
                "email": "netwir@netwir.com",
                "fax": "+39 0422 868437",
                "name": "Network & Wireless SRL",
                "office": "telecommunication",
                "opening_hours": "09:00-12:00,15:00-19:00",
                "operator": "INFORMATION & COMMUNICATIONS TECHNOLOGY",
                "payment:cash": "yes",
                "payment:coins": "yes",
                "payment:debit_cards": "no",
                "payment:litecoin": "yes",
                "payment:maestro": "no",
                "payment:mastercard": "yes",
                "payment:visa": "yes",
                "phone": "+39 0422 868082",
                "website": "https://www.netwir.com",
                "wheelchair": "limited"
            }
        },
        {
            "type": "node",
            "id": 11980916898,
            "lat": 46.0301992,
            "lon": 12.5164386,
            "timestamp": "2024-06-14T14:15:47Z",
            "version": 2,
            "changeset": 152681319,
            "user": "Maarmolada Art",
            "uid": 21657162,
            "tags": {
                "addr:city": "Polcenigo",
                "addr:housenumber": "17",
                "addr:postcode": "33070",
                "addr:street": "Via Pizzoch",
                "currency:XBT": "yes",
                "name": "Maarmolada Art",
                "opening_hours": "Mo-Su 10:00-22:00",
                "payment:contactless": "no",
                "payment:lightning": "yes",
                "payment:onchain": "no",
                "survey:date": "2024-01-01",
                "tourism": "gallery",
                "website": "https://linktr.ee/Ma.armoladaArt?fbclid=PAZXh0bgNhZW0CMTEAAab21UrFK8GPO9qQpBG1sLHqZAghQhylICmYogHy_rvxFkkjjHose8qtG74_aem_ZmFrZWR1bW15MTZieXRlcw"
            }
        }
    ]
}