{
    "id": "bitticcistation",
    "name": "Bitticci Station",
    "lng": 43.1802884,
    "lat": 13.7746607,
    "localita": "Porto San Giorgio (FM)",
    "idlocalita": "portosangiorgio",
    "facebook": "https://www.facebook.com/groups/242104434979365",
    "telegram_members": 395.0,
    "network": "meetup.com",
    "poi": [
        {
            "type": "node",
            "id": 6070906250,
            "lat": 43.5206137,
            "lon": 13.55757,
            "timestamp": "2024-09-25T08:19:37Z",
            "version": 13,
            "changeset": 157069869,
            "user": "mpbin",
            "uid": 21850090,
            "tags": {
                "addr:city": "Camerano",
                "addr:postcode": "60021",
                "addr:street": "Via Luigi Einaudi",
                "check_date": "2024-09-25",
                "check_date:currency:XBT": "2024-09-25",
                "currency:XBT": "yes",
                "description": "Servizi di Consulenza, Formazione, Progettazione. Risk Management, Salute e Sicurezza sul Lavoro, Corsi di Formazione D.Lgs. 81/2008",
                "email": "contattaci@agrsicurezza.com",
                "name": "AGRsicurezza",
                "office": "occupational_safety",
                "phone": "+39 071 8760 041",
                "website": "https://www.agrsicurezza.it"
            }
        },
        {
            "type": "node",
            "id": 7632632759,
            "lat": 42.8371423,
            "lon": 13.8994662,
            "timestamp": "2024-10-12T18:19:53Z",
            "version": 4,
            "changeset": 157808312,
            "user": "mpbin",
            "uid": 21850090,
            "tags": {
                "addr:city": "Colonnella",
                "addr:postcode": "64010",
                "addr:street": "Centro Commerciale Arcobaleno",
                "brand": "Mondo Convenienza",
                "brand:wikidata": "Q55830962",
                "check_date:currency:XBT": "2023-07-31",
                "contact:facebook": "https://www.facebook.com/mondoconv/",
                "currency:XBT": "yes",
                "name": "Mondo Convenienza",
                "opening_hours": "Mo-Su 09:30-20:30",
                "phone": "+39 06 91515",
                "shop": "furniture",
                "website": "https://www.mondoconv.it/"
            }
        },
        {
            "type": "node",
            "id": 10554651585,
            "lat": 43.2174824,
            "lon": 13.3064053,
            "timestamp": "2024-05-20T19:58:37Z",
            "version": 3,
            "changeset": 151598237,
            "user": "Protocolli Creativi srl",
            "uid": 18273465,
            "tags": {
                "addr:city": "Tolentino",
                "addr:housenumber": "1",
                "addr:postcode": "62029",
                "addr:street": "Viale Concordia",
                "check_date:currency:XBT": "2023-01-14",
                "currency:XBT": "yes",
                "description": "Software house",
                "email": "info@protocollicreativi.it",
                "name": "Protocolli Creativi srl",
                "office": "it",
                "opening_hours": "Mo-Fr 10:00-13:00, 15:00-19:00",
                "payment:lightning": "yes",
                "payment:lightning_contactless": "yes",
                "payment:onchain": "yes",
                "phone": "+39 0733 974921",
                "website": "https://www.protocollicreativi.it/"
            }
        },
        {
            "type": "node",
            "id": 10566976132,
            "lat": 43.2217632,
            "lon": 13.4651049,
            "timestamp": "2023-01-19T06:35:47Z",
            "version": 1,
            "changeset": 131449355,
            "user": "BSN21M",
            "uid": 17441326,
            "tags": {
                "addr:city": "Petriolo",
                "addr:housenumber": "35",
                "addr:postcode": "62014",
                "addr:street": "Via Porta Nuova",
                "check_date:currency:XBT": "2023-01-19",
                "currency:XBT": "yes",
                "name": "Natali Calzature",
                "opening_hours": "Mo-Sa 16:30-19:30",
                "payment:lightning": "yes",
                "payment:lightning_contactless": "no",
                "payment:onchain": "yes",
                "phone": "+39 339 613 4291",
                "shop": "shoes",
                "website": "https://natalicalzature.business.site"
            }
        },
        {
            "type": "node",
            "id": 10852549720,
            "lat": 43.1968639,
            "lon": 13.7879854,
            "timestamp": "2024-10-08T19:39:31Z",
            "version": 4,
            "changeset": 157643567,
            "user": "mpbin",
            "uid": 21850090,
            "tags": {
                "addr:city": "Porto San Giorgio",
                "addr:housenumber": "25",
                "addr:postcode": "63822",
                "addr:street": "via Abruzzo",
                "check_date": "2024-10-08",
                "check_date:currency:XBT": "2024-10-08",
                "currency:XBT": "yes",
                "email": "betasrls01@gmail.com",
                "name": "Studio BETA SRLS",
                "opening_hours": "Mo-Fr 09:00-17:00",
                "payment:onchain": "yes",
                "telecom": "data_center"
            }
        },
        {
            "type": "node",
            "id": 10862567240,
            "lat": 43.2302873,
            "lon": 13.6848136,
            "timestamp": "2024-07-05T19:57:27Z",
            "version": 2,
            "changeset": 153602893,
            "user": "mauropili",
            "uid": 1496865,
            "tags": {
                "addr:city": "Sant'Elpidio a Mare",
                "addr:housenumber": "64",
                "addr:postcode": "63811",
                "addr:street": "Corso Baccio",
                "amenity": "restaurant",
                "check_date": "2023-05-02",
                "contact:facebook": "https://www.facebook.com/ipozzacci",
                "cuisine": "italian",
                "currency:XBT": "yes",
                "name": "I Pozzacci",
                "phone": "+390734466623"
            }
        },
        {
            "type": "node",
            "id": 11417096286,
            "lat": 43.1604826,
            "lon": 13.7877303,
            "timestamp": "2024-01-05T15:52:55Z",
            "version": 5,
            "changeset": 145927855,
            "user": "Chiarant",
            "uid": 18452174,
            "tags": {
                "addr:city": "Fermo",
                "addr:housenumber": "111",
                "addr:postcode": "63900",
                "addr:street": "Via Francesco Egidi",
                "check_date": "2024-01-05",
                "currency:XBT": "yes",
                "email": "info@coworkingfermo.com",
                "internet_access": "yes",
                "internet_access:fee": "customers",
                "mobile": "+39 338 1450 312",
                "name": "Studio Civico 111",
                "office": "coworking",
                "opening_hours": "24/7",
                "payment:onchain": "yes",
                "phone": "+39 0734 300983",
                "website": "https://coworkingfermo.com/"
            }
        },
        {
            "type": "node",
            "id": 11663889123,
            "lat": 43.1624728,
            "lon": 13.7965583,
            "timestamp": "2024-11-06T14:02:19Z",
            "version": 3,
            "changeset": 158819584,
            "user": "mpbin",
            "uid": 21850090,
            "tags": {
                "addr:city": "Fermo",
                "addr:housenumber": "181",
                "addr:postcode": "63900",
                "addr:street": "Via Francesco Egidi",
                "check_date": "2024-02-26",
                "contact:facebook": "https://www.facebook.com/gentlemanleathercare",
                "contact:instagram": "https://www.instagram.com/gentlemanleathercare/",
                "currency:XBT": "yes",
                "description": "Azienda specializzata nella produzione di materiali vernicianti per le pelli, per la loro ricostruzione e il loro mantenimento.",
                "email": "gentlemanleathercare@gmail.com",
                "name": "Gentleman Leather Care",
                "payment:lightning": "yes",
                "payment:onchain": "yes",
                "phone": "+39 0734 302677",
                "shop": "paint",
                "website": "https://www.gentlemanleathercare.com/"
            }
        },
        {
            "type": "node",
            "id": 11663940504,
            "lat": 43.1624355,
            "lon": 13.7966382,
            "timestamp": "2024-11-06T14:08:39Z",
            "version": 6,
            "changeset": 158819818,
            "user": "mpbin",
            "uid": 21850090,
            "tags": {
                "addr:city": "Fermo",
                "addr:housenumber": "181",
                "addr:postcode": "63900",
                "addr:street": "Via Francesco Egidi",
                "check_date": "2024-09-21",
                "check_date:currency:XBT": "2024-09-21",
                "contact:facebook": "https://www.facebook.com/sscgaragedetailer",
                "contact:instagram": "https://www.instagram.com/sscgarage/",
                "contact:twitter": "https://x.com/GarageSsc",
                "currency:XBT": "yes",
                "email": "info@sscgarage.com",
                "name": "SSC Garage di Mem\u00e8 Michele",
                "payment:lightning": "yes",
                "payment:onchain": "yes",
                "phone": "+39 0734 302677",
                "shop": "car_repair",
                "website": "https://www.sscgarage.com/"
            }
        },
        {
            "type": "node",
            "id": 11874406150,
            "lat": 43.4896528,
            "lon": 13.4958801,
            "timestamp": "2024-05-11T10:02:16Z",
            "version": 4,
            "changeset": 151178709,
            "user": "totera",
            "uid": 123412,
            "tags": {
                "addr:city": "Osimo",
                "addr:housenumber": "100",
                "addr:postcode": "60027",
                "addr:street": "Via Marco Polo",
                "check_date": "2024-05-03",
                "currency:XBT": "yes",
                "name": "Erboristeria Naturalmente",
                "opening_hours": "Mo-Su 09:00-13:00,16:00-20:00",
                "payment:cash": "yes",
                "payment:credit_cards": "yes",
                "payment:debit_cards": "yes",
                "payment:lightning": "yes",
                "payment:lightning_contactless": "no",
                "payment:onchain": "no",
                "phone": "+39 071 7132123",
                "shop": "herbalist"
            }
        },
        {
            "type": "node",
            "id": 11919478635,
            "lat": 43.1795188,
            "lon": 13.7930083,
            "timestamp": "2024-05-20T10:06:54Z",
            "version": 1,
            "changeset": 151570849,
            "user": "Chiarant",
            "uid": 18452174,
            "tags": {
                "addr:city": "Porto San Giorgio",
                "addr:housenumber": "17",
                "addr:postcode": "63822",
                "addr:street": "Corso Castel San Giorgio",
                "amenity": "pub",
                "check_date": "2024-05-20",
                "contact:facebook": "https://www.facebook.com/lalocurapsg/",
                "cuisine": "burger",
                "currency:XBT": "yes",
                "email": "lalocurapsg@gmail.com",
                "name": "La Locura Bistrot",
                "payment:lightning": "yes",
                "payment:onchain": "yes",
                "phone": "+39 327 1352526"
            }
        },
        {
            "type": "node",
            "id": 11920480577,
            "lat": 43.4778625,
            "lon": 13.6301502,
            "timestamp": "2024-07-06T07:15:13Z",
            "version": 2,
            "changeset": 153612617,
            "user": "mauropili",
            "uid": 1496865,
            "tags": {
                "addr:city": "Numana",
                "check_date": "2024-05-20",
                "currency:XBT": "yes",
                "leisure": "resort",
                "name": "Resort Estivo",
                "payment:lightning": "yes",
                "payment:lightning_contactless": "yes",
                "payment:onchain": "yes",
                "phone": "+39 33 8761 1076",
                "website": "https://www.subito.it/vi/551785629.htm"
            }
        },
        {
            "type": "node",
            "id": 11938388563,
            "lat": 43.4832789,
            "lon": 13.4930931,
            "timestamp": "2024-05-29T04:05:55Z",
            "version": 2,
            "changeset": 151969827,
            "user": "totera",
            "uid": 123412,
            "tags": {
                "addr:city": "Osimo",
                "addr:housenumber": "15",
                "addr:postcode": "60027",
                "addr:street": "Via Cristoforo Colombo",
                "check_date": "2024-05-27",
                "currency:XBT": "yes",
                "name": "Tabaccheria Colombo",
                "payment:lightning": "yes",
                "payment:lightning_contactless": "no",
                "payment:onchain": "no",
                "shop": "tobacco"
            }
        },
        {
            "type": "node",
            "id": 11954201749,
            "lat": 42.8866527,
            "lon": 13.9122053,
            "timestamp": "2024-11-06T14:12:18Z",
            "version": 4,
            "changeset": 158819964,
            "user": "mpbin",
            "uid": 21850090,
            "tags": {
                "addr:city": "Martinsicuro",
                "addr:housenumber": "28",
                "addr:postcode": "64014",
                "addr:street": "Via Piemonte",
                "check_date": "2024-10-30",
                "check_date:currency:XBT": "2024-10-30",
                "contact:facebook": "https://www.facebook.com/primopierantozzi.coach",
                "currency:XBT": "yes",
                "name": "DR PRIMO PIERANTOZZI - Mental coach professionista",
                "office": "company",
                "payment:lightning": "yes",
                "payment:onchain": "yes",
                "phone": "+39 331 113 7193",
                "website": "https://www.pierantozzi.it/"
            }
        },
        {
            "type": "node",
            "id": 11975336450,
            "lat": 43.3086104,
            "lon": 13.7271027,
            "timestamp": "2024-09-21T18:44:16Z",
            "version": 2,
            "changeset": 156924689,
            "user": "mpbin",
            "uid": 21850090,
            "tags": {
                "addr:city": "Civitanova Marche",
                "addr:housenumber": "88",
                "addr:postcode": "62012",
                "addr:street": "Corso Umberto I",
                "check_date": "2024-06-12",
                "currency:XBT": "yes",
                "name": "Vittoria Profumi",
                "shop": "perfumery",
                "website": "https://www.vittoriaprofumi.com/"
            }
        },
        {
            "type": "node",
            "id": 12003242084,
            "lat": 42.8969965,
            "lon": 13.6623472,
            "timestamp": "2024-06-25T14:47:52Z",
            "version": 3,
            "changeset": 153161122,
            "user": "Rockedf",
            "uid": 7522075,
            "tags": {
                "addr:city": "Appignano del Tronto",
                "addr:housenumber": "29",
                "addr:postcode": "63083",
                "addr:street": "Via Dante Alighieri",
                "check_date": "2024-06-24",
                "check_date:currency:XBT": "2024-06-25",
                "currency:XBT": "yes",
                "email": "dinicolodanilo@gmail.com",
                "name": "Studio Tecnico Di Nicol\u00f2",
                "office": "consulting",
                "payment:lightning": "yes",
                "payment:onchain": "yes",
                "phone": "+39 347 6314795",
                "website": "http://www.studiotecnicodinicolo.it/"
            }
        },
        {
            "type": "node",
            "id": 12049222891,
            "lat": 43.1780612,
            "lon": 13.7953845,
            "timestamp": "2024-07-30T08:18:45Z",
            "version": 3,
            "changeset": 154593999,
            "user": "totera",
            "uid": 123412,
            "tags": {
                "addr:city": "Porto San Giorgio",
                "addr:housenumber": "72",
                "addr:postcode": "63822",
                "addr:street": "Via Raffaele Tombolini",
                "check_date": "2024-07-12",
                "currency:XBT": "yes",
                "name": "Parrucchieria Umbertina",
                "operator": "Giovanni Ciucani",
                "payment:lightning": "yes",
                "payment:onchain": "yes",
                "phone": "+39 0734 675306",
                "shop": "hairdresser"
            }
        }
    ],
    "telegram": []
}