{
    "id": "salento-b",
    "name": "Salento Bitcoin",
    "lng": 40.39725,
    "lat": 17.92136,
    "localita": "Salento",
    "idlocalita": "lecce",
    "telegram_weburl": "https://web.telegram.org/a/#-1002453649692",
    "telegram_app": "https://t.me/salentobitcoin",
    "telegram_members": 9.0,
    "poi": [
        {
            "type": "node",
            "id": 966930236,
            "lat": 40.1733506,
            "lon": 18.0346497,
            "timestamp": "2024-12-31T17:39:31Z",
            "version": 3,
            "changeset": 160842849,
            "user": "mpbin",
            "uid": 21850090,
            "tags": {
                "addr:city": "Nard\u00f2",
                "addr:housenumber": "33",
                "addr:postcode": "73048",
                "addr:street": "Via John Fitzgerald Kennedy",
                "name": "Unieuro",
                "operator": "Unieuro S.p.A.",
                "shop": "supermarket",
                "wheelchair": "yes"
            }
        },
        {
            "type": "node",
            "id": 4242939306,
            "lat": 40.7221146,
            "lon": 17.5776397,
            "timestamp": "2025-01-01T17:59:01Z",
            "version": 5,
            "changeset": 160879074,
            "user": "mpbin",
            "uid": 21850090,
            "tags": {
                "addr:city": "Ostuni",
                "addr:housenumber": "103/105",
                "addr:postcode": "72017",
                "addr:street": "Via Papa Giovanni XXIII",
                "branch": "City",
                "brand": "Unieuro",
                "brand:wikidata": "Q4004687",
                "name": "Unieuro",
                "operator": "Unieuro S.p.A.",
                "shop": "electronics"
            }
        },
        {
            "type": "node",
            "id": 4392833125,
            "lat": 40.3581997,
            "lon": 18.1793325,
            "timestamp": "2024-10-21T19:28:58Z",
            "version": 4,
            "changeset": 158184830,
            "user": "mpbin",
            "uid": 21850090,
            "tags": {
                "addr:city": "Lecce",
                "addr:housenumber": "11",
                "addr:postcode": "73100",
                "addr:street": "Piazza Ludovico Ariosto",
                "check_date": "2024-10-21",
                "check_date:currency:XBT": "2024-10-21",
                "contact:facebook": "https://www.facebook.com/casadellachiavesnc/",
                "craft": "key_cutter",
                "currency:XBT": "yes",
                "email": "info@casadellachiavesnc.com",
                "entrance": "yes",
                "mobile": "+39 320 61 95 681",
                "name": "Casa della Chiave",
                "phone": "+39 0832 16 90 971",
                "website": "https://www.casadellachiavesnc.com/"
            }
        },
        {
            "type": "node",
            "id": 5216221125,
            "lat": 40.7271146,
            "lon": 17.5763196,
            "timestamp": "2024-01-05T15:56:18Z",
            "version": 4,
            "changeset": 145927969,
            "user": "Chiarant",
            "uid": 18452174,
            "tags": {
                "addr:city": "Ostuni",
                "addr:housenumber": "67/b",
                "addr:postcode": "72017",
                "addr:street": "Via Pola",
                "check_date": "2024-01-05",
                "currency:XBT": "yes",
                "description": "Gioielleria e laboratorio di incastonatura pietre preziose.",
                "email": "clamagioielli@gmail.com",
                "name": "Clama Gioielli",
                "phone": "+39 3208818751",
                "shop": "jewelry",
                "website": "http://www.clamagioielli.com"
            }
        },
        {
            "type": "node",
            "id": 5311134812,
            "lat": 40.3594004,
            "lon": 18.1839147,
            "timestamp": "2025-01-01T18:36:26Z",
            "version": 3,
            "changeset": 160880187,
            "user": "mpbin",
            "uid": 21850090,
            "tags": {
                "addr:city": "Lecce",
                "addr:housenumber": "5",
                "addr:postcode": "73024",
                "addr:street": "Viale Giovanni Paolo Secondo",
                "name": "Unieuro",
                "operator": "Unieuro S.p.A.",
                "shop": "electronics"
            }
        },
        {
            "type": "node",
            "id": 5660407521,
            "lat": 40.2950741,
            "lon": 17.8548774,
            "timestamp": "2024-12-30T23:05:53Z",
            "version": 2,
            "changeset": 160813566,
            "user": "mpbin",
            "uid": 21850090,
            "tags": {
                "addr:city": "Porto Cesareo",
                "addr:housenumber": "SNC",
                "addr:postcode": "73010",
                "addr:street": "Via Giacomo Zanella",
                "name": "Conad",
                "operator": "Conad",
                "shop": "supermarket"
            }
        },
        {
            "type": "node",
            "id": 7505642383,
            "lat": 40.2933259,
            "lon": 18.1976235,
            "timestamp": "2023-11-28T16:58:02Z",
            "version": 5,
            "changeset": 144557211,
            "user": "\u0110uro Ji\u0159\u00ed",
            "uid": 14617702,
            "tags": {
                "addr:city": "Cavallino",
                "addr:postcode": "73020",
                "addr:street": "Strada Statale 16 Adriatica",
                "amenity": "pharmacy",
                "dispensing": "no",
                "healthcare": "pharmacy",
                "name": "Parafarmacia Conad",
                "opening_hours": "Mo-Sa 09:00-21:00; Su 10:00-21:00",
                "operator": "Conad",
                "wheelchair": "yes"
            }
        },
        {
            "type": "node",
            "id": 11131394236,
            "lat": 40.2987932,
            "lon": 17.5617862,
            "timestamp": "2024-08-31T17:20:11Z",
            "version": 6,
            "changeset": 156025357,
            "user": "mpbin",
            "uid": 21850090,
            "tags": {
                "addr:city": "Campomarino di Maruggio",
                "addr:postcode": "74020",
                "addr:street": "Via Giovanni Boccaccio",
                "amenity": "ice_cream",
                "check_date": "2023-08-20",
                "contact:facebook": "https://www.facebook.com/people/Gelateria-La-Meringa-Campomarino/100063479922816/",
                "currency:XBT": "yes",
                "indoor_seating": "yes",
                "name": "Gelateria La Meringa",
                "outdoor_seating": "yes",
                "payment:cash": "yes",
                "payment:credit_cards": "yes",
                "payment:debit_cards": "yes",
                "phone": "+393279937879"
            }
        },
        {
            "type": "node",
            "id": 11352633653,
            "lat": 40.6392398,
            "lon": 17.9473827,
            "timestamp": "2025-01-02T10:54:38Z",
            "version": 5,
            "changeset": 160901394,
            "user": "mpbin",
            "uid": 21850090,
            "tags": {
                "addr:city": "Brindisi",
                "addr:housenumber": "7b",
                "addr:postcode": "72100",
                "addr:street": "Vicolo Amena",
                "check_date": "2024-10-18",
                "check_date:currency:XBT": "2024-10-18",
                "contact:instagram": "https://www.instagram.com/cripta.tattoo/",
                "currency:XBT": "yes",
                "description": "Studio professionale di tatuaggi.",
                "email": "tattoo.cripta@gmail.com",
                "name": "Cripta Tattoo",
                "phone": "+393894958272",
                "shop": "tattoo"
            }
        },
        {
            "type": "node",
            "id": 11775351701,
            "lat": 40.5281371,
            "lon": 17.5842733,
            "timestamp": "2024-03-31T13:13:59Z",
            "version": 1,
            "changeset": 149389955,
            "user": "Rockedf",
            "uid": 7522075,
            "tags": {
                "addr:city": "Francavilla Fontana",
                "addr:housenumber": "25",
                "addr:postcode": "72021",
                "addr:street": "Via Francesco Ribezzo",
                "check_date": "2024-03-31",
                "currency:XBT": "yes",
                "guest_house": "bed_and_breakfast",
                "name": "Laura Memmola",
                "opening_hours": "24/7",
                "payment:lightning": "yes",
                "payment:lightning_contactless": "yes",
                "payment:onchain": "yes",
                "phone": "+39 32 8151 6560",
                "tourism": "guest_house",
                "website": "https://www.vacation-bookings.com/d/54687750?locale=it_IT&utm_source=web_share&utm_term=CLIPBOARD"
            }
        },
        {
            "type": "node",
            "id": 12324609959,
            "lat": 40.4984508,
            "lon": 17.6433669,
            "timestamp": "2025-01-02T12:10:50Z",
            "version": 2,
            "changeset": 160904209,
            "user": "mpbin",
            "uid": 21850090,
            "tags": {
                "addr:city": "Oria",
                "addr:housenumber": "2",
                "addr:postcode": "72024",
                "addr:street": "Piazza Albanese",
                "amenity": "bar",
                "contact:facebook": "https://www.facebook.com/p/Caveau-ExperienceBar-Oria-61555244900593/",
                "contact:instagram": "https://www.instagram.com/caveau_oria/",
                "currency:XBT": "yes",
                "email": "info@caveaubar.it",
                "name": "Caveau Bar",
                "phone": "+39 350 126 5170"
            }
        },
        {
            "type": "node",
            "id": 12434177691,
            "lat": 39.9685192,
            "lon": 18.0184489,
            "timestamp": "2024-12-19T19:14:45Z",
            "version": 2,
            "changeset": 160407367,
            "user": "FrancescoTricarico",
            "uid": 22304586,
            "tags": {
                "addr:city": "Marina di Mancaversa",
                "addr:housenumber": "20",
                "addr:postcode": "73057",
                "addr:street": "Via Arno",
                "currency:XBT": "yes",
                "guest_house": "guest_house",
                "name": "Il Rifugio dei Marinai",
                "tourism": "guest_house"
            }
        }
    ],
    "telegram": []
}