{
    "id": "ss-albenga",
    "name": "Satoshi Spritz Albenga",
    "lng": 44.049114,
    "lat": 8.213017,
    "localita": "Albenga",
    "telegram_weburl": "https://web.telegram.org/a/#-1001936842828",
    "telegram_app": "https://t.me/SatoshiSpritzAlbenga",
    "telegram_members": 44.0,
    "network": "satoshispritz",
    "poi": [
        {
            "type": "node",
            "id": 10758549586,
            "lat": 43.9503526,
            "lon": 8.1399516,
            "timestamp": "2023-08-01T11:53:55Z",
            "version": 4,
            "changeset": 139296647,
            "user": "Igor Bubelov",
            "uid": 2104834,
            "tags": {
                "addr:city": "Andora",
                "addr:housenumber": "54",
                "addr:postcode": "17051",
                "addr:street": "Via Carminati",
                "air_conditioning": "yes",
                "check_date": "2023-03-24",
                "consulting": "contabilit\u00e0;paghe;marketing;comunicazione;consulenza;bitcoin;digitalizzazione",
                "currency:XBT": "yes",
                "description": "Lo Studio Vanaude \u00e8 il centro elaborazione dati nato nel 1998 da Roberto Vandini e Cristina Vottero.\nLo Studio Vanaude offre servizi professionali di contabilit\u00e0, paghe, marketing, comunicazione, consulenza Bitcoin e digitalizzazione aziendale.",
                "email": "studiovanaude@gmail.com",
                "internet_access": "wlan",
                "name": "Studio Vanaude",
                "office": "accountant",
                "opening_hours": "Mo-Fr 09:00-19:00",
                "payment:lightning": "yes",
                "payment:lightning_contactless": "no",
                "payment:onchain": "yes",
                "phone": "+39 334 671 0703",
                "website": "https://twitter.com/studiovanaude"
            }
        },
        {
            "type": "node",
            "id": 11137206877,
            "lat": 44.0544817,
            "lon": 8.1947679,
            "timestamp": "2023-08-22T20:51:01Z",
            "version": 1,
            "changeset": 140246535,
            "user": "Chiarant",
            "uid": 18452174,
            "tags": {
                "addr:city": "Albenga",
                "addr:housenumber": "70",
                "addr:street": "Via Martiri della Foce",
                "amenity": "fast_food",
                "check_date": "2023-08-22",
                "contact:instagram": "https://www.instagram.com/sancio_official/",
                "cuisine": "hamburger;streetfood",
                "currency:XBT": "yes",
                "fast_food": "cafeteria",
                "name": "Caffetteria Da Sancio",
                "payment:lightning": "yes",
                "phone": "+39 3298521111"
            }
        },
        {
            "type": "node",
            "id": 11293357224,
            "lat": 43.9821205,
            "lon": 8.1319208,
            "timestamp": "2023-10-27T14:57:54Z",
            "version": 1,
            "changeset": 143215884,
            "user": "Chiarant",
            "uid": 18452174,
            "tags": {
                "addr:city": "Andora",
                "addr:housenumber": "32",
                "addr:street": "Via Giovanni Molineri",
                "amenity": "studio",
                "check_date": "2023-10-27",
                "currency:XBT": "yes",
                "description": "Servizio DJ, intrattenimento e registrazione audio in studio.",
                "name": "GEGE DeeJay",
                "payment:lightning": "yes",
                "payment:onchain": "yes",
                "phone": "+39 334 378 8217",
                "studio": "audio"
            }
        },
        {
            "type": "node",
            "id": 11379308458,
            "lat": 43.9512429,
            "lon": 8.1516771,
            "timestamp": "2023-11-27T10:29:47Z",
            "version": 1,
            "changeset": 144502151,
            "user": "Chiarant",
            "uid": 18452174,
            "tags": {
                "addr:city": "Marina di Andora",
                "addr:postcode": "17051",
                "addr:street": "Passeggiata Quaglia",
                "check_date": "2023-11-27",
                "currency:XBT": "yes",
                "leisure": "beach_resort",
                "name": "Bagni Garden",
                "payment:lightning": "yes",
                "payment:onchain": "yes",
                "phone": "+39 331 415 1692"
            }
        },
        {
            "type": "node",
            "id": 11384652694,
            "lat": 43.9772622,
            "lon": 8.1277016,
            "timestamp": "2023-11-29T22:36:42Z",
            "version": 1,
            "changeset": 144606147,
            "user": "Chiarant",
            "uid": 18452174,
            "tags": {
                "addr:city": "Andora",
                "addr:housenumber": "19",
                "addr:postcode": "17051",
                "addr:street": "Strada Comunale di Conna",
                "check_date": "2023-11-29",
                "currency:XBT": "yes",
                "description": "Interior Design and Home Couture.\nProgettazione di spazi residenziali e commerciali, prodotti per aziende e mobili su misura.",
                "email": "info@abretiodesign.it",
                "name": "Abretio Design",
                "office": "architect",
                "payment:lightning": "yes",
                "payment:onchain": "yes",
                "phone": "+39 333 766 2857",
                "website": "https://casainteriordesign.it/"
            }
        },
        {
            "type": "node",
            "id": 11425579746,
            "lat": 44.0031156,
            "lon": 8.070929,
            "timestamp": "2023-12-17T20:36:34Z",
            "version": 2,
            "changeset": 145228667,
            "user": "Rockedf",
            "uid": 7522075,
            "tags": {
                "addr:city": "Stellanello",
                "addr:housenumber": "68",
                "addr:place": "Frazione Costa",
                "addr:postcode": "17020",
                "check_date": "2023-12-17",
                "contact:email": "ambiente.giardini@gmail.com",
                "craft": "gardener",
                "currency:XBT": "yes",
                "name": "Ambiente & Giardini Srl",
                "opening_hours": "Mo-Sa 08:00-18:00",
                "payment:lightning": "yes",
                "payment:lightning_contactless": "yes",
                "payment:onchain": "yes",
                "phone": "+39 33 1909 5272",
                "website": "https://www.ambientegiardini.it/"
            }
        },
        {
            "type": "node",
            "id": 11561421743,
            "lat": 43.9509527,
            "lon": 8.1481815,
            "timestamp": "2024-01-28T22:21:12Z",
            "version": 1,
            "changeset": 146797065,
            "user": "Chiarant",
            "uid": 18452174,
            "tags": {
                "addr:city": "Andora",
                "addr:housenumber": "2",
                "addr:postcode": "17051",
                "addr:street": "Via Marco Polo",
                "addr:unit": "b",
                "amenity": "fast_food",
                "check_date": "2024-01-28",
                "cuisine": "pizza;kebab;farinata;focaccia",
                "currency:XBT": "yes",
                "description": "Asporto e consegne a domicilio",
                "name": "Pig\u00eea e P\u00f6rta A C\u00e1",
                "payment:lightning": "yes",
                "payment:onchain": "yes",
                "phone": "+39 334 251 7173",
                "website": "https://pigiaeportaaca.it/"
            }
        },
        {
            "type": "node",
            "id": 11564196741,
            "lat": 43.9573842,
            "lon": 8.1403823,
            "timestamp": "2024-01-29T13:11:05Z",
            "version": 1,
            "changeset": 146821426,
            "user": "Rockedf",
            "uid": 7522075,
            "tags": {
                "addr:city": "Marina di Andora SV",
                "addr:postcode": "17051",
                "addr:street": "Via Risorgimento",
                "check_date": "2024-01-29",
                "currency:XBT": "yes",
                "name": "Frutta e Verdura Nicoletta",
                "opening_hours": "We 08:30-12:00; Sa 08:30-12:00",
                "payment:lightning": "yes",
                "payment:lightning_contactless": "no",
                "payment:onchain": "yes",
                "phone": "+39 34 5415 4886",
                "shop": "greengrocer"
            }
        },
        {
            "type": "node",
            "id": 11967062960,
            "lat": 44.1475624,
            "lon": 8.2788506,
            "timestamp": "2024-06-09T16:52:25Z",
            "version": 1,
            "changeset": 152463713,
            "user": "Ale_Mj",
            "uid": 21640589,
            "tags": {
                "addr:city": "Pietra Ligure",
                "addr:housenumber": "24",
                "addr:postcode": "17027",
                "addr:street": "Via Suor Maria Giuseppa Rossello",
                "amenity": "dojo",
                "currency:XBT": "yes",
                "name": "Scuola Orientale Pietra Ligure",
                "opening_hours": "24/7",
                "payment:bancomat": "yes",
                "payment:credit_cards": "yes",
                "payment:lightning": "yes",
                "payment:lightning_contactless": "yes",
                "payment:mastercard": "yes",
                "payment:onchain": "yes",
                "payment:visa": "yes",
                "sport": "taijiquan;wing_chun;kung_fu;tai_chi",
                "survey:date": "2024-06-09"
            }
        },
        {
            "type": "node",
            "id": 11968251407,
            "lat": 44.1277711,
            "lon": 8.2501129,
            "timestamp": "2024-06-10T12:53:48Z",
            "version": 3,
            "changeset": 152496740,
            "user": "Ale_Mj",
            "uid": 21640589,
            "tags": {
                "addr:city": "Loano",
                "addr:housenumber": "23",
                "addr:postcode": "17025",
                "addr:street": "Via Dante Alighieri",
                "currency:XBT": "yes",
                "male": "yes",
                "name": "Parrucchiere Massimo",
                "payment:lightning": "yes",
                "payment:lightning_contactless": "yes",
                "payment:onchain": "yes",
                "shop": "hairdresser",
                "survey:date": "2024-06-10"
            }
        },
        {
            "type": "node",
            "id": 11969571995,
            "lat": 44.1220695,
            "lon": 8.252502,
            "timestamp": "2024-06-10T16:53:39Z",
            "version": 1,
            "changeset": 152506813,
            "user": "Ale_Mj",
            "uid": 21640589,
            "tags": {
                "addr:city": "Loano",
                "addr:housenumber": "19",
                "addr:postcode": "17025",
                "addr:street": "Via Genova",
                "currency:XBT": "yes",
                "name": "Kaos - L'Origine delle idee",
                "office": "advertising_agency",
                "payment:lightning": "yes",
                "payment:lightning_contactless": "yes",
                "payment:onchain": "yes",
                "survey:date": "2024-06-10",
                "website": "https://www.kaosgrafica.com"
            }
        }
    ]
}