{
    "id": "ss-bardonecchia",
    "name": "Satoshi Spritz Bardonecchia",
    "lng": 45.07462,
    "lat": 6.69888,
    "localita": "Bardonecchia",
    "idlocalita": "bardonecchia",
    "telegram_weburl": "https://web.telegram.org/a/#-1002144349888",
    "telegram_app": "https://t.me/SatoshiSpritzBardonecchia",
    "telegram_members": 39.0,
    "network": "satoshispritz",
    "poi": [
        {
            "type": "node",
            "id": 1227883482,
            "lat": 45.1138448,
            "lon": 7.2424689,
            "timestamp": "2025-01-01T22:02:28Z",
            "version": 6,
            "changeset": 160886896,
            "user": "mpbin",
            "uid": 21850090,
            "tags": {
                "addr:city": "Villar Focchiardo",
                "addr:postcode": "10050",
                "addr:street": "Via Nazionale",
                "brand": "Unieuro",
                "brand:wikidata": "Q4004687",
                "brand:wikipedia": "en:Unieuro",
                "name": "Unieuro",
                "operator": "Unieuro S.p.A.",
                "shop": "electronics",
                "source": "Survey"
            }
        },
        {
            "type": "node",
            "id": 5167275689,
            "lat": 45.1377561,
            "lon": 7.0559162,
            "timestamp": "2025-01-03T14:10:48Z",
            "version": 8,
            "changeset": 160950962,
            "user": "mpbin",
            "uid": 21850090,
            "tags": {
                "addr:city": "Susa",
                "addr:housenumber": "33",
                "addr:postcode": "10059",
                "addr:street": "Corso Stati Uniti",
                "brand": "OVS",
                "brand:wikidata": "Q2042514",
                "brand:wikipedia": "en:OVS (company)",
                "check_date": "2024-09-22",
                "check_date:opening_hours": "2022-05-08",
                "name": "OVS",
                "opening_hours": "Mo-Sa 09:00-19:30, Su 10:00-19:30",
                "operator": "OVS",
                "shop": "clothes"
            }
        },
        {
            "type": "node",
            "id": 10112074739,
            "lat": 45.453093,
            "lon": 6.6927757,
            "timestamp": "2025-09-26T08:40:02Z",
            "version": 4,
            "changeset": 172473652,
            "user": "btcitnet",
            "uid": 22525435,
            "tags": {
                "addr:city": "Champagny-en-Vanoise",
                "addr:housenumber": "114",
                "addr:street": "Route de Bozel",
                "check_date": "2025-07-23",
                "currency:XBT": "yes",
                "name": "Lau et Shanna",
                "payment:lightning": "yes",
                "payment:lightning_contactless": "no",
                "payment:onchain": "yes",
                "tourism": "guest_house",
                "website": "https://www.airbnb.com/rooms/53776033?guests=1&adults=1&s=67&unique_share_id=c8437ef3-7942-44ea-b6f4-19d12a32498d&source_impression_id=p3_1666120091_UISqI21znI92EkVe"
            }
        },
        {
            "type": "node",
            "id": 10770516395,
            "lat": 45.1225681,
            "lon": 7.0593844,
            "timestamp": "2025-06-13T15:05:38Z",
            "version": 6,
            "changeset": 167579646,
            "user": "btcitnet",
            "uid": 22525435,
            "tags": {
                "addr:city": "Meana di Susa",
                "addr:housenumber": "1",
                "addr:postcode": "10050",
                "addr:street": "Via Gran Borgata",
                "amenity": "restaurant",
                "check_date:currency:XBT": "2023-03-29",
                "contact:facebook": "https://www.facebook.com/people/Betola-d-l-Uva-Frola/100057493567816/",
                "cuisine": "regional;italian",
                "currency:XBT": "yes",
                "email": "betolauvafrola@tiscali.it",
                "name": "La Betola D'L'uva Frola",
                "opening_hours": "Fr,Sa 10:00-23:00; Th 18:00-23:30; Su,PH 10:00-19:00; Mo-We off",
                "payment:lightning": "yes",
                "payment:onchain": "yes",
                "phone": "+39 339 813 0502",
                "website": "https://www.betolameana.it/"
            }
        },
        {
            "type": "node",
            "id": 11350687787,
            "lat": 45.0342243,
            "lon": 6.8358044,
            "timestamp": "2024-02-18T08:38:36Z",
            "version": 2,
            "changeset": 147599052,
            "user": "yhic4uw",
            "uid": 2104834,
            "tags": {
                "addr:city": "Oulx",
                "addr:housenumber": "25",
                "addr:postcode": "10056",
                "addr:street": "Via Roma",
                "check_date": "2023-11-15",
                "currency:XBT": "yes",
                "healthcare": "physiotherapist",
                "healthcare:speciality": "osteopathy;applied_kinesiology;naturopathy;ginnastica_posturale;posturologia;bendaggio_funzionale;preparazione_atletica;rieducazione_post_infortunio",
                "name": "Rieduka",
                "phone": "+390122881204"
            }
        },
        {
            "type": "node",
            "id": 12328485109,
            "lat": 45.0781086,
            "lon": 6.7085439,
            "timestamp": "2024-12-05T20:11:23Z",
            "version": 2,
            "changeset": 159971389,
            "user": "Rockedf",
            "uid": 7522075,
            "tags": {
                "addr:city": "Bardonecchia",
                "addr:housenumber": "89",
                "addr:postcode": "10052",
                "addr:street": "Via Giuseppe Francesco Medail",
                "addr:unit": "1/a",
                "amenity": "bar",
                "check_date": "2024-12-05",
                "currency:XBT": "yes",
                "name": "Sciccheria con 2 Sci | Vineria Aperitivi",
                "opening_hours": "Th-Tu 18:00-00:00",
                "payment:lightning": "yes",
                "payment:lightning_contactless": "no",
                "payment:onchain": "no",
                "phone": "+39 01 229 6329"
            }
        }
    ],
    "telegram": []
}