{
    "id": "ss-bergamo",
    "name": "Satoshi Spritz Bergamo",
    "lng": 45.69441368,
    "lat": 9.66842453,
    "localita": "Bergamo",
    "telegram_weburl": "https://web.telegram.org/a/#-1001771233180",
    "telegram_app": "https://t.me/SatoshiSpritzBergamo",
    "telegram_members": 173.0,
    "network": "satoshispritz",
    "poi": [
        {
            "type": "node",
            "id": 3450199481,
            "lat": 45.682301,
            "lon": 9.7891972,
            "timestamp": "2023-07-20T09:21:29Z",
            "version": 7,
            "changeset": 138753929,
            "user": "saunter",
            "uid": 10396321,
            "tags": {
                "addr:city": "San Paolo d'Argon",
                "addr:housenumber": "32",
                "addr:postcode": "24060",
                "addr:street": "Via Bergamo",
                "check_date:currency:XBT": "2023-07-20",
                "currency:XBT": "yes",
                "healthcare": "physiotherapist",
                "name": "Marco Capogrosso",
                "note": "Consulente Benessere - Optionwinner",
                "website": "http://holystica.net/esserebenessere/marco-capogrosso",
                "website_1": "http://twimt.it/index.php?aid=13"
            }
        },
        {
            "type": "node",
            "id": 4243022470,
            "lat": 45.6886754,
            "lon": 9.6648271,
            "timestamp": "2023-11-16T22:05:56Z",
            "version": 13,
            "changeset": 144115418,
            "user": "paulbrunner",
            "uid": 15541433,
            "tags": {
                "addr:city": "Bergamo",
                "addr:housenumber": "67c",
                "addr:postcode": "24122",
                "addr:street": "Via Don Luigi Palazzolo",
                "amenity": "cafe",
                "biergarten": "yes",
                "check_date": "2023-11-16",
                "currency:XBT": "yes",
                "loc_ref": "52407",
                "name": "Superbar Wine Food Drink",
                "opening_hours": "Mo-Sa 06:00-02:00",
                "payment:lightning": "yes",
                "source": "survey",
                "survey:date": "2023-04-12",
                "wheelchair": "no"
            }
        },
        {
            "type": "node",
            "id": 7040170285,
            "lat": 45.6940802,
            "lon": 9.6593869,
            "timestamp": "2023-11-08T19:02:50Z",
            "version": 15,
            "changeset": 143794210,
            "user": "Fruffu",
            "uid": 20572340,
            "tags": {
                "addr:city": "Bergamo",
                "addr:housenumber": "7",
                "addr:postcode": "24128",
                "addr:street": "Via Francesco Nullo",
                "addr:unit": "a",
                "amenity": "restaurant",
                "cuisine": "italian;coffee_shop",
                "currency:XBT": "yes",
                "name": "Osteria Risi.co",
                "opening_hours": "Mo 11:30-15:30,18:00-24:30; Tu-Fr 18:00-24:30,18:00-24:30; Sa-Su 12:00-15:00,18:00-24:30",
                "payment:bancomat": "yes",
                "payment:cash": "yes",
                "payment:lightning": "yes",
                "phone": "+39 035217732",
                "survey:date": "2023-05-01",
                "website": "http://www.osteriarisico.it"
            }
        },
        {
            "type": "node",
            "id": 8288630965,
            "lat": 45.6920266,
            "lon": 9.6726737,
            "timestamp": "2023-09-15T11:09:59Z",
            "version": 3,
            "changeset": 141297857,
            "user": "morsi",
            "uid": 139580,
            "tags": {
                "addr:housenumber": "104",
                "addr:postcode": "24121",
                "addr:street": "Viale Papa Giovanni Ventitreesimo",
                "amenity": "bank",
                "atm": "yes",
                "check_date": "2023-09-15",
                "currency:XBT": "yes",
                "name": "BCC Milano",
                "website": "https://www.ecotaurus.it/",
                "wheelchair": "yes"
            }
        },
        {
            "type": "node",
            "id": 8753174032,
            "lat": 45.6229994,
            "lon": 9.7675411,
            "timestamp": "2023-11-05T20:26:08Z",
            "version": 6,
            "changeset": 143665115,
            "user": "Mannivu",
            "uid": 1950277,
            "tags": {
                "amenity": "taxi",
                "check_date:currency:XBT": "2023-07-21",
                "currency:XBT": "yes",
                "email": "easytransfer.bg@gmail.com",
                "name": "Easytransfer Ncc",
                "phone": "+39 379 156 3588",
                "website": "https://www.easytransferbergamo.it"
            }
        },
        {
            "type": "node",
            "id": 10219441370,
            "lat": 45.6662023,
            "lon": 9.5620948,
            "timestamp": "2023-11-17T22:16:34Z",
            "version": 6,
            "changeset": 144156841,
            "user": "toponomastica_comune_arenzano",
            "uid": 14257573,
            "tags": {
                "addr:city": "Bonate Sotto",
                "addr:housenumber": "2a",
                "addr:postcode": "24040",
                "addr:street": "Via Santa Giulia",
                "check_date:currency:XBT": "2023-01-24",
                "currency:XBT": "yes",
                "healthcare": "physiotherapist",
                "name": "Incorpomente",
                "payment:lightning": "no",
                "payment:lightning_contactless": "no",
                "payment:onchain": "yes",
                "phone": "+39 035 079 2224",
                "website": "https://www.incorpomente.it/"
            }
        },
        {
            "type": "node",
            "id": 10250750356,
            "lat": 45.59965,
            "lon": 9.6970208,
            "timestamp": "2023-05-30T21:12:29Z",
            "version": 2,
            "changeset": 136763638,
            "user": "paulbrunner",
            "uid": 15541433,
            "tags": {
                "addr:city": "Urgnano",
                "addr:housenumber": "39",
                "addr:postcode": "24059",
                "addr:street": "Via Edmondo De Amicis",
                "check_date": "2022-12-10",
                "craft": "photographer",
                "currency:XBT": "yes",
                "name": "Nice Shot Art",
                "opening_hours": "Mo-Sa 09:30-12:30,15:30-19:30",
                "payment:lightning": "yes",
                "payment:onchain": "yes",
                "phone": "+393452329629",
                "website": "https://www.niceshotart.it/"
            }
        },
        {
            "type": "node",
            "id": 10788155081,
            "lat": 45.6205028,
            "lon": 9.4737745,
            "timestamp": "2023-08-21T14:24:38Z",
            "version": 3,
            "changeset": 140185299,
            "user": "Aiman",
            "uid": 67550,
            "tags": {
                "addr:city": "Busnago",
                "addr:housenumber": "197",
                "addr:postcode": "20874",
                "addr:street": "Via Italia",
                "check_date:currency:XBT": "2023-05-13",
                "clothes": "men",
                "currency:XBT": "yes",
                "fixme": "da controllare, sembra che non esiste",
                "name": "DOPPELG\u00c4NGER",
                "payment:lightning": "no",
                "payment:lightning_contactless": "no",
                "payment:onchain": "yes",
                "phone": "+39 039 695 6928",
                "shop": "clothes"
            }
        },
        {
            "type": "node",
            "id": 10797740383,
            "lat": 45.5845323,
            "lon": 9.4159209,
            "timestamp": "2023-04-27T14:38:21Z",
            "version": 2,
            "changeset": 135431496,
            "user": "jmann6",
            "uid": 668096,
            "tags": {
                "addr:city": "Cavenago di Brianza",
                "addr:housenumber": "12",
                "addr:postcode": "20873",
                "addr:street": "Piazza Libert\u00e0",
                "check_date:currency:XBT": "2023-04-27",
                "currency:XBT": "yes",
                "description": "Progettazione, Certificazione energetica, coordinamento della sicurezza, sanatorie, pratiche catastale",
                "name": "Geom. Pietro Ditroia",
                "office": "architect",
                "opening_hours": "Mo-Fr 09:00-18:00",
                "payment:lightning": "yes",
                "payment:lightning_contactless": "no",
                "payment:onchain": "yes",
                "phone": "+39 393 879 7471",
                "website": "https://www.pietroditroiageometra.com/"
            }
        },
        {
            "type": "node",
            "id": 11037149088,
            "lat": 45.6819699,
            "lon": 9.6324476,
            "timestamp": "2023-07-10T10:52:21Z",
            "version": 1,
            "changeset": 138331822,
            "user": "Chiarant",
            "uid": 18452174,
            "tags": {
                "addr:city": "Treviolo",
                "addr:housenumber": "42",
                "addr:postcode": "24080",
                "addr:street": "Via Mohandas Karamchand Gandhi",
                "check_date": "2023-07-10",
                "currency:XBT": "yes",
                "email": "info@yourbiz.it",
                "name": "Yourbiz srl",
                "office": "advertising_agency",
                "phone": "+39 035.4327284",
                "website": "https://www.yourbiz.it/"
            }
        },
        {
            "type": "node",
            "id": 11336264626,
            "lat": 45.6642906,
            "lon": 9.6956887,
            "timestamp": "2023-11-09T17:03:59Z",
            "version": 1,
            "changeset": 143831448,
            "user": "Chiarant",
            "uid": 18452174,
            "tags": {
                "addr:city": "Orio al Serio",
                "addr:housenumber": "71",
                "addr:postcode": "24050",
                "addr:street": "Via Portico",
                "amenity": "fast_food",
                "check_date": "2023-11-09",
                "cuisine": "kebab",
                "currency:XBT": "yes",
                "name": "Kebhouze",
                "payment:lightning": "yes",
                "payment:lightning_contactless": "yes",
                "payment:onchain": "yes",
                "website": "https://kebhouze.com/"
            }
        },
        {
            "type": "node",
            "id": 11336329268,
            "lat": 45.6822616,
            "lon": 9.6108279,
            "timestamp": "2024-02-25T16:03:36Z",
            "version": 3,
            "changeset": 147897537,
            "user": "Mannivu",
            "uid": 1950277,
            "tags": {
                "addr:city": "Curno",
                "addr:housenumber": "1",
                "addr:postcode": "24035",
                "addr:street": "Via Enrico Fermi",
                "amenity": "fast_food",
                "check_date": "2023-11-09",
                "cuisine": "kebab",
                "currency:XBT": "yes",
                "name": "Kebhouze",
                "payment:lightning": "yes",
                "payment:onchain": "yes",
                "phone": "+39 035 305 3459",
                "website": "https://kebhouze.com/"
            }
        },
        {
            "type": "node",
            "id": 11372230244,
            "lat": 45.695933,
            "lon": 9.6330144,
            "timestamp": "2024-03-31T16:38:00Z",
            "version": 3,
            "changeset": 149398904,
            "user": "Mannivu",
            "uid": 1950277,
            "tags": {
                "addr:city": "Bergamo",
                "addr:housenumber": "33c",
                "addr:postcode": "24129",
                "addr:street": "Via Guglielmo Lochis",
                "amenity": "restaurant",
                "check_date": "2023-11-29",
                "currency:XBT": "yes",
                "description": "Pizzeria e gastronomia da asporto. Qualche posto per sedersi all'interno.",
                "name": "Mauro Pizzeria e Gastronomia",
                "phone": "+39 035259665",
                "website": "https://mauropizzeriaegastronomia.it/"
            }
        },
        {
            "type": "node",
            "id": 11709472481,
            "lat": 45.6959709,
            "lon": 9.6309427,
            "timestamp": "2024-03-11T04:14:59Z",
            "version": 3,
            "changeset": 148487566,
            "user": "Igor Bubelov",
            "uid": 2104834,
            "tags": {
                "addr:city": "Bergamo",
                "addr:housenumber": "1/A",
                "addr:postcode": "24129",
                "addr:street": "Via Bellini",
                "check_date": "2024-03-09",
                "currency:XBT": "yes",
                "description": "Frutta, verdura e molto di pi\u00f9.",
                "email": "ilupomangiafrutta@gmail.com",
                "name": "Il lupo mangiafrutta",
                "phone": "+39 3519021831",
                "shop": "greengrocer"
            }
        }
    ]
}