{
    "id": "ss-carpi",
    "name": "Satoshi Spritz Carpi",
    "lng": 44.783333,
    "lat": 10.883333,
    "localita": "Carpi",
    "idlocalita": "carpi",
    "telegram_app": "https://t.me/SatoshiSpritzCarpi",
    "network": "satoshispritz",
    "poi": [
        {
            "type": "node",
            "id": 362497485,
            "lat": 44.6305606,
            "lon": 11.1926698,
            "timestamp": "2024-12-30T22:36:50Z",
            "version": 8,
            "changeset": 160812902,
            "user": "mpbin",
            "uid": 21850090,
            "tags": {
                "addr:city": "San Giovanni in Persiceto",
                "addr:housenumber": "110",
                "addr:postcode": "40017",
                "addr:street": "Via Bologna",
                "brand": "Conad",
                "brand:wikidata": "Q639075",
                "brand:wikipedia": "it:Conad",
                "contact:phone": "+39 051 825990",
                "name": "Conad",
                "operator": "Conad",
                "shop": "supermarket",
                "source": "ds4273",
                "wheelchair": "yes"
            }
        },
        {
            "type": "node",
            "id": 362497608,
            "lat": 44.6407127,
            "lon": 11.1885049,
            "timestamp": "2024-10-31T15:52:27Z",
            "version": 9,
            "changeset": 158587547,
            "user": "Zio Pino",
            "uid": 511708,
            "tags": {
                "addr:city": "San Giovanni in Persiceto",
                "addr:housenumber": "21",
                "addr:postcode": "40017",
                "addr:street": "Circonvallazione Dante Alighieri",
                "branch": "San Giovanni in Persiceto",
                "brand": "Conad City",
                "brand:wikidata": "Q57543102",
                "contact:phone": "+39 051 6871082",
                "name": "Conad City",
                "operator": "Conad",
                "shop": "supermarket",
                "source": "ds4273",
                "wheelchair": "yes"
            }
        },
        {
            "type": "node",
            "id": 412437085,
            "lat": 44.5885429,
            "lon": 11.3675284,
            "timestamp": "2020-05-12T18:48:21Z",
            "version": 5,
            "changeset": 85101770,
            "user": "mascalzone67",
            "uid": 1861652,
            "tags": {
                "addr:city": "Argelato",
                "addr:housenumber": "26",
                "addr:postcode": "40050",
                "addr:street": "Via Don Francesco Pasti",
                "brand": "Conad",
                "brand:wikidata": "Q639075",
                "brand:wikipedia": "it:Conad",
                "email": "SuperconadFuno_E000492B@DI-NET.IT",
                "name": "Conad",
                "opening_hours": "Mo-Sa 07:30-20:30; Su 08:30-13:00",
                "operator": "Conad",
                "payment:bancomat": "yes",
                "payment:cash": "yes",
                "payment:credit_cards": "yes",
                "phone": "+39 051 6646340",
                "shop": "supermarket",
                "website": "https://www.conad.it/ricerca-negozi/negozio.000297.html"
            }
        },
        {
            "type": "node",
            "id": 420776812,
            "lat": 44.4952195,
            "lon": 11.3246362,
            "timestamp": "2024-12-05T13:22:34Z",
            "version": 12,
            "changeset": 159957206,
            "user": "Loppi",
            "uid": 2457192,
            "tags": {
                "addr:city": "Bologna",
                "addr:housenumber": "47",
                "addr:postcode": "40134",
                "addr:street": "Via Andrea Costa",
                "amenity": "pharmacy",
                "check_date": "2019-03-08",
                "currency:XBT": "yes",
                "dispensing": "yes",
                "drive_through": "no",
                "email": "farmacialodi@yahoo.it",
                "healthcare": "pharmacy",
                "name": "Lodi",
                "name:it": "Lodi",
                "payment:cards": "yes",
                "payment:cash": "yes",
                "payment:coins": "yes",
                "payment:contactless": "yes",
                "payment:credit_cards": "yes",
                "payment:debit_cards": "yes",
                "payment:google_pay": "yes",
                "payment:maestro": "yes",
                "payment:mastercard": "yes",
                "payment:notes": "yes",
                "payment:visa": "yes",
                "phone": "+39 0516143978"
            }
        },
        {
            "type": "node",
            "id": 453371930,
            "lat": 44.5953858,
            "lon": 10.6944253,
            "timestamp": "2024-12-30T22:51:31Z",
            "version": 4,
            "changeset": 160813247,
            "user": "mpbin",
            "uid": 21850090,
            "tags": {
                "addr:city": "Scandiano",
                "addr:housenumber": "35-D",
                "addr:postcode": "42019",
                "addr:street": "Via Bonaventura Corti",
                "name": "Conad Primavera",
                "operator": "Conad",
                "shop": "supermarket",
                "wheelchair": "yes"
            }
        },
        {
            "type": "node",
            "id": 564669259,
            "lat": 44.6219756,
            "lon": 10.6030876,
            "timestamp": "2021-08-18T08:01:05Z",
            "version": 6,
            "changeset": 109856286,
            "user": "ivanbranco",
            "uid": 11220113,
            "tags": {
                "addr:city": "Albinea",
                "addr:housenumber": "1-B",
                "addr:postcode": "42020",
                "addr:street": "Via Venticinque Aprile",
                "brand": "Conad",
                "brand:wikidata": "Q639075",
                "brand:wikipedia": "it:Conad",
                "name": "Conad",
                "operator": "Conad",
                "shop": "supermarket"
            }
        },
        {
            "type": "node",
            "id": 878621223,
            "lat": 44.5949687,
            "lon": 11.1012558,
            "timestamp": "2024-12-30T22:54:27Z",
            "version": 5,
            "changeset": 160813315,
            "user": "mpbin",
            "uid": 21850090,
            "tags": {
                "addr:city": "Castelfranco Emilia",
                "addr:housenumber": "3/5",
                "addr:postcode": "41013",
                "addr:street": "Via Nazario Sauro",
                "brand": "Conad",
                "brand:wikidata": "Q639075",
                "name": "Conad",
                "operator": "Conad",
                "shop": "supermarket"
            }
        },
        {
            "type": "node",
            "id": 1704256675,
            "lat": 44.4977004,
            "lon": 11.3481769,
            "timestamp": "2025-03-27T09:47:49Z",
            "version": 16,
            "changeset": 164155397,
            "user": "olecky",
            "uid": 20578352,
            "tags": {
                "addr:city": "Bologna",
                "addr:country": "IT",
                "addr:district": "San Vitale",
                "addr:housenumber": "2f",
                "addr:postcode": "40126",
                "addr:street": "Via delle Moline",
                "amenity": "restaurant",
                "check_date": "2025-03-27",
                "check_date:currency:XBT": "2025-02-10",
                "check_date:diet:vegetarian": "2025-03-27",
                "contact:facebook": "https://www.facebook.com/lemolinebologna/",
                "contact:instagram": "https://www.instagram.com/lemolinebologna/",
                "cuisine": "regional;italian;coffee_shop",
                "currency:XBT": "yes",
                "diet:vegetarian": "yes",
                "email": "BOOKING@LEMOLINE.IT",
                "name": "Le Moline - Osteria",
                "opening_hours": "Mo-Su 11:30-01:00",
                "payment:lightning": "yes",
                "payment:lightning_contactless": "no",
                "payment:onchain": "yes",
                "phone": "+390513169389",
                "website": "https://www.lemoline.it/"
            }
        },
        {
            "type": "node",
            "id": 1704680079,
            "lat": 44.4960606,
            "lon": 11.3380048,
            "timestamp": "2025-02-20T15:21:15Z",
            "version": 10,
            "changeset": 162746271,
            "user": "Liongrass",
            "uid": 1836965,
            "tags": {
                "addr:city": "Bologna",
                "addr:country": "IT",
                "addr:district": "Porto",
                "addr:housenumber": "23",
                "addr:postcode": "40121",
                "addr:street": "Via Ugo Bassi",
                "amenity": "fast_food",
                "check_date": "2025-02-20",
                "check_date:currency:XBT": "2025-02-20",
                "contact:instagram": "https://www.instagram.com/sfarinapiadina/",
                "cuisine": "regional;piadina",
                "currency:XBT": "yes",
                "name": "Sfarin\u00e0",
                "payment:lightning": "yes",
                "payment:lightning_contactless": "no",
                "payment:onchain": "no",
                "phone": "+39 051 269282",
                "source": "Comune di Bologna",
                "website": "https://sfarina.it/"
            }
        },
        {
            "type": "node",
            "id": 2258253852,
            "lat": 44.7761079,
            "lon": 10.3439896,
            "timestamp": "2024-12-31T18:13:47Z",
            "version": 6,
            "changeset": 160843944,
            "user": "mpbin",
            "uid": 21850090,
            "tags": {
                "addr:city": "Parma",
                "addr:housenumber": "SNC",
                "addr:postcode": "43123",
                "addr:street": "Strada Traversetolo",
                "brand": "Unieuro",
                "brand:wikidata": "Q4004687",
                "name": "Unieuro",
                "operator": "Unieuro S.p.A.",
                "shop": "electronics",
                "website": "http://www.marcopoloshop.it/mps/negozi/Marco-Polo-Parma---Eurosia"
            }
        },
        {
            "type": "node",
            "id": 2552989684,
            "lat": 44.4872842,
            "lon": 11.252044,
            "timestamp": "2025-01-06T14:35:28Z",
            "version": 10,
            "changeset": 161060790,
            "user": "mpbin",
            "uid": 21850090,
            "tags": {
                "addr:city": "Casalecchio di Reno",
                "addr:housenumber": "6",
                "addr:postcode": "40033",
                "addr:street": "Via John Lennon",
                "brand": "IKEA",
                "brand:wikidata": "Q54078",
                "brand:wikipedia": "en:IKEA",
                "currency:EUR": "yes",
                "name": "IKEA",
                "opening_hours": "Mo-Su 10:00-21:00",
                "operator": "Ikea Italia Retail S.r.l.",
                "payment:cash": "yes",
                "payment:credit_cards": "yes",
                "phone": "+39199114646",
                "shop": "furniture",
                "website": "https://www.ikea.it/",
                "wheelchair": "yes"
            }
        },
        {
            "type": "node",
            "id": 3181471853,
            "lat": 44.5004445,
            "lon": 11.3294849,
            "timestamp": "2025-04-22T13:50:43Z",
            "version": 8,
            "changeset": 165287249,
            "user": "Plaintelive",
            "uid": 11644547,
            "tags": {
                "addr:city": "Bologna",
                "addr:street": "Viale Antonio Silvani",
                "brand": "Conad",
                "brand:wikidata": "Q639075",
                "check_date": "2024-05-02",
                "contact:phone": "+39 051 6494577",
                "name": "Conad",
                "opening_hours": "Mo-Su",
                "operator": "Conad",
                "shop": "supermarket",
                "source": "ds4273"
            }
        },
        {
            "type": "node",
            "id": 3645734962,
            "lat": 44.4951798,
            "lon": 11.3399817,
            "timestamp": "2025-09-18T12:47:40Z",
            "version": 5,
            "changeset": 172111311,
            "user": "Plaintelive",
            "uid": 11644547,
            "tags": {
                "addr:city": "Bologna",
                "addr:housenumber": "6",
                "addr:postcode": "40121",
                "addr:street": "Via Ugo Bassi",
                "brand": "OVS",
                "brand:wikidata": "Q2042514",
                "check_date": "2024-05-03",
                "name": "OVS",
                "operator": "OVS",
                "shop": "clothes"
            }
        },
        {
            "type": "node",
            "id": 3645848575,
            "lat": 44.4930935,
            "lon": 11.3437421,
            "timestamp": "2025-02-20T15:21:15Z",
            "version": 9,
            "changeset": 162746271,
            "user": "Liongrass",
            "uid": 1836965,
            "tags": {
                "addr:city": "Bologna",
                "addr:housenumber": "2",
                "addr:postcode": "40124",
                "addr:street": "Via dell'Archiginnasio",
                "amenity": "pharmacy",
                "check_date": "2025-02-02",
                "currency:XBT": "yes",
                "currency:others": "yes",
                "dispensing": "yes",
                "email": "info@farmaciadelpavaglione.it",
                "healthcare": "pharmacy",
                "name": "Farmacia del Pavaglione",
                "name:it": "Farmacia del Pavaglione",
                "payment:lightning": "yes",
                "payment:lightning_contactless": "no",
                "payment:onchain": "yes",
                "phone": "+39 051 221640",
                "survey:date": "2025-02-14",
                "website": "https://farmaciadelpavaglione.it"
            }
        },
        {
            "type": "node",
            "id": 3645888439,
            "lat": 44.4936143,
            "lon": 11.3450924,
            "timestamp": "2025-06-16T10:57:19Z",
            "version": 2,
            "changeset": 167687857,
            "user": "btcitnet",
            "uid": 22525435,
            "tags": {
                "addr:city": "Bologna",
                "addr:housenumber": "5",
                "addr:postcode": "40124",
                "addr:street": "Via Drapperie",
                "contact:facebook": "https://www.facebook.com/AlbergoDelleDrapperie",
                "contact:instagram": "https://www.instagram.com/albergodrapperie/",
                "currency:XBT": "yes",
                "email": "info@albergodrapperie.com",
                "name": "Albergo delle Drapperie",
                "payment:lightning": "yes",
                "phone": "+39 051 223955",
                "tourism": "hotel",
                "website": "https://www.albergodrapperie.com/"
            }
        },
        {
            "type": "node",
            "id": 3646417556,
            "lat": 44.4941748,
            "lon": 11.3460064,
            "timestamp": "2025-09-14T10:36:07Z",
            "version": 9,
            "changeset": 171910135,
            "user": "scai",
            "uid": 118134,
            "tags": {
                "addr:city": "Bologna",
                "addr:housenumber": "9",
                "addr:postcode": "40125",
                "addr:street": "Via Francesco Rizzoli",
                "brand": "Decathlon",
                "brand:wikidata": "Q509349",
                "check_date": "2025-09-14",
                "check_date:opening_hours": "2025-09-14",
                "name": "Decathlon",
                "opening_hours": "Mo-Su 10:00-20:00",
                "operator": "Decathlon",
                "shop": "sports",
                "sport": "hiking;cycling;swimming;basketball",
                "was:name": "Desigual",
                "was:shop": "clothes",
                "wheelchair": "yes"
            }
        },
        {
            "type": "node",
            "id": 4166949791,
            "lat": 44.7084079,
            "lon": 10.600361,
            "timestamp": "2025-05-04T01:40:54Z",
            "version": 6,
            "changeset": 165781682,
            "user": "pincopallino16",
            "uid": 22860347,
            "tags": {
                "addr:city": "Reggio nell'Emilia",
                "addr:country": "IT",
                "addr:housenumber": "72b",
                "addr:street": "Via Fratelli Cervi",
                "brand": "Conad",
                "brand:wikidata": "Q639075",
                "name": "Conad",
                "operator": "CONAD Soc. Coop.",
                "payment:cash": "yes",
                "payment:credit_cards": "yes",
                "payment:debit_cards": "yes",
                "shop": "supermarket"
            }
        },
        {
            "type": "node",
            "id": 4166949793,
            "lat": 44.6810551,
            "lon": 10.6362866,
            "timestamp": "2025-02-08T16:04:59Z",
            "version": 4,
            "changeset": 162285549,
            "user": "Stefano Manfredini",
            "uid": 5721717,
            "tags": {
                "addr:city": "Reggio nell'Emilia",
                "addr:country": "IT",
                "addr:housenumber": "59",
                "addr:street": "Via Maiella",
                "branch": "Tuday",
                "brand": "Conad",
                "brand:wikidata": "Q639075",
                "name": "Conad",
                "operator": "CONAD Soc. Coop.",
                "shop": "supermarket"
            }
        },
        {
            "type": "node",
            "id": 4166949794,
            "lat": 44.6935789,
            "lon": 10.6102643,
            "timestamp": "2025-03-20T20:58:02Z",
            "version": 4,
            "changeset": 163880877,
            "user": "Stefano Manfredini",
            "uid": 5721717,
            "tags": {
                "addr:city": "Reggio nell'Emilia",
                "addr:country": "IT",
                "addr:housenumber": "2",
                "addr:street": "Via Muzio Clementi",
                "branch": "Le Querce",
                "brand": "Conad Superstore",
                "brand:wikidata": "Q118129616",
                "name": "Conad Superstore",
                "operator": "CONAD Soc. Coop.",
                "shop": "supermarket"
            }
        },
        {
            "type": "node",
            "id": 4166950193,
            "lat": 44.7641213,
            "lon": 10.5936561,
            "timestamp": "2021-12-21T14:05:26Z",
            "version": 6,
            "changeset": 115211998,
            "user": "bvivi",
            "uid": 124550,
            "tags": {
                "addr:city": "Cadelbosco di Sopra",
                "addr:country": "IT",
                "addr:housenumber": "46",
                "addr:street": "Via Monsignore Giovanni Saccani",
                "brand": "Conad",
                "brand:wikidata": "Q639075",
                "brand:wikipedia": "it:Conad",
                "name": "Conad",
                "operator": "CONAD Soc. Coop.",
                "shop": "supermarket"
            }
        },
        {
            "type": "node",
            "id": 4167013789,
            "lat": 44.7362523,
            "lon": 10.6155182,
            "timestamp": "2017-07-13T07:24:56Z",
            "version": 4,
            "changeset": 50248993,
            "user": "bvivi",
            "uid": 124550,
            "tags": {
                "addr:city": "Reggio nell'Emilia",
                "addr:country": "IT",
                "addr:housenumber": "11",
                "addr:street": "Via Guglielmo Tirelli",
                "name": "CONAD CITY",
                "operator": "CONAD Soc. Coop.",
                "shop": "convenience"
            }
        },
        {
            "type": "node",
            "id": 4167013792,
            "lat": 44.6907358,
            "lon": 10.62614,
            "timestamp": "2019-07-12T08:07:21Z",
            "version": 3,
            "changeset": 72167255,
            "user": "bvivi",
            "uid": 124550,
            "tags": {
                "addr:city": "Reggio nell'Emilia",
                "addr:country": "IT",
                "addr:housenumber": "22",
                "addr:street": "Via Pietro Pariati",
                "brand": "Conad",
                "brand:wikidata": "Q639075",
                "brand:wikipedia": "it:Conad",
                "name": "Conad",
                "operator": "CONAD Soc. Coop.",
                "shop": "supermarket"
            }
        },
        {
            "type": "node",
            "id": 4167015692,
            "lat": 44.674661,
            "lon": 10.607831,
            "timestamp": "2023-11-17T18:12:10Z",
            "version": 4,
            "changeset": 144149891,
            "user": "toponomastica_comune_arenzano",
            "uid": 14257573,
            "tags": {
                "addr:city": "Reggio nell'Emilia",
                "addr:country": "IT",
                "addr:housenumber": "8c",
                "addr:street": "Via Portella delle ginestre",
                "name": "CONAD",
                "operator": "CONAD Soc. Coop.",
                "shop": "supermarket"
            }
        },
        {
            "type": "node",
            "id": 4167115097,
            "lat": 44.56181,
            "lon": 10.84536,
            "timestamp": "2021-07-03T06:16:52Z",
            "version": 2,
            "changeset": 107340529,
            "user": "Silverium",
            "uid": 13566882,
            "tags": {
                "addr:city": "Formigine",
                "addr:country": "IT",
                "addr:housenumber": "50",
                "addr:street": "Via quattro Passi",
                "name": "Conad",
                "operator": "CONAD Soc. Coop.",
                "shop": "supermarket"
            }
        },
        {
            "type": "node",
            "id": 4167164396,
            "lat": 44.616982,
            "lon": 10.7165808,
            "timestamp": "2020-02-09T16:57:50Z",
            "version": 3,
            "changeset": 80757748,
            "user": "sorcrosc",
            "uid": 160229,
            "tags": {
                "addr:city": "Scandiano",
                "addr:country": "IT",
                "addr:housenumber": "1",
                "addr:street": "Via Bergianti",
                "name": "CONAD CITY Arceto",
                "operator": "CONAD Soc. Coop.",
                "shop": "convenience"
            }
        },
        {
            "type": "node",
            "id": 4167164501,
            "lat": 44.6635992,
            "lon": 10.6157973,
            "timestamp": "2017-01-02T15:34:19Z",
            "version": 3,
            "changeset": 44847366,
            "user": "Alecs01",
            "uid": 1476146,
            "tags": {
                "addr:city": "Reggio nell'Emilia",
                "addr:country": "IT",
                "addr:street": "Via Leone Tolstoj",
                "name": "CONAD CITY",
                "operator": "CONAD Soc. Coop.",
                "shop": "convenience"
            }
        },
        {
            "type": "node",
            "id": 4167164601,
            "lat": 44.6050327,
            "lon": 10.8671238,
            "timestamp": "2020-05-12T07:23:37Z",
            "version": 2,
            "changeset": 85067751,
            "user": "mascalzone67",
            "uid": 1861652,
            "tags": {
                "addr:city": "Modena",
                "addr:country": "IT",
                "addr:housenumber": "205",
                "addr:postcode": "41126",
                "addr:street": "Via L. Settembrini",
                "brand": "Conad",
                "brand:wikidata": "Q639075",
                "brand:wikipedia": "it:Conad",
                "email": "ModenaPiusrlPvBaggiovara_E211034B@di-net.it",
                "name": "Conad",
                "opening_hours": "Mo-Sa 08:00-20:00; Su 09:00-13:00",
                "operator": "CONAD Soc. Coop.",
                "payment:bancomat": "yes",
                "payment:cash": "yes",
                "payment:credit_cards": "yes",
                "phone": "+39 059 511086",
                "shop": "supermarket",
                "website": "https://www.conad.it/ricerca-negozi/negozio.007632.html"
            }
        },
        {
            "type": "node",
            "id": 4167165292,
            "lat": 44.6319163,
            "lon": 10.5380269,
            "timestamp": "2021-02-04T15:10:22Z",
            "version": 5,
            "changeset": 98713067,
            "user": "Stefano Manfredini",
            "uid": 5721717,
            "tags": {
                "addr:city": "Quattro Castella",
                "addr:country": "IT",
                "addr:housenumber": "28",
                "addr:street": "Via fratelli Cervi",
                "brand": "Conad City",
                "brand:wikidata": "Q57543102",
                "name": "Conad City",
                "operator": "CONAD Soc. Coop.",
                "shop": "supermarket"
            }
        },
        {
            "type": "node",
            "id": 4167165390,
            "lat": 44.6255384,
            "lon": 10.4260425,
            "timestamp": "2020-01-06T15:40:38Z",
            "version": 2,
            "changeset": 79255037,
            "user": "sorcrosc",
            "uid": 160229,
            "tags": {
                "addr:city": "San Polo d'Enza",
                "addr:country": "IT",
                "addr:housenumber": "56",
                "addr:street": "Via San Matteo",
                "name": "Conad City",
                "operator": "CONAD Soc. Coop.",
                "shop": "convenience"
            }
        },
        {
            "type": "node",
            "id": 4167165490,
            "lat": 44.5330785,
            "lon": 10.8429688,
            "timestamp": "2021-07-03T06:16:51Z",
            "version": 2,
            "changeset": 107340529,
            "user": "Silverium",
            "uid": 13566882,
            "tags": {
                "addr:city": "Fiorano Modenese",
                "addr:country": "IT",
                "addr:housenumber": "30",
                "addr:street": "Piazza Falcone e Borsellino",
                "name": "Conad",
                "operator": "CONAD Soc. Coop.",
                "shop": "supermarket"
            }
        },
        {
            "type": "node",
            "id": 4187490224,
            "lat": 44.5018469,
            "lon": 11.3501244,
            "timestamp": "2024-11-07T21:25:35Z",
            "version": 9,
            "changeset": 158872635,
            "user": "mircozorzo",
            "uid": 224342,
            "tags": {
                "addr:city": "Bologna",
                "addr:housenumber": "8",
                "addr:postcode": "40126",
                "addr:street": "Via Angelo Finelli",
                "brand": "Conad City",
                "brand:wikidata": "Q57543102",
                "check_date": "2024-03-09",
                "contact:phone": "+39 051 241518",
                "name": "Conad City",
                "opening_hours": "Mo-Sa 08:15-19:45",
                "operator": "Conad",
                "shop": "supermarket",
                "source": "ds4273",
                "wheelchair": "yes"
            }
        },
        {
            "type": "node",
            "id": 4460402552,
            "lat": 44.4842291,
            "lon": 11.2686901,
            "timestamp": "2025-01-01T18:09:58Z",
            "version": 7,
            "changeset": 160879401,
            "user": "mpbin",
            "uid": 21850090,
            "tags": {
                "addr:city": "Casalecchio di Reno",
                "addr:housenumber": "50",
                "addr:postcode": "40033",
                "addr:street": "Via Aldo Moro",
                "brand": "Unieuro",
                "brand:wikidata": "Q4004687",
                "layer": "0",
                "name": "Unieuro",
                "name:it": "Unieuro",
                "operator": "Unieuro S.p.A.",
                "shop": "electronics",
                "wheelchair": "yes"
            }
        },
        {
            "type": "node",
            "id": 4472691189,
            "lat": 44.4883672,
            "lon": 11.2496361,
            "timestamp": "2025-09-26T15:12:11Z",
            "version": 19,
            "changeset": 172490741,
            "user": "btcitnet",
            "uid": 22525435,
            "tags": {
                "addr:city": "Casalecchio di Reno",
                "addr:housenumber": "2/56",
                "addr:postcode": "40033",
                "addr:street": "Via Marilyn Monroe",
                "brand": "MediaWorld",
                "brand:wikidata": "Q2381223",
                "name": "MediaWorld",
                "name:it": "Mediaworld",
                "opening_hours": "Mo-Sa 09:00-21:00; Su 09:00-20:00",
                "operator": "MediaMarket S.p.A.",
                "phone": "+39 0514 581111",
                "shop": "electronics",
                "website": "https://www.mediaworld.it/"
            }
        },
        {
            "type": "node",
            "id": 4498852691,
            "lat": 44.5192256,
            "lon": 11.264168,
            "timestamp": "2025-06-09T21:26:54Z",
            "version": 7,
            "changeset": 167418813,
            "user": "Plaintelive",
            "uid": 11644547,
            "tags": {
                "addr:city": "Bologna",
                "addr:housenumber": "186",
                "addr:postcode": "40132",
                "addr:street": "Via Marco Emilio Lepido",
                "brand": "Unieuro",
                "brand:wikidata": "Q4004687",
                "name": "Unieuro",
                "name:it": "Unieuro",
                "opening_hours": "Mo-Sa 09:00-20:30; Su 10:00-20:00",
                "operator": "Unieuro S.p.A.",
                "shop": "electronics"
            }
        },
        {
            "type": "node",
            "id": 4513679325,
            "lat": 44.6953631,
            "lon": 10.4970745,
            "timestamp": "2024-09-27T13:04:48Z",
            "version": 5,
            "changeset": 157170443,
            "user": "mpbin",
            "uid": 21850090,
            "tags": {
                "addr:city": "Barco",
                "addr:housenumber": "34a",
                "addr:postcode": "42021",
                "addr:street": "Via Nazario Sauro",
                "check_date": "2024-09-27",
                "check_date:currency:XBT": "2024-09-27",
                "currency:XBT": "yes",
                "email": "info@senso-unico.net",
                "name": "Senso Unico snc grafica & Design",
                "office": "graphic_design",
                "phone": "0522372351",
                "website": "https://www.senso-unico.net"
            }
        },
        {
            "type": "node",
            "id": 4523372992,
            "lat": 44.5674722,
            "lon": 11.3573297,
            "timestamp": "2025-01-01T18:12:30Z",
            "version": 8,
            "changeset": 160879465,
            "user": "mpbin",
            "uid": 21850090,
            "tags": {
                "addr:city": "Castel Maggiore",
                "addr:housenumber": "8",
                "addr:postcode": "40013",
                "addr:street": "Via Pio La Torre",
                "brand": "Unieuro",
                "brand:wikidata": "Q4004687",
                "brand:wikipedia": "en:Unieuro",
                "name": "Unieuro",
                "opening_hours": "Mo-Sa 09:00-20:00; Su 10:00-20:00",
                "operator": "Unieuro S.p.A.",
                "shop": "electronics"
            }
        },
        {
            "type": "node",
            "id": 4524470590,
            "lat": 44.5293564,
            "lon": 11.3369088,
            "timestamp": "2024-07-06T05:57:24Z",
            "version": 5,
            "changeset": 153611292,
            "user": "mauropili",
            "uid": 1496865,
            "tags": {
                "addr:city": "Bologna",
                "addr:housenumber": "7",
                "addr:postcode": "40131",
                "addr:street": "Via Cristoforo Colombo",
                "brand": "Mondo Convenienza",
                "brand:wikidata": "Q55830962",
                "check_date:currency:XBT": "2023-07-31",
                "currency:XBT": "yes",
                "name": "Mondo Convenienza",
                "name:it": "Mondo Convenienza",
                "shop": "furniture"
            }
        },
        {
            "type": "node",
            "id": 4524470789,
            "lat": 44.5301809,
            "lon": 11.3372746,
            "timestamp": "2025-01-01T18:13:21Z",
            "version": 6,
            "changeset": 160879494,
            "user": "mpbin",
            "uid": 21850090,
            "tags": {
                "addr:city": "Bologna",
                "addr:housenumber": "7",
                "addr:postcode": "40131",
                "addr:street": "Via Cristoforo Colombo",
                "brand": "Unieuro",
                "brand:wikidata": "Q4004687",
                "check_date": "2024-03-19",
                "name": "Unieuro",
                "operator": "Unieuro S.p.A.",
                "shop": "electronics",
                "wheelchair": "yes"
            }
        },
        {
            "type": "node",
            "id": 4525313285,
            "lat": 44.6606931,
            "lon": 10.5891065,
            "timestamp": "2025-08-27T20:42:54Z",
            "version": 5,
            "changeset": 171103962,
            "user": "Comino",
            "uid": 6794624,
            "tags": {
                "addr:city": "Reggio nell'Emilia",
                "addr:housenumber": "19/1",
                "addr:postcode": "42123",
                "addr:street": "Via della Repubblica",
                "check_date:currency:XBT": "2024-01-03",
                "currency:XBT": "yes",
                "name": "BS Village",
                "operator": "BUSINESS SHOP S.r.l.",
                "payment:onchain": "yes",
                "phone": "+39 0522 153 6417",
                "shop": "swimming_pool",
                "website": "https://www.bsvillage.com/"
            }
        },
        {
            "type": "node",
            "id": 4690614100,
            "lat": 44.798327,
            "lon": 10.3311624,
            "timestamp": "2022-09-12T22:31:58Z",
            "version": 3,
            "changeset": 126107987,
            "user": "Keyser Bante",
            "uid": 14466541,
            "tags": {
                "addr:city": "Parma",
                "addr:country": "IT",
                "addr:housenumber": "27/c",
                "addr:postcode": "43121",
                "addr:street": "Strada Ventidue Luglio",
                "brand": "Conad City",
                "brand:wikidata": "Q57543102",
                "entrance": "main",
                "level": "0",
                "loc_ref": "1069",
                "name": "Conad City",
                "operator": "Conad",
                "shop": "supermarket",
                "source": "survey"
            }
        },
        {
            "type": "node",
            "id": 4690647333,
            "lat": 44.8035356,
            "lon": 10.3249894,
            "timestamp": "2025-02-08T15:35:23Z",
            "version": 5,
            "changeset": 162284353,
            "user": "ziomio",
            "uid": 21389832,
            "tags": {
                "addr:city": "Parma",
                "addr:country": "IT",
                "addr:postcode": "43121",
                "addr:street": "Piazza Ghiaia",
                "brand": "Conad",
                "brand:wikidata": "Q639075",
                "brand:wikipedia": "it:Conad",
                "entrance": "main",
                "level": "0",
                "loc_ref": "0425",
                "name": "Conad",
                "operator": "Conad",
                "shop": "supermarket",
                "source": "survey",
                "wheelchair": "yes"
            }
        },
        {
            "type": "node",
            "id": 4690688923,
            "lat": 44.8056186,
            "lon": 10.32875,
            "timestamp": "2025-06-28T11:03:18Z",
            "version": 4,
            "changeset": 168222232,
            "user": "Danysan95",
            "uid": 4425563,
            "tags": {
                "addr:city": "Parma",
                "addr:country": "IT",
                "addr:housenumber": "43/b",
                "addr:postcode": "43121",
                "addr:street": "Strada Giuseppe Garibaldi",
                "brand": "Calzedonia",
                "brand:wikidata": "Q1027874",
                "check_date": "2025-06-28",
                "entrance": "main",
                "level": "0",
                "loc_ref": "0420",
                "operator": "Calzedonia",
                "shop": "convenience",
                "source": "survey"
            }
        },
        {
            "type": "node",
            "id": 4690714434,
            "lat": 44.8011101,
            "lon": 10.3298744,
            "timestamp": "2025-09-03T16:16:54Z",
            "version": 6,
            "changeset": 171415544,
            "user": "ilias_",
            "uid": 21853634,
            "tags": {
                "addr:city": "Parma",
                "addr:country": "IT",
                "addr:housenumber": "16/a",
                "addr:postcode": "43121",
                "addr:street": "Strada della Repubblica",
                "brand": "Iliad",
                "brand:wikidata": "Q55433734",
                "check_date": "2025-06-28",
                "entrance": "main",
                "level": "0",
                "loc_ref": "0817",
                "name": "Iliad",
                "operator": "Calzedonia",
                "shop": "telecommunication",
                "source": "survey",
                "wheelchair": "limited"
            }
        },
        {
            "type": "node",
            "id": 4690714444,
            "lat": 44.8029627,
            "lon": 10.3288704,
            "timestamp": "2023-08-02T07:52:51Z",
            "version": 3,
            "changeset": 139332846,
            "user": "DnaX",
            "uid": 69259,
            "tags": {
                "addr:city": "Parma",
                "addr:country": "IT",
                "addr:housenumber": "22/a",
                "addr:postcode": "43121",
                "addr:street": "Strada Cavour",
                "brand": "Intimissimi Uomo",
                "brand:wikidata": "Q115480852",
                "clothes": "men;underwear",
                "entrance": "main",
                "level": "0",
                "loc_ref": "0234",
                "name": "Intimissimi Uomo",
                "operator": "Intimissimi",
                "shop": "clothes",
                "source": "survey"
            }
        },
        {
            "type": "node",
            "id": 4690714910,
            "lat": 44.8013839,
            "lon": 10.328743,
            "timestamp": "2025-06-28T11:03:18Z",
            "version": 5,
            "changeset": 168222232,
            "user": "Danysan95",
            "uid": 4425563,
            "tags": {
                "addr:city": "Parma",
                "addr:country": "IT",
                "addr:housenumber": "2/d",
                "addr:postcode": "43121",
                "addr:street": "Strada della Repubblica",
                "brand": "Intimissimi",
                "brand:wikidata": "Q305404",
                "check_date": "2025-06-28",
                "clothes": "underwear",
                "entrance": "main",
                "level": "0",
                "loc_ref": "0817",
                "name": "Intimissimi",
                "operator": "Intimissimi",
                "shop": "clothes",
                "source": "survey",
                "wheelchair": "limited"
            }
        },
        {
            "type": "node",
            "id": 4690737138,
            "lat": 44.7979984,
            "lon": 10.3309581,
            "timestamp": "2022-09-07T23:01:51Z",
            "version": 3,
            "changeset": 125920443,
            "user": "Keyser Bante",
            "uid": 14466541,
            "tags": {
                "addr:city": "Parma",
                "addr:country": "IT",
                "addr:housenumber": "52/b",
                "addr:postcode": "43121",
                "addr:street": "Borgo Riccio da Parma",
                "brand": "Conad City",
                "brand:wikidata": "Q57543102",
                "entrance": "service",
                "level": "0",
                "loc_ref": "0822",
                "name": "Conad City",
                "operator": "Conad",
                "shop": "supermarket",
                "source": "survey",
                "warehouse": "yes"
            }
        },
        {
            "type": "node",
            "id": 4712453648,
            "lat": 44.6418557,
            "lon": 10.9188819,
            "timestamp": "2024-09-23T12:39:57Z",
            "version": 7,
            "changeset": 156993966,
            "user": "mpbin",
            "uid": 21850090,
            "tags": {
                "addr:city": "Modena",
                "addr:country": "IT",
                "addr:housenumber": "50",
                "addr:postcode": "41124",
                "addr:street": "Via Carlo Sigonio",
                "addr:suburb": "San Faustino- Madonnina- Quattro Ville",
                "check_date": "2024-09-20",
                "check_date:currency:XBT": "2024-09-20",
                "contact:facebook": "https://www.facebook.com/profile.php?id=100063804144164",
                "contact:instagram": "https://www.instagram.com/rullo__su_tela_/",
                "craft": "painter",
                "currency:XBT": "yes",
                "description": "Decorativi e Resine",
                "email": "info@rullosutela.it",
                "mobile": "+39 327 6249899",
                "name": "Rullo su tela di Soccio Nicol\u00f2",
                "opening_hours": "Mo-Sa 09:00-20:00",
                "payment:lightning": "yes",
                "payment:onchain": "yes",
                "source": "dati.emilia-romagna.it",
                "website": "https://rullosutela.it/"
            }
        },
        {
            "type": "node",
            "id": 4712458289,
            "lat": 44.6357527,
            "lon": 10.9000216,
            "timestamp": "2022-12-20T13:26:31Z",
            "version": 4,
            "changeset": 130290756,
            "user": "saunter",
            "uid": 10396321,
            "tags": {
                "addr:city": "Modena",
                "addr:country": "IT",
                "addr:housenumber": "11",
                "addr:postcode": "41126",
                "addr:street": "Strada Scaglia Est",
                "addr:suburb": "San Faustino- Madonnina- Quattro Ville",
                "amenity": "restaurant",
                "check_date": "2022-12-20",
                "contact:facebook": "https://www.facebook.com/modenaduerestaurantbar/",
                "currency:XBT": "yes",
                "name": "Modena Due Restaurant & Lounge Bar",
                "payment:onchain": "yes",
                "phone": "+393534024359",
                "source": "dati.emilia-romagna.it"
            }
        },
        {
            "type": "node",
            "id": 4712517944,
            "lat": 44.6469689,
            "lon": 10.925682,
            "timestamp": "2025-01-09T09:45:44Z",
            "version": 9,
            "changeset": 161162555,
            "user": "DnaX",
            "uid": 69259,
            "tags": {
                "addr:city": "Modena",
                "addr:country": "IT",
                "addr:housenumber": "146",
                "addr:postcode": "41121",
                "addr:street": "Via Emilia Centro",
                "addr:suburb": "Centro Storico",
                "brand": "Doppelg\u00e4nger",
                "brand:wikidata": "Q117451227",
                "check_date": "2023-04-15",
                "clothes": "men",
                "currency:XBT": "yes",
                "name": "Doppelg\u00e4nger",
                "phone": "0598301476",
                "shop": "clothes"
            }
        },
        {
            "type": "node",
            "id": 4755101621,
            "lat": 44.7742289,
            "lon": 10.3230526,
            "timestamp": "2024-11-30T13:48:11Z",
            "version": 3,
            "changeset": 159774528,
            "user": "Chiarant",
            "uid": 18452174,
            "tags": {
                "addr:city": "Parma",
                "addr:housenumber": "136a",
                "addr:postcode": "43124",
                "addr:street": "Strada Langhirano",
                "check_date": "2023-11-21",
                "check_date:currency:XBT": "2024-10-25",
                "contact:facebook": "https://www.facebook.com/people/Tennispro-Parma/100063702842288/",
                "currency:XBT": "yes",
                "email": "tennisproparma@tennispro.it",
                "name": "Tennispro Parma",
                "payment:lightning": "yes",
                "payment:onchain": "yes",
                "phone": "+39 0521 929790",
                "shop": "sports",
                "sport": "tennis;padel",
                "website": "https://www.tennispro.it/"
            }
        },
        {
            "type": "node",
            "id": 4762538120,
            "lat": 44.4883207,
            "lon": 11.2490912,
            "timestamp": "2025-01-10T09:57:48Z",
            "version": 5,
            "changeset": 161198340,
            "user": "DnaX",
            "uid": 69259,
            "tags": {
                "addr:city": "Casalecchio di Reno",
                "addr:housenumber": "2/30",
                "addr:postcode": "40033",
                "addr:street": "Via Marilyn Monroe",
                "branch": "c c  Gran Reno",
                "brand": "Nuvolari",
                "brand:wikidata": "Q130702590",
                "check_date": "2023-08-26",
                "clothes": "men",
                "currency:XBT": "yes",
                "name": "Nuvolari",
                "phone": "0514985032",
                "shop": "clothes"
            }
        },
        {
            "type": "node",
            "id": 4764631434,
            "lat": 44.7194706,
            "lon": 10.6401014,
            "timestamp": "2025-04-21T07:52:11Z",
            "version": 3,
            "changeset": 165224414,
            "user": "btcitnet",
            "uid": 22525435,
            "tags": {
                "addr:city": "Reggio nell'Emilia",
                "addr:housenumber": "20/a",
                "addr:postcode": "42124",
                "addr:street": "Via Piemonte",
                "amenity": "bicycle_repair_station",
                "brand": "Altao",
                "fee": "no",
                "name": "Decathlon",
                "operator": "Decathlon",
                "service:bicycle:pump": "yes",
                "service:bicycle:wash": "yes",
                "service:bicycle:wash:fee": "yes"
            }
        },
        {
            "type": "node",
            "id": 4769655683,
            "lat": 44.4776013,
            "lon": 11.011228,
            "timestamp": "2025-08-21T06:19:33Z",
            "version": 6,
            "changeset": 170758489,
            "user": "mantocolumbro",
            "uid": 23202821,
            "tags": {
                "addr:city": "Vignola",
                "addr:country": "IT",
                "addr:housenumber": "73",
                "addr:postcode": "41058",
                "addr:street": "Corso Italia",
                "check_date": "2023-11-25",
                "currency:XBT": "yes",
                "description": "Parrucchiere con prodotti Vegetali Reali e Italiani (NATURALMENTE-ARTEC), Salone Ecosostenibile.",
                "female:signed": "no",
                "male:signed": "no",
                "name": "Bio - Relax Parrucchieri",
                "payment:lightning": "yes",
                "payment:lightning_contactless": "yes",
                "payment:onchain": "yes",
                "phone": "+393450702938",
                "shop": "hairdresser",
                "survey:date": "2023-06-25"
            }
        },
        {
            "type": "node",
            "id": 4769656820,
            "lat": 44.4940189,
            "lon": 11.0197123,
            "timestamp": "2023-11-25T10:52:05Z",
            "version": 9,
            "changeset": 144436871,
            "user": "Chiarant",
            "uid": 18452174,
            "tags": {
                "addr:city": "Vignola",
                "addr:housenumber": "166",
                "addr:postcode": "41058",
                "addr:street": "Via Natale Bruni",
                "amenity": "ice_cream",
                "check_date:currency:XBT": "2023-11-25",
                "currency:XBT": "yes",
                "name": "Gelateria L'Artigiano",
                "opening_hours": "Tu-Su 14:30-21:00",
                "payment:lightning": "yes",
                "payment:lightning_contactless": "yes",
                "payment:onchain": "yes",
                "phone": "+39 3501509361",
                "website": "https://www.instagram.com/l.artigianodeisapori/?hl=it"
            }
        },
        {
            "type": "node",
            "id": 4770998265,
            "lat": 44.5947946,
            "lon": 11.0528082,
            "timestamp": "2025-01-03T14:09:46Z",
            "version": 7,
            "changeset": 160950911,
            "user": "mpbin",
            "uid": 21850090,
            "tags": {
                "addr:city": "Castelfranco Emilia",
                "addr:country": "IT",
                "addr:housenumber": "235",
                "addr:postcode": "41013",
                "addr:street": "Corso Martiri",
                "branch": "Kids",
                "brand": "OVS",
                "brand:wikidata": "Q2042514",
                "name": "OVS",
                "opening_hours": "Mo-Sa 09:00-12:30,15:30-19:30",
                "operator": "OVS",
                "shop": "clothes",
                "wheelchair": "yes"
            }
        },
        {
            "type": "node",
            "id": 4771084852,
            "lat": 44.6994619,
            "lon": 11.04406,
            "timestamp": "2024-09-27T13:22:09Z",
            "version": 7,
            "changeset": 157171166,
            "user": "mpbin",
            "uid": 21850090,
            "tags": {
                "addr:city": "Nonantola",
                "addr:hamlet": "Campazzo",
                "addr:housenumber": "50",
                "addr:postcode": "41015",
                "addr:street": "Via Selvatica",
                "check_date": "2024-09-27",
                "check_date:currency:XBT": "2024-09-27",
                "currency:XBT": "yes",
                "description": "Situato in una strada rurale, dista 3 km da Nonantola. Le camere rustiche eccentriche, alcune caratterizzate da murales originali, sono arredate con mobili d'epoca. Le sistemazioni godono di vista sulla campagna.",
                "email": "selvatica50@gmail.com",
                "guest_house": "bed_and_breakfast",
                "name": "La Selvatica 50 B&B",
                "payment:cash": "yes",
                "payment:satispay": "yes",
                "payment:wire_transfer": "yes",
                "tourism": "guest_house"
            }
        },
        {
            "type": "node",
            "id": 4771282665,
            "lat": 44.891258,
            "lon": 11.0514941,
            "timestamp": "2025-01-01T18:21:36Z",
            "version": 5,
            "changeset": 160879740,
            "user": "mpbin",
            "uid": 21850090,
            "tags": {
                "addr:city": "Mirandola",
                "addr:housenumber": "65",
                "addr:postcode": "41037",
                "addr:street": "Via Gregorio Agnini",
                "brand": "Unieuro",
                "brand:wikidata": "Q4004687",
                "contact:website": "https://www.unieuro.it/online/negozi/Unieuro-Mirandola",
                "name": "Unieuro",
                "operator": "Unieuro S.p.A.",
                "shop": "electronics",
                "wheelchair": "yes"
            }
        },
        {
            "type": "node",
            "id": 4777100274,
            "lat": 44.5036687,
            "lon": 11.3088075,
            "timestamp": "2024-08-13T18:07:44Z",
            "version": 4,
            "changeset": 155208574,
            "user": "mauropili",
            "uid": 1496865,
            "tags": {
                "addr:city": "Bologna",
                "addr:housenumber": "38g",
                "addr:postcode": "40133",
                "addr:street": "Via Bruno Monterumici",
                "amenity": "fast_food",
                "check_date": "2023-07-20",
                "contact:facebook": "https://www.facebook.com/futuracaffetteria/",
                "contact:instagram": "https://www.instagram.com/caffetteriafutura",
                "currency:XBT": "yes",
                "email": "futuracaffetteria@gmail.com",
                "fast_food": "cafeteria",
                "name": "Caffetteria Futura"
            }
        },
        {
            "type": "node",
            "id": 5628224822,
            "lat": 44.7176038,
            "lon": 10.5859345,
            "timestamp": "2025-01-01T18:42:22Z",
            "version": 3,
            "changeset": 160880407,
            "user": "mpbin",
            "uid": 21850090,
            "tags": {
                "addr:city": "Reggio nell'Emilia",
                "addr:housenumber": "2",
                "addr:postcode": "42124",
                "addr:street": "Viale Martiri di Piazza Tien An Men",
                "brand": "Unieuro",
                "brand:wikidata": "Q4004687",
                "name": "Unieuro",
                "operator": "Unieuro S.p.A.",
                "shop": "electronics"
            }
        },
        {
            "type": "node",
            "id": 6455942669,
            "lat": 45.0722016,
            "lon": 11.1334914,
            "timestamp": "2025-01-02T21:52:10Z",
            "version": 4,
            "changeset": 160927594,
            "user": "mpbin",
            "uid": 21850090,
            "tags": {
                "addr:city": "Ostiglia",
                "addr:housenumber": "2",
                "addr:postcode": "46035",
                "addr:street": "via Grazia Deledda",
                "brand": "Trony",
                "brand:wikidata": "Q3999692",
                "name": "Trony",
                "operator": "Trony",
                "shop": "electronics"
            }
        },
        {
            "type": "node",
            "id": 6475072552,
            "lat": 44.640859,
            "lon": 10.91307,
            "timestamp": "2024-08-20T07:09:07Z",
            "version": 5,
            "changeset": 155493174,
            "user": "mauropili",
            "uid": 1496865,
            "tags": {
                "addr:city": "Modena",
                "addr:housenumber": "219",
                "addr:postcode": "41124",
                "addr:street": "Via Pietro Giardini",
                "check_date:currency:XBT": "2023-02-17",
                "currency:XBT": "yes",
                "description": "Affitto uffici arredati, sale riunioni, spazi condivisi.",
                "email": "info@modenacoworking.it",
                "name": "Modena Coworking",
                "office": "coworking",
                "phone": "+39 3356674607",
                "website": "https://www.modenacoworking.it/"
            }
        },
        {
            "type": "node",
            "id": 6835335762,
            "lat": 45.14667,
            "lon": 10.798655,
            "timestamp": "2023-11-17T18:12:37Z",
            "version": 5,
            "changeset": 144149923,
            "user": "toponomastica_comune_arenzano",
            "uid": 14257573,
            "tags": {
                "addr:city": "Mantova",
                "addr:housenumber": "5a",
                "addr:postcode": "46100",
                "addr:street": "Via Leopoldo Camillo Volta",
                "check_date:currency:XBT": "2023-07-18",
                "currency:XBT": "yes",
                "description": "Soluzioni blockchain e mining.",
                "name": "Bitviking",
                "telecom": "data_center",
                "website": "https://www.bitviking.it"
            }
        },
        {
            "type": "node",
            "id": 7244465685,
            "lat": 44.5127809,
            "lon": 11.2868027,
            "timestamp": "2024-06-11T18:44:28Z",
            "version": 5,
            "changeset": 152557178,
            "user": "Rockedf",
            "uid": 7522075,
            "tags": {
                "addr:city": "Bologna",
                "addr:housenumber": "345",
                "addr:postcode": "40132",
                "addr:street": "Via Emilia Ponente",
                "addr:unit": "D",
                "amenity": "atm",
                "branch": "Bologna",
                "cash_in": "yes",
                "cash_out": "yes",
                "cash_withdrawal": "yes",
                "check_date": "2024-01-28",
                "contact:email": "support@shitcoins.club",
                "contact:facebook": "https://www.facebook.com/shitcoins.club",
                "contact:instagram": "https://www.instagram.com/shitcoinsclub",
                "contact:telegram": "https://t.me/shitcoinsclub",
                "contact:twitter": "https://twitter.com/BitomatCom",
                "currency:CAD": "yes",
                "currency:CHF": "yes",
                "currency:DASH": "yes",
                "currency:ETH": "yes",
                "currency:EUR": "yes",
                "currency:HUF": "yes",
                "currency:LTC": "yes",
                "currency:RON": "yes",
                "currency:USD": "yes",
                "currency:USDC": "yes",
                "currency:USDT": "yes",
                "currency:XBT": "yes",
                "indoor": "yes",
                "level": "0",
                "name": "Bitcoin ATM - Shitcoins.club",
                "network": "Bitcoin",
                "note": "L'ATM Bitcoin a Bologna si trova accanto a Borgoceramica Pavimenti e Arredo Bagno.",
                "opening_hours": "24/7",
                "operator": "Shitcoins.club",
                "payment:cash": "yes",
                "payment:onchain": "yes",
                "phone": "+39 34 8048 7308",
                "start_date": "2019-10-26",
                "url": "https://coinatmradar.com/bitcoin_atm/10059/bitcoin-atm-shitcoins-club-bologna-punto-atm-bitcoin/",
                "website": "https://shitcoins.club/localizzazione-atm/atm-bitcoin-bologna-via-emilia-ponente"
            }
        },
        {
            "type": "node",
            "id": 7484497896,
            "lat": 44.9929467,
            "lon": 10.7352139,
            "timestamp": "2023-11-17T18:12:37Z",
            "version": 2,
            "changeset": 144149923,
            "user": "toponomastica_comune_arenzano",
            "uid": 14257573,
            "tags": {
                "addr:city": "Suzzara",
                "addr:housenumber": "2a",
                "addr:postcode": "46029",
                "addr:street": "Viale Rossellini",
                "amenity": "pharmacy",
                "dispensing": "no",
                "healthcare": "pharmacy",
                "name": "Parafarmacia Conad",
                "operator": "Conad"
            }
        },
        {
            "type": "node",
            "id": 7484530897,
            "lat": 44.9379749,
            "lon": 10.489694,
            "timestamp": "2020-05-05T08:19:58Z",
            "version": 1,
            "changeset": 84676726,
            "user": "mascalzone67",
            "uid": 1861652,
            "tags": {
                "addr:city": "Viadana",
                "addr:housenumber": "1",
                "addr:postcode": "46019",
                "addr:street": "via A. Moro",
                "amenity": "pharmacy",
                "dispensing": "no",
                "healthcare": "pharmacy",
                "name": "Parafarmacia Conad",
                "operator": "Conad"
            }
        },
        {
            "type": "node",
            "id": 7507278566,
            "lat": 44.4924243,
            "lon": 11.3257006,
            "timestamp": "2023-11-17T18:41:45Z",
            "version": 4,
            "changeset": 144150734,
            "user": "toponomastica_comune_arenzano",
            "uid": 14257573,
            "tags": {
                "addr:city": "Bologna",
                "addr:housenumber": "40a",
                "addr:postcode": "40134",
                "addr:street": "Via Alessandro Guidotti",
                "amenity": "veterinary",
                "check_date": "2023-05-03",
                "currency:XBT": "yes",
                "description": "Ambulatorio Veterinario per animali da compagnia / pets. Clinica, chirurgia, consulenza, reperibilit\u00e0 h24, visite domiciliari.",
                "email": "ambvetguidotti@gmail.com",
                "name": "Ambulatorio Veterinario Guidotti",
                "phone": "+39 3491007581",
                "website": "https://www.facebook.com/Ambulatorio-Veterinario-Guidotti-101227044772600"
            }
        },
        {
            "type": "node",
            "id": 7512067632,
            "lat": 44.5885521,
            "lon": 11.3672303,
            "timestamp": "2020-05-12T18:46:06Z",
            "version": 1,
            "changeset": 85101684,
            "user": "mascalzone67",
            "uid": 1861652,
            "tags": {
                "addr:city": "Argelato",
                "addr:housenumber": "26",
                "addr:postcode": "40050",
                "addr:street": "Via Don Francesco Pasti",
                "amenity": "pharmacy",
                "dispensing": "no",
                "healthcare": "pharmacy",
                "name": "Parafarmacia Conad",
                "operator": "Conad"
            }
        },
        {
            "type": "node",
            "id": 7513026706,
            "lat": 44.6599811,
            "lon": 10.4756044,
            "timestamp": "2020-05-13T04:15:01Z",
            "version": 1,
            "changeset": 85116290,
            "user": "mascalzone67",
            "uid": 1861652,
            "tags": {
                "addr:city": "Bibbiano",
                "addr:postcode": "42021",
                "addr:street": "Via Rodolfo Morandi",
                "amenity": "pharmacy",
                "dispensing": "no",
                "healthcare": "pharmacy",
                "name": "Parafarmacia Conad",
                "operator": "Conad"
            }
        },
        {
            "type": "node",
            "id": 7513068151,
            "lat": 44.8407522,
            "lon": 10.5470839,
            "timestamp": "2020-05-13T04:36:32Z",
            "version": 1,
            "changeset": 85117112,
            "user": "mascalzone67",
            "uid": 1861652,
            "tags": {
                "addr:city": "Poviglio",
                "addr:housenumber": "76",
                "addr:postcode": "42028",
                "addr:street": "Via Romana",
                "amenity": "pharmacy",
                "dispensing": "no",
                "healthcare": "pharmacy",
                "name": "Parafarmacia Conad",
                "operator": "Conad"
            }
        },
        {
            "type": "node",
            "id": 7513115894,
            "lat": 44.7482709,
            "lon": 10.4477455,
            "timestamp": "2020-05-13T04:53:49Z",
            "version": 1,
            "changeset": 85117808,
            "user": "mascalzone67",
            "uid": 1861652,
            "tags": {
                "addr:city": "Sant'Ilario d'Enza",
                "addr:postcode": "42049",
                "addr:street": "Via Guidetti",
                "amenity": "pharmacy",
                "dispensing": "no",
                "healthcare": "pharmacy",
                "name": "Parafarmacia Conad",
                "operator": "Conad"
            }
        },
        {
            "type": "node",
            "id": 7513136545,
            "lat": 44.9108196,
            "lon": 10.6502718,
            "timestamp": "2024-05-12T16:11:25Z",
            "version": 5,
            "changeset": 151229444,
            "user": "\u0110uro Ji\u0159\u00ed",
            "uid": 14617702,
            "tags": {
                "addr:city": "Guastalla",
                "addr:housenumber": "88",
                "addr:postcode": "42016",
                "addr:street": "Via 11 Settembre",
                "amenity": "pharmacy",
                "dispensing": "no",
                "healthcare": "pharmacy",
                "name": "Parafarmacia Conad",
                "operator": "Conad",
                "wheelchair": "yes"
            }
        },
        {
            "type": "node",
            "id": 8208980511,
            "lat": 45.120793,
            "lon": 10.909389,
            "timestamp": "2025-06-17T20:38:08Z",
            "version": 8,
            "changeset": 167755774,
            "user": "Comino",
            "uid": 6794624,
            "tags": {
                "addr:city": "Roncoferraro",
                "addr:housenumber": "26",
                "addr:postcode": "46037",
                "addr:street": "Via Candido Fanti",
                "check_date": "2025-06-17",
                "check_date:currency:XBT": "2025-06-17",
                "currency:EUR": "yes",
                "currency:XBT": "yes",
                "description": "Hacking, cyber security, sicurezza informatica, crittografia, hardware, software, Bitcoin, criptovalute, antivirus, firewall, open source, computer, Linux, Debian, VPN, analisi forensi, audit, vulnerable assestment, smartphone, Android, Graphene.",
                "name": "CR1PT0",
                "office": "it",
                "opening_hours": "24/7",
                "payment:lightning": "yes",
                "payment:lightning_contactless": "yes",
                "payment:onchain": "yes",
                "ref:vatin": "02610840205",
                "start_date": "2015-01-01",
                "website": "https://cr1pt0.com"
            }
        },
        {
            "type": "node",
            "id": 8454768289,
            "lat": 44.4991838,
            "lon": 11.3337694,
            "timestamp": "2025-06-08T10:41:32Z",
            "version": 5,
            "changeset": 167344611,
            "user": "Plaintelive",
            "uid": 11644547,
            "tags": {
                "addr:city": "Bologna",
                "addr:housenumber": "6",
                "addr:postcode": "40122",
                "addr:street": "Via Padre Francesco Maria Grimaldi",
                "addr:unit": "e",
                "amenity": "dentist",
                "check_date": "2023-07-17",
                "check_date:currency:XBT": "2024-10-27",
                "currency:XBT": "yes",
                "description": "Ambulatorio odontoiatrico specializzato in odontoiatria digitale. Si effettuano sbiancamenti dentali, faccette, ortodonzia con le mascherine trasparenti, implantologia computer assistita.",
                "email": "info@centroodontoiatricogrimaldi.it",
                "healthcare": "dentist",
                "name": "Centro Odontoiatrico Grimaldi",
                "phone": "+39 0516494868",
                "website": "https://www.centroodontoiatricogrimaldi.it/"
            }
        },
        {
            "type": "node",
            "id": 8706247731,
            "lat": 44.6972465,
            "lon": 10.6272017,
            "timestamp": "2024-04-14T19:59:39Z",
            "version": 2,
            "changeset": 150008013,
            "user": "Chiarant",
            "uid": 18452174,
            "tags": {
                "addr:city": "Reggio nell'Emilia",
                "addr:housenumber": "31",
                "addr:postcode": "42121",
                "addr:street": "Corso Giuseppe Garibaldi",
                "addr:unit": "a",
                "amenity": "restaurant",
                "check_date": "2024-04-14",
                "currency:XBT": "yes",
                "name": "Oltre Restaurant",
                "phone": "+39 342 081 0328"
            }
        },
        {
            "type": "node",
            "id": 8749359128,
            "lat": 44.6921756,
            "lon": 10.6307861,
            "timestamp": "2025-02-03T10:16:25Z",
            "version": 4,
            "changeset": 162078333,
            "user": "Chiarant",
            "uid": 18452174,
            "tags": {
                "addr:city": "Reggio nell'Emilia",
                "addr:housenumber": "44a",
                "addr:postcode": "42121",
                "addr:street": "Viale dei Mille",
                "check_date": "2025-02-01",
                "currency:XBT": "yes",
                "name": "4Life - Senza Glutine",
                "shop": "health_food"
            }
        },
        {
            "type": "node",
            "id": 8932752006,
            "lat": 44.5472429,
            "lon": 10.8591775,
            "timestamp": "2025-01-01T22:38:21Z",
            "version": 2,
            "changeset": 160887730,
            "user": "mpbin",
            "uid": 21850090,
            "tags": {
                "addr:city": "Fiorano Modenese",
                "addr:street": "Via Giardini",
                "brand": "Trony",
                "brand:wikidata": "Q3999692",
                "brand:wikipedia": "it:Trony",
                "name": "Trony",
                "operator": "Trony",
                "shop": "electronics"
            }
        },
        {
            "type": "node",
            "id": 9153289949,
            "lat": 44.8209645,
            "lon": 10.8886086,
            "timestamp": "2023-02-22T22:28:05Z",
            "version": 2,
            "changeset": 132902063,
            "user": "Martin Ligabue",
            "uid": 8305310,
            "tags": {
                "addr:city": "Fossoli",
                "addr:housenumber": "14",
                "addr:postcode": "41012",
                "addr:street": "Via Mar Ionio",
                "branch": "di Fossoli",
                "brand": "Conad",
                "brand:wikidata": "Q639075",
                "name": "Conad",
                "operator": "Conad",
                "phone": "+39 059 6340048",
                "shop": "supermarket"
            }
        },
        {
            "type": "node",
            "id": 10019906287,
            "lat": 44.4991358,
            "lon": 11.3266877,
            "timestamp": "2024-10-11T19:59:26Z",
            "version": 3,
            "changeset": 157771698,
            "user": "mpbin",
            "uid": 21850090,
            "tags": {
                "addr:city": "Bologna",
                "addr:housenumber": "3",
                "addr:postcode": "40122",
                "addr:street": "Piazza di Porta San Felice",
                "amenity": "cafe",
                "check_date": "2023-07-09",
                "cuisine": "pizza;italian;burger",
                "currency:XBT": "yes",
                "email": "info@borgomameli.it",
                "name": "Borgo Mameli",
                "phone": "+393701512014",
                "survey:date": "2022-09-13",
                "website": "https://borgomameli.it/"
            }
        },
        {
            "type": "node",
            "id": 10019917907,
            "lat": 44.4963972,
            "lon": 11.3385377,
            "timestamp": "2025-02-20T15:21:15Z",
            "version": 6,
            "changeset": 162746271,
            "user": "Liongrass",
            "uid": 1836965,
            "tags": {
                "addr:city": "Bologna",
                "addr:housenumber": "7",
                "addr:postcode": "40121",
                "addr:street": "Via Belvedere",
                "addr:unit": "C",
                "amenity": "bar",
                "check_date": "2025-02-09",
                "contact:facebook": "https://www.facebook.com/PastisBologna",
                "currency:XBT": "yes",
                "email": "pastis.belvedere@gmail.com",
                "name": "Pastis",
                "payment:lightning": "yes",
                "payment:lightning_contactless": "no",
                "payment:onchain": "no",
                "phone": "+39 051 230650",
                "survey:date": "2025-02-09"
            }
        },
        {
            "type": "node",
            "id": 10221479372,
            "lat": 44.5014066,
            "lon": 11.3440584,
            "timestamp": "2024-12-17T18:50:10Z",
            "version": 5,
            "changeset": 160316175,
            "user": "Rockedf",
            "uid": 7522075,
            "tags": {
                "addr:city": "Bologna",
                "addr:housenumber": "3a",
                "addr:postcode": "40121",
                "addr:street": "Via dei Mille",
                "amenity": "ice_cream",
                "check_date": "2024-12-17",
                "contact:email": "sablegelato@gmail.com",
                "contact:instagram": "https://www.instagram.com/sable_gelato/",
                "currency:XBT": "yes",
                "name": "Sabl\u00e9 gelato",
                "opening_hours": "We-Su 11:30-19:00",
                "outdoor_seating": "yes",
                "payment:lightning": "yes",
                "payment:lightning_contactless": "yes",
                "payment:onchain": "yes",
                "website": "https://sablegelato.com/"
            }
        },
        {
            "type": "node",
            "id": 10255532989,
            "lat": 44.5279491,
            "lon": 11.320108,
            "timestamp": "2024-02-29T13:30:01Z",
            "version": 2,
            "changeset": 148052814,
            "user": "Chiarant",
            "uid": 18452174,
            "tags": {
                "addr:city": "Bologna",
                "addr:housenumber": "50",
                "addr:postcode": "40131",
                "addr:street": "Via della Selva Pescarola",
                "amenity": "restaurant",
                "check_date:currency:XBT": "2024-02-29",
                "currency:XBT": "yes",
                "description": "On-chain payments for groups or payments in advance",
                "name": "Il Mulino Bruciato",
                "opening_hours": "Mo-Sa 19:30-03:00",
                "payment:lightning": "yes",
                "payment:lightning_contactless": "no",
                "payment:onchain": "yes",
                "phone": "+39 051 634 3072",
                "website": "https://www.facebook.com/ilmulinobruciato/"
            }
        },
        {
            "type": "node",
            "id": 10661986526,
            "lat": 44.66928,
            "lon": 10.7403141,
            "timestamp": "2023-02-15T14:20:08Z",
            "version": 1,
            "changeset": 132584333,
            "user": "BSN21M",
            "uid": 17441326,
            "tags": {
                "addr:city": "Reggio Emilia",
                "addr:postcode": "42122",
                "addr:street": "Via Romani",
                "check_date:currency:XBT": "2023-02-15",
                "craft": "winery",
                "currency:XBT": "yes",
                "email": "dario_rota@yahoo.com",
                "name": "Cantina Rota",
                "opening_hours": "Mo-Fr 8:00-18:00",
                "payment:lightning": "no",
                "payment:lightning_contactless": "no",
                "payment:onchain": "yes",
                "phone": "+39 0522 340 118",
                "website": "https://cantinarota.com"
            }
        },
        {
            "type": "node",
            "id": 10766227160,
            "lat": 45.1577683,
            "lon": 10.7918184,
            "timestamp": "2025-06-11T18:12:07Z",
            "version": 5,
            "changeset": 167503565,
            "user": "baprischka",
            "uid": 974272,
            "tags": {
                "addr:housenumber": "45",
                "addr:postcode": "46100",
                "addr:street": "Corso Umberto I\u00b0",
                "brand": "Doppelg\u00e4nger",
                "brand:wikidata": "Q117451227",
                "check_date": "2025-06-11",
                "clothes": "men",
                "currency:XBT": "yes",
                "name": "Doppelg\u00e4nger",
                "phone": "0376360615",
                "shop": "clothes",
                "website": "https://www.doppelganger.it/it/"
            }
        },
        {
            "type": "node",
            "id": 10801651077,
            "lat": 44.7897656,
            "lon": 10.3061159,
            "timestamp": "2024-12-02T14:45:19Z",
            "version": 5,
            "changeset": 159846164,
            "user": "Chiarant",
            "uid": 18452174,
            "tags": {
                "addr:city": "Parma",
                "addr:housenumber": "8",
                "addr:postcode": "43125",
                "addr:street": "Via Carlo Porta",
                "check_date": "2024-12-02",
                "contact:facebook": "https://www.facebook.com/mytrico",
                "currency:XBT": "yes",
                "description": "Studio di Tricopigmentazione & Osteopatia",
                "email": "info@mytrico.it",
                "healthcare": "alternative",
                "healthcare:speciality": "osteopathy",
                "name": "MyTrico Studio",
                "website": "https://www.mytrico.it/"
            }
        },
        {
            "type": "node",
            "id": 10840421518,
            "lat": 44.6299722,
            "lon": 10.6131363,
            "timestamp": "2023-04-25T21:08:00Z",
            "version": 3,
            "changeset": 135360378,
            "user": "Chiarant",
            "uid": 18452174,
            "tags": {
                "addr:city": "Albinea",
                "addr:housenumber": "5",
                "addr:postcode": "42020",
                "addr:street": "Via Grandi",
                "addr:unit": "30",
                "check_date": "2023-04-25",
                "currency:XBT": "yes",
                "description": "Negozio di strumenti armonici: Campane tibetane, diapason, gong, tamburi...",
                "email": "info@tibetstrumentiarmonici.com",
                "name": "Armonie Sonore",
                "phone": "0522598264",
                "ref:vatin": "02540600356",
                "shop": "musical_instrument",
                "website": "https://www.tibetstrumentiarmonici.com/"
            }
        },
        {
            "type": "node",
            "id": 11069655003,
            "lat": 44.4970313,
            "lon": 11.3394695,
            "timestamp": "2025-02-20T15:21:15Z",
            "version": 2,
            "changeset": 162746271,
            "user": "Liongrass",
            "uid": 1836965,
            "tags": {
                "addr:city": "Bologna",
                "addr:housenumber": "11",
                "addr:postcode": "40121",
                "addr:street": "Via Nazario Sauro",
                "addr:unit": "C",
                "check_date": "2025-02-20",
                "check_date:currency:XBT": "2025-02-20",
                "contact:email": "granadoro@outlook.it",
                "currency:XBT": "yes",
                "name": "Granaglie",
                "opening_hours": "Mo-Sa 08:30-13:00",
                "payment:lightning": "yes",
                "payment:lightning_contactless": "no",
                "payment:onchain": "no",
                "shop": "food",
                "website": "https://docs.google.com/document/d/1OBUmPdXPE2YZD2V9wxykeESBIyrOmsccoI2SNt41prM/edit?usp=drivesdk"
            }
        },
        {
            "type": "node",
            "id": 11200067892,
            "lat": 44.5041456,
            "lon": 11.3387609,
            "timestamp": "2023-10-30T03:52:28Z",
            "version": 4,
            "changeset": 143341565,
            "user": "b-jazz-bot",
            "uid": 9451067,
            "tags": {
                "addr:city": "Bologna",
                "addr:housenumber": "9",
                "addr:postcode": "40121",
                "addr:street": "Via Cairoli",
                "air_conditioning": "yes",
                "currency:EUR": "yes",
                "currency:XBT": "yes",
                "email": "info@casavacanzabologna.it",
                "guest_house": "apartment",
                "internet_access": "wlan",
                "internet_access:fee": "no",
                "name": "CVB :: Cairoli",
                "operator": "Casa Vacanza Bologna",
                "payment:bonifico_bancario": "yes",
                "payment:cryptocurrencies": "yes",
                "payment:lightning": "yes",
                "payment:lightning_contactless": "no",
                "payment:onchain": "yes",
                "payment:paypal": "yes",
                "payment:satispay": "yes",
                "rooms": "2",
                "survey:date": "2023-09-18",
                "tourism": "guest_house",
                "website": "https://www.airbnb.com/h/cairoli"
            }
        },
        {
            "type": "node",
            "id": 11200192363,
            "lat": 44.4933996,
            "lon": 11.3415021,
            "timestamp": "2023-10-30T03:58:11Z",
            "version": 3,
            "changeset": 143341751,
            "user": "b-jazz-bot",
            "uid": 9451067,
            "tags": {
                "addr:city": "Bologna",
                "addr:housenumber": "1",
                "addr:postcode": "40123",
                "addr:street": "Via Battibecco",
                "air_conditioning": "yes",
                "currency:EUR": "yes",
                "currency:XBT": "yes",
                "email": "info@casavacanzabologna.it",
                "guest_house": "apartment",
                "internet_access": "wlan",
                "internet_access:fee": "no",
                "name": "CVB :: Battibecco",
                "operator": "Casa Vacanza Bologna",
                "payment:bonifico": "yes",
                "payment:bonifico_bancario": "yes",
                "payment:cryptocurrencies": "yes",
                "payment:lightning": "yes",
                "payment:onchain": "yes",
                "payment:paypal": "yes",
                "payment:satispay": "yes",
                "rooms": "2",
                "survey:date": "2023-09-18",
                "tourism": "guest_house",
                "website": "https://www.airbnb.com/h/battibecco",
                "wheelchair": "no"
            }
        },
        {
            "type": "node",
            "id": 11303836956,
            "lat": 44.5307104,
            "lon": 11.3349132,
            "timestamp": "2025-09-08T20:32:59Z",
            "version": 3,
            "changeset": 171655501,
            "user": "Cybermanx",
            "uid": 22604600,
            "tags": {
                "addr:city": "Bologna",
                "addr:housenumber": "7/38",
                "addr:postcode": "40131",
                "addr:street": "Via Cristoforo Colombo",
                "amenity": "pharmacy",
                "dispensing": "no",
                "healthcare": "pharmacy",
                "name": "Parafarmacia Conad",
                "operator": "Conad",
                "source": "https://www.gdonews.it/2023/10/31/doppia-inaugurazione-conad-nel-parco-commerciale-navile-di-bologna/"
            }
        },
        {
            "type": "node",
            "id": 11303837006,
            "lat": 44.5307162,
            "lon": 11.3354148,
            "timestamp": "2023-11-01T06:41:28Z",
            "version": 2,
            "changeset": 143456972,
            "user": "mascalzone67",
            "uid": 1861652,
            "tags": {
                "addr:city": "Bologna",
                "addr:housenumber": "7/37",
                "addr:postcode": "40131",
                "addr:street": "Via Cristoforo Colombo",
                "brand": "Conad",
                "brand:wikidata": "Q639075",
                "name": "Conad",
                "opening_hours": "Mo-Sa 08:30-21:00, Su 09:00-20:30",
                "operator": "Conad",
                "payment:bancomat": "yes",
                "payment:cards": "yes",
                "payment:cash": "yes",
                "shop": "supermarket",
                "source": "https://www.gdonews.it/2023/10/31/doppia-inaugurazione-conad-nel-parco-commerciale-navile-di-bologna/",
                "start_date": "2023-10-31"
            }
        },
        {
            "type": "node",
            "id": 11384696081,
            "lat": 44.7054455,
            "lon": 10.6116509,
            "timestamp": "2024-10-30T19:11:53Z",
            "version": 2,
            "changeset": 158555912,
            "user": "mpbin",
            "uid": 21850090,
            "tags": {
                "addr:city": "Reggio nell'Emilia",
                "addr:housenumber": "17/a",
                "addr:postcode": "42124",
                "addr:street": "Via Fratelli Cervi",
                "amenity": "pub",
                "check_date": "2023-11-29",
                "contact:facebook": "https://www.facebook.com/ghigiuristopub/",
                "cuisine": "burger;pinsa",
                "currency:XBT": "yes",
                "email": "graziano-valentina@hotmail.it",
                "mobile": "+39 348 876 6518",
                "name": "Birreria Ghigiu Risto Pub",
                "payment:lightning": "yes",
                "payment:onchain": "yes",
                "phone": "+39 0522 303884",
                "website": "https://www.ghigiuristopub.it/"
            }
        },
        {
            "type": "node",
            "id": 11513434803,
            "lat": 44.4942573,
            "lon": 11.338926,
            "timestamp": "2024-07-06T07:07:11Z",
            "version": 4,
            "changeset": 153612478,
            "user": "mauropili",
            "uid": 1496865,
            "tags": {
                "addr:city": "Bologna",
                "addr:housenumber": "9",
                "addr:postcode": "40121",
                "addr:street": "Via Quattro Novembre",
                "check_date": "2024-01-13",
                "currency:XBT": "yes",
                "name": "Avvocato Lorenzo Reggianini",
                "office": "lawyer",
                "website": "https://tognireggianini.it/"
            }
        },
        {
            "type": "node",
            "id": 11549468353,
            "lat": 44.4929566,
            "lon": 11.3404575,
            "timestamp": "2024-10-28T20:53:00Z",
            "version": 3,
            "changeset": 158473913,
            "user": "mpbin",
            "uid": 21850090,
            "tags": {
                "addr:city": "Bologna",
                "addr:housenumber": "5",
                "addr:postcode": "40123",
                "addr:street": "Piazza Galileo Galilei",
                "check_date": "2024-10-28",
                "check_date:currency:XBT": "2024-10-28",
                "currency:XBT": "yes",
                "email": "santoroalessandro22@gmail.com",
                "name": "Studio Legale Santoro",
                "office": "lawyer",
                "opening_hours": "24/7",
                "payment:cash": "yes",
                "payment:cryptocurrencies": "yes",
                "payment:lightning": "yes",
                "payment:lightning_contactless": "yes",
                "phone": "+39 051 6215920",
                "survey:date": "2024-01-25"
            }
        },
        {
            "type": "node",
            "id": 11676656636,
            "lat": 44.4962949,
            "lon": 11.3388182,
            "timestamp": "2025-09-18T21:58:35Z",
            "version": 4,
            "changeset": 172134570,
            "user": "Plaintelive",
            "uid": 11644547,
            "tags": {
                "addr:city": "Bologna",
                "addr:housenumber": "4",
                "addr:postcode": "40121",
                "addr:street": "Via Belvedere",
                "addr:unit": "a",
                "amenity": "bar",
                "check_date": "2025-02-14",
                "check_date:currency:XBT": "2025-02-14",
                "currency:XBT": "yes",
                "email": "pastis.belvedere@gmail.com",
                "name": "Pastis Cuv\u00e8e",
                "payment:lightning": "yes",
                "payment:lightning_contactless": "no",
                "payment:onchain": "no"
            }
        },
        {
            "type": "node",
            "id": 11693941996,
            "lat": 44.7975679,
            "lon": 10.3312786,
            "timestamp": "2024-06-11T20:21:57Z",
            "version": 3,
            "changeset": 152560566,
            "user": "Rockedf",
            "uid": 7522075,
            "tags": {
                "addr:city": "Parma",
                "addr:housenumber": "65",
                "addr:postcode": "43121",
                "addr:street": "Borgo Felino",
                "amenity": "atm",
                "cash_in": "yes",
                "cash_out": "yes",
                "cash_withdrawal": "yes",
                "contact:email": "support@shitcoins.club",
                "contact:facebook": "https://www.facebook.com/shitcoins.club",
                "contact:instagram": "https://www.instagram.com/shitcoinsclub",
                "contact:telegram": "https://t.me/shitcoinsclub",
                "contact:twitter": "https://twitter.com/BitomatCom",
                "currency:CAD": "yes",
                "currency:CHF": "yes",
                "currency:DASH": "yes",
                "currency:ETH": "yes",
                "currency:EUR": "yes",
                "currency:HUF": "yes",
                "currency:LTC": "yes",
                "currency:RON": "yes",
                "currency:USD": "yes",
                "currency:USDC": "yes",
                "currency:USDT": "yes",
                "currency:XBT": "yes",
                "description": "L'ATM Bitcoin a Parma si trova accanto all'enoteca Bottiglia Azzurra ed \u00e8 aperto 24/7",
                "indoor": "yes",
                "name": "Bitcoin ATM - Shitcoins.club",
                "network": "shitcoins.club",
                "opening_hours": "24/7",
                "operator": "Shitcoins.club",
                "payment:cash": "yes",
                "payment:onchain": "yes",
                "phone": "+39 34 8048 7308",
                "survey:date": "2024-03-04",
                "website": "https://shitcoins.club/localizzazione-atm/atm-bitcoin-parma-borgo-felino"
            }
        },
        {
            "type": "node",
            "id": 11894368491,
            "lat": 44.9805577,
            "lon": 10.4290873,
            "timestamp": "2025-01-02T22:28:10Z",
            "version": 4,
            "changeset": 160928450,
            "user": "mpbin",
            "uid": 21850090,
            "tags": {
                "addr:city": "Casalmaggiore",
                "addr:housenumber": "49",
                "addr:postcode": "26041",
                "addr:street": "Via Alessandro Volta",
                "brand": "Trony",
                "brand:wikidata": "Q3999692",
                "name": "Trony",
                "operator": "Trony",
                "shop": "electronics",
                "wheelchair": "yes"
            }
        },
        {
            "type": "node",
            "id": 11900935588,
            "lat": 44.7780622,
            "lon": 10.8635467,
            "timestamp": "2025-01-02T22:30:12Z",
            "version": 3,
            "changeset": 160928491,
            "user": "mpbin",
            "uid": 21850090,
            "tags": {
                "addr:city": "Carpi",
                "addr:housenumber": "22",
                "addr:postcode": "41012",
                "addr:street": "Via Dell'Integrazione",
                "brand": "Trony",
                "brand:wikidata": "Q3999692",
                "name": "Trony",
                "operator": "Trony",
                "shop": "electronics",
                "wheelchair": "yes"
            }
        },
        {
            "type": "node",
            "id": 11926842500,
            "lat": 45.1661912,
            "lon": 10.8257885,
            "timestamp": "2025-01-03T17:33:56Z",
            "version": 3,
            "changeset": 160959152,
            "user": "mpbin",
            "uid": 21850090,
            "tags": {
                "brand": "MediaWorld",
                "brand:wikidata": "Q2381223",
                "name": "MediaWorld",
                "operator": "MediaMarket S.p.A.",
                "shop": "electronics",
                "wheelchair": "yes"
            }
        },
        {
            "type": "node",
            "id": 11946024691,
            "lat": 44.4913442,
            "lon": 11.3472116,
            "timestamp": "2025-08-27T20:43:50Z",
            "version": 2,
            "changeset": 171103994,
            "user": "Comino",
            "uid": 6794624,
            "tags": {
                "addr:city": "Bologna",
                "addr:housenumber": "25",
                "addr:postcode": "40124",
                "addr:street": "Via Luigi Carlo Farini",
                "check_date": "2024-05-30",
                "contact:email": "caterina.marmocchi@gmail.com",
                "currency:XBT": "yes",
                "name": "Avv Caterina Marmocchi",
                "office": "lawyer",
                "payment:lightning": "yes",
                "payment:lightning_contactless": "no",
                "payment:onchain": "yes",
                "phone": "+39 34 9288 6313"
            }
        },
        {
            "type": "node",
            "id": 11947970330,
            "lat": 44.8900087,
            "lon": 11.0548275,
            "timestamp": "2024-06-19T02:36:16Z",
            "version": 2,
            "changeset": 152871589,
            "user": "Rockedf",
            "uid": 7522075,
            "tags": {
                "addr:city": "Mirandola",
                "addr:housenumber": "37-3",
                "addr:postcode": "41037",
                "addr:street": "Via G. Agnini",
                "amenity": "atm",
                "cash_in": "yes",
                "cash_out": "yes",
                "cash_withdrawal": "yes",
                "check_date": "2024-05-31",
                "contact:email": "support@shitcoins.club",
                "contact:facebook": "https://www.facebook.com/shitcoins.club",
                "contact:instagram": "https://www.instagram.com/shitcoinsclub",
                "contact:telegram": "https://t.me/shitcoinsclub",
                "contact:twitter": "https://twitter.com/BitomatCom",
                "currency:CHF": "yes",
                "currency:DASH": "yes",
                "currency:ETH": "yes",
                "currency:EUR": "yes",
                "currency:GBP": "yes",
                "currency:HUF": "yes",
                "currency:LTC": "yes",
                "currency:RON": "yes",
                "currency:USD": "yes",
                "currency:USDC": "yes",
                "currency:USDT": "yes",
                "currency:XBT": "yes",
                "indoor": "yes",
                "name": "Bitcoin ATM - Shitcoins.club",
                "opening_hours": "Mo-Sa 08:30-20:30; Su 09:00-20:00",
                "operator": "Shitcoins.club",
                "payment:cash": "yes",
                "payment:lightning": "no",
                "payment:lightning_contactless": "no",
                "payment:onchain": "yes",
                "phone": "+39 34 8048 7308",
                "website": "https://shitcoins.club/localizzazione-atm/bancomat-bitcoin-Mirandola"
            }
        },
        {
            "type": "node",
            "id": 12007335643,
            "lat": 44.5590504,
            "lon": 11.3229149,
            "timestamp": "2024-10-15T08:02:12Z",
            "version": 2,
            "changeset": 157908605,
            "user": "mpbin",
            "uid": 21850090,
            "tags": {
                "addr:city": "Castel Maggiore",
                "addr:housenumber": "215",
                "addr:postcode": "40013",
                "addr:street": "Via Lame",
                "amenity": "music_school",
                "check_date": "2024-10-15",
                "check_date:currency:XBT": "2024-10-15",
                "contact:email": "info@musicstation.top",
                "contact:facebook": "https://www.facebook.com/musicstation.top/",
                "currency:XBT": "yes",
                "name": "Music Station",
                "opening_hours": "Mo-Fr 09:30-00:00",
                "payment:lightning": "yes",
                "payment:lightning_contactless": "yes",
                "payment:onchain": "yes",
                "phone": "+39 05 1632 5826",
                "website": "https://www.musicstation.top/"
            }
        },
        {
            "type": "node",
            "id": 12055424193,
            "lat": 44.7989832,
            "lon": 10.3413452,
            "timestamp": "2025-01-03T11:05:32Z",
            "version": 4,
            "changeset": 160943289,
            "user": "mpbin",
            "uid": 21850090,
            "tags": {
                "addr:city": "Parma",
                "addr:housenumber": "21/A",
                "addr:postcode": "43121",
                "addr:street": "Galleria Pietro Micheli",
                "brand": "Decathlon",
                "brand:wikidata": "Q509349",
                "name": "Decathlon",
                "operator": "Decathlon",
                "shop": "sports",
                "sport": "cycling"
            }
        },
        {
            "type": "node",
            "id": 12092237702,
            "lat": 44.4842843,
            "lon": 11.0221059,
            "timestamp": "2024-11-03T20:24:03Z",
            "version": 4,
            "changeset": 158715880,
            "user": "mpbin",
            "uid": 21850090,
            "tags": {
                "addr:city": "Vignola",
                "addr:housenumber": "5",
                "addr:postcode": "41058",
                "addr:street": "Via Livello",
                "amenity": "restaurant",
                "check_date": "2024-11-03",
                "check_date:currency:XBT": "2024-11-03",
                "contact:facebook": "https://www.facebook.com/p/Il-Gatto-Nero-100042247496245/",
                "currency:XBT": "yes",
                "email": "adriraika@libero.it",
                "name": "I Gatti Neri",
                "phone:mobile": "+39 389 917 1476"
            }
        },
        {
            "type": "node",
            "id": 12120060972,
            "lat": 44.6360071,
            "lon": 10.9503807,
            "timestamp": "2025-01-01T20:08:10Z",
            "version": 4,
            "changeset": 160883672,
            "user": "mpbin",
            "uid": 21850090,
            "tags": {
                "addr:city": "Modena",
                "addr:housenumber": "750",
                "addr:postcode": "41125",
                "addr:street": "Via Emilia Est",
                "brand": "Unieuro",
                "brand:wikidata": "Q4004687",
                "name": "Unieuro",
                "opening_hours": "Mo-Sa 09:00-19:30; Su 10:00-13:00, 15:00-19:30",
                "operator": "Unieuro S.p.A.",
                "payment:cash": "yes",
                "payment:debit_cards": "yes",
                "phone": "+39059365818",
                "shop": "electronics",
                "website": "https://www.unieuro.it/",
                "wheelchair": "yes"
            }
        },
        {
            "type": "node",
            "id": 12652695912,
            "lat": 44.7997772,
            "lon": 10.3047994,
            "timestamp": "2025-03-11T17:12:27Z",
            "version": 1,
            "changeset": 163494728,
            "user": "ziomio",
            "uid": 21389832,
            "tags": {
                "amenity": "car_wash",
                "brand": "Wash",
                "brand:wikidata": "Q124568566",
                "name": "Wash",
                "operator": "Q8"
            }
        },
        {
            "type": "node",
            "id": 12687606433,
            "lat": 44.5181428,
            "lon": 11.341917,
            "timestamp": "2025-04-02T13:32:34Z",
            "version": 2,
            "changeset": 164421795,
            "user": "quibitcoin",
            "uid": 2201521,
            "tags": {
                "addr:city": "Bologna",
                "addr:housenumber": "2",
                "addr:postcode": "40129",
                "addr:street": "Via dell'Arcoveggio",
                "currency:XBT": "yes",
                "name": "Fisioterapia a domicilio",
                "office": "therapist",
                "phone": "+39 3299699161"
            }
        },
        {
            "type": "node",
            "id": 12844795062,
            "lat": 45.166097,
            "lon": 10.8380383,
            "timestamp": "2025-05-17T19:58:04Z",
            "version": 1,
            "changeset": 166406989,
            "user": "Comino",
            "uid": 6794624,
            "tags": {
                "addr:city": "San Giorgio Bigarello",
                "addr:housenumber": "22-F",
                "addr:postcode": "46051",
                "addr:street": "Via Legnaghese",
                "check_date": "2025-05-17",
                "check_date:currency:XBT": "2025-05-17",
                "currency:XBT": "yes",
                "email": "mantovasvapo@gmail.com",
                "name": "Svapo Web Mantova",
                "payment:lightning": "yes",
                "payment:lightning_contactless": "yes",
                "payment:onchain": "yes",
                "phone": "+39 339 858 2442",
                "shop": "e-cigarette"
            }
        },
        {
            "type": "node",
            "id": 12921111382,
            "lat": 45.1489997,
            "lon": 10.7594536,
            "timestamp": "2025-06-17T13:17:25Z",
            "version": 2,
            "changeset": 167738394,
            "user": "Comino",
            "uid": 6794624,
            "tags": {
                "addr:city": "Mantova",
                "addr:housenumber": "54",
                "addr:postcode": "46100",
                "addr:street": "Strada Dosso del Corso",
                "check_date": "2025-06-17",
                "check_date:currency:XBT": "2025-06-17",
                "contact:facebook": "fildifumo",
                "currency:EUR": "yes",
                "currency:XBT": "yes",
                "email": "fil.di.fumo@gmail.com",
                "internet_access": "wlan",
                "name": "Tabaccheria Fil di Fumo",
                "opening_hours": "Mo-Fr 07:30-12:30,15:30-19:30; Sa 08:30-12:30,15:30-19:30",
                "payment:american_express": "yes",
                "payment:cash": "yes",
                "payment:contactless": "yes",
                "payment:credit_cards": "yes",
                "payment:debit_cards": "yes",
                "payment:lightning": "yes",
                "payment:lightning_contactless": "no",
                "payment:onchain": "yes",
                "phone": "+39 376 380 314",
                "shop": "tobacco",
                "survey:date": "2025-01-01"
            }
        },
        {
            "type": "way",
            "id": 32340192,
            "timestamp": "2010-08-15T10:20:13Z",
            "version": 2,
            "changeset": 5497941,
            "user": "alpert",
            "uid": 49045,
            "nodes": [
                364066436,
                364066437,
                364066438,
                364066439,
                364066440,
                364066436
            ],
            "tags": {
                "building": "yes",
                "operator": "Conad",
                "shop": "supermarket"
            }
        },
        {
            "type": "way",
            "id": 149242642,
            "timestamp": "2022-02-21T19:48:36Z",
            "version": 3,
            "changeset": 117698638,
            "user": "LvdT",
            "uid": 1834719,
            "nodes": [
                1622443181,
                9525377637,
                9525377636,
                1622447797,
                1622446722,
                1622442338,
                9525377634,
                9525377635,
                1622443181
            ],
            "tags": {
                "addr:city": "Sassuolo",
                "addr:country": "IT",
                "addr:housenumber": "16",
                "addr:street": "Via Bologna",
                "brand": "Conad",
                "brand:wikidata": "Q639075",
                "brand:wikipedia": "it:Conad",
                "building": "yes",
                "name": "Conad",
                "operator": "CONAD Soc. Coop.",
                "shop": "supermarket",
                "source": "Regione Emilia Romagna"
            }
        },
        {
            "type": "way",
            "id": 165866339,
            "timestamp": "2024-11-01T16:51:41Z",
            "version": 3,
            "changeset": 158628056,
            "user": "b-jazz-bot",
            "uid": 9451067,
            "nodes": [
                1773859170,
                1773859177,
                1773859175,
                1773859172,
                1773859160,
                1773859168,
                1773859169,
                1773859170
            ],
            "tags": {
                "addr:city": "Novi di Modena",
                "addr:housenumber": "8",
                "addr:postcode": "41016",
                "addr:street": "Via XXV Aprile",
                "amenity": "restaurant",
                "building": "yes",
                "cuisine": "italian",
                "currency:XBT": "yes",
                "name": "Vivre Planet Risto/Bar",
                "payment:lightning": "yes",
                "phone": "+39 3534684578",
                "source": "Regione Emilia Romagna",
                "website": "https://www.vivreplanet.it/"
            }
        },
        {
            "type": "way",
            "id": 167125618,
            "timestamp": "2024-02-09T12:34:53Z",
            "version": 4,
            "changeset": 147255111,
            "user": "ivanbranco",
            "uid": 11220113,
            "nodes": [
                1785115970,
                1785116397,
                1785115244,
                1785114609,
                4736464882,
                1785115970
            ],
            "tags": {
                "addr:city": "Modena",
                "addr:country": "IT",
                "addr:housenumber": "60",
                "addr:postcode": "41100",
                "addr:street": "Via Ludwig Van Beethoven",
                "brand": "Conad",
                "brand:wikidata": "Q639075",
                "building": "industrial",
                "name": "Conad",
                "opening_hours": "Mo-Sa 07:30-19:30; Su 8:30 - 12:30",
                "operator": "Conad",
                "shop": "supermarket",
                "source": "Regione Emilia Romagna",
                "website": "https://www.conad.it/",
                "wheelchair": "limited"
            }
        },
        {
            "type": "way",
            "id": 168273762,
            "timestamp": "2020-05-13T04:18:21Z",
            "version": 2,
            "changeset": 85116428,
            "user": "mascalzone67",
            "uid": 1861652,
            "nodes": [
                1795473874,
                1795474075,
                1795474085,
                1795474105,
                1795474021,
                1795473999,
                1795474008,
                1795473742,
                1795473874
            ],
            "tags": {
                "addr:city": "Bibbiano",
                "addr:housenumber": "9",
                "addr:postcode": "42021",
                "addr:street": "Via Rodolfo Morandi",
                "brand": "Conad",
                "brand:wikidata": "Q639075",
                "brand:wikipedia": "it:Conad",
                "building": "retail",
                "email": "conad.citybibbiano@conadcentronord.it",
                "name": "Conad",
                "opening_hours": "Mo-Sa 08:00-21:00",
                "operator": "Conad",
                "payment:bancomat": "yes",
                "payment:cash": "yes",
                "payment:credit_cards": "yes",
                "phone": "+39 0522 881073",
                "shop": "supermarket",
                "website": "https://www.conad.it/ricerca-negozi/negozio.009659.html"
            }
        },
        {
            "type": "way",
            "id": 168474780,
            "timestamp": "2022-11-01T12:18:12Z",
            "version": 3,
            "changeset": 128342963,
            "user": "LvdT",
            "uid": 1834719,
            "nodes": [
                1797308508,
                10144966897,
                1797308398,
                1797308237,
                1797308424,
                1797308753,
                1797308651,
                1797308508
            ],
            "tags": {
                "addr:city": "Casina",
                "addr:country": "IT",
                "addr:housenumber": "6",
                "addr:street": "Via Roma",
                "building": "yes",
                "name": "Conad Casina",
                "operator": "CONAD Soc. Coop.",
                "shop": "supermarket",
                "source": "Regione Emilia Romagna"
            }
        },
        {
            "type": "way",
            "id": 168537031,
            "timestamp": "2023-06-03T17:05:20Z",
            "version": 2,
            "changeset": 136909608,
            "user": "LvdT",
            "uid": 1834719,
            "nodes": [
                1797864186,
                1797864586,
                1797864422,
                1797864005,
                1797864186
            ],
            "tags": {
                "addr:city": "Casalgrande",
                "addr:country": "IT",
                "addr:housenumber": "29",
                "addr:street": "Via Canale",
                "brand": "Conad",
                "brand:wikidata": "Q639075",
                "brand:wikipedia": "it:Conad",
                "building": "industrial",
                "name": "Conad",
                "operator": "CONAD Soc. Coop.",
                "shop": "supermarket",
                "source": "Regione Emilia Romagna"
            }
        },
        {
            "type": "way",
            "id": 168694414,
            "timestamp": "2023-06-08T17:33:05Z",
            "version": 6,
            "changeset": 137106458,
            "user": "LvdT",
            "uid": 1834719,
            "nodes": [
                1799183826,
                1799184223,
                433861395,
                1799183687,
                3519678186,
                1799183637,
                1799183826
            ],
            "tags": {
                "addr:city": "Scandiano",
                "addr:country": "IT",
                "addr:housenumber": "72",
                "addr:postcode": "42019",
                "addr:street": "Via Giuseppe Mazzini",
                "brand": "Conad",
                "brand:wikidata": "Q639075",
                "building": "yes",
                "building:levels": "1",
                "height": "6",
                "name": "Conad",
                "operator": "CONAD Soc. Coop.",
                "roof:colour": "silver",
                "roof:height": "1",
                "roof:shape": "gabled",
                "shop": "supermarket",
                "source": "Regione Emilia Romagna"
            }
        },
        {
            "type": "way",
            "id": 182144856,
            "timestamp": "2024-02-27T15:46:11Z",
            "version": 5,
            "changeset": 147978692,
            "user": "Emanuele Lorenzo Corti",
            "uid": 10893865,
            "nodes": [
                1924920322,
                1924920450,
                1924920538,
                1924920545,
                11669370525,
                11669370524,
                1924920600,
                1924920623,
                1924920342,
                1924920213,
                1924919761,
                1924919747,
                1924920322
            ],
            "tags": {
                "brand": "Conad",
                "brand:wikidata": "Q639075",
                "brand:wikipedia": "it:Conad",
                "building": "yes",
                "name": "Conad",
                "opening_hours": "Mo-Sa 08:30-20:30; Su 09:00-13:00",
                "operator": "Conad",
                "shop": "supermarket",
                "source": "Regione Emilia Romagna",
                "wheelchair": "yes"
            }
        },
        {
            "type": "way",
            "id": 182153214,
            "timestamp": "2025-08-27T18:13:47Z",
            "version": 6,
            "changeset": 171096810,
            "user": "Mateusz Konieczny - bot account - ATP import",
            "uid": 22544915,
            "nodes": [
                1925004561,
                1925004745,
                1925004700,
                1925004714,
                1925004684,
                1925004624,
                1925004583,
                1925004484,
                1925004494,
                1925004489,
                12095537913,
                12095537914,
                12095537915,
                1925004514,
                1925004530,
                1925004554,
                1925004558,
                1925004561
            ],
            "tags": {
                "brand": "IKEA",
                "brand:wikidata": "Q54078",
                "building": "commercial",
                "name": "IKEA",
                "operator": "Ikea Italia Retail S.r.l.",
                "shop": "furniture",
                "source": "Regione Emilia Romagna",
                "website": "https://www.ikea.com/it/it/stores/parma/"
            }
        },
        {
            "type": "way",
            "id": 182247919,
            "timestamp": "2025-01-06T14:42:40Z",
            "version": 3,
            "changeset": 161061098,
            "user": "mpbin",
            "uid": 21850090,
            "nodes": [
                1925848716,
                1925848746,
                1925848743,
                1925848739,
                1925848737,
                1925848690,
                1925848695,
                1925848688,
                1925848693,
                1925848700,
                1925848709,
                1925848720,
                1925848721,
                1925848711,
                1925848716
            ],
            "tags": {
                "amenity": "parking",
                "name": "IKEA",
                "operator": "Ikea Italia Retail S.r.l.",
                "parking": "surface"
            }
        },
        {
            "type": "way",
            "id": 182247920,
            "timestamp": "2025-01-06T14:43:02Z",
            "version": 3,
            "changeset": 161061113,
            "user": "mpbin",
            "uid": 21850090,
            "nodes": [
                1925848750,
                1925848752,
                1925848718,
                1925848713,
                1925848683,
                1925848641,
                1925848642,
                1925848643,
                1925848644,
                1925848646,
                1925848654,
                1925848662,
                1925848668,
                1925848665,
                1925848657,
                1925848650,
                1925848648,
                1925848652,
                1925848659,
                1925848670,
                1925848673,
                1925848703,
                1925848722,
                1925848730,
                1925848735,
                1925848748,
                1925848750
            ],
            "tags": {
                "amenity": "parking",
                "name": "IKEA",
                "operator": "Ikea Italia Retail S.r.l.",
                "parking": "surface"
            }
        },
        {
            "type": "way",
            "id": 220734350,
            "timestamp": "2025-02-27T17:36:06Z",
            "version": 3,
            "changeset": 163022324,
            "user": "Stefano Manfredini",
            "uid": 5721717,
            "nodes": [
                2298264868,
                2298264869,
                2298264870,
                9646876463,
                9646876462,
                9646876461,
                9646876460,
                9646876464,
                2298264871,
                2298264868
            ],
            "tags": {
                "addr:street": "Via Zenzalose",
                "branch": "Montale",
                "brand": "Conad",
                "brand:wikidata": "Q639075",
                "building": "yes",
                "name": "Conad",
                "operator": "Conad",
                "shop": "supermarket"
            }
        },
        {
            "type": "way",
            "id": 345332967,
            "timestamp": "2023-07-13T14:07:59Z",
            "version": 4,
            "changeset": 138466184,
            "user": "superg00fy",
            "uid": 16995123,
            "nodes": [
                3520193752,
                3520193529,
                3520193383,
                3520193560,
                3520193574,
                3520193722,
                3520193752
            ],
            "tags": {
                "addr:city": "Viadana",
                "addr:housenumber": "1",
                "addr:postcode": "46019",
                "addr:street": "via A. Moro",
                "brand": "Conad",
                "brand:wikidata": "Q639075",
                "brand:wikipedia": "it:Conad",
                "building": "retail",
                "check_date:opening_hours": "2023-07-13",
                "email": "Conad.ViadanaViaMoro@conadcentronord.it",
                "name": "Conad",
                "opening_hours": "Mo-Su 08:00-20:00",
                "operator": "Conad",
                "payment:bancomat": "yes",
                "payment:cash": "yes",
                "payment:credit_cards": "yes",
                "phone": "+39 0375 791002",
                "shop": "supermarket",
                "website": "https://www.conad.it/ricerca-negozi/negozio.009971.html"
            }
        },
        {
            "type": "way",
            "id": 394410821,
            "timestamp": "2020-05-13T04:52:47Z",
            "version": 3,
            "changeset": 85117763,
            "user": "mascalzone67",
            "uid": 1861652,
            "nodes": [
                3974237977,
                3974237965,
                3974237340,
                3974237329,
                3974237344,
                3974237977
            ],
            "tags": {
                "addr:city": "Sant'Ilario d'Enza",
                "addr:country": "IT",
                "addr:postcode": "42049",
                "addr:street": "Via Guidetti",
                "brand": "Conad",
                "brand:wikidata": "Q639075",
                "brand:wikipedia": "it:Conad",
                "building": "retail",
                "email": "conad.silario@conadcentronord.it",
                "name": "Conad",
                "opening_hours": "Mo-Sa 08:00-20:00; Su 09:00-21:00",
                "operator": "Conad",
                "payment:bancomat": "yes",
                "payment:cash": "yes",
                "payment:credit_cards": "yes",
                "phone": "+39 0522 489111",
                "shop": "supermarket",
                "website": "https://www.conad.it/ricerca-negozi/negozio.008893.html"
            }
        },
        {
            "type": "way",
            "id": 416724522,
            "timestamp": "2025-05-20T08:02:28Z",
            "version": 8,
            "changeset": 166510658,
            "user": "Tatti Barletta",
            "uid": 6693292,
            "nodes": [
                10099249315,
                4174394658,
                4174394648,
                4174394643,
                4174394637,
                4174394638,
                4174394635,
                4174394634,
                4174394633,
                4174394626,
                4174394632,
                4174394630,
                1978269296,
                10099249316,
                10099249313,
                10099249314,
                10099249315
            ],
            "tags": {
                "addr:city": "Modena",
                "addr:housenumber": "500",
                "addr:postcode": "41126",
                "addr:street": "Strada Morane",
                "brand": "Conad",
                "brand:wikidata": "Q639075",
                "brand:wikipedia": "it:Conad",
                "check_date": "2025-05-19",
                "email": "Boxmo@nordiconad.it",
                "indoor": "room",
                "level": "0",
                "name": "Conad",
                "opening_hours": "Mo-Su 08:30-20:00",
                "operator": "Conad",
                "payment:bancomat": "yes",
                "payment:cash": "yes",
                "payment:credit_cards": "yes",
                "phone": "+39 059 448111",
                "shop": "supermarket",
                "website": "https://www.conad.it/ricerca-negozi/negozio.003417.html"
            }
        },
        {
            "type": "way",
            "id": 456605064,
            "timestamp": "2016-11-29T15:21:01Z",
            "version": 1,
            "changeset": 44036733,
            "user": "marco_MTB",
            "uid": 3510338,
            "nodes": [
                4528575881,
                4528575882,
                4528575883,
                4528575884,
                4528575881
            ],
            "tags": {
                "building": "yes",
                "operator": "Conad",
                "shop": "mall"
            }
        },
        {
            "type": "way",
            "id": 554472890,
            "timestamp": "2020-05-11T13:45:28Z",
            "version": 3,
            "changeset": 85028965,
            "user": "mascalzone67",
            "uid": 1861652,
            "nodes": [
                5350859475,
                5350859476,
                5350859477,
                5350859478,
                5350859475
            ],
            "tags": {
                "addr:city": "Formigine",
                "addr:housenumber": "19",
                "addr:postcode": "41043",
                "addr:street": "Via Claudio Treves",
                "brand": "Conad",
                "brand:wikidata": "Q639075",
                "brand:wikipedia": "it:Conad",
                "building": "retail",
                "email": "FontanaSrlPvViaTreves_E211081B@di-net.it",
                "name": "Conad",
                "opening_hours": "Mo-Sa 07:30-20:30; Su 09:00-13:00",
                "operator": "Conad",
                "payment:bancomat": "yes",
                "payment:cash": "yes",
                "payment:credit_cards": "yes",
                "phone": "+39 059 5750631",
                "shop": "supermarket",
                "website": "https://www.conad.it/ricerca-negozi/negozio.009392.html"
            }
        },
        {
            "type": "way",
            "id": 584661707,
            "timestamp": "2024-08-26T09:41:11Z",
            "version": 11,
            "changeset": 155772490,
            "user": "Dante Torre",
            "uid": 8655132,
            "nodes": [
                5588301608,
                5891383862,
                5588301609,
                5588301610,
                5891383861,
                5809270471,
                5588301608
            ],
            "tags": {
                "addr:city": "Taneto",
                "addr:street": "Via M. Tonelli",
                "amenity": "fuel",
                "brand": "Tamoil",
                "brand:wikidata": "Q706793",
                "name": "Tamoil",
                "operator": "Tamoil",
                "payment:cash": "yes",
                "payment:credit_cards": "yes",
                "self_service": "yes"
            }
        },
        {
            "type": "way",
            "id": 598181398,
            "timestamp": "2024-06-20T08:34:20Z",
            "version": 2,
            "changeset": 152930998,
            "user": "LvdT",
            "uid": 1834719,
            "nodes": [
                5693643656,
                11993417596,
                11993417595,
                11993417597,
                5693643657,
                5693643658,
                5693643659,
                5693643660,
                5693643661,
                5693643662,
                5693643663,
                5693643664,
                11993417598,
                11993417599,
                5693643656
            ],
            "tags": {
                "addr:city": "Poviglio",
                "addr:housenumber": "76",
                "addr:postcode": "42028",
                "addr:street": "Via Romana",
                "brand": "Conad",
                "brand:wikidata": "Q639075",
                "brand:wikipedia": "it:Conad",
                "building": "yes",
                "email": "conad.poviglio@conadcentronord.it",
                "name": "Conad",
                "opening_hours": "Mo-Sa 08:15-20:00; Su 09:00 - 13:00",
                "operator": "Conad",
                "payment:bancomat": "yes",
                "payment:cash": "yes",
                "payment:credit_cards": "yes",
                "phone": "+39 0522 960668",
                "shop": "supermarket",
                "website": "https://www.conad.it/ricerca-negozi/negozio.008801.html"
            }
        },
        {
            "type": "way",
            "id": 623944291,
            "timestamp": "2025-09-03T15:52:30Z",
            "version": 8,
            "changeset": 171414359,
            "user": "Stefano Manfredini",
            "uid": 5721717,
            "nodes": [
                5891725943,
                5891725944,
                5891725946,
                5891747770,
                10730962250,
                5891725947,
                5891725943
            ],
            "tags": {
                "addr:city": "Modena",
                "addr:housenumber": "537",
                "addr:postcode": "41121",
                "addr:street": "Via Nonantolana",
                "brand": "Spar",
                "brand:wikidata": "Q610492",
                "building": "retail",
                "name": "Eurospar",
                "operator": "Despar",
                "phone": "+39 059 250344",
                "shop": "supermarket",
                "website": "https://www.despar.it/",
                "wheelchair": "yes"
            }
        },
        {
            "type": "way",
            "id": 636947690,
            "timestamp": "2018-10-22T18:38:39Z",
            "version": 1,
            "changeset": 63769142,
            "user": "Dante Torreggiani",
            "uid": 7411601,
            "nodes": [
                6005631689,
                6005631694,
                6005631690,
                6005631691,
                6005631692,
                6005631693,
                6005631689
            ],
            "tags": {
                "amenity": "fuel",
                "operator": "Tamoil"
            }
        },
        {
            "type": "way",
            "id": 777180959,
            "timestamp": "2024-11-13T18:30:42Z",
            "version": 4,
            "changeset": 159102632,
            "user": "b-jazz-bot",
            "uid": 9451067,
            "nodes": [
                7251787546,
                7251787545,
                7251787544,
                7251787543,
                7251787542,
                7251787541,
                7251787540,
                7251787539,
                7251787538,
                7251787537,
                7251787536,
                7251787535,
                7251787534,
                7251787533,
                7251787532,
                7251787531,
                7251787546
            ],
            "tags": {
                "addr:city": "Pegognaga",
                "addr:housenumber": "2",
                "addr:postcode": "46020",
                "addr:street": "Via Sandro Pertini",
                "addr:unit": "a",
                "building": "yes",
                "currency:XBT": "yes",
                "name": "B.R.M. Produzione Intimo e Abbigliamento",
                "payment:lightning": "yes",
                "shop": "clothes",
                "website": "https://www.brmconfezioni.com/"
            }
        },
        {
            "type": "way",
            "id": 800293121,
            "timestamp": "2023-11-17T18:12:40Z",
            "version": 3,
            "changeset": 144149923,
            "user": "toponomastica_comune_arenzano",
            "uid": 14257573,
            "nodes": [
                7484489272,
                7484489273,
                9352390352,
                9352390353,
                9352390355,
                9352390356,
                9352390354,
                7484489274,
                9352390351,
                7484489275,
                7484489272
            ],
            "tags": {
                "addr:city": "Suzzara",
                "addr:housenumber": "2a",
                "addr:postcode": "46029",
                "addr:street": "Viale Rossellini",
                "brand": "Conad",
                "brand:wikidata": "Q639075",
                "brand:wikipedia": "it:Conad",
                "building": "retail",
                "email": "conad.suzzara@conadcentronord.it",
                "name": "Conad",
                "opening_hours": "Mo-Su 08:00-20:00",
                "operator": "Conad",
                "payment:bancomat": "yes",
                "payment:cash": "yes",
                "payment:credit_cards": "yes",
                "phone": "+39 0376 522158",
                "shop": "supermarket",
                "website": "https://www.conad.it/ricerca-negozi/negozio.009129.html"
            }
        },
        {
            "type": "way",
            "id": 849257441,
            "timestamp": "2020-09-19T14:42:55Z",
            "version": 1,
            "changeset": 91152192,
            "user": "stefano93",
            "uid": 11617002,
            "nodes": [
                7923378927,
                7923378928,
                7923378929,
                7923378930,
                7923378927
            ],
            "tags": {
                "addr:city": "Maranello",
                "addr:housenumber": "2",
                "addr:postcode": "41053",
                "addr:street": "Piazza Unit\u00e0 D'italia",
                "brand": "Conad",
                "brand:wikidata": "Q639075",
                "brand:wikipedia": "it:Conad",
                "building": "yes",
                "name": "Conad",
                "opening_hours": "Mo-Sa 07:00-20:00",
                "operator": "Conad",
                "shop": "supermarket"
            }
        },
        {
            "type": "way",
            "id": 1103664763,
            "timestamp": "2025-05-20T08:02:28Z",
            "version": 3,
            "changeset": 166510658,
            "user": "Tatti Barletta",
            "uid": 6693292,
            "nodes": [
                4965712896,
                10099249315,
                10099249314,
                10099249313,
                4965712896
            ],
            "tags": {
                "addr:city": "Modena",
                "addr:housenumber": "500",
                "addr:postcode": "41126",
                "addr:street": "Strada Morane",
                "amenity": "pharmacy",
                "check_date": "2025-05-19",
                "dispensing": "no",
                "healthcare": "pharmacy",
                "indoor": "yes",
                "level": "0",
                "name": "ConCura - Parafarmacia e Ottico",
                "operator": "Conad"
            }
        },
        {
            "type": "relation",
            "id": 2223354,
            "timestamp": "2024-12-27T18:16:06Z",
            "version": 3,
            "changeset": 160687506,
            "user": "Rockedf",
            "uid": 7522075,
            "members": [
                {
                    "type": "way",
                    "ref": 166775357,
                    "role": "outer"
                },
                {
                    "type": "way",
                    "ref": 166775290,
                    "role": "inner"
                }
            ],
            "tags": {
                "addr:city": "Carpi",
                "addr:housenumber": "7",
                "addr:postcode": "41012",
                "addr:street": "Via Santa Chiara",
                "building": "yes",
                "check_date:currency:XBT": "2024-12-27",
                "currency:XBT": "yes",
                "layer": "1",
                "name": "Natural Mystic",
                "payment:lightning": "yes",
                "phone": "059654312",
                "shop": "cannabis",
                "type": "multipolygon",
                "website": "https://www.naturalmystic.it/"
            }
        },
        {
            "type": "relation",
            "id": 2223361,
            "timestamp": "2024-10-25T08:27:33Z",
            "version": 2,
            "changeset": 158326173,
            "user": "parrotoshi",
            "uid": 22107124,
            "members": [
                {
                    "type": "way",
                    "ref": 166775245,
                    "role": "outer"
                },
                {
                    "type": "way",
                    "ref": 166775367,
                    "role": "inner"
                }
            ],
            "tags": {
                "addr:city": "Carpi",
                "addr:housenumber": "28",
                "addr:postcode": "41012",
                "addr:street": "Corso Sandro Cabassi",
                "building": "yes",
                "currency:XBT": "yes",
                "name": "Bisi Gioielli",
                "payment:cash": "yes",
                "payment:credit_cards": "yes",
                "payment:debit_cards": "yes",
                "payment:lightning": "yes",
                "payment:onchain": "yes",
                "phone": "059 686868",
                "shop": "jewelry",
                "type": "multipolygon"
            }
        }
    ],
    "telegram": []
}