{
    "id": "ss-cuneo",
    "name": "Satoshi Spritz Cuneo",
    "lng": 44.384477,
    "lat": 7.542671,
    "localita": "Cuneo",
    "idlocalita": "cuneo",
    "telegram_weburl": "https://web.telegram.org/a/#-1001655456889",
    "telegram_app": "https://t.me/SatoshiSpritzCuneo",
    "telegram_members": 49.0,
    "network": "satoshispritz",
    "poi": [
        {
            "type": "node",
            "id": 3196747047,
            "lat": 44.558931,
            "lon": 7.7093794,
            "timestamp": "2023-03-16T21:52:01Z",
            "version": 5,
            "changeset": 133766692,
            "user": "perpetual nomad",
            "uid": 17199501,
            "tags": {
                "addr:city": "Fossano",
                "addr:housenumber": "51",
                "addr:postcode": "12045",
                "addr:street": "Via Torino",
                "addr:unit": "A",
                "check_date": "2023-03-16",
                "craft": "brewery",
                "currency:XBT": "yes",
                "name": "Birreria Moulin",
                "note": "Birre artigianali, televisioni per partite, ottima cucina",
                "opening_hours": "Tu-Sa 19:00-02:00; Su 19:00-01:00",
                "payment:lightning": "yes",
                "phone": "+39 0172 694327",
                "website": "https://www.birreriamoulin.it/"
            }
        },
        {
            "type": "node",
            "id": 3450446420,
            "lat": 44.4757521,
            "lon": 7.5079779,
            "timestamp": "2024-11-08T11:15:48Z",
            "version": 13,
            "changeset": 158891142,
            "user": "mircozorzo",
            "uid": 224342,
            "tags": {
                "addr:city": "San Chiaffredo Tarantasca",
                "addr:housenumber": "38",
                "addr:postcode": "12020",
                "addr:street": "Via Laghi di Avigliana",
                "amenity": "restaurant",
                "check_date": "2024-10-22",
                "check_date:currency:XBT": "2024-10-22",
                "cuisine": "italian;pizza",
                "currency:XBT": "yes",
                "email": "info@saloonristopizza.it",
                "name": "Saloon Risto Pizza Pub",
                "payment:lightning": "yes",
                "phone": "+39 339 819 5518",
                "survey:date": "2024-05-22",
                "website": "https://www.saloonristopizza.it/"
            }
        },
        {
            "type": "node",
            "id": 4844602523,
            "lat": 44.5031343,
            "lon": 7.7253946,
            "timestamp": "2024-11-20T22:28:38Z",
            "version": 5,
            "changeset": 159387255,
            "user": "Botaler",
            "uid": 492756,
            "tags": {
                "addr:city": "Sant'Albano Stura",
                "addr:housenumber": "42",
                "addr:postcode": "12040",
                "addr:street": "Via Mondov\u00ec",
                "amenity": "pub",
                "currency:XBT": "yes",
                "name": "La Grotta degli Elfi",
                "payment:onchain": "yes"
            }
        },
        {
            "type": "node",
            "id": 10792267135,
            "lat": 44.6029307,
            "lon": 7.4732968,
            "timestamp": "2023-08-04T07:22:38Z",
            "version": 2,
            "changeset": 139426733,
            "user": "Igor Bubelov",
            "uid": 2104834,
            "tags": {
                "addr:city": "Verzuolo",
                "addr:housenumber": "94",
                "addr:postcode": "12039",
                "addr:street": "Via al Castello",
                "check_date": "2023-07-09",
                "contact:facebook": "https://www.facebook.com/people/El-panat%C3%A8-dla-Vila/100054305930056/",
                "currency:XBT": "yes",
                "email": "elpanatedlavila@gmail.com",
                "name": "El Panat\u00e8 Dla Vila",
                "phone": "0175 85831",
                "ref:vatin": "03552540043",
                "shop": "bakery"
            }
        },
        {
            "type": "node",
            "id": 11267662527,
            "lat": 44.6895793,
            "lon": 7.8795567,
            "timestamp": "2023-10-16T19:58:58Z",
            "version": 1,
            "changeset": 142682144,
            "user": "Chiarant",
            "uid": 18452174,
            "tags": {
                "addr:city": "Bra",
                "addr:housenumber": "22",
                "addr:street": "Strada Orti",
                "addr:unit": "l",
                "check_date": "2023-10-16",
                "currency:XBT": "yes",
                "name": "Residenza da Luisa",
                "payment:lightning": "yes",
                "payment:onchain": "no",
                "phone": "+39 3668941251",
                "tourism": "apartment"
            }
        },
        {
            "type": "node",
            "id": 11936607674,
            "lat": 44.513275,
            "lon": 7.4719245,
            "timestamp": "2024-08-14T11:22:54Z",
            "version": 2,
            "changeset": 155234894,
            "user": "mauropili",
            "uid": 1496865,
            "tags": {
                "addr:city": "Busca",
                "addr:housenumber": "7",
                "addr:postcode": "12022",
                "addr:street": "Strada Rossana",
                "amenity": "bar",
                "check_date": "2022-12-31",
                "contact:facebook": "https://www.facebook.com/belvederedabosio/",
                "currency:XBT": "yes",
                "description": "Bar Vineria Osteria Belvedere da Bosio. Sala giochi, disco",
                "name": "Bar Belvedere",
                "payment:onchain": "yes",
                "phone": "0171 173 0003"
            }
        },
        {
            "type": "node",
            "id": 11955642309,
            "lat": 44.6458418,
            "lon": 7.4961578,
            "timestamp": "2024-07-05T20:03:29Z",
            "version": 4,
            "changeset": 153603115,
            "user": "mauropili",
            "uid": 1496865,
            "tags": {
                "addr:city": "Saluzzo",
                "addr:housenumber": "7",
                "addr:street": "Via Savigliano",
                "currency:XBT": "yes",
                "name": "Non solo tabacchi",
                "payment:onchain": "yes",
                "phone": "+39 0175 45337",
                "shop": "tobacco",
                "survey:date": "2024-05-31",
                "website": "https://www.nonsolotabacchi.com/"
            }
        },
        {
            "type": "node",
            "id": 12033521517,
            "lat": 44.3965499,
            "lon": 7.7444969,
            "timestamp": "2024-09-23T18:02:47Z",
            "version": 3,
            "changeset": 157007907,
            "user": "mpbin",
            "uid": 21850090,
            "tags": {
                "addr:city": "Villanova Mondov\u00ec",
                "addr:postcode": "12089",
                "addr:street": "Via Case Molino di Pogliola",
                "check_date": "2024-09-23",
                "check_date:currency:XBT": "2024-09-23",
                "contact:facebook": "https://www.facebook.com/molinobongiovanni/",
                "contact:twitter": "https://x.com/bongionatura",
                "currency:XBT": "yes",
                "email": "info@molinobongiovanni.com",
                "name": "Bongiovanni Srl",
                "nohousenumber": "yes",
                "payment:onchain": "yes",
                "phone": "+39 0324 848425",
                "shop": "food",
                "website": "https://www.molinobongiovanni.com/"
            }
        }
    ],
    "telegram": []
}