{
    "id": "ss-cagliari",
    "name": "Satoshi Spritz Cagliari",
    "lng": 39.21721,
    "lat": 9.11335,
    "localita": "Cagliari",
    "telegram_weburl": "https://web.telegram.org/a/#-1001802453419",
    "telegram_app": "https://t.me/SatoshiSpritzCagliari",
    "telegram_members": 91.0,
    "network": "satoshispritz",
    "poi": [
        {
            "type": "node",
            "id": 2317627942,
            "lat": 39.2155701,
            "lon": 9.1114928,
            "timestamp": "2023-01-26T22:37:04Z",
            "version": 7,
            "changeset": 131750821,
            "user": "perpetual nomad",
            "uid": 17199501,
            "tags": {
                "addr:city": "Cagliari",
                "addr:housenumber": "26",
                "addr:postcode": "09124",
                "addr:street": "Largo Carlo Felice",
                "check_date:currency:XBT": "2023-01-26",
                "currency:XBT": "yes",
                "email": "info@sardiniadomus.it",
                "fax": "+39 070 6401360",
                "internet_access": "wlan",
                "internet_access:fee": "no",
                "name": "Affittacamere B&B Sardinia Domus",
                "phone": "+39 070659783",
                "smoking": "no",
                "tourism": "guest_house",
                "website": "https://www.sardiniadomus.it/",
                "wheelchair": "no"
            }
        },
        {
            "type": "node",
            "id": 4228916757,
            "lat": 39.2227388,
            "lon": 9.124882,
            "timestamp": "2024-04-11T04:46:55Z",
            "version": 4,
            "changeset": 149846844,
            "user": "Igor Bubelov",
            "uid": 2104834,
            "tags": {
                "addr:city": "Cagliari",
                "addr:housenumber": "134",
                "addr:postcode": "09128",
                "addr:street": "Via Dante Alighieri",
                "check_date": "2024-03-26",
                "currency:XBT": "yes",
                "name": "Dante 134 Rooms",
                "payment:lightning": "yes",
                "payment:lightning_contactless": "yes",
                "payment:onchain": "yes",
                "phone": "+39 375 593 3115",
                "rooms": "2",
                "source": "Regione Autonoma della Sardegna (www.sardegnageoportale.it)",
                "tourism": "hotel",
                "website": "https://ceowelcomingitaly.it/"
            }
        },
        {
            "type": "node",
            "id": 4228932492,
            "lat": 39.2081831,
            "lon": 9.1643846,
            "timestamp": "2024-02-27T10:56:56Z",
            "version": 7,
            "changeset": 147967957,
            "user": "Igor Bubelov",
            "uid": 2104834,
            "tags": {
                "addr:city": "Cagliari",
                "addr:country": "IT",
                "addr:housenumber": "12",
                "addr:postcode": "09126",
                "addr:street": "Via Isola San Domino",
                "check_date": "2024-02-13",
                "currency:XBT": "yes",
                "internet_access": "wlan",
                "name": "Domino 12",
                "payment:lightning": "yes",
                "payment:lightning_contactless": "yes",
                "payment:onchain": "yes",
                "phone": "3475774500",
                "source": "Regione Autonoma della Sardegna (www.sardegnageoportale.it)",
                "tourism": "hotel",
                "website": "https://ceowelcomingitaly.it/"
            }
        },
        {
            "type": "node",
            "id": 4228979833,
            "lat": 39.2173004,
            "lon": 9.1212942,
            "timestamp": "2024-04-11T04:51:04Z",
            "version": 9,
            "changeset": 149846905,
            "user": "Igor Bubelov",
            "uid": 2104834,
            "tags": {
                "addr:city": "Cagliari",
                "addr:housenumber": "177",
                "addr:street": "Via Sidney Sonnino",
                "check_date": "2024-02-07",
                "currency:XBT": "yes",
                "internet_access": "wlan",
                "name": "C&O Luxury Suite",
                "payment:lightning": "yes",
                "payment:lightning_contactless": "yes",
                "payment:onchain": "yes",
                "phone": "+39 375 593 3115",
                "rooms": "4",
                "source": "Regione Autonoma della Sardegna (www.sardegnageoportale.it)",
                "tourism": "hotel",
                "website": "https://ceowelcomingitaly.it/"
            }
        },
        {
            "type": "node",
            "id": 4229034861,
            "lat": 39.213179,
            "lon": 9.1151683,
            "timestamp": "2023-02-15T06:47:13Z",
            "version": 3,
            "changeset": 132566420,
            "user": "BSN21M",
            "uid": 17441326,
            "tags": {
                "addr:city": "Cagliari",
                "addr:housenumber": "19",
                "addr:postcode": "09125",
                "addr:street": "Via Vittorio Porcile",
                "check_date:currency:XBT": "2023-02-15",
                "currency:XBT": "yes",
                "email": "info@ilcagliarese.com",
                "name": "Il Cagliarese",
                "name:it": "Il Cagliarese",
                "payment:lightning": "yes",
                "payment:lightning_contactless": "no",
                "payment:onchain": "yes",
                "phone": "+39 339 654 4083",
                "source": "Regione Autonoma della Sardegna (www.sardegnageoportale.it)",
                "tourism": "hotel",
                "website": "http://ilcagliarese.com/le-camere/"
            }
        },
        {
            "type": "node",
            "id": 4229520549,
            "lat": 39.217275,
            "lon": 9.1199153,
            "timestamp": "2024-04-11T04:49:34Z",
            "version": 4,
            "changeset": 149846881,
            "user": "Igor Bubelov",
            "uid": 2104834,
            "tags": {
                "addr:city": "Cagliari",
                "addr:housenumber": "43",
                "addr:postcode": "09127",
                "addr:street": "Via Giuseppe Abba",
                "check_date": "2024-03-26",
                "currency:XBT": "yes",
                "name": "Abba Rooms",
                "payment:lightning": "yes",
                "payment:lightning_contactless": "yes",
                "payment:onchain": "yes",
                "phone": "+39 375 593 3115",
                "rooms": "2",
                "source": "Regione Autonoma della Sardegna (www.sardegnageoportale.it)",
                "tourism": "hotel",
                "website": "https://ceowelcomingitaly.it/"
            }
        },
        {
            "type": "node",
            "id": 4229634239,
            "lat": 39.2270415,
            "lon": 9.1163751,
            "timestamp": "2024-04-11T04:45:41Z",
            "version": 3,
            "changeset": 149846826,
            "user": "Igor Bubelov",
            "uid": 2104834,
            "tags": {
                "addr:city": "Cagliari",
                "addr:housenumber": "70",
                "addr:postcode": "09127",
                "addr:street": "Via Toscana",
                "check_date": "2024-03-26",
                "currency:XBT": "yes",
                "name": "Kalista 5 Rooms",
                "payment:lightning": "yes",
                "payment:lightning_contactless": "yes",
                "payment:onchain": "yes",
                "phone": "+39 375 593 3115",
                "rooms": "5",
                "source": "Regione Autonoma della Sardegna (www.sardegnageoportale.it)",
                "tourism": "hotel",
                "website": "https://ceowelcomingitaly.it/"
            }
        },
        {
            "type": "node",
            "id": 4229647495,
            "lat": 39.1961354,
            "lon": 9.1465381,
            "timestamp": "2022-12-20T12:37:11Z",
            "version": 2,
            "changeset": 130289028,
            "user": "saunter",
            "uid": 10396321,
            "tags": {
                "addr:city": "Cagliari",
                "addr:housenumber": "8",
                "addr:street": "Piazza San Bartolomeo",
                "check_date": "2022-12-20",
                "currency:XBT": "yes",
                "name": "Insulae Re",
                "office": "estate_agent",
                "payment:lightning": "yes",
                "payment:onchain": "yes",
                "phone": "3939002098",
                "source": "Regione Autonoma della Sardegna (www.sardegnageoportale.it)",
                "website": "https://www.insulaere.it/"
            }
        },
        {
            "type": "node",
            "id": 4229660303,
            "lat": 39.2133294,
            "lon": 9.1154312,
            "timestamp": "2024-03-26T14:48:43Z",
            "version": 5,
            "changeset": 149181593,
            "user": "Innovi\u00f9",
            "uid": 20975640,
            "tags": {
                "addr:city": "Cagliari",
                "addr:housenumber": "9",
                "addr:postcode": "09124",
                "addr:street": "Via Camillo Benso Conte di Cavour",
                "check_date": "2024-03-18",
                "currency:XBT": "yes",
                "internet_access": "wlan",
                "name": "My Exclusive Cavour",
                "payment:lightning": "yes",
                "payment:lightning_contactless": "yes",
                "payment:onchain": "yes",
                "phone": "+39 375 593 3115",
                "rooms": "8",
                "source": "Regione Autonoma della Sardegna (www.sardegnageoportale.it)",
                "tourism": "hotel",
                "website": "https://ceowelcomingitaly.it/"
            }
        },
        {
            "type": "node",
            "id": 4471074425,
            "lat": 39.2371847,
            "lon": 9.1839844,
            "timestamp": "2024-04-11T04:52:12Z",
            "version": 6,
            "changeset": 149846918,
            "user": "Igor Bubelov",
            "uid": 2104834,
            "tags": {
                "addr:city": "Quartu Sant'Elena",
                "addr:housenumber": "24",
                "addr:postcode": "09045",
                "addr:street": "Via Giovanni Verga",
                "check_date": "2024-03-25",
                "currency:XBT": "yes",
                "name": "Innovyou",
                "office": "it",
                "opening_hours": "Mo-Fr 09:00-18:00",
                "payment:bitcoincash": "yes",
                "payment:lightning": "yes",
                "payment:lightning_contactless": "yes",
                "payment:onchain": "yes",
                "phone": "070 896 0140",
                "website": "https://www.innovyou.it/"
            }
        },
        {
            "type": "node",
            "id": 4471088139,
            "lat": 39.2336,
            "lon": 9.1871184,
            "timestamp": "2023-12-30T00:00:58Z",
            "version": 3,
            "changeset": 145681044,
            "user": "Rockedf",
            "uid": 7522075,
            "tags": {
                "addr:city": "Quartu Sant'Elena",
                "addr:housenumber": "54",
                "addr:postcode": "09045",
                "addr:street": "Via Luciano Manara",
                "check_date": "2023-12-10",
                "currency:XBT": "yes",
                "name": "StemarDenotti",
                "payment:cards": "yes",
                "payment:cash": "yes",
                "payment:lightning": "yes",
                "payment:lightning_contactless": "no",
                "payment:onchain": "yes",
                "shop": "supermarket"
            }
        },
        {
            "type": "node",
            "id": 4471704061,
            "lat": 39.2532091,
            "lon": 9.1712536,
            "timestamp": "2023-04-22T19:29:40Z",
            "version": 4,
            "changeset": 135240817,
            "user": "b-jazz-bot",
            "uid": 9451067,
            "tags": {
                "addr:city": "Selargius",
                "addr:housenumber": "18",
                "addr:postcode": "09047",
                "addr:street": "Via Antonio Gallus",
                "amenity": "language_school",
                "currency:XBT": "yes",
                "name": "Welcome School",
                "note": "Scuola di Lingue e di Informatica. Realizzazione e gestione siti web.",
                "payment:lightning": "no",
                "payment:lightning_contactless": "no",
                "payment:onchain": "yes",
                "phone": "+39 070 7543061",
                "survey:date": "2022-09-23",
                "website": "https://www.welcomeschool.it/"
            }
        },
        {
            "type": "node",
            "id": 6236578883,
            "lat": 39.221385,
            "lon": 9.121401,
            "timestamp": "2022-12-28T13:45:58Z",
            "version": 2,
            "changeset": 130602871,
            "user": "saunter",
            "uid": 10396321,
            "tags": {
                "addr:city": "Cagliari",
                "addr:housenumber": "60",
                "addr:postcode": "09127",
                "addr:street": "Via Ottone Bacaredda",
                "amenity": "atm",
                "check_date:currency:XBT": "2022-12-28",
                "currency:XBT": "yes",
                "description": "Bitcoin ATM di Chainblock, situato presso la sede dell'associazione \"100% Biodegradabile\".",
                "email": "info@chainblock.it",
                "name": "Chainblock ATM",
                "payment:lightning": "no",
                "payment:lightning_contactless": "no",
                "payment:onchain": "yes",
                "website": "https://chainblock.it"
            }
        },
        {
            "type": "node",
            "id": 6295687143,
            "lat": 39.235466,
            "lon": 9.098004,
            "timestamp": "2024-04-14T10:24:08Z",
            "version": 6,
            "changeset": 149985931,
            "user": "Chiarant",
            "uid": 18452174,
            "tags": {
                "addr:city": "Cagliari",
                "addr:housenumber": "7a",
                "addr:postcode": "09122",
                "addr:street": "Via San Michele",
                "amenity": "atm",
                "check_date": "2024-04-14",
                "currency:XBT": "yes",
                "description": "Bitcoin ATM che permette di acquistare Bitcoin, Ethereum, Litecoin, Dogecoin, Bitcoin Cash, Dash, Monero. L'ATM \u00e8 situato all'interno del negozio ASPIRO STORE",
                "email": "support@cryptolocalatm.com",
                "name": "CryptoLocalATM C/o ASPIRO STORE",
                "payment:onchain": "yes",
                "phone": "+447894438974",
                "website": "https://cryptolocalatm.com"
            }
        },
        {
            "type": "node",
            "id": 10183246147,
            "lat": 39.2416936,
            "lon": 8.9972279,
            "timestamp": "2023-12-29T12:17:31Z",
            "version": 3,
            "changeset": 145658979,
            "user": "Chiarant",
            "uid": 18452174,
            "tags": {
                "addr:city": "Assemini",
                "addr:postcode": "09032",
                "addr:street": "Z.i. 4, Str. Consortile Macchiareddu",
                "check_date": "2023-12-29",
                "currency:XBT": "yes",
                "description": "Produzione polistirolo espanso.",
                "email": "alexitalia@tiscali.it",
                "industrial": "packaging",
                "man_made": "works",
                "name": "Alexitalia",
                "payment:lightning": "yes",
                "payment:onchain": "yes",
                "phone": "+39 3388821215",
                "website": "https://www.alexitalia.it"
            }
        },
        {
            "type": "node",
            "id": 10788272290,
            "lat": 39.2450822,
            "lon": 9.163007,
            "timestamp": "2023-05-12T22:49:15Z",
            "version": 2,
            "changeset": 136036865,
            "user": "saunter",
            "uid": 10396321,
            "tags": {
                "addr:city": "Quartucciu",
                "addr:street": "Via delle Serre",
                "check_date:currency:XBT": "2023-05-13",
                "clothes": "men",
                "currency:XBT": "yes",
                "name": "DOPPELG\u00c4NGER",
                "payment:lightning": "no",
                "payment:lightning_contactless": "no",
                "payment:onchain": "yes",
                "shop": "clothes"
            }
        },
        {
            "type": "node",
            "id": 10817065847,
            "lat": 39.2369084,
            "lon": 9.194949,
            "timestamp": "2023-08-05T11:39:26Z",
            "version": 3,
            "changeset": 139475432,
            "user": "Igor Bubelov",
            "uid": 2104834,
            "tags": {
                "addr:city": "Quartu Sant'Elena",
                "addr:housenumber": "52",
                "addr:postcode": "09045",
                "addr:street": "Via Don Enrico Tazzoli",
                "check_date": "2023-04-16",
                "contact:facebook": "https://www.facebook.com/macelleria.antonioatzeni",
                "currency:XBT": "yes",
                "description": "Carni fresche e \"dry aged\".",
                "email": "macelleria@antonioatzeni.com",
                "name": "Macelleria Atzeni Antonio",
                "phone": "+39 3516604729",
                "shop": "butcher",
                "website": "https://macelleria.antonioatzeni.com"
            }
        },
        {
            "type": "node",
            "id": 11406465688,
            "lat": 39.2353925,
            "lon": 9.1863576,
            "timestamp": "2023-12-10T01:09:11Z",
            "version": 1,
            "changeset": 144952150,
            "user": "Rockedf",
            "uid": 7522075,
            "tags": {
                "addr:city": "Quartu Sant'Elena",
                "addr:housenumber": "33",
                "addr:postcode": "09045",
                "addr:street": "Via Luciano Manara",
                "check_date": "2023-12-09",
                "currency:XBT": "yes",
                "email": "ncubeddu@gmail.com",
                "guest_house": "guest_house",
                "name": "Suite4Relax",
                "opening_hours": "24/7",
                "payment:lightning": "yes",
                "payment:lightning_contactless": "yes",
                "payment:onchain": "yes",
                "phone": "+39 32 9192 8402",
                "tourism": "guest_house",
                "website": "https://suite4relax.com/"
            }
        },
        {
            "type": "node",
            "id": 11925747476,
            "lat": 39.2450464,
            "lon": 9.1284493,
            "timestamp": "2024-06-11T19:06:03Z",
            "version": 3,
            "changeset": 152557965,
            "user": "Rockedf",
            "uid": 7522075,
            "tags": {
                "addr:city": "Cagliari",
                "addr:housenumber": "17",
                "addr:postcode": "09134",
                "addr:street": "Via Riva Villasanta",
                "amenity": "atm",
                "cash_in": "yes",
                "cash_out": "yes",
                "cash_withdrawal": "yes",
                "check_date": "2024-05-22",
                "contact:email": "support@shitcoins.club",
                "contact:facebook": "https://www.facebook.com/shitcoins.club",
                "contact:instagram": "https://www.instagram.com/shitcoinsclub",
                "contact:telegram": "https://t.me/shitcoinsclub",
                "contact:twitter": "https://twitter.com/BitomatCom",
                "currency:DASH": "yes",
                "currency:ETH": "yes",
                "currency:EUR": "yes",
                "currency:LTC": "yes",
                "currency:USDC": "yes",
                "currency:USDT": "yes",
                "currency:XBT": "yes",
                "indoor": "yes",
                "name": "Bitcoin ATM - Shitcoins.club",
                "opening_hours": "24/7",
                "operator": "Shitcoins.club",
                "payment:cash": "yes",
                "payment:lightning": "no",
                "payment:lightning_contactless": "no",
                "payment:onchain": "yes",
                "phone": "+39 34 8048 7308",
                "website": "https://shitcoins.club/localizzazione-atm/bancomat-bitcoin-Cagliari"
            }
        },
        {
            "type": "node",
            "id": 11971358829,
            "lat": 39.2413442,
            "lon": 9.202329,
            "timestamp": "2024-06-19T19:36:54Z",
            "version": 2,
            "changeset": 152912255,
            "user": "mauropili",
            "uid": 1496865,
            "tags": {
                "addr:city": "Quartu Sant'Elena",
                "addr:housenumber": "38",
                "addr:postcode": "09045",
                "addr:street": "Via Portogallo",
                "amenity": "bar",
                "currency:XBT": "yes",
                "name": "Handy Capp Due",
                "payment:lightning": "yes"
            }
        }
    ]
}