{
    "id": "ss-crema-cremona-lodi",
    "name": "Satoshi Spritz Crema Cremona Lodi",
    "lng": 45.36264,
    "lat": 9.68176,
    "localita": "Crema Cremona Lodi",
    "telegram_app": "https://t.me/SatoshiSpritzCremaCremonaLodi",
    "network": "satoshispritz",
    "poi": [
        {
            "type": "node",
            "id": 1797393762,
            "lat": 45.305864,
            "lon": 9.508433,
            "timestamp": "2023-07-07T18:18:25Z",
            "version": 4,
            "changeset": 138239702,
            "user": "Chiarant",
            "uid": 18452174,
            "tags": {
                "addr:city": "Lodi",
                "addr:housenumber": "67",
                "addr:street": "Corso Giuseppe Mazzini",
                "check_date": "2023-07-07",
                "currency:XBT": "yes",
                "name": "Ecotaurus - Noleggio Bagni Chimici",
                "shop": "trade",
                "source": "Cartografia Provincia di Lodi",
                "website": "https://www.ecotaurus.it/"
            }
        },
        {
            "type": "node",
            "id": 2389503405,
            "lat": 45.3536264,
            "lon": 9.6636353,
            "timestamp": "2022-11-08T07:54:20Z",
            "version": 2,
            "changeset": 128627733,
            "user": "BSN21M",
            "uid": 17441326,
            "tags": {
                "addr:city": "Crema",
                "addr:postcode": "26013",
                "addr:street": "Via Cappuccini",
                "currency:XBT": "yes",
                "name": "Matilde Parrucchiera",
                "payment:lightning": "no",
                "payment:lightning_contactless": "no",
                "payment:onchain": "yes",
                "phone": "+39 037330293",
                "shop": "hairdresser",
                "survey:date": "2022-11-08",
                "unisex": "yes",
                "website": "https://www.facebook.com/matildeparrucchiera/"
            }
        },
        {
            "type": "node",
            "id": 6961538410,
            "lat": 45.2942693,
            "lon": 9.7636712,
            "timestamp": "2023-11-03T20:49:15Z",
            "version": 5,
            "changeset": 143591052,
            "user": "b-jazz-bot",
            "uid": 9451067,
            "tags": {
                "addr:city": "Castelleone",
                "addr:housenumber": "5",
                "addr:postcode": "26012",
                "addr:street": "Via Garibaldi",
                "air_conditioning": "yes",
                "check_date:currency:XBT": "2022-12-09",
                "craft": "photographer",
                "currency:XBT": "yes",
                "email": "info@fotorizzotti.it",
                "internet_access": "wlan",
                "name": "Foto Rizzotti",
                "payment:lightning": "yes",
                "payment:onchain": "yes",
                "phone": "+39 0374350151",
                "website": "https://www.fotorizzotti.it/",
                "wheelchair": "yes"
            }
        },
        {
            "type": "node",
            "id": 10165712913,
            "lat": 45.3555613,
            "lon": 9.6627822,
            "timestamp": "2022-11-07T08:23:25Z",
            "version": 1,
            "changeset": 128585645,
            "user": "BSN21M",
            "uid": 17441326,
            "tags": {
                "addr:city": "Crema",
                "addr:postcode": "26013",
                "addr:street": "Via Cappuccini",
                "craft": "painter",
                "currency:XBT": "yes",
                "name": "DOLDI LUCA IMBIANCHINO",
                "payment:lightning": "no",
                "payment:lightning_contactless": "no",
                "payment:onchain": "yes",
                "phone": "+39 3384808366",
                "survey:date": "2022-11-07"
            }
        },
        {
            "type": "node",
            "id": 10165750730,
            "lat": 45.356339,
            "lon": 9.6515674,
            "timestamp": "2022-11-07T08:18:54Z",
            "version": 1,
            "changeset": 128585463,
            "user": "BSN21M",
            "uid": 17441326,
            "tags": {
                "addr:city": "Crema",
                "addr:postcode": "26013",
                "addr:street": "Via Pandino",
                "amenity": "restaurant",
                "currency:XBT": "yes",
                "email": "scorse_89@hotmail.it",
                "name": "Dal Barbarossa",
                "payment:lightning": "no",
                "payment:lightning_contactless": "no",
                "payment:onchain": "yes",
                "phone": "+393491745630",
                "survey:date": "2022-11-07",
                "website": "https://it-it.facebook.com/dalbarbarossaOBV/"
            }
        },
        {
            "type": "node",
            "id": 10273236375,
            "lat": 45.2226058,
            "lon": 9.7706893,
            "timestamp": "2022-12-19T13:06:45Z",
            "version": 1,
            "changeset": 130248531,
            "user": "saunter",
            "uid": 10396321,
            "tags": {
                "addr:city": "Formigara",
                "addr:housenumber": "1",
                "addr:postcode": "26020",
                "addr:street": "Via Castello",
                "check_date": "2022-12-19",
                "currency:XBT": "yes",
                "name": "Mais Corvino",
                "payment:lightning": "yes",
                "payment:onchain": "yes",
                "phone": "+393477191733",
                "shop": "health_food",
                "website": "https://www.maiscorvino.it/"
            }
        }
    ]
}