{
    "id": "ss-cles",
    "name": "Satoshi Spritz Cles",
    "lng": 46.365271,
    "lat": 11.033176,
    "localita": "Cles",
    "telegram_weburl": "https://web.telegram.org/a/#-1002045744593",
    "telegram_app": "https://t.me/SatoshiSpritzCles",
    "telegram_members": 35.0,
    "network": "satoshispritz",
    "poi": [
        {
            "type": "node",
            "id": 768593714,
            "lat": 46.3859813,
            "lon": 11.2589603,
            "timestamp": "2023-09-29T23:20:09Z",
            "version": 8,
            "changeset": 141933322,
            "user": "Gurusraouta",
            "uid": 18913526,
            "tags": {
                "addr:city": "Kaltern an der Weinstra\u00dfe - Caldaro sulla Strada del Vino",
                "addr:city:de": "Kaltern an der Weinstra\u00dfe",
                "addr:housenumber": "12",
                "addr:postcode": "39052",
                "addr:street": "Localit\u00e0 San Giuseppe al Lago - St. Josef am See",
                "addr:street:de": "St. Josef am See",
                "amenity": "restaurant",
                "check_date": "2023-06-16",
                "cuisine": "noodle;pizza",
                "currency:XBT": "yes",
                "internet_access": "no",
                "name": "Geier",
                "name:de": "Geier",
                "opening_hours": "Jul 1-Sep 15 Mo,We-Su 10:00-23:00; Sep 16-Oct 27 Mo,Th-Su 10:00-23:00",
                "opening_hours:kitchen": "Mo,We-Su 12:00-14:30,17:00-23:00",
                "outdoor_seating": "yes",
                "payment:cash": "yes",
                "payment:coins": "yes",
                "payment:contactless": "yes",
                "payment:cryptocurrencies": "yes",
                "payment:notes": "yes",
                "payment:onchain": "yes",
                "phone": "0471 960156",
                "reservation": "recommended",
                "takeaway": "yes",
                "toilets": "yes",
                "toilets:wheelchair": "yes",
                "website": "https://www.pizzeriageier.it/",
                "wheelchair": "yes"
            }
        },
        {
            "type": "node",
            "id": 945430413,
            "lat": 46.36519,
            "lon": 11.0330302,
            "timestamp": "2024-03-21T13:42:54Z",
            "version": 6,
            "changeset": 148964454,
            "user": "Chiarant",
            "uid": 18452174,
            "tags": {
                "addr:city": "Cles",
                "addr:country": "IT",
                "addr:housenumber": "5",
                "addr:postcode": "38023",
                "addr:street": "Piazza Granda",
                "amenity": "bar",
                "check_date": "2024-03-21",
                "contact:instagram": "https://www.instagram.com/bar_nik5/",
                "currency:XBT": "yes",
                "name": "Bar Nik 5 - Enoteca Birreria",
                "payment:lightning": "yes",
                "payment:onchain": "no"
            }
        },
        {
            "type": "node",
            "id": 2749772773,
            "lat": 46.4150124,
            "lon": 11.2490804,
            "timestamp": "2024-07-11T20:31:43Z",
            "version": 5,
            "changeset": 153828936,
            "user": "mauropili",
            "uid": 1496865,
            "tags": {
                "addr:city": "Kaltern an der Weinstra\u00dfe - Caldaro sulla Strada del Vino",
                "addr:city:de": "Kaltern an der Weinstra\u00dfe",
                "addr:city:it": "Caldaro sulla Strada del Vino",
                "addr:housenumber": "1",
                "addr:postcode": "39052",
                "addr:street": "Weinstra\u00dfe - Strada del Vino",
                "addr:street:de": "Weinstra\u00dfe",
                "addr:street:it": "Strada del Vino",
                "amenity": "restaurant",
                "check_date": "2024-01-05",
                "contact:facebook": "https://www.facebook.com/ritterhof.kaltern",
                "cuisine": "suedtirolerisch",
                "currency:XBT": "yes",
                "name": "Restaurant Ritterhof",
                "opening_hours": "11:30 - 15:30, 18:30 - 24:00",
                "payment:lightning": "yes",
                "payment:onchain": "yes",
                "phone": "+39 0471 96 33 30",
                "website": "https://www.restaurant-ritterhof.it"
            }
        },
        {
            "type": "node",
            "id": 2749773047,
            "lat": 46.4078349,
            "lon": 11.2384105,
            "timestamp": "2023-07-18T14:37:59Z",
            "version": 4,
            "changeset": 138673094,
            "user": "saunter",
            "uid": 10396321,
            "tags": {
                "addr:city": "Kaltern an der Weinstra\u00dfe - Caldaro sulla Strada del Vino",
                "addr:city:de": "Kaltern an der Weinstra\u00dfe",
                "addr:city:it": "Caldaro sulla Strada del Vino",
                "addr:housenumber": "13",
                "addr:postcode": "39052",
                "addr:street": "Europastra\u00dfe - Via Europa",
                "addr:street:de": "Europastra\u00dfe",
                "addr:street:it": "Via Europa",
                "check_date:currency:XBT": "2023-07-18",
                "currency:XBT": "yes",
                "description": "Cosmolife, nata nel 1994, offre ai propri clienti ed amici prodotti naturali, biologici ed energetici per prevenire malattie e rafforzare il proprio sistema immunitario.",
                "email": "info@cosmolife.it",
                "name": "Cosmo Life S.r.l.",
                "phone": "+39 0471964096",
                "shop": "nutrition_supplements",
                "website": "https://www.cosmolife.it/"
            }
        },
        {
            "type": "node",
            "id": 2749774355,
            "lat": 46.4116673,
            "lon": 11.243861,
            "timestamp": "2024-04-12T03:10:13Z",
            "version": 7,
            "changeset": 149888917,
            "user": "Igor Bubelov",
            "uid": 2104834,
            "tags": {
                "addr:city": "Kaltern an der Weinstra\u00dfe - Caldaro sulla Strada del Vino",
                "addr:city:de": "Kaltern an der Weinstra\u00dfe",
                "addr:city:it": "Caldaro sulla Strada del Vino",
                "addr:housenumber": "28",
                "addr:postcode": "39052",
                "addr:street": "Goldgasse - Via D'Oro",
                "addr:street:de": "Goldgasse",
                "addr:street:it": "Via D'Oro",
                "check_date": "2024-04-12",
                "currency:XBT": "yes",
                "email": "info@flaim.bz",
                "name": "Flaim Optic",
                "payment:bitcoin:operator": "inbitcoin.it",
                "phone": "+39 0471 963087",
                "shop": "optician"
            }
        },
        {
            "type": "node",
            "id": 2756052794,
            "lat": 46.5430995,
            "lon": 10.994541,
            "timestamp": "2023-11-17T21:48:09Z",
            "version": 9,
            "changeset": 144155940,
            "user": "toponomastica_comune_arenzano",
            "uid": 14257573,
            "tags": {
                "addr:city": "Ulten - Ultimo",
                "addr:city:de": "Ulten",
                "addr:city:it": "Ultimo",
                "addr:hamlet": "St. Walburg - Santa Valburga",
                "addr:hamlet:de": "St. Walburg",
                "addr:hamlet:it": "Santa Valburga",
                "addr:housenumber": "200a",
                "addr:postcode": "39016",
                "addr:street": "Handwerkerzone",
                "currency:XBT": "yes",
                "email": "info@landhandel-ulten.com",
                "name": "Landhandel Ulten",
                "opening_hours": "Mo-Sa 08:00-12:00, 15:30-17:30",
                "payment:lightning": "yes",
                "payment:onchain": "yes",
                "phone": "+39 0473 795371",
                "shop": "farm",
                "survey:date": "2023-05-15"
            }
        },
        {
            "type": "node",
            "id": 10830054226,
            "lat": 46.3611734,
            "lon": 11.0295258,
            "timestamp": "2023-11-17T21:48:09Z",
            "version": 2,
            "changeset": 144155940,
            "user": "toponomastica_comune_arenzano",
            "uid": 14257573,
            "tags": {
                "addr:city": "Cles",
                "addr:housenumber": "6b",
                "addr:postcode": "38023",
                "addr:street": "Via Armando Diaz",
                "check_date:currency:XBT": "2023-04-21",
                "currency:XBT": "yes",
                "name": "Vivishare",
                "opening_hours": "\"on appointment\"",
                "payment:lightning": "yes",
                "payment:lightning_contactless": "no",
                "payment:onchain": "yes",
                "shop": "yes",
                "website": "https://vivishare.net/"
            }
        }
    ]
}