{
    "id": "ss-firenze",
    "name": "Satoshi Spritz Firenze",
    "lng": 43.7695604,
    "lat": 11.2558136,
    "localita": "Firenze",
    "idlocalita": "firenze",
    "telegram_weburl": "https://web.telegram.org/a/#-1001819981378",
    "telegram_app": "https://t.me/SatoshiSpritzFirenze",
    "telegram_members": 84.0,
    "network": "satoshispritz",
    "poi": [
        {
            "type": "node",
            "id": 623913279,
            "lat": 43.7941266,
            "lon": 11.1858298,
            "timestamp": "2024-07-13T01:55:37Z",
            "version": 4,
            "changeset": 153876850,
            "user": "Rockedf",
            "uid": 7522075,
            "tags": {
                "addr:city": "Firenze",
                "addr:country": "IT",
                "addr:housenumber": "154",
                "addr:postcode": "50145",
                "addr:street": "Via Pistoiese",
                "amenity": "restaurant",
                "check_date": "2024-07-12",
                "contact:instagram": "@trattoriadaburde",
                "cuisine": "italian",
                "currency:XBT": "yes",
                "description": "Trattoria dal 1901 pluri premiata , rinomata per cucina tipica toscana in particolare la bistecca",
                "name": "Trattoria da Burde",
                "payment:lightning": "yes",
                "payment:lightning_contactless": "no",
                "payment:onchain": "yes",
                "phone": "+39 055 317206",
                "website": "https://landing.vinodaburde.eu/"
            }
        },
        {
            "type": "node",
            "id": 625386035,
            "lat": 43.8596037,
            "lon": 11.1058985,
            "timestamp": "2024-12-31T17:20:33Z",
            "version": 6,
            "changeset": 160842192,
            "user": "mpbin",
            "uid": 21850090,
            "tags": {
                "addr:city": "Prato",
                "addr:housenumber": "195",
                "addr:postcode": "59100",
                "addr:street": "Via Enrico Berlinguer",
                "brand": "Unieuro",
                "brand:wikidata": "Q4004687",
                "name": "Unieuro",
                "operator": "Unieuro S.p.A.",
                "shop": "electronics"
            }
        },
        {
            "type": "node",
            "id": 625386070,
            "lat": 43.8914021,
            "lon": 11.1009353,
            "timestamp": "2024-12-31T17:35:23Z",
            "version": 7,
            "changeset": 160842691,
            "user": "mpbin",
            "uid": 21850090,
            "tags": {
                "addr:city": "Prato",
                "addr:housenumber": "14",
                "addr:postcode": "59100",
                "addr:street": "Via Ferdinando Targetti",
                "brand": "Unieuro",
                "brand:wikidata": "Q4004687",
                "brand:wikipedia": "en:Unieuro",
                "name": "Unieuro",
                "operator": "Unieuro S.p.A.",
                "phone": "+39 0574 691842",
                "shop": "electronics",
                "website": "https://www.unieuro.it/online/negozi/Unieuro-Prato---via-Targetti"
            }
        },
        {
            "type": "node",
            "id": 2575758955,
            "lat": 43.7910313,
            "lon": 10.709964,
            "timestamp": "2024-10-15T07:58:51Z",
            "version": 10,
            "changeset": 157908468,
            "user": "mpbin",
            "uid": 21850090,
            "tags": {
                "addr:city": "Altopascio",
                "addr:housenumber": "116/a",
                "addr:postcode": "55011",
                "addr:street": "Via del Maggino",
                "check_date": "2024-10-15",
                "check_date:currency:XBT": "2024-10-15",
                "contact:facebook": "https://www.facebook.com/imballoinlegno.it",
                "contact:instagram": "https://www.instagram.com/imballoinlegno.it/",
                "contact:linkedin": "https://www.linkedin.com/company/imballoinlegno/",
                "contact:pinterest": "https://it.pinterest.com/nardiebanti/",
                "contact:twitter": "https://x.com/Imballoinlegno",
                "craft": "carpenter",
                "currency:XBT": "yes",
                "description": "Produzione di imballaggi in legno per l'industria e per l'arredamento, anche a norma ISPM15 per esportazione all'estero.",
                "email": "info@imballoinlegno.it",
                "name": "Nardi e Banti imballaggi srl",
                "payment:litecoin": "yes",
                "phone": "+39 0583 289258",
                "website": "https://imballoinlegno.it"
            }
        },
        {
            "type": "node",
            "id": 2671167531,
            "lat": 43.7715336,
            "lon": 11.2599932,
            "timestamp": "2024-07-05T19:20:02Z",
            "version": 8,
            "changeset": 153601671,
            "user": "mauropili",
            "uid": 1496865,
            "tags": {
                "addr:city": "Firenze",
                "addr:housenumber": "16",
                "addr:postcode": "50122",
                "addr:street": "Borgo degli Albizi",
                "currency:XBT": "yes",
                "name": "Tuscan Smoking",
                "shop": "e-cigarette",
                "survey:date": "2022-08-24",
                "website": "https://aziende.virgilio.it/smokies-fumare-digitale_3"
            }
        },
        {
            "type": "node",
            "id": 3209003514,
            "lat": 43.8334976,
            "lon": 10.7034311,
            "timestamp": "2025-01-02T21:09:05Z",
            "version": 5,
            "changeset": 160926295,
            "user": "mpbin",
            "uid": 21850090,
            "tags": {
                "addr:city": "Altopascio",
                "addr:housenumber": "10",
                "addr:postcode": "55011",
                "addr:street": "Via Ponte alla Ciliegia",
                "brand": "Trony",
                "brand:wikidata": "Q3999692",
                "brand:wikipedia": "it:Trony",
                "name": "Trony",
                "operator": "Trony",
                "shop": "electronics",
                "wheelchair": "yes"
            }
        },
        {
            "type": "node",
            "id": 3764922637,
            "lat": 43.7208534,
            "lon": 10.9488863,
            "timestamp": "2024-02-20T22:05:27Z",
            "version": 3,
            "changeset": 147709031,
            "user": "PaperJack",
            "uid": 12156681,
            "tags": {
                "addr:city": "Empoli",
                "addr:housenumber": "12",
                "addr:postcode": "50053",
                "addr:street": "Via Tinto Da Battifolle",
                "brand": "Conad City",
                "brand:wikidata": "Q57543102",
                "name": "Conad City",
                "opening_hours": "Mo-Sa 07:30-21:00, Su 08:30-20:00",
                "operator": "Conad",
                "payment:bancomat": "yes",
                "payment:cash": "yes",
                "payment:credit_cards": "yes",
                "shop": "supermarket",
                "start_date": "2020-11-14",
                "survey:date": "2024-02-20",
                "website": "https://www.conad.it/ricerca-negozi/negozio.010155.html"
            }
        },
        {
            "type": "node",
            "id": 3796135257,
            "lat": 43.7715247,
            "lon": 11.2599468,
            "timestamp": "2024-04-16T13:07:28Z",
            "version": 8,
            "changeset": 150084634,
            "user": "Igor Bubelov",
            "uid": 2104834,
            "tags": {
                "addr:city": "Firenze",
                "addr:housenumber": "72r",
                "addr:postcode": "50122",
                "addr:street": "Borgo degli Albizi",
                "amenity": "atm",
                "check_date": "2024-04-16",
                "currency:XBT": "yes",
                "description": "Bitcoin ATM di Chainblock, situato all'interno di Tuscan Smoking.",
                "email": "info@chainblock.it",
                "name": "Chainblock ATM",
                "website": "https://chainblock.it",
                "wheelchair": "yes"
            }
        },
        {
            "type": "node",
            "id": 4207953950,
            "lat": 43.793687,
            "lon": 11.1857952,
            "timestamp": "2019-08-24T12:46:50Z",
            "version": 2,
            "changeset": 73695628,
            "user": "trekker48",
            "uid": 961387,
            "tags": {
                "addr:city": "Firenze",
                "addr:housenumber": "209",
                "addr:postcode": "50145",
                "addr:street": "Via Pistoiese",
                "brand": "Conad",
                "brand:wikidata": "Q639075",
                "brand:wikipedia": "it:Conad",
                "name": "Conad",
                "operator": "Conad",
                "shop": "supermarket"
            }
        },
        {
            "type": "node",
            "id": 7513351699,
            "lat": 43.8987794,
            "lon": 11.0701282,
            "timestamp": "2020-05-13T06:20:26Z",
            "version": 1,
            "changeset": 85122544,
            "user": "mascalzone67",
            "uid": 1861652,
            "tags": {
                "addr:city": "Prato",
                "addr:housenumber": "3",
                "addr:postcode": "59100",
                "addr:street": "Via Anna Kuliscioff",
                "amenity": "pharmacy",
                "dispensing": "no",
                "healthcare": "pharmacy",
                "name": "Parafarmacia Conad",
                "operator": "Conad"
            }
        },
        {
            "type": "node",
            "id": 8889877950,
            "lat": 43.4099392,
            "lon": 11.134106,
            "timestamp": "2025-01-01T20:27:08Z",
            "version": 4,
            "changeset": 160884207,
            "user": "mpbin",
            "uid": 21850090,
            "tags": {
                "addr:city": "Colle di Val d'Elsa",
                "addr:housenumber": "46/D",
                "addr:postcode": "53034",
                "addr:street": "Viale dei Mille",
                "branch": "Pecchi",
                "brand": "Unieuro",
                "brand:wikidata": "Q4004687",
                "name": "Unieuro",
                "operator": "Unieuro S.p.A.",
                "shop": "electronics"
            }
        },
        {
            "type": "node",
            "id": 10111933427,
            "lat": 43.7644967,
            "lon": 11.1712714,
            "timestamp": "2025-01-02T22:04:29Z",
            "version": 2,
            "changeset": 160927860,
            "user": "mpbin",
            "uid": 21850090,
            "tags": {
                "addr:city": "Scandicci",
                "addr:housenumber": "13",
                "addr:postcode": "50018",
                "addr:street": "Largo Pierluigi da Palestrina",
                "brand": "Trony",
                "brand:wikidata": "Q3999692",
                "name": "Trony",
                "operator": "Trony",
                "shop": "electronics"
            }
        },
        {
            "type": "node",
            "id": 10119266824,
            "lat": 43.9308473,
            "lon": 10.9143641,
            "timestamp": "2022-10-21T17:10:49Z",
            "version": 1,
            "changeset": 127894894,
            "user": "mascalzone67",
            "uid": 1861652,
            "tags": {
                "addr:city": "Pistoia",
                "addr:housenumber": "17",
                "addr:postcode": "51100",
                "addr:street": "Corso Antonio Gramsci",
                "name": "TuDay Conad",
                "not:brand:wikidata": "Q639075",
                "opening_hours": "Mo-Sa 08:00-20:30, Su 8:30-13:00, 15:30-20:00",
                "operator": "Conad",
                "payment:bancomat": "yes",
                "payment:cash": "yes",
                "payment:credit_cards": "yes",
                "phone": "+39 0573 26706",
                "shop": "supermarket",
                "source": "https://www.gdonews.it/2022/10/20/la-nuova-insegna-tuday-conad-inaugura-a-pistoia/",
                "start_date": "2022-10-20"
            }
        },
        {
            "type": "node",
            "id": 10138673678,
            "lat": 43.7937509,
            "lon": 11.2199873,
            "timestamp": "2024-10-13T17:13:37Z",
            "version": 5,
            "changeset": 157844781,
            "user": "mpbin",
            "uid": 21850090,
            "tags": {
                "addr:city": "Firenze",
                "addr:housenumber": "42",
                "addr:postcode": "50127",
                "addr:street": "Via di Novoli",
                "check_date": "2024-10-13",
                "contact:facebook": "https://www.facebook.com/people/ferramenta-altilio/100057285505023/",
                "contact:pinterest": "https://it.pinterest.com/altilioferramenta/",
                "currency:XBT": "yes",
                "email": "webmail@altilioferramenta.it",
                "name": "Ferramenta Altilio",
                "payment:lightning": "yes",
                "payment:lightning_contactless": "2024-10-13",
                "payment:onchain": "yes",
                "phone": "+39 055 413 640",
                "shop": "hardware",
                "survey:date": "2022-10-30",
                "website": "https://www.altilioferramenta.it/"
            }
        },
        {
            "type": "node",
            "id": 10788497657,
            "lat": 43.8469029,
            "lon": 11.1427246,
            "timestamp": "2023-08-04T10:32:40Z",
            "version": 3,
            "changeset": 139434864,
            "user": "Igor Bubelov",
            "uid": 2104834,
            "tags": {
                "addr:city": "Campi Bisenzio",
                "addr:housenumber": "125",
                "addr:postcode": "50013",
                "addr:street": "Via San Quirico",
                "check_date": "2023-04-05",
                "clothes": "men",
                "currency:XBT": "yes",
                "name": "Nuvolari c.c. I Gigli",
                "payment:lightning": "no",
                "payment:lightning_contactless": "no",
                "payment:onchain": "yes",
                "phone": "0550458188",
                "shop": "clothes",
                "website": "https://www.igigli.it/shop/nuvolari/"
            }
        },
        {
            "type": "node",
            "id": 10995234405,
            "lat": 43.8947309,
            "lon": 11.0857113,
            "timestamp": "2024-07-05T19:58:32Z",
            "version": 7,
            "changeset": 153602937,
            "user": "mauropili",
            "uid": 1496865,
            "tags": {
                "addr:city": "Prato",
                "addr:housenumber": "58",
                "addr:postcode": "59100",
                "addr:street": "Via Garigliano",
                "check_date:currency:XBT": "2023-12-16",
                "currency:XBT": "yes",
                "email": "info@idigservizi.it",
                "internet_access": "wlan",
                "name": "Identit\u00e0 Digitale Tommaso",
                "name:en": "Thomas Digital Identity",
                "opening_hours": "Mo-Su 09:00-13:30",
                "payment:lightning": "yes",
                "payment:onchain": "yes",
                "shop": "computer",
                "website": "https://www.idigservizi.it/"
            }
        },
        {
            "type": "node",
            "id": 11375064371,
            "lat": 43.6488721,
            "lon": 11.3917506,
            "timestamp": "2023-11-25T10:44:33Z",
            "version": 1,
            "changeset": 144436664,
            "user": "Chiarant",
            "uid": 18452174,
            "tags": {
                "addr:city": "Poggio alla Croce",
                "addr:housenumber": "16",
                "addr:postcode": "50022",
                "addr:street": "Localit\u00e0 Musignana",
                "amenity": "animal_boarding",
                "check_date": "2023-11-25",
                "currency:XBT": "yes",
                "name": "Mayra e Sasha - Pensione Casalinga",
                "website": "https://www.dogsitterfiglinevaldarno.com/"
            }
        },
        {
            "type": "node",
            "id": 11418023292,
            "lat": 43.8835574,
            "lon": 11.0824179,
            "timestamp": "2024-10-06T17:49:29Z",
            "version": 3,
            "changeset": 157551772,
            "user": "mpbin",
            "uid": 21850090,
            "tags": {
                "addr:city": "Prato",
                "addr:postcode": "59100",
                "addr:street": "Via Giudo Monaco",
                "amenity": "arts_centre",
                "check_date": "2024-10-06",
                "check_date:currency:XBT": "2024-10-06",
                "contact:facebook": "https://www.facebook.com/LanarchicoPrato/",
                "contact:instagram": "https://www.instagram.com/lanarchico_prato/",
                "contact:twitter": "https://x.com/LanarchicoPrato",
                "currency:XBT": "yes",
                "email": "lanarchicoprato@gmail.com",
                "mobile": "+39 331 366 4642",
                "name": "Lanarchico",
                "payment:lightning": "yes",
                "payment:onchain": "yes",
                "website": "https://linktr.ee/lanarchico"
            }
        },
        {
            "type": "node",
            "id": 11540683992,
            "lat": 43.4781259,
            "lon": 11.1310074,
            "timestamp": "2025-01-02T22:17:36Z",
            "version": 2,
            "changeset": 160928164,
            "user": "mpbin",
            "uid": 21850090,
            "tags": {
                "addr:city": "Poggibonsi",
                "addr:postcode": "53036",
                "addr:street": "Strada Provinciale di San Gimignano",
                "brand": "Trony",
                "brand:wikidata": "Q3999692",
                "name": "Trony",
                "operator": "Trony",
                "shop": "electronics"
            }
        },
        {
            "type": "node",
            "id": 11643046794,
            "lat": 43.3310333,
            "lon": 11.3221213,
            "timestamp": "2025-01-01T21:26:55Z",
            "version": 3,
            "changeset": 160886030,
            "user": "mpbin",
            "uid": 21850090,
            "tags": {
                "addr:city": "Siena",
                "addr:housenumber": "25",
                "addr:place": "Piazzale Carlo Rosselli",
                "addr:postcode": "53100",
                "brand": "Unieuro",
                "brand:wikidata": "Q4004687",
                "name": "Unieuro",
                "operator": "Unieuro S.p.A.",
                "phone": "+39 0577 226912",
                "shop": "electronics",
                "website": "https://www.unieuro.it/online/negozi/Unieuro-Siena"
            }
        },
        {
            "type": "node",
            "id": 11778374552,
            "lat": 43.3347691,
            "lon": 11.3007112,
            "timestamp": "2024-09-25T06:14:45Z",
            "version": 12,
            "changeset": 157065366,
            "user": "mpbin",
            "uid": 21850090,
            "tags": {
                "addr:city": "Siena",
                "addr:housenumber": "9",
                "addr:postcode": "53100",
                "addr:street": "Via Bernardino Perfetti",
                "addr:unit": "14",
                "check_date": "2024-09-25",
                "check_date:currency:XBT": "2024-09-25",
                "contact:instagram": "https://www.instagram.com/bed_and_breakfast_siena",
                "currency:XBT": "yes",
                "email": "homelatartuca@gmail.com",
                "guest_house": "apartment",
                "image": "https://www.booking.com/hotel/it/la-tartuca.it.html",
                "internet_access": "yes",
                "internet_access:fee": "no",
                "internet_access:ssid": "La_Tartuca-5G-F789EE",
                "level": "4",
                "name": "B&B LA TARTARUGA",
                "not:name": "GIULIA",
                "opening_hours": "24/7",
                "payment:cash": "yes",
                "payment:lightning": "yes",
                "payment:notes": "yes",
                "payment:onchain": "yes",
                "phone": "+393384845333",
                "rooms": "5",
                "tourism": "guest_house"
            }
        },
        {
            "type": "node",
            "id": 11819774023,
            "lat": 43.8253425,
            "lon": 11.127688,
            "timestamp": "2024-04-15T18:39:04Z",
            "version": 1,
            "changeset": 150053590,
            "user": "Chiarant",
            "uid": 18452174,
            "tags": {
                "addr:city": "Campi Bisenzio",
                "addr:housenumber": "30",
                "addr:street": "Via Pier Paolo Pasolini",
                "amenity": "restaurant",
                "check_date": "2024-04-15",
                "cuisine": "regional",
                "currency:XBT": "yes",
                "description": "Braceria toscana solo carne rossa",
                "diet:meat": "yes",
                "email": "info@carnam.it",
                "name": "Carnam Ciccia Club",
                "phone": "+39 378 305 3350",
                "website": "https://www.carnam.it/"
            }
        },
        {
            "type": "node",
            "id": 11879303927,
            "lat": 43.8914565,
            "lon": 11.016168,
            "timestamp": "2025-01-01T21:37:54Z",
            "version": 2,
            "changeset": 160886348,
            "user": "mpbin",
            "uid": 21850090,
            "tags": {
                "addr:city": "Agliana",
                "addr:housenumber": "85",
                "addr:postcode": "51031",
                "addr:street": "Via Panaro",
                "brand": "Unieuro",
                "brand:wikidata": "Q4004687",
                "brand:wikipedia": "en:Unieuro",
                "name": "Unieuro",
                "operator": "Unieuro S.p.A.",
                "shop": "electronics"
            }
        },
        {
            "type": "node",
            "id": 11925854975,
            "lat": 43.8113167,
            "lon": 11.2341989,
            "timestamp": "2024-06-11T19:39:16Z",
            "version": 3,
            "changeset": 152559157,
            "user": "Rockedf",
            "uid": 7522075,
            "tags": {
                "addr:city": "Florence",
                "addr:housenumber": "236",
                "addr:postcode": "50141",
                "addr:street": "Via delle Panche",
                "amenity": "atm",
                "cash_in": "yes",
                "cash_out": "yes",
                "cash_withdrawal": "yes",
                "check_date": "2024-05-22",
                "contact:email": "support@shitcoins.club",
                "contact:facebook": "https://www.facebook.com/shitcoins.club",
                "contact:instagram": "https://www.instagram.com/shitcoinsclub",
                "contact:telegram": "https://t.me/shitcoinsclub",
                "contact:twitter": "https://twitter.com/BitomatCom",
                "currency:CHF": "yes",
                "currency:DASH": "yes",
                "currency:ETH": "yes",
                "currency:EUR": "yes",
                "currency:GBP": "yes",
                "currency:HUF": "yes",
                "currency:LTC": "yes",
                "currency:RON": "yes",
                "currency:USD": "yes",
                "currency:USDC": "yes",
                "currency:USDT": "yes",
                "currency:XBT": "yes",
                "indoor": "yes",
                "name": "Bitcoin ATM - Shitcoins.club",
                "opening_hours": "24/7",
                "operator": "Shitcoins.club",
                "payment:cash": "yes",
                "payment:lightning": "no",
                "payment:lightning_contactless": "no",
                "payment:onchain": "yes",
                "phone": "+39 34 8048 7308",
                "website": "https://shitcoins.club/localizzazione-atm/atm-bitcoin-florence-via-delle-panche"
            }
        }
    ],
    "telegram": []
}