{
    "id": "ss-friuli-fvg",
    "name": "Satoshi Spritz Friuli FVG",
    "lng": 45.6494354,
    "lat": 13.7681366,
    "localita": "Friuli",
    "telegram_weburl": "https://web.telegram.org/a/#-1001590179373",
    "telegram_app": "https://t.me/SatoshiSpritzFriuli",
    "telegram_members": 86.0,
    "network": "satoshispritz",
    "poi": [
        {
            "type": "node",
            "id": 3633903157,
            "lat": 45.6474287,
            "lon": 13.765979,
            "timestamp": "2024-07-10T11:25:49Z",
            "version": 5,
            "changeset": 153779741,
            "user": "Chiarant",
            "uid": 18452174,
            "tags": {
                "addr:city": "Trieste",
                "addr:housenumber": "14",
                "addr:postcode": "34124",
                "addr:street": "Via di Cavana",
                "amenity": "restaurant",
                "branch": "Trieste",
                "currency:XBT": "yes",
                "name": "Il Melograno",
                "payment:lightning": "yes",
                "payment:onchain": "yes",
                "phone": "+39 040 9653254",
                "survey:date": "2024-07-09",
                "website": "https://ilmelograno.online/"
            }
        },
        {
            "type": "node",
            "id": 4844248321,
            "lat": 45.6503203,
            "lon": 13.7697097,
            "timestamp": "2023-05-12T22:47:43Z",
            "version": 6,
            "changeset": 136036838,
            "user": "saunter",
            "uid": 10396321,
            "tags": {
                "addr:city": "Trieste",
                "addr:housenumber": "14",
                "addr:postcode": "34121",
                "addr:street": "Piazza della Borsa",
                "check_date:currency:XBT": "2023-05-13",
                "currency:XBT": "yes",
                "name": "Doppelg\u00e4nger",
                "payment:lightning": "no",
                "payment:lightning_contactless": "no",
                "payment:onchain": "yes",
                "phone": "0402337190",
                "shop": "clothes"
            }
        },
        {
            "type": "node",
            "id": 5163169822,
            "lat": 45.6290885,
            "lon": 13.7817574,
            "timestamp": "2024-01-25T08:47:24Z",
            "version": 13,
            "changeset": 146662915,
            "user": "cocioale",
            "uid": 1914234,
            "tags": {
                "addr:city": "Trieste",
                "addr:housenumber": "1",
                "addr:postcode": "34145",
                "addr:street": "Via Capodistria",
                "amenity": "events_venue",
                "check_date:currency:XBT": "2023-07-26",
                "currency:XBT": "yes",
                "description": "Studio abitativo di Cocioale, consulenze ed eventi formativi.",
                "email": "info@twimt.it",
                "internet_access": "yes",
                "name": "Twimt Institute - Cashflow Club Trieste - Bitcoin Trieste",
                "phone": "+39 3405595240",
                "website": "https://twimt.it"
            }
        },
        {
            "type": "node",
            "id": 10660627799,
            "lat": 45.4325531,
            "lon": 13.6837865,
            "timestamp": "2023-02-15T07:00:10Z",
            "version": 1,
            "changeset": 132566881,
            "user": "BSN21M",
            "uid": 17441326,
            "tags": {
                "addr:city": "Kremenje, Buje",
                "addr:postcode": "52460",
                "addr:street": "Gambocija",
                "check_date:currency:XBT": "2023-02-15",
                "currency:XBT": "yes",
                "email": "info@camelus.itg",
                "name": "Camelus Adventures",
                "payment:lightning": "yes",
                "payment:lightning_contactless": "no",
                "payment:onchain": "yes",
                "phone": "+385989976290",
                "shop": "travel_agency",
                "website": "https://www.camelus.it/"
            }
        },
        {
            "type": "node",
            "id": 10681029863,
            "lat": 45.6882287,
            "lon": 13.7999153,
            "timestamp": "2023-08-02T11:46:44Z",
            "version": 2,
            "changeset": 139343689,
            "user": "Igor Bubelov",
            "uid": 2104834,
            "tags": {
                "addr:city": "Trieste",
                "addr:postcode": "34151",
                "addr:street": "Via dell'Assenzio",
                "check_date": "2023-02-20",
                "contact:facebook": "https://www.facebook.com/portewestern/shop/",
                "currency:XBT": "yes",
                "description": "Sliding doors production and selling",
                "email": "info@portewestern.it",
                "name": "Portewestern.it (Trieste branch)",
                "payment:lightning": "yes",
                "payment:lightning_contactless": "no",
                "payment:onchain": "yes",
                "phone": "+385989976290",
                "shop": "doors",
                "website": "https://www.portewestern.it"
            }
        },
        {
            "type": "node",
            "id": 11069222577,
            "lat": 45.6443262,
            "lon": 13.7831124,
            "timestamp": "2024-02-17T23:35:46Z",
            "version": 11,
            "changeset": 147591458,
            "user": "damjang",
            "uid": 97922,
            "tags": {
                "addr:city": "Trieste",
                "addr:housenumber": "3a",
                "addr:postcode": "34139",
                "addr:street": "Via delle Settefontane",
                "amenity": "events_venue",
                "check_date:currency:XBT": "2023-12-18",
                "contact:facebook": "ilcentrostudieventitrieste",
                "currency:XBT": "yes",
                "description": "Evolutionary growth courses and events",
                "email": "ilcentrostudi@gmail.com",
                "internet_access": "yes",
                "internet_access:fee": "customers",
                "name": "Associazione Centro Studi",
                "payment:lightning": "yes",
                "payment:onchain": "yes",
                "website": "https://ilcentrostudi.com"
            }
        },
        {
            "type": "node",
            "id": 11554476488,
            "lat": 45.5307787,
            "lon": 13.7336272,
            "timestamp": "2024-06-07T16:10:10Z",
            "version": 2,
            "changeset": 152383668,
            "user": "Rockedf",
            "uid": 7522075,
            "tags": {
                "addr:city": "Capodistria",
                "addr:housenumber": "1",
                "addr:postcode": "6000",
                "addr:street": "Dolinska cesta",
                "addr:unit": "A",
                "amenity": "atm",
                "branch": "Supernova Mercator Koper",
                "cash_in": "yes",
                "cash_out": "yes",
                "cash_withdrawal": "yes",
                "check_date": "2024-01-26",
                "contact:email": "support@shitcoins.club",
                "contact:facebook": "https://www.facebook.com/shitcoins.club",
                "contact:instagram": "https://www.instagram.com/shitcoinsclub",
                "contact:telegram": "https://t.me/shitcoinsclub",
                "contact:twitter": "https://twitter.com/BitomatCom",
                "currency:CHF": "yes",
                "currency:DASH": "yes",
                "currency:ETH": "yes",
                "currency:EUR": "yes",
                "currency:GBP": "yes",
                "currency:HUF": "yes",
                "currency:LTC": "yes",
                "currency:RON": "yes",
                "currency:USD": "yes",
                "currency:USDC": "yes",
                "currency:USDT": "yes",
                "currency:XBT": "yes",
                "indoor": "yes",
                "level": "0",
                "name": "Bitcoin ATM - Shitcoins.club",
                "opening_hours": "Mo-Sa 08:00-21:00",
                "operator": "Shitcoins.club",
                "payment:cash": "yes",
                "payment:lightning": "no",
                "payment:lightning_contactless": "no",
                "payment:onchain": "yes",
                "phone": "+48 667 818 257",
                "start_date": "2023-10-27",
                "url": "https://coinatmradar.com/bitcoin_atm/73036/bitcoin-atm-shitcoins-club-koper-supernova-mercator-koper/",
                "website": "https://shitcoins.club/lokacije-bitomata/bitcoin-atm-koper-supernova_mercator"
            }
        },
        {
            "type": "node",
            "id": 11928367832,
            "lat": 45.5938527,
            "lon": 13.8075047,
            "timestamp": "2024-06-13T02:34:18Z",
            "version": 3,
            "changeset": 152610721,
            "user": "Rockedf",
            "uid": 7522075,
            "tags": {
                "addr:city": "Aquilinia-Stramare",
                "addr:housenumber": "119",
                "addr:postcode": "34015",
                "addr:street": "Via Flavia di Stramare",
                "amenity": "atm",
                "cash_in": "yes",
                "cash_out": "yes",
                "cash_withdrawal": "yes",
                "check_date": "2024-05-23",
                "contact:email": "support@shitcoins.club",
                "contact:facebook": "https://www.facebook.com/shitcoins.club",
                "contact:instagram": "https://www.instagram.com/shitcoinsclub",
                "contact:telegram": "https://t.me/shitcoinsclub",
                "contact:twitter": "https://twitter.com/BitomatCom",
                "currency:CHF": "yes",
                "currency:DASH": "yes",
                "currency:ETH": "yes",
                "currency:EUR": "yes",
                "currency:GBP": "yes",
                "currency:HUF": "yes",
                "currency:LTC": "yes",
                "currency:RON": "yes",
                "currency:USD": "yes",
                "currency:USDC": "yes",
                "currency:USDT": "yes",
                "currency:XBT": "yes",
                "indoor": "yes",
                "name": "Bitcoin ATM - Shitcoins.club",
                "opening_hours": "Mo-Su 09:00-20:30",
                "operator": "Shitcoins.club",
                "payment:cash": "yes",
                "payment:lightning": "no",
                "payment:lightning_contactless": "no",
                "payment:onchain": "yes",
                "phone": "+39 34 8048 7308",
                "website": "https://shitcoins.club/localizzazione-atm/atm-bitcoin-trieste-montedoro"
            }
        }
    ]
}