{
    "id": "ss-ferrara",
    "name": "Satoshi Spritz Ferrara",
    "lng": 44.83599085,
    "lat": 11.61868934,
    "localita": "Ferrara",
    "telegram_weburl": "https://web.telegram.org/a/#-1001822010158",
    "telegram_app": "https://t.me/SatoshiSpritzFerrara",
    "telegram_members": 29.0,
    "network": "satoshispritz",
    "poi": [
        {
            "type": "node",
            "id": 10044774234,
            "lat": 44.8506302,
            "lon": 11.6265662,
            "timestamp": "2024-01-20T02:51:54Z",
            "version": 3,
            "changeset": 146463960,
            "user": "Igor Bubelov",
            "uid": 2104834,
            "tags": {
                "addr:city": "Ferrara",
                "addr:housenumber": "103",
                "addr:postcode": "44121",
                "addr:street": "Via Riccardo Bacchelli",
                "amenity": "restaurant",
                "check_date": "2022-12-17",
                "currency:XBT": "yes",
                "name": "Kaf\u00e8 Bacchelli",
                "website": "https://kafebacchelli.it/"
            }
        },
        {
            "type": "node",
            "id": 10576219949,
            "lat": 44.8938149,
            "lon": 11.610334,
            "timestamp": "2023-07-18T16:34:03Z",
            "version": 2,
            "changeset": 138678234,
            "user": "saunter",
            "uid": 10396321,
            "tags": {
                "addr:city": "Occhiobello",
                "addr:housenumber": "9",
                "addr:postcode": "45030",
                "addr:street": "Vicolo A. Fleming",
                "check_date:currency:XBT": "2023-07-18",
                "currency:XBT": "yes",
                "email": "mabiz66@gmail.com",
                "name": "Studio Ingegneria ing. Bizzi Marco",
                "payment:onchain": "yes",
                "phone": "+39 348 6902866",
                "shop": "yes"
            }
        },
        {
            "type": "node",
            "id": 11925847081,
            "lat": 44.8449059,
            "lon": 11.6482092,
            "timestamp": "2024-06-11T19:13:47Z",
            "version": 3,
            "changeset": 152558252,
            "user": "Rockedf",
            "uid": 7522075,
            "tags": {
                "addr:city": "Ferrara",
                "addr:housenumber": "132",
                "addr:postcode": "44123",
                "addr:street": "Via Copparo",
                "amenity": "atm",
                "cash_in": "yes",
                "cash_out": "yes",
                "cash_withdrawal": "yes",
                "check_date": "2024-05-22",
                "contact:email": "support@shitcoins.club",
                "contact:facebook": "https://www.facebook.com/shitcoins.club",
                "contact:instagram": "https://www.instagram.com/shitcoinsclub",
                "contact:telegram": "https://t.me/shitcoinsclub",
                "contact:twitter": "https://twitter.com/BitomatCom",
                "currency:CHF": "yes",
                "currency:DASH": "yes",
                "currency:ETH": "yes",
                "currency:EUR": "yes",
                "currency:GBP": "yes",
                "currency:HUF": "yes",
                "currency:LTC": "yes",
                "currency:RON": "yes",
                "currency:USD": "yes",
                "currency:USDC": "yes",
                "currency:USDT": "yes",
                "currency:XBT": "yes",
                "indoor": "yes",
                "name": "Bitcoin ATM - Shitcoins.club",
                "opening_hours": "Mo-Sa 08:30-21:00; Su 09:00-20:00",
                "operator": "Shitcoins.club",
                "payment:cash": "yes",
                "payment:lightning": "no",
                "payment:lightning_contactless": "no",
                "payment:onchain": "yes",
                "phone": "+39 34 8048 7308",
                "website": "https://shitcoins.club/localizzazione-atm/atm-bitcoin-ferrara-le-mura-centro-commerciale"
            }
        }
    ]
}