{
    "id": "ss-lucca",
    "name": "Satoshi Spritz Lucca",
    "lng": 43.8511,
    "lat": 10.507994,
    "localita": "Lucca",
    "idlocalita": "lucca",
    "telegram_weburl": "https://web.telegram.org/a/#-1001860393194",
    "telegram_app": "https://t.me/SatoshiSpritzLucca",
    "telegram_members": 38.0,
    "network": "satoshispritz",
    "poi": [
        {
            "type": "node",
            "id": 1905557365,
            "lat": 43.6758569,
            "lon": 10.4754424,
            "timestamp": "2024-07-05T19:13:52Z",
            "version": 6,
            "changeset": 153601489,
            "user": "mauropili",
            "uid": 1496865,
            "tags": {
                "addr:city": "Navacchio",
                "addr:housenumber": "201",
                "addr:postcode": "56021",
                "addr:street": "Via Oristano",
                "brand": "Mondo Convenienza",
                "brand:wikidata": "Q55830962",
                "check_date:currency:XBT": "2023-07-31",
                "currency:XBT": "yes",
                "name": "Mondo Convenienza",
                "opening_hours": "09:30-20:30",
                "shop": "furniture"
            }
        },
        {
            "type": "node",
            "id": 2426892043,
            "lat": 43.727118,
            "lon": 10.4222469,
            "timestamp": "2024-09-23T06:08:22Z",
            "version": 8,
            "changeset": 156978077,
            "user": "mpbin",
            "uid": 21850090,
            "tags": {
                "addr:city": "San Giuliano Terme",
                "addr:housenumber": "2;4",
                "addr:postcode": "56010",
                "addr:province": "Pisa",
                "addr:street": "Via Giovanni Guidiccioni",
                "addr:suburb": "Ghezzano",
                "check_date": "2024-09-22",
                "check_date:currency:XBT": "2024-09-22",
                "computer:parts": "yes",
                "computer:repair": "yes",
                "computer:sales": "yes",
                "currency:XBT": "yes",
                "email": "info@computershop.pisa.it",
                "name": "Computer SHOP",
                "opening_hours": "Mo-Fr 09:00-13:00,15:30-19:30",
                "payment:cards": "yes",
                "payment:cash": "yes",
                "phone": "+39 050 878779",
                "shop": "computer",
                "website": "https://www.computershop.pisa.it/"
            }
        },
        {
            "type": "node",
            "id": 2575758955,
            "lat": 43.7910313,
            "lon": 10.709964,
            "timestamp": "2024-10-15T07:58:51Z",
            "version": 10,
            "changeset": 157908468,
            "user": "mpbin",
            "uid": 21850090,
            "tags": {
                "addr:city": "Altopascio",
                "addr:housenumber": "116/a",
                "addr:postcode": "55011",
                "addr:street": "Via del Maggino",
                "check_date": "2024-10-15",
                "check_date:currency:XBT": "2024-10-15",
                "contact:facebook": "https://www.facebook.com/imballoinlegno.it",
                "contact:instagram": "https://www.instagram.com/imballoinlegno.it/",
                "contact:linkedin": "https://www.linkedin.com/company/imballoinlegno/",
                "contact:pinterest": "https://it.pinterest.com/nardiebanti/",
                "contact:twitter": "https://x.com/Imballoinlegno",
                "craft": "carpenter",
                "currency:XBT": "yes",
                "description": "Produzione di imballaggi in legno per l'industria e per l'arredamento, anche a norma ISPM15 per esportazione all'estero.",
                "email": "info@imballoinlegno.it",
                "name": "Nardi e Banti imballaggi srl",
                "payment:litecoin": "yes",
                "phone": "+39 0583 289258",
                "website": "https://imballoinlegno.it"
            }
        },
        {
            "type": "node",
            "id": 2576987957,
            "lat": 43.8641556,
            "lon": 10.5811948,
            "timestamp": "2024-09-18T10:43:34Z",
            "version": 5,
            "changeset": 156766121,
            "user": "mpbin",
            "uid": 21850090,
            "tags": {
                "addr:city": "Lammari",
                "addr:housenumber": "44",
                "addr:postcode": "55012",
                "addr:street": "Viale Europa",
                "amenity": "restaurant",
                "check_date": "2022-12-20",
                "contact:facebook": "https://www.facebook.com/pizzerie.marameo",
                "currency:XBT": "yes",
                "email": "prenota@marameo.lucca.it",
                "name": "Mara Meo Lammari",
                "payment:lightning": "yes",
                "payment:onchain": "yes",
                "phone": "+39 0583 436400",
                "website": "https://www.marameo-lucca.it/"
            }
        },
        {
            "type": "node",
            "id": 2932839621,
            "lat": 43.727148,
            "lon": 10.422235,
            "timestamp": "2023-09-26T13:55:38Z",
            "version": 13,
            "changeset": 141776040,
            "user": "descubrebitcoin",
            "uid": 17565129,
            "tags": {
                "addr:city": "San Giuliano Terme",
                "addr:housenumber": "2",
                "addr:province": "Pisa",
                "addr:street": "Via Giovanni Guidiccioni",
                "addr:suburb": "Ghezzano",
                "amenity": "atm",
                "cash_in": "yes",
                "cash_out": "no",
                "cash_withdrawal": "no",
                "check_date": "2023-09-26",
                "currency:EUR": "yes",
                "currency:XBT": "yes",
                "currency:others": "no",
                "indoor": "yes",
                "language:en": "yes",
                "language:it": "yes",
                "manufacturer": "Lamassu",
                "name": "Distributore Lamassu",
                "note": "Cryptocurrency machine is installed at Computer Shop Snc in Pisa.",
                "opening_hours": "Mo-Fr 09:00-13:00,15:30-19:30",
                "operator": "bitcoinatm.it",
                "payment:cash": "yes",
                "payment:coins": "no",
                "payment:credit_cards": "no",
                "payment:debit_cards": "no",
                "payment:lightning": "no",
                "payment:lightning_contactless": "no",
                "payment:notes": "yes",
                "payment:onchain": "yes",
                "phone": "+39 050 878779",
                "start_date": "2014-06-25",
                "url": "https://coinatmradar.com/bitcoin_atm/141/bitcoin-atm-lamassu-pisa-computer-shop-snc/",
                "website": "http://bitcoinatm.it/"
            }
        },
        {
            "type": "node",
            "id": 3109248291,
            "lat": 43.8486025,
            "lon": 10.5237788,
            "timestamp": "2023-08-19T09:11:26Z",
            "version": 5,
            "changeset": 140086443,
            "user": "Chiarant",
            "uid": 18452174,
            "tags": {
                "addr:city": "Lucca",
                "addr:housenumber": "7",
                "addr:street": "Via Papa Giovanni XXIII",
                "amenity": "cafe",
                "check_date": "2023-06-29",
                "currency:XBT": "yes",
                "email": "info@pasticceriareginalucca.it",
                "name": "Pasticceria Regina",
                "payment:bancomat": "yes",
                "payment:lightning": "yes",
                "payment:mastercard": "yes",
                "payment:onchain": "yes",
                "payment:visa": "yes",
                "phone": "+390583954475",
                "shop": "pastry",
                "survey:date": "2023-08-16",
                "website": "https://www.pasticceriareginalucca.it/"
            }
        },
        {
            "type": "node",
            "id": 3813802842,
            "lat": 43.8455129,
            "lon": 10.5106394,
            "timestamp": "2024-09-24T18:08:59Z",
            "version": 11,
            "changeset": 157051705,
            "user": "mpbin",
            "uid": 21850090,
            "tags": {
                "addr:city": "Lucca",
                "addr:housenumber": "17",
                "addr:postcode": "55100",
                "addr:street": "Piazza San Francesco",
                "amenity": "restaurant",
                "check_date": "2023-06-12",
                "check_date:currency:XBT": "2024-06-25",
                "contact:facebook": "https://www.facebook.com/pizzerie.marameo",
                "contact:instagram": "https://www.instagram.com/marameopizzerie/",
                "cuisine": "italian",
                "currency:XBT": "yes",
                "email": "prenota@marameo.lucca.it",
                "name": "Mara Meo San Francesco",
                "opening_hours": "Mo-Su 12:00-15:00, 18:00-21:00",
                "outdoor_seating": "yes",
                "payment:lightning": "no",
                "payment:lightning_contactless": "no",
                "payment:onchain": "yes",
                "phone": "+39 0583 467084",
                "website": "https://www.marameo-lucca.it/"
            }
        },
        {
            "type": "node",
            "id": 4575538340,
            "lat": 44.0415206,
            "lon": 10.039241,
            "timestamp": "2023-10-31T22:20:35Z",
            "version": 8,
            "changeset": 143445241,
            "user": "b-jazz-bot",
            "uid": 9451067,
            "tags": {
                "addr:city": "Carrara",
                "addr:housenumber": "5",
                "addr:postcode": "54033",
                "addr:street": "Via Felice Cavallotti",
                "contact:instagram": "https://www.instagram.com/radicaltrickshop/",
                "currency:XBT": "yes",
                "description": "Negozio esperto nel settore, puoi trovare un vasto assortimento di prodotti per surf, skate e snow oltre ad abbigliamento, scarpe giovanili, vasta scelta di surf nuovi e usati, assistenza per riparazioni tavole. Scuola di surf e skate.",
                "email": "radicaltricksurf@gmail.com",
                "name": "Radical Trick snc",
                "opening_hours": "9:30-12:30; 16:00-19:30",
                "operator": "radicaltrick.com",
                "payment:lightning": "yes",
                "payment:onchain": "yes",
                "phone": "+39 0585280637",
                "ref:vatin": "01225920451",
                "shop": "sports;clothes",
                "sport": "skateboard;surfing",
                "survey:date": "2023-04-24",
                "website": "https://www.radicaltrick.com/"
            }
        },
        {
            "type": "node",
            "id": 5514874061,
            "lat": 43.7198192,
            "lon": 10.3972935,
            "timestamp": "2024-08-22T11:54:12Z",
            "version": 9,
            "changeset": 155601796,
            "user": "Chiarant",
            "uid": 18452174,
            "tags": {
                "addr:city": "Pisa",
                "addr:housenumber": "83",
                "addr:postcode": "56126",
                "addr:street": "Via Santa Maria",
                "amenity": "cafe",
                "atm": "yes",
                "check_date:currency:XBT": "2024-08-16",
                "contact:facebook": "https://www.facebook.com/PasticceriaDolcePisa",
                "cuisine": "coffee_shop;regional;italian;sandwich;pasta",
                "currency:BCH": "yes",
                "currency:ETH": "yes",
                "currency:LTC": "yes",
                "currency:XBT": "yes",
                "diet:gluten_free": "yes",
                "diet:vegan": "yes",
                "diet:vegetarian": "yes",
                "internet_access": "yes",
                "internet_access:fee": "no",
                "internet_access:ssid": "devitalia hotspot",
                "name": "Pasticceria DolcePisa",
                "opening_hours": "Mo-Su 07:20-20:00",
                "outdoor_seating": "yes",
                "payment:apple_pay": "yes",
                "payment:cash": "yes",
                "payment:google_pay": "yes",
                "payment:lightning": "yes",
                "payment:mastercard": "yes",
                "payment:nexi_pay": "yes",
                "payment:samsung_pay": "yes",
                "payment:visa": "yes",
                "survey:date": "2023-03-28",
                "wheelchair": "yes"
            }
        },
        {
            "type": "node",
            "id": 6823343093,
            "lat": 44.0382336,
            "lon": 10.0450885,
            "timestamp": "2024-07-05T19:35:43Z",
            "version": 7,
            "changeset": 153602185,
            "user": "mauropili",
            "uid": 1496865,
            "tags": {
                "addr:city": "Marina di Carrara",
                "addr:housenumber": "57",
                "addr:postcode": "54033",
                "addr:street": "Ruga Alfio Maggiani",
                "check_date:currency:XBT": "2023-07-17",
                "currency:XBT": "yes",
                "name": "Ottica Ars",
                "payment:cash": "yes",
                "payment:cryptocurrencies": "yes",
                "payment:maestro": "yes",
                "payment:mastercard": "yes",
                "payment:visa": "yes",
                "phone": "+39 0585 632777",
                "shop": "optician"
            }
        },
        {
            "type": "node",
            "id": 7661223557,
            "lat": 43.5530935,
            "lon": 10.3116421,
            "timestamp": "2024-04-14T08:53:51Z",
            "version": 8,
            "changeset": 149982137,
            "user": "Chiarant",
            "uid": 18452174,
            "tags": {
                "addr:city": "Livorno",
                "addr:housenumber": "58/60",
                "addr:postcode": "57123",
                "addr:street": "Viale Avvalorati",
                "amenity": "atm",
                "check_date": "2024-04-14",
                "currency:XBT": "yes",
                "description": "Bitcoin ATM che permette di acquistare Bitcoin, Ethereum, Litecoin, Dogecoin, Bitcoin Cash, Dash, Monero. L'ATM \u00e8 situato all'interno del negozio di informatica Essedi Shop.",
                "email": "support@cryptolocalatm.com",
                "name": "CryptoLocalATM C/o Essedi shop",
                "phone": "+44 789 4438974",
                "website": "https://cryptolocalatm.com"
            }
        },
        {
            "type": "node",
            "id": 8820941560,
            "lat": 43.7197988,
            "lon": 10.3972635,
            "timestamp": "2024-08-22T11:54:12Z",
            "version": 5,
            "changeset": 155601796,
            "user": "Chiarant",
            "uid": 18452174,
            "tags": {
                "addr:city": "Pisa",
                "addr:housenumber": "83",
                "addr:postcode": "56126",
                "addr:street": "Via Santa Maria",
                "amenity": "atm",
                "check_date": "2024-08-16",
                "currency:BCH": "yes",
                "currency:ETH": "yes",
                "currency:LTC": "yes",
                "currency:XBT": "yes",
                "description": "Bitcoin ATM che permette di acquistare Bitcoin, Ethereum, Litecoin, Dogecoin, Bitcoin Cash, Dash, Monero. L'ATM \u00e8 situato all'interno del BAR/PASTICCERIA DOLCEPISA.",
                "email": "support@cryptolocalatm.com",
                "name": "CryptoLocalATM c/o DOLCEPISA",
                "payment:onchain": "yes",
                "phone": "+447894438974",
                "website": "https://cryptolocalatm.com"
            }
        },
        {
            "type": "node",
            "id": 8855332505,
            "lat": 43.5510511,
            "lon": 10.3103492,
            "timestamp": "2024-02-10T04:22:54Z",
            "version": 6,
            "changeset": 147279909,
            "user": "Igor Bubelov",
            "uid": 2104834,
            "tags": {
                "addr:city": "Livorno",
                "addr:housenumber": "107,109,111,113",
                "addr:postcode": "57123",
                "addr:street": "Via Grande",
                "check_date": "2023-03-27",
                "clothes": "men",
                "currency:XBT": "yes",
                "name": "DOPPELG\u00c4NGER",
                "payment:lightning": "no",
                "payment:lightning_contactless": "no",
                "payment:onchain": "yes",
                "phone": "+39 0586 895757",
                "shop": "clothes",
                "website": "https://www.doppelganger.it"
            }
        },
        {
            "type": "node",
            "id": 9631522101,
            "lat": 43.8412423,
            "lon": 10.6167649,
            "timestamp": "2024-07-05T19:42:51Z",
            "version": 6,
            "changeset": 153602448,
            "user": "mauropili",
            "uid": 1496865,
            "tags": {
                "addr:city": "Porcari",
                "addr:housenumber": "5",
                "addr:postcode": "55016",
                "addr:street": "Via Guglielmo Marconi",
                "amenity": "cafe",
                "check_date": "2022-12-20",
                "contact:mobile": "+39 345 807 9076",
                "contact:website": "http://www.pasticceriareginalucca.it/",
                "currency:XBT": "yes",
                "name": "Pasticceria Petit Regina",
                "opening_hours": "Tu-Su 08:00-20:00",
                "payment:lightning": "yes",
                "payment:onchain": "yes"
            }
        },
        {
            "type": "node",
            "id": 10247732557,
            "lat": 43.7098897,
            "lon": 10.3986172,
            "timestamp": "2024-01-06T14:34:39Z",
            "version": 5,
            "changeset": 145959472,
            "user": "Chiarant",
            "uid": 18452174,
            "tags": {
                "addr:city": "Pisa",
                "addr:housenumber": "3",
                "addr:postcode": "56125",
                "addr:street": "Via Cesare Battisti",
                "amenity": "dentist",
                "check_date": "2024-01-06",
                "currency:XBT": "yes",
                "healthcare": "dentist",
                "healthcare:speciality": "protesi;_implantologia;_igiene_orale;_cosmetica;_ortodonzia;_conservativa;_endodonzia.",
                "name": "Studio Odontoiatrico Associato Vicard - Bianchi",
                "opening_hours": "Mo-Th 09:00-18:30, Fr 08:30-12:30",
                "operator": "Bianchi Riccardo",
                "payment:lightning": "yes",
                "payment:onchain": "yes",
                "phone": "+393925066300",
                "website": "https://www.studiobianchivicard.it"
            }
        },
        {
            "type": "node",
            "id": 10275645028,
            "lat": 44.0236074,
            "lon": 10.506139,
            "timestamp": "2024-07-05T19:53:41Z",
            "version": 4,
            "changeset": 153602787,
            "user": "mauropili",
            "uid": 1496865,
            "tags": {
                "addr:city": "Coreglia Antelminelli",
                "addr:housenumber": "5",
                "addr:postcode": "55025",
                "addr:street": "Via di Ludovica",
                "amenity": "restaurant",
                "check_date": "2022-12-20",
                "check_date:currency:XBT": "2023-07-18",
                "contact:facebook": "https://www.facebook.com/people/Pizzeria-da-MIKE/100063618574875/",
                "cuisine": "pizza",
                "currency:XBT": "yes",
                "name": "Mara Meo Maltagliata",
                "payment:lightning": "yes",
                "payment:onchain": "yes",
                "phone": "+39 339 577 6396",
                "website": "https://www.marameo-lucca.it/"
            }
        },
        {
            "type": "node",
            "id": 10275711661,
            "lat": 43.832708,
            "lon": 10.6158035,
            "timestamp": "2024-10-10T21:01:34Z",
            "version": 3,
            "changeset": 157733257,
            "user": "mpbin",
            "uid": 21850090,
            "tags": {
                "addr:city": "Porcari",
                "addr:housenumber": "7",
                "addr:postcode": "55016",
                "addr:street": "Via de' Casoni",
                "check_date": "2022-12-20",
                "currency:XBT": "yes",
                "email": "info@ecoprintlucchese.com",
                "name": "Ecoprint Lucchese",
                "office": "company",
                "payment:lightning": "yes",
                "payment:onchain": "yes",
                "phone": "+390583298474",
                "website": "http://www.ecoprintlucchese.com/home.php"
            }
        },
        {
            "type": "node",
            "id": 10275711662,
            "lat": 43.8442126,
            "lon": 10.4855757,
            "timestamp": "2024-07-08T16:11:50Z",
            "version": 5,
            "changeset": 153710539,
            "user": "mauropili",
            "uid": 1496865,
            "tags": {
                "addr:city": "Lucca",
                "addr:housenumber": "473",
                "addr:postcode": "55100",
                "addr:street": "Viale Giacomo Puccini",
                "amenity": "pharmacy",
                "check_date": "2022-12-20",
                "currency:XBT": "yes",
                "healthcare": "pharmacy",
                "name": "Parafarmacia Cura e Natura",
                "payment:lightning": "yes",
                "payment:onchain": "yes",
                "phone": "+3905831535745",
                "website": "https://www.curaenatura.com/"
            }
        },
        {
            "type": "node",
            "id": 10995234405,
            "lat": 43.8947309,
            "lon": 11.0857113,
            "timestamp": "2024-07-05T19:58:32Z",
            "version": 7,
            "changeset": 153602937,
            "user": "mauropili",
            "uid": 1496865,
            "tags": {
                "addr:city": "Prato",
                "addr:housenumber": "58",
                "addr:postcode": "59100",
                "addr:street": "Via Garigliano",
                "check_date:currency:XBT": "2023-12-16",
                "currency:XBT": "yes",
                "email": "info@idigservizi.it",
                "internet_access": "wlan",
                "name": "Identit\u00e0 Digitale Tommaso",
                "name:en": "Thomas Digital Identity",
                "opening_hours": "Mo-Su 09:00-13:30",
                "payment:lightning": "yes",
                "payment:onchain": "yes",
                "shop": "computer",
                "website": "https://www.idigservizi.it/"
            }
        },
        {
            "type": "node",
            "id": 11127205683,
            "lat": 44.1449402,
            "lon": 10.6639539,
            "timestamp": "2023-08-19T10:06:00Z",
            "version": 1,
            "changeset": 140088218,
            "user": "Chiarant",
            "uid": 18452174,
            "tags": {
                "addr:city": "Abetone",
                "addr:housenumber": "321",
                "addr:street": "Strada Statale 12 dell'Abetone e del Brennero",
                "check_date": "2023-08-19",
                "currency:XBT": "yes",
                "name": "Spacciottica",
                "payment:onchain": "yes",
                "phone": "+39 0573606857",
                "shop": "optician",
                "website": "https://spacciottica.it/"
            }
        },
        {
            "type": "node",
            "id": 11127218111,
            "lat": 43.8519625,
            "lon": 10.5074554,
            "timestamp": "2023-08-19T09:38:25Z",
            "version": 1,
            "changeset": 140087318,
            "user": "Chiarant",
            "uid": 18452174,
            "tags": {
                "addr:city": "Lucca",
                "addr:housenumber": "320",
                "addr:postcode": "55100",
                "addr:street": "Via Borgo Giannotti",
                "check_date": "2023-08-19",
                "currency:XBT": "yes",
                "email": "info@spacciotticalucca.it",
                "name": "Spacciottica",
                "payment:onchain": "yes",
                "phone": "+390583342035",
                "shop": "optician",
                "website": "https://spacciottica.it/"
            }
        },
        {
            "type": "node",
            "id": 11127267082,
            "lat": 43.5434674,
            "lon": 10.3138564,
            "timestamp": "2023-08-19T09:44:47Z",
            "version": 1,
            "changeset": 140087562,
            "user": "Chiarant",
            "uid": 18452174,
            "tags": {
                "addr:city": "Livorno",
                "addr:housenumber": "20",
                "addr:street": "Via Giovanni Marradi",
                "check_date": "2023-08-19",
                "currency:XBT": "yes",
                "name": "Spacciottica",
                "payment:onchain": "yes",
                "phone": "+39 0586 839669",
                "shop": "optician",
                "website": "https://spacciottica.it/"
            }
        },
        {
            "type": "node",
            "id": 11137162171,
            "lat": 44.1272347,
            "lon": 10.3951417,
            "timestamp": "2023-08-22T20:32:11Z",
            "version": 1,
            "changeset": 140246084,
            "user": "Chiarant",
            "uid": 18452174,
            "tags": {
                "addr:city": "Pieve Fosciana",
                "addr:housenumber": "11",
                "addr:postcode": "55036",
                "addr:street": "Localit\u00e0 Pantaline",
                "check_date": "2023-08-22",
                "currency:XBT": "yes",
                "email": "info@smai.eu",
                "name": "SMAI",
                "payment:onchain": "yes",
                "phone": "+39 0583641077",
                "shop": "computer",
                "website": "https://www.smai.eu/"
            }
        },
        {
            "type": "node",
            "id": 11233246709,
            "lat": 43.8417693,
            "lon": 10.4858201,
            "timestamp": "2024-02-12T14:38:23Z",
            "version": 2,
            "changeset": 147370167,
            "user": "Igor Bubelov",
            "uid": 2104834,
            "tags": {
                "addr:city": "Lucca",
                "addr:housenumber": "492",
                "addr:postcode": "55100",
                "addr:street": "Via Pisana",
                "check_date": "2023-10-02",
                "currency:XBT": "yes",
                "description": "Negozio di assistenza computer.",
                "email": "info@mftechnology.it",
                "name": "MF Technology",
                "shop": "computer"
            }
        },
        {
            "type": "node",
            "id": 11255964606,
            "lat": 44.1165928,
            "lon": 10.460789,
            "timestamp": "2023-10-16T12:00:30Z",
            "version": 2,
            "changeset": 142662055,
            "user": "descubrebitcoin",
            "uid": 17565129,
            "tags": {
                "addr:city": "Fosciandora",
                "addr:housenumber": "2",
                "addr:postcode": "55020",
                "addr:street": "Via Raffaelli",
                "currency:XBT": "yes",
                "email": "contact@villaraffaelli.it",
                "guest_house": "house",
                "image": "https://villaraffaelli.it/wp-content/uploads/2021/03/Villa-Raffaelli-Casa-Vacanze-Garfagnana-Toscana-Lucca-Agriturismo-3.jpg",
                "internet_access": "wlan",
                "internet_access:fee": "no",
                "name": "Villa Raffaelli",
                "payment:lightning": "yes",
                "payment:onchain": "yes",
                "phone": "+39 3471352489",
                "survey:date": "2023-10-11",
                "tourism": "guest_house",
                "website": "https://www.villaraffaelli.it"
            }
        },
        {
            "type": "node",
            "id": 11418023292,
            "lat": 43.8835574,
            "lon": 11.0824179,
            "timestamp": "2024-10-06T17:49:29Z",
            "version": 3,
            "changeset": 157551772,
            "user": "mpbin",
            "uid": 21850090,
            "tags": {
                "addr:city": "Prato",
                "addr:postcode": "59100",
                "addr:street": "Via Giudo Monaco",
                "amenity": "arts_centre",
                "check_date": "2024-10-06",
                "check_date:currency:XBT": "2024-10-06",
                "contact:facebook": "https://www.facebook.com/LanarchicoPrato/",
                "contact:instagram": "https://www.instagram.com/lanarchico_prato/",
                "contact:twitter": "https://x.com/LanarchicoPrato",
                "currency:XBT": "yes",
                "email": "lanarchicoprato@gmail.com",
                "mobile": "+39 331 366 4642",
                "name": "Lanarchico",
                "payment:lightning": "yes",
                "payment:onchain": "yes",
                "website": "https://linktr.ee/lanarchico"
            }
        },
        {
            "type": "node",
            "id": 11819774023,
            "lat": 43.8253425,
            "lon": 11.127688,
            "timestamp": "2024-04-15T18:39:04Z",
            "version": 1,
            "changeset": 150053590,
            "user": "Chiarant",
            "uid": 18452174,
            "tags": {
                "addr:city": "Campi Bisenzio",
                "addr:housenumber": "30",
                "addr:street": "Via Pier Paolo Pasolini",
                "amenity": "restaurant",
                "check_date": "2024-04-15",
                "cuisine": "regional",
                "currency:XBT": "yes",
                "description": "Braceria toscana solo carne rossa",
                "diet:meat": "yes",
                "email": "info@carnam.it",
                "name": "Carnam Ciccia Club",
                "phone": "+39 378 305 3350",
                "website": "https://www.carnam.it/"
            }
        },
        {
            "type": "node",
            "id": 11905185034,
            "lat": 43.9367601,
            "lon": 10.2077945,
            "timestamp": "2024-10-06T07:16:31Z",
            "version": 2,
            "changeset": 157526499,
            "user": "mpbin",
            "uid": 21850090,
            "tags": {
                "addr:city": "Marina di Pietrasanta",
                "addr:housenumber": "46",
                "addr:postcode": "55045",
                "addr:street": "Via Enrico Pea",
                "check_date": "2024-10-06",
                "check_date:currency:XBT": "2024-10-06",
                "currency:XBT": "yes",
                "email": "casagoldenhour@gmail.com",
                "guest_house": "bed_and_breakfast",
                "internet_access": "yes",
                "internet_access:fee": "customers",
                "name": "Holiday Apartment \"Golden Hour\" Marina di Pietrasanta",
                "payment:lightning": "yes",
                "payment:lightning_contactless": "yes",
                "payment:onchain": "yes",
                "rooms": "3",
                "tourism": "guest_house",
                "website": "https://www.airbnb.it/rooms/1154847943262556026?source_impression_id=p3_1715718447_27pg%2Btq5EJ7t4s%2Fx"
            }
        }
    ],
    "telegram": []
}