{
    "id": "ss-modena",
    "name": "Satoshi Spritz Modena",
    "lng": 45.4859,
    "lat": 10.92615487,
    "localita": "Modena",
    "telegram_weburl": "https://web.telegram.org/a/#-1001694179887",
    "telegram_app": "https://t.me/SatoshiSpritzModena",
    "telegram_members": 168.0,
    "network": "satoshispritz",
    "poi": [
        {
            "type": "node",
            "id": 1452373305,
            "lat": 45.4394324,
            "lon": 11.0041704,
            "timestamp": "2024-06-28T22:19:44Z",
            "version": 12,
            "changeset": 153312411,
            "user": "Rockedf",
            "uid": 7522075,
            "tags": {
                "addr:city": "Verona",
                "addr:housenumber": "6a",
                "addr:postcode": "37129",
                "addr:street": "Via San Vitale",
                "amenity": "restaurant",
                "check_date:currency:XBT": "2024-06-28",
                "contact:facebook": "https://www.facebook.com/osteriascalin/",
                "currency:XBT": "yes",
                "email": "osteria@scalin.it",
                "name": "Osteria Scalin",
                "payment:lightning": "yes",
                "payment:onchain": "no",
                "phone": "+39 045 2376356",
                "website": "https://www.osteriascalin.it/"
            }
        },
        {
            "type": "node",
            "id": 4553697792,
            "lat": 45.4378688,
            "lon": 10.9958258,
            "timestamp": "2024-07-15T19:44:39Z",
            "version": 4,
            "changeset": 153987400,
            "user": "Rockedf",
            "uid": 7522075,
            "tags": {
                "addr:city": "Verona",
                "addr:country": "IT",
                "addr:housenumber": "7",
                "addr:postcode": "37121",
                "addr:street": "Via Orti Manara",
                "check_date:currency:XBT": "2024-07-15",
                "currency:XBT": "yes",
                "description": "Dottori Commercialisti & Revisori legali",
                "name": "Studio Marchiori STP",
                "office": "accountant",
                "website": "https://www.studiomarchiori.com/"
            }
        },
        {
            "type": "node",
            "id": 6180386635,
            "lat": 45.3307492,
            "lon": 10.9512601,
            "timestamp": "2024-03-12T19:54:00Z",
            "version": 7,
            "changeset": 148565311,
            "user": "Chiarant",
            "uid": 18452174,
            "tags": {
                "addr:city": "Vigasio",
                "addr:housenumber": "92",
                "addr:postcode": "37068",
                "addr:street": "Via Verona",
                "check_date:currency:XBT": "2024-03-12",
                "currency:XBT": "yes",
                "description": "Nella tranquilla campagna Veronese, l'Hotel Montemezzi \u00e8 una moderna struttura 4 stelle, ideale sia per viaggi di piacere che per meeting di lavoro. Il ristorante offre piatti e vini tipici della gastronomia veneta anche con materie prime a km 0.",
                "email": "direzione@montemezzi.it",
                "name": "Hotel Montemezzi",
                "payment:bitcoin:operator": "inbitcoin.it",
                "phone": "+39 045 7363440",
                "tourism": "hotel",
                "website": "https://www.montemezzi.it/",
                "wikidata": "Q111412887"
            }
        },
        {
            "type": "node",
            "id": 6236567436,
            "lat": 45.439358,
            "lon": 10.864398,
            "timestamp": "2024-05-15T09:52:14Z",
            "version": 3,
            "changeset": 151350679,
            "user": "descubrebitcoin",
            "uid": 17565129,
            "tags": {
                "addr:city": "Sona",
                "addr:housenumber": "1",
                "addr:postcode": "37060",
                "addr:street": "Via Trentino",
                "amenity": "atm",
                "cash_in": "yes",
                "cash_out": "no",
                "cash_withdrawal": "no",
                "check_date": "2024-05-15",
                "check_date:currency:XBT": "2022-12-28",
                "currency:EUR": "yes",
                "currency:XBT": "yes",
                "description": "Bitcoin ATM di Chainblock, situato all'interno del centro commerciale La Grande Mela.",
                "email": "info@chainblock.it",
                "indoor": "yes",
                "level": "-1",
                "manufacturer": "General Bytes",
                "name": "Chainblock ATM",
                "operator": "Chainblock",
                "payment:cash": "yes",
                "payment:lightning": "no",
                "payment:lightning_contactless": "no",
                "payment:onchain": "yes",
                "url": "https://coinatmradar.com/bitcoin_atm/5718/bitcoin-atm-general-bytes-sona-centro-commerciale-la-grande-mela/",
                "website": "https://chainblock.it/atm/"
            }
        },
        {
            "type": "node",
            "id": 8335906317,
            "lat": 45.4525524,
            "lon": 10.9987741,
            "timestamp": "2023-11-09T19:49:11Z",
            "version": 7,
            "changeset": 143837194,
            "user": "b-jazz-bot",
            "uid": 9451067,
            "tags": {
                "addr:city": "Verona",
                "addr:housenumber": "12d",
                "addr:postcode": "37128",
                "addr:street": "Via Mentana",
                "amenity": "doctors",
                "currency:XBT": "yes",
                "email": "bianchi.osteopata@gmail.com",
                "healthcare": "doctor",
                "healthcare:speciality": "osteopathy",
                "internet_access": "wlan",
                "name": "Tommaso Bianchi - Osteopata",
                "name:en": "Bianchi Tommaso D.O BSc Ost. - Osteopath Verona",
                "opening_hours": "Mo-Sa 08:00-20:30",
                "payment:lightning": "yes",
                "payment:lightning_contactless": "yes",
                "payment:onchain": "yes",
                "phone": "+39 3470483429",
                "survey:date": "2022-10-24",
                "website": "https://bianchiosteopata.it/verona"
            }
        },
        {
            "type": "node",
            "id": 9933827401,
            "lat": 45.322813,
            "lon": 10.9494663,
            "timestamp": "2023-07-18T16:38:00Z",
            "version": 3,
            "changeset": 138678439,
            "user": "saunter",
            "uid": 10396321,
            "tags": {
                "addr:city": "Vigasio",
                "addr:housenumber": "14",
                "addr:postcode": "37068",
                "addr:street": "Via Alzeri",
                "check_date:currency:XBT": "2023-07-18",
                "craft": "electrician",
                "currency:XBT": "yes",
                "description": "Impianti elettrici e automazione cancelli.",
                "email": "info@zoccatelli.it",
                "name": "Z. M. Zoccatelli Impianti",
                "phone": "+39 3484447118",
                "website": "https://www.impiantizoccatelli.it"
            }
        },
        {
            "type": "node",
            "id": 11019852717,
            "lat": 45.5536322,
            "lon": 10.7226305,
            "timestamp": "2023-07-02T11:59:52Z",
            "version": 2,
            "changeset": 138020615,
            "user": "Bea1812",
            "uid": 19744243,
            "tags": {
                "addr:city": "Bardolino",
                "addr:housenumber": "1",
                "addr:postcode": "37011",
                "addr:street": "Via dei Poggi",
                "currency:XBT": "yes",
                "email": "beatrice.p18@gmail.com",
                "internet_access": "yes",
                "internet_access:fee": "customers",
                "name": "Luminosa Casetta",
                "operator": "Privato",
                "phone": "+393886907700",
                "rooms": "2",
                "survey:date": "2023-07-02",
                "tourism": "apartment"
            }
        },
        {
            "type": "node",
            "id": 11928368360,
            "lat": 45.4395088,
            "lon": 11.0086218,
            "timestamp": "2024-06-13T02:35:57Z",
            "version": 3,
            "changeset": 152610740,
            "user": "Rockedf",
            "uid": 7522075,
            "tags": {
                "addr:city": "Verona",
                "addr:housenumber": "70",
                "addr:postcode": "37129",
                "addr:street": "Via Venti Settembre",
                "amenity": "atm",
                "cash_in": "yes",
                "cash_out": "yes",
                "cash_withdrawal": "yes",
                "check_date": "2024-05-23",
                "contact:email": "support@shitcoins.club",
                "contact:facebook": "https://www.facebook.com/shitcoins.club",
                "contact:instagram": "https://www.instagram.com/shitcoinsclub",
                "contact:telegram": "https://t.me/shitcoinsclub",
                "contact:twitter": "https://twitter.com/BitomatCom",
                "currency:CAD": "yes",
                "currency:CHF": "yes",
                "currency:DASH": "yes",
                "currency:ETH": "yes",
                "currency:EUR": "yes",
                "currency:HUF": "yes",
                "currency:LTC": "yes",
                "currency:RON": "yes",
                "currency:USD": "yes",
                "currency:USDC": "yes",
                "currency:USDT": "yes",
                "currency:XBT": "yes",
                "indoor": "yes",
                "name": "Bitcoin ATM - Shitcoins.club",
                "opening_hours": "24/7",
                "operator": "Shitcoins.club",
                "payment:cash": "yes",
                "payment:lightning": "no",
                "payment:lightning_contactless": "no",
                "payment:onchain": "yes",
                "phone": "+39 34 8048 7308",
                "website": "https://shitcoins.club/localizzazione-atm/atm-bitcoin-verona-via-venti-settembre"
            }
        }
    ]
}