{
    "id": "ss-marche",
    "name": "Satoshi Spritz Marche",
    "lng": 43.61675973,
    "lat": 13.51887537,
    "localita": "Marche",
    "idlocalita": "marche",
    "telegram_weburl": "https://web.telegram.org/a/#-1001677452015",
    "telegram_app": "https://t.me/SatoshiSpritzMarche",
    "telegram_members": 65.0,
    "network": "satoshispritz",
    "poi": [
        {
            "type": "node",
            "id": 762937571,
            "lat": 43.6170877,
            "lon": 13.5158564,
            "timestamp": "2023-05-12T22:48:13Z",
            "version": 6,
            "changeset": 136036851,
            "user": "saunter",
            "uid": 10396321,
            "tags": {
                "addr:city": "Ancona",
                "addr:housenumber": "150",
                "addr:postcode": "60121",
                "addr:street": "Corso Giuseppe Garibaldi",
                "check_date:currency:XBT": "2023-05-13",
                "currency:XBT": "yes",
                "name": "Doppelg\u00e4nger",
                "old_name": "Avery K",
                "opening_hours": "Mo-Sa 09:30-20:00; Su 10:00-13:00,15:30-20:00",
                "operator": "International Retail Development srl",
                "payment:lightning": "no",
                "payment:lightning_contactless": "no",
                "payment:onchain": "yes",
                "phone": "+39 071 9691885",
                "ref:vatin": "IT10471441005",
                "shop": "clothes"
            }
        },
        {
            "type": "node",
            "id": 6070906250,
            "lat": 43.5206137,
            "lon": 13.55757,
            "timestamp": "2023-07-13T12:15:55Z",
            "version": 12,
            "changeset": 138462055,
            "user": "saunter",
            "uid": 10396321,
            "tags": {
                "addr:city": "Camerano",
                "addr:postcode": "60021",
                "addr:street": "Via Luigi Einaudi",
                "check_date:currency:XBT": "2023-07-13",
                "currency:XBT": "yes",
                "description": "Servizi di Consulenza, Formazione, Progettazione. Risk Management, Salute e Sicurezza sul Lavoro, Corsi di Formazione D.Lgs. 81/2008",
                "email": "contattaci@agrsicurezza.com",
                "name": "AGRsicurezza",
                "office": "occupational_safety",
                "website": "https://www.agrsicurezza.it"
            }
        },
        {
            "type": "node",
            "id": 9551940924,
            "lat": 43.605797,
            "lon": 13.4877366,
            "timestamp": "2023-10-27T13:00:04Z",
            "version": 6,
            "changeset": 143210467,
            "user": "b-jazz-bot",
            "uid": 9451067,
            "tags": {
                "addr:city": "Ancona",
                "addr:housenumber": "85",
                "addr:postcode": "60126",
                "addr:street": "Via Flaminia",
                "check_date": "2023-09-04",
                "currency:XBT": "yes",
                "description": "Attivit\u00e0 di servizi per organizzazione di eventi e feste. Disponibilit\u00e0 di un configuratore online utile per chi sta cercando location o profili quali deejay, fotografi, animazione e tutto ci\u00f2 che comprende il mondo delle feste private.",
                "email": "info@mypartyevents.it",
                "name": "My Party Events",
                "office": "event_planner",
                "old_name": "Prontomoda",
                "old_shop": "clothes",
                "phone": "+39 3755157921",
                "website": "https://www.mypartyevents.it/"
            }
        },
        {
            "type": "node",
            "id": 10554651585,
            "lat": 43.2174824,
            "lon": 13.3064053,
            "timestamp": "2024-05-20T19:58:37Z",
            "version": 3,
            "changeset": 151598237,
            "user": "Protocolli Creativi srl",
            "uid": 18273465,
            "tags": {
                "addr:city": "Tolentino",
                "addr:housenumber": "1",
                "addr:postcode": "62029",
                "addr:street": "Viale Concordia",
                "check_date:currency:XBT": "2023-01-14",
                "currency:XBT": "yes",
                "description": "Software house",
                "email": "info@protocollicreativi.it",
                "name": "Protocolli Creativi srl",
                "office": "it",
                "opening_hours": "Mo-Fr 10:00-13:00, 15:00-19:00",
                "payment:lightning": "yes",
                "payment:lightning_contactless": "yes",
                "payment:onchain": "yes",
                "phone": "+39 0733 974921",
                "website": "https://www.protocollicreativi.it/"
            }
        },
        {
            "type": "node",
            "id": 10566976132,
            "lat": 43.2217632,
            "lon": 13.4651049,
            "timestamp": "2023-01-19T06:35:47Z",
            "version": 1,
            "changeset": 131449355,
            "user": "BSN21M",
            "uid": 17441326,
            "tags": {
                "addr:city": "Petriolo",
                "addr:housenumber": "35",
                "addr:postcode": "62014",
                "addr:street": "Via Porta Nuova",
                "check_date:currency:XBT": "2023-01-19",
                "currency:XBT": "yes",
                "name": "Natali Calzature",
                "opening_hours": "Mo-Sa 16:30-19:30",
                "payment:lightning": "yes",
                "payment:lightning_contactless": "no",
                "payment:onchain": "yes",
                "phone": "+39 339 613 4291",
                "shop": "shoes",
                "website": "https://natalicalzature.business.site"
            }
        },
        {
            "type": "node",
            "id": 10862567240,
            "lat": 43.2302873,
            "lon": 13.6848136,
            "timestamp": "2024-07-05T19:57:27Z",
            "version": 2,
            "changeset": 153602893,
            "user": "mauropili",
            "uid": 1496865,
            "tags": {
                "addr:city": "Sant'Elpidio a Mare",
                "addr:housenumber": "64",
                "addr:postcode": "63811",
                "addr:street": "Corso Baccio",
                "amenity": "restaurant",
                "check_date": "2023-05-02",
                "contact:facebook": "https://www.facebook.com/ipozzacci",
                "cuisine": "italian",
                "currency:XBT": "yes",
                "name": "I Pozzacci",
                "phone": "+390734466623"
            }
        },
        {
            "type": "node",
            "id": 11335707828,
            "lat": 43.6109082,
            "lon": 13.5042162,
            "timestamp": "2023-11-09T12:14:46Z",
            "version": 1,
            "changeset": 143819796,
            "user": "Rockedf",
            "uid": 7522075,
            "tags": {
                "addr:city": "Ancona",
                "addr:housenumber": "2",
                "addr:postcode": "60125",
                "addr:street": "Via dei Piceni",
                "addr:unit": "A",
                "check_date": "2023-11-09",
                "contact:email": "ilaria.traditi@gmail.com",
                "currency:XBT": "yes",
                "name": "Casa Frinfrina B&B",
                "payment:lightning": "yes",
                "payment:lightning_contactless": "no",
                "payment:onchain": "yes",
                "phone": "+39 32 9013 1428",
                "tourism": "guest_house",
                "website": "https://www.airbnb.it/rooms/32639590"
            }
        },
        {
            "type": "node",
            "id": 11874406150,
            "lat": 43.4896528,
            "lon": 13.4958801,
            "timestamp": "2024-05-11T10:02:16Z",
            "version": 4,
            "changeset": 151178709,
            "user": "totera",
            "uid": 123412,
            "tags": {
                "addr:city": "Osimo",
                "addr:housenumber": "100",
                "addr:postcode": "60027",
                "addr:street": "Via Marco Polo",
                "check_date": "2024-05-03",
                "currency:XBT": "yes",
                "name": "Erboristeria Naturalmente",
                "opening_hours": "Mo-Su 09:00-13:00,16:00-20:00",
                "payment:cash": "yes",
                "payment:credit_cards": "yes",
                "payment:debit_cards": "yes",
                "payment:lightning": "yes",
                "payment:lightning_contactless": "no",
                "payment:onchain": "no",
                "phone": "+39 071 7132123",
                "shop": "herbalist"
            }
        },
        {
            "type": "node",
            "id": 11920480577,
            "lat": 43.4778625,
            "lon": 13.6301502,
            "timestamp": "2024-07-06T07:15:13Z",
            "version": 2,
            "changeset": 153612617,
            "user": "mauropili",
            "uid": 1496865,
            "tags": {
                "addr:city": "Numana",
                "check_date": "2024-05-20",
                "currency:XBT": "yes",
                "leisure": "resort",
                "name": "Resort Estivo",
                "payment:lightning": "yes",
                "payment:lightning_contactless": "yes",
                "payment:onchain": "yes",
                "phone": "+39 33 8761 1076",
                "website": "https://www.subito.it/vi/551785629.htm"
            }
        },
        {
            "type": "node",
            "id": 11938388563,
            "lat": 43.4832789,
            "lon": 13.4930931,
            "timestamp": "2024-05-29T04:05:55Z",
            "version": 2,
            "changeset": 151969827,
            "user": "totera",
            "uid": 123412,
            "tags": {
                "addr:city": "Osimo",
                "addr:housenumber": "15",
                "addr:postcode": "60027",
                "addr:street": "Via Cristoforo Colombo",
                "check_date": "2024-05-27",
                "currency:XBT": "yes",
                "name": "Tabaccheria Colombo",
                "payment:lightning": "yes",
                "payment:lightning_contactless": "no",
                "payment:onchain": "no",
                "shop": "tobacco"
            }
        },
        {
            "type": "node",
            "id": 11964590568,
            "lat": 43.509146,
            "lon": 13.6239556,
            "timestamp": "2024-07-06T09:41:12Z",
            "version": 7,
            "changeset": 153616395,
            "user": "mauropili",
            "uid": 1496865,
            "tags": {
                "addr:city": "Numana",
                "addr:postcode": "60026",
                "check_date": "2024-06-08",
                "check_date:currency:XBT": "2024-06-10",
                "club": "sport",
                "currency:XBT": "yes",
                "email": "associazionemarevento@gmail.com",
                "name": "Associazione Mare Vento Windsurfing",
                "payment:lightning": "yes",
                "payment:lightning_contactless": "yes",
                "payment:onchain": "yes",
                "sport": "windsurfing;surfing",
                "survey:date": "2024-06-08",
                "website": "http://mare-vento.blogspot.com/"
            }
        },
        {
            "type": "node",
            "id": 11975336450,
            "lat": 43.3086104,
            "lon": 13.7271027,
            "timestamp": "2024-09-21T18:44:16Z",
            "version": 2,
            "changeset": 156924689,
            "user": "mpbin",
            "uid": 21850090,
            "tags": {
                "addr:city": "Civitanova Marche",
                "addr:housenumber": "88",
                "addr:postcode": "62012",
                "addr:street": "Corso Umberto I",
                "check_date": "2024-06-12",
                "currency:XBT": "yes",
                "name": "Vittoria Profumi",
                "shop": "perfumery",
                "website": "https://www.vittoriaprofumi.com/"
            }
        }
    ],
    "telegram": []
}