{
    "id": "ss-monza",
    "name": "Satoshi Spritz Monza",
    "lng": 45.5834,
    "lat": 9.2759,
    "localita": "Monza",
    "telegram_weburl": "https://web.telegram.org/a/#-1001787972363",
    "telegram_app": "https://t.me/SatoshiSpritzMonza",
    "telegram_members": 40.0,
    "network": "satoshispritz",
    "poi": [
        {
            "type": "node",
            "id": 269924649,
            "lat": 45.4799222,
            "lon": 9.1832687,
            "timestamp": "2024-05-09T11:17:48Z",
            "version": 10,
            "changeset": 151094563,
            "user": "Chiarant",
            "uid": 18452174,
            "tags": {
                "addr:city": "Milano",
                "addr:country": "IT",
                "addr:housenumber": "13",
                "addr:postcode": "20121",
                "addr:street": "Via Alessandro Volta",
                "amenity": "pub",
                "check_date:currency:XBT": "2024-05-09",
                "currency:XBT": "yes",
                "email": "info@scottduff.it",
                "name": "Scott Duff",
                "opening_hours": "Mo-Su 18:00-26:00",
                "payment:lightning": "yes",
                "payment:lightning_contactless": "no",
                "payment:onchain": "no",
                "phone": "+39 229002574",
                "website": "https://scottduff.it/",
                "wheelchair": "limited"
            }
        },
        {
            "type": "node",
            "id": 408783078,
            "lat": 45.4564731,
            "lon": 9.174639,
            "timestamp": "2023-08-27T15:19:36Z",
            "version": 7,
            "changeset": 140456407,
            "user": "fick89",
            "uid": 1781586,
            "tags": {
                "addr:city": "Milano",
                "addr:country": "IT",
                "addr:housenumber": "25",
                "addr:postcode": "20123",
                "addr:street": "Corso Genova",
                "check_date": "2023-04-16",
                "clothes": "men",
                "currency:EUR": "yes",
                "currency:XBT": "yes",
                "name": "Doppelg\u00e4nger",
                "opening_hours": "Mo-Su 10:00-20:00",
                "phone": "+39028321980",
                "shop": "clothes",
                "wheelchair": "limited"
            }
        },
        {
            "type": "node",
            "id": 428790349,
            "lat": 45.457244,
            "lon": 9.1529447,
            "timestamp": "2023-11-11T16:57:40Z",
            "version": 5,
            "changeset": 143907703,
            "user": "b-jazz-bot",
            "uid": 9451067,
            "tags": {
                "addr:city": "Milano",
                "addr:country": "IT",
                "addr:housenumber": "34",
                "addr:street": "Via Romolo Gessi",
                "check_date": "2022-12-09",
                "currency:XBT": "yes",
                "name": "Seta Beauty",
                "payment:lightning": "no",
                "payment:onchain": "yes",
                "phone": "+390236637286",
                "shop": "beauty",
                "website": "https://setabeauty.com/"
            }
        },
        {
            "type": "node",
            "id": 932365447,
            "lat": 45.5452176,
            "lon": 9.1185459,
            "timestamp": "2024-04-13T18:32:10Z",
            "version": 9,
            "changeset": 149964766,
            "user": "Rockedf",
            "uid": 7522075,
            "tags": {
                "addr:city": "Bollate",
                "addr:country": "IT",
                "addr:postcode": "20021",
                "addr:street": "Via Ambrogio da Bollate",
                "amenity": "pub",
                "check_date": "2024-04-13",
                "contact:email": "elbarrioloco@gmail.com",
                "currency:XBT": "yes",
                "name": "El barrio loco",
                "opening_hours": "Mo-Su 20:00-02:00",
                "operator": "mino",
                "payment:lightning": "yes",
                "payment:lightning_contactless": "no",
                "payment:onchain": "no",
                "wheelchair": "limited"
            }
        },
        {
            "type": "node",
            "id": 1837526866,
            "lat": 45.4865374,
            "lon": 9.2161844,
            "timestamp": "2024-01-17T00:52:35Z",
            "version": 8,
            "changeset": 146343337,
            "user": "Igor Bubelov",
            "uid": 2104834,
            "tags": {
                "addr:city": "Milano",
                "addr:housenumber": "7",
                "addr:postcode": "20131",
                "addr:street": "Piazzale Loreto",
                "amenity": "pharmacy",
                "check_date:currency:XBT": "2022-10-25",
                "currency:XBT": "yes",
                "dispensing": "yes",
                "healthcare": "pharmacy",
                "name": "Loreto snc",
                "opening_hours": "Mo-Fr 08:00-19:30; Sa 08:30-13:00",
                "operator": "Dr. Greco Antonio Maria & C.",
                "ref:msal": "2887",
                "ref:vatin": "IT10703870153",
                "source": "Ministero della Salute"
            }
        },
        {
            "type": "node",
            "id": 1855676978,
            "lat": 45.4679618,
            "lon": 9.1957001,
            "timestamp": "2023-04-26T16:52:24Z",
            "version": 4,
            "changeset": 135395311,
            "user": "Chiarant",
            "uid": 18452174,
            "tags": {
                "addr:city": "Milano",
                "addr:country": "IT",
                "addr:housenumber": "8",
                "addr:postcode": "20121",
                "addr:street": "Via Monte Napoleone",
                "check_date": "2023-04-26",
                "contact:phone": "+390294758880",
                "currency:XBT": "yes",
                "name": "Studio Commercialista Sciandra & Associati",
                "office": "accountant",
                "phone": "+39 02 9475 8880",
                "website": "https://studiosciandra.com"
            }
        },
        {
            "type": "node",
            "id": 2543436921,
            "lat": 45.4855442,
            "lon": 9.2158565,
            "timestamp": "2024-02-19T03:37:19Z",
            "version": 5,
            "changeset": 147631932,
            "user": "Igor Bubelov",
            "uid": 2104834,
            "tags": {
                "addr:city": "Milano",
                "addr:housenumber": "77",
                "addr:postcode": "20124",
                "addr:street": "Corso Buenos Aires",
                "amenity": "fast_food",
                "check_date": "2023-11-16",
                "cuisine": "kebab",
                "currency:XBT": "yes",
                "delivery": "yes",
                "diet:vegan": "yes",
                "diet:vegetarian": "yes",
                "name": "Kebhouze",
                "payment:lightning": "yes",
                "payment:lightning_contactless": "yes",
                "payment:onchain": "yes",
                "takeaway": "yes",
                "website": "https://kebhouze.com/"
            }
        },
        {
            "type": "node",
            "id": 2622478068,
            "lat": 45.4042319,
            "lon": 9.2726917,
            "timestamp": "2023-11-06T19:12:38Z",
            "version": 9,
            "changeset": 143706807,
            "user": "b-jazz-bot",
            "uid": 9451067,
            "tags": {
                "addr:city": "San Giuliano Milanese",
                "addr:housenumber": "6b",
                "addr:postcode": "20098",
                "addr:street": "Via Parlamento",
                "check_date:currency:XBT": "2023-07-21",
                "currency:XBT": "yes",
                "name": "Pegaso Team",
                "opening_hours": "Mo 15:30-19:30; Tu-Fr 09:30-12:30,15:30-19:30; Sa 09:30-12:30,15:30-18:00",
                "operator": "David",
                "phone": "+39 02 98241666",
                "shop": "computer",
                "website": "https://pegasoteam.it/"
            }
        },
        {
            "type": "node",
            "id": 2725051459,
            "lat": 45.4748071,
            "lon": 9.2080757,
            "timestamp": "2023-11-07T09:55:42Z",
            "version": 9,
            "changeset": 143728613,
            "user": "b-jazz-bot",
            "uid": 9451067,
            "tags": {
                "addr:city": "Milano",
                "addr:housenumber": "12",
                "addr:postcode": "20129",
                "addr:street": "Via Marcello Malpighi",
                "check_date:currency:XBT": "2023-07-21",
                "currency:XBT": "yes",
                "description": "Lo studio legale offre assistenza e consulenza legale qualificata a privati e imprese in Lombardia e nella maggior parte dei Tribunali italiani. Consulta il sito web per maggiori informazioni.",
                "name": "Studio legale avvocato Daniel Cibin",
                "office": "lawyer",
                "phone": "+39 02 87186275",
                "website": "https://www.studiocibin.com/"
            }
        },
        {
            "type": "node",
            "id": 2991405599,
            "lat": 45.4643444,
            "lon": 9.1871859,
            "timestamp": "2023-04-17T17:22:15Z",
            "version": 7,
            "changeset": 135025096,
            "user": "Chiarant",
            "uid": 18452174,
            "tags": {
                "addr:city": "Milano",
                "addr:housenumber": "5",
                "addr:postcode": "20123",
                "addr:street": "Via Orefici",
                "check_date": "2023-04-16",
                "clothes": "men",
                "currency:XBT": "yes",
                "name": "Doppelg\u00e4nger",
                "phone": "0243413725",
                "shop": "clothes",
                "wheelchair": "limited"
            }
        },
        {
            "type": "node",
            "id": 3578770317,
            "lat": 45.4584903,
            "lon": 9.2110173,
            "timestamp": "2024-01-25T01:03:22Z",
            "version": 11,
            "changeset": 146653067,
            "user": "Igor Bubelov",
            "uid": 2104834,
            "tags": {
                "addr:city": "Milano",
                "addr:housenumber": "25",
                "addr:postcode": "20135",
                "addr:street": "Via Spartaco",
                "check_date": "2023-01-11",
                "currency:XBT": "yes",
                "name": "Davide Briani",
                "note": "Freelance Business Consultant",
                "office": "company",
                "payment:lightning": "yes",
                "payment:onchain": "yes",
                "phone": "+39 329 211 6070",
                "twitter": "https://twitter.com/briani_davide",
                "website": "https://briani.org"
            }
        },
        {
            "type": "node",
            "id": 3991747275,
            "lat": 45.4563112,
            "lon": 9.1950412,
            "timestamp": "2023-09-04T09:48:06Z",
            "version": 3,
            "changeset": 140795864,
            "user": "Chiarant",
            "uid": 18452174,
            "tags": {
                "addr:city": "Milano",
                "addr:country": "IT",
                "addr:housenumber": "80",
                "addr:postcode": "20122",
                "addr:street": "Corso di Porta Romana",
                "amenity": "cafe",
                "check_date": "2023-09-04",
                "currency:XBT": "yes",
                "email": "ilcaffedellaterradiportaromana@gmail.com",
                "name": "Il Caff\u00e8 della Terra di P.ta Romana",
                "phone": "02 8348 0866"
            }
        },
        {
            "type": "node",
            "id": 4223539909,
            "lat": 45.5638168,
            "lon": 9.0539935,
            "timestamp": "2024-01-25T09:46:21Z",
            "version": 4,
            "changeset": 146665297,
            "user": "Igor Bubelov",
            "uid": 2104834,
            "tags": {
                "addr:city": "Arese",
                "addr:housenumber": "11",
                "addr:postcode": "20020",
                "addr:street": "Viale Giuseppe Eugenio Luraghi",
                "check_date": "2023-04-05",
                "clothes": "men",
                "currency:XBT": "yes",
                "level": "1",
                "name": "Nuvolari c.c. Il Centro Arese",
                "payment:lightning": "no",
                "payment:lightning_contactless": "no",
                "payment:onchain": "yes",
                "phone": "0209959241",
                "shop": "clothes"
            }
        },
        {
            "type": "node",
            "id": 4708357239,
            "lat": 45.4903659,
            "lon": 9.2037822,
            "timestamp": "2024-03-18T17:20:56Z",
            "version": 6,
            "changeset": 148827113,
            "user": "portege_moi",
            "uid": 499974,
            "tags": {
                "addr:city": "Milano",
                "addr:housenumber": "14",
                "addr:postcode": "20125",
                "addr:street": "Via Giovanni Schiaparelli",
                "amenity": "pub",
                "check_date": "2024-03-16",
                "currency:XBT": "yes",
                "name": "Nik's & Co",
                "opening_hours": "Mo-Sa 07:00-02:00",
                "payment:bitcoin:operator": "inbitcoin.it",
                "website": "https://niksandco.it/"
            }
        },
        {
            "type": "node",
            "id": 4851406430,
            "lat": 45.463958,
            "lon": 9.1785032,
            "timestamp": "2024-03-20T18:28:38Z",
            "version": 3,
            "changeset": 148928654,
            "user": "Chiarant",
            "uid": 18452174,
            "tags": {
                "addr:city": "Milano",
                "addr:country": "IT",
                "addr:housenumber": "19",
                "addr:postcode": "20123",
                "addr:street": "Via Nirone",
                "amenity": "restaurant",
                "check_date": "2024-03-20",
                "currency:XBT": "yes",
                "email": "milano@organya.it",
                "name": "Organya - The Italian Bowl",
                "phone": "+39 02 52516916",
                "website": "https://www.organya.it/"
            }
        },
        {
            "type": "node",
            "id": 4864389514,
            "lat": 45.4835181,
            "lon": 9.1612968,
            "timestamp": "2022-12-08T23:05:06Z",
            "version": 2,
            "changeset": 129879659,
            "user": "saunter",
            "uid": 10396321,
            "tags": {
                "addr:city": "Milano",
                "addr:country": "IT",
                "addr:housenumber": "63",
                "addr:postcode": "20149",
                "addr:street": "Corso Sempione",
                "check_date": "2022-12-08",
                "currency:XBT": "yes",
                "name": "Seta Beauty",
                "opening_hours": "Mo-Fr 08:00-20:00, Sa 08:00-18:00",
                "payment:lightning": "yes",
                "payment:onchain": "yes",
                "phone": "+393756370904",
                "shop": "beauty",
                "website": "http://setabeauty.com/index.php"
            }
        },
        {
            "type": "node",
            "id": 5242726285,
            "lat": 45.4744801,
            "lon": 9.2066824,
            "timestamp": "2024-02-01T06:58:45Z",
            "version": 7,
            "changeset": 146933037,
            "user": "Igor Bubelov",
            "uid": 2104834,
            "tags": {
                "addr:city": "Milano",
                "addr:housenumber": "1",
                "addr:postcode": "20129",
                "addr:street": "Via Marcello Malpighi",
                "check_date": "2023-06-22",
                "currency:XBT": "yes",
                "description": "Consulenti Tecnologici, Sicurezza, Privacy , Android, Apple, MAC, WIN. Assistenza Computer 24/24",
                "email": "info@aztecnologia.it",
                "name": "AZ Tecnologia",
                "office": "it"
            }
        },
        {
            "type": "node",
            "id": 5320104524,
            "lat": 45.6086573,
            "lon": 9.2373644,
            "timestamp": "2023-11-09T19:05:35Z",
            "version": 4,
            "changeset": 143835788,
            "user": "b-jazz-bot",
            "uid": 9451067,
            "tags": {
                "addr:city": "Lissone",
                "addr:housenumber": "37",
                "addr:postcode": "20851",
                "addr:street": "Via Carlo Besozzi",
                "check_date": "2023-04-24",
                "contact:instagram": "https://www.instagram.com/xxmiglia_lissone/",
                "currency:XBT": "yes",
                "description": "Componenti informatici, cartucce e toner.",
                "email": "filippo@xxmigliasnc.it",
                "name": "XXMIGLIA s.n.c.",
                "phone": "+39 0392450064",
                "shop": "computer",
                "website": "https://www.xxmigliasnc.it/"
            }
        },
        {
            "type": "node",
            "id": 5331147423,
            "lat": 45.504733,
            "lon": 9.135354,
            "timestamp": "2023-07-10T18:52:52Z",
            "version": 2,
            "changeset": 138349982,
            "user": "Chiarant",
            "uid": 18452174,
            "tags": {
                "addr:city": "Milano",
                "addr:housenumber": "9",
                "addr:postcode": "20156",
                "addr:street": "Via Angelo Brunetti",
                "amenity": "taxi",
                "check_date": "2023-07-10",
                "currency:XBT": "yes",
                "description": "Servizio di chiamata rapida e prenotazione taxi.",
                "email": "info@etaxi.it",
                "name": "RadioTaxi 02.5353",
                "note": "Per pagare in Bitcoin bisogna fare l'abbonamento",
                "phone": "+39 025353",
                "website": "https://www.025353.it/"
            }
        },
        {
            "type": "node",
            "id": 5450826058,
            "lat": 45.4911995,
            "lon": 9.2213541,
            "timestamp": "2022-12-10T14:01:40Z",
            "version": 2,
            "changeset": 129934597,
            "user": "saunter",
            "uid": 10396321,
            "tags": {
                "addr:city": "Milano",
                "addr:country": "IT",
                "addr:housenumber": "8",
                "addr:postcode": "20127",
                "addr:street": "Via Marco Aurelio",
                "amenity": "university",
                "check_date": "2022-12-10",
                "currency:XBT": "yes",
                "name": "Investment Academy",
                "payment:lightning": "yes",
                "payment:onchain": "yes",
                "phone": "+390240031282",
                "website": "https://investmentacademy.it/"
            }
        },
        {
            "type": "node",
            "id": 5450827959,
            "lat": 45.4530527,
            "lon": 9.1712425,
            "timestamp": "2024-02-19T03:38:02Z",
            "version": 4,
            "changeset": 147631938,
            "user": "Igor Bubelov",
            "uid": 2104834,
            "tags": {
                "addr:city": "Milano",
                "addr:country": "IT",
                "addr:housenumber": "41",
                "addr:postcode": "20144",
                "addr:street": "Via Vigevano",
                "amenity": "fast_food",
                "check_date": "2023-11-16",
                "cuisine": "kebab",
                "currency:XBT": "yes",
                "name": "Kebhouze - Porta Genova",
                "payment:lightning": "yes",
                "payment:lightning_contactless": "yes",
                "payment:onchain": "yes",
                "website": "https://kebhouze.com/"
            }
        },
        {
            "type": "node",
            "id": 5759888797,
            "lat": 45.4795895,
            "lon": 9.146027,
            "timestamp": "2024-02-05T21:55:44Z",
            "version": 4,
            "changeset": 147111134,
            "user": "ilsedentario",
            "uid": 15626613,
            "tags": {
                "addr:housenumber": "18",
                "addr:postcode": "20149",
                "addr:street": "Via Masaccio",
                "amenity": "bar",
                "check_date:currency:XBT": "2023-03-14",
                "currency:XBT": "yes",
                "name": "City Life Cafe"
            }
        },
        {
            "type": "node",
            "id": 5999727438,
            "lat": 45.4802534,
            "lon": 9.2135489,
            "timestamp": "2022-12-20T12:41:05Z",
            "version": 5,
            "changeset": 130289129,
            "user": "saunter",
            "uid": 10396321,
            "tags": {
                "addr:city": "Milano",
                "addr:housenumber": "39",
                "addr:postcode": "20129",
                "addr:street": "Via Giovanni Battista Morgagni",
                "amenity": "pharmacy",
                "check_date": "2022-12-20",
                "currency:XBT": "yes",
                "dispensing": "no",
                "healthcare": "pharmacy",
                "name": "Parafarmacia PharmaLite",
                "payment:lightning": "yes",
                "payment:onchain": "yes",
                "phone": "+393393841753",
                "ref:msal": "007996",
                "ref:vatin": "IT05564660966"
            }
        },
        {
            "type": "node",
            "id": 6175091666,
            "lat": 45.5586796,
            "lon": 9.2650455,
            "timestamp": "2023-08-23T11:01:10Z",
            "version": 5,
            "changeset": 140269969,
            "user": "Chiarant",
            "uid": 18452174,
            "tags": {
                "addr:city": "Monza",
                "addr:housenumber": "20",
                "addr:postcode": "20900",
                "addr:street": "Via Solone",
                "check_date": "2023-08-23",
                "currency:XBT": "yes",
                "description": "Palextra Monza A.S.D. Training Center \u00e8 la palestra di Monza che accetta pagamenti in bitcoin tramite BtcPay Server, sia on-chain che Lightning Network.",
                "email": "contabilitapalextra@gmail.com",
                "leisure": "fitness_centre",
                "mobile": "+390398963394",
                "name": "Palextra Monza A.S.D. Training Center",
                "opening_hours": "Mo,We-Fr 08:00-22:00; Tu 09:00-22:00; Sa 09:00-18:00; Su 09:00-13:00",
                "payment:lightning": "yes",
                "payment:onchain": "yes",
                "website": "https://palextramonza.it"
            }
        },
        {
            "type": "node",
            "id": 6236532945,
            "lat": 45.443859,
            "lon": 9.208082,
            "timestamp": "2024-05-15T09:41:41Z",
            "version": 4,
            "changeset": 151350082,
            "user": "descubrebitcoin",
            "uid": 17565129,
            "tags": {
                "addr:city": "Milano",
                "addr:housenumber": "6",
                "addr:postcode": "20139",
                "addr:street": "Via Arcivescovo Calabiana",
                "amenity": "atm",
                "cash_in": "yes",
                "cash_out": "no",
                "cash_withdrawal": "no",
                "check_date": "2024-05-15",
                "check_date:currency:XBT": "2022-12-28",
                "currency:EUR": "yes",
                "currency:XBT": "yes",
                "description": "Bitcoin ATM di Chainblock, situato all'interno di Talent Garden.",
                "email": "info@chainblock.it",
                "manufacturer": "General Bytes",
                "name": "Chainblock ATM",
                "operator": "Chainblock",
                "payment:cash": "yes",
                "payment:lightning": "no",
                "payment:lightning_contactless": "no",
                "payment:onchain": "yes",
                "url": "https://coinatmradar.com/bitcoin_atm/3089/bitcoin-atm-general-bytes-milan-talent-garden-milano-calabiana/",
                "website": "https://chainblock.it/atm/"
            }
        },
        {
            "type": "node",
            "id": 6303323756,
            "lat": 45.6002866,
            "lon": 9.1563207,
            "timestamp": "2023-11-09T19:02:24Z",
            "version": 7,
            "changeset": 143835666,
            "user": "b-jazz-bot",
            "uid": 9451067,
            "tags": {
                "addr:city": "Varedo",
                "addr:housenumber": "3",
                "addr:postcode": "20814",
                "addr:street": "Via Monte Tomba",
                "check_date": "2023-07-08",
                "currency:XBT": "yes",
                "description": "Mercatino dell'usato che ritira e vende merce selezionata e di qualit\u00e0.",
                "email": "web@domusluxuryevintage.it",
                "name": "Mercatino usato \"Domus luxury e vintage\"",
                "phone": "+39 3383773838",
                "shop": "second_hand",
                "website": "https://www.domusluxuryevintage.it/"
            }
        },
        {
            "type": "node",
            "id": 6347045135,
            "lat": 45.487452,
            "lon": 9.202572,
            "timestamp": "2023-07-10T19:00:14Z",
            "version": 3,
            "changeset": 138350247,
            "user": "Chiarant",
            "uid": 18452174,
            "tags": {
                "addr:city": "Milano",
                "addr:housenumber": "7",
                "addr:postcode": "20124",
                "addr:street": "Piazza Quattro Novembre",
                "check_date": "2023-07-10",
                "currency:XBT": "yes",
                "description": "Agenzia investigativa, da oltre 50 anni servizi di indagini per privati e aziende. Diretta dal dott. M. Cali\u00f2. Ufficio di consulenza di Milano.",
                "email": "info@europolnovara.com",
                "name": "Europol Investigazioni dal 1962",
                "office": "private_investigator",
                "phone": "+39 320 7413358",
                "website": "https://www.investigatore-privato-milano.com"
            }
        },
        {
            "type": "node",
            "id": 6539942449,
            "lat": 45.4892026,
            "lon": 9.187128,
            "timestamp": "2024-02-19T04:18:28Z",
            "version": 3,
            "changeset": 147632606,
            "user": "Igor Bubelov",
            "uid": 2104834,
            "tags": {
                "addr:city": "Milano",
                "addr:housenumber": "17",
                "addr:postcode": "20159",
                "addr:street": "Via Luigi Porro Lambertenghi",
                "amenity": "fast_food",
                "check_date": "2023-11-17",
                "cuisine": "burger",
                "currency:XBT": "yes",
                "name": "Kebhouze - Isola",
                "payment:lightning": "yes",
                "payment:lightning_contactless": "yes",
                "payment:onchain": "yes",
                "website": "https://kebhouze.com/"
            }
        },
        {
            "type": "node",
            "id": 6852717735,
            "lat": 45.481093,
            "lon": 9.1728847,
            "timestamp": "2024-05-26T10:04:12Z",
            "version": 4,
            "changeset": 151843666,
            "user": "CJJ2501",
            "uid": 8922202,
            "tags": {
                "addr:city": "Milano",
                "addr:housenumber": "53",
                "addr:postcode": "20154",
                "addr:street": "Via Paolo Sarpi",
                "amenity": "fast_food",
                "check_date": "2024-05-26",
                "cuisine": "kebab",
                "currency:XBT": "yes",
                "name": "Kebhouze",
                "payment:lightning": "yes",
                "payment:lightning_contactless": "yes",
                "payment:onchain": "yes",
                "website": "https://kebhouze.com/"
            }
        },
        {
            "type": "node",
            "id": 6862516941,
            "lat": 45.5025081,
            "lon": 9.1819523,
            "timestamp": "2024-03-13T01:18:00Z",
            "version": 3,
            "changeset": 148572402,
            "user": "Rockedf",
            "uid": 7522075,
            "tags": {
                "addr:city": "Milano",
                "addr:housenumber": "22",
                "addr:postcode": "20159",
                "addr:street": "Via Carlo Imbonati",
                "amenity": "restaurant",
                "check_date": "2024-03-12",
                "contact:facebook": "https://www.facebook.com/MammaFarina/",
                "contact:instagram": "https://www.instagram.com/mammafarinamilano/",
                "currency:XBT": "yes",
                "name": "Mamma Farina",
                "opening_hours": "Mo-Fr 12:00-15:30,19:00-23:00; Sa 19:00-23:30",
                "payment:lightning": "yes",
                "payment:lightning_contactless": "no",
                "payment:onchain": "yes",
                "website": "https://www.mammafarina.it/"
            }
        },
        {
            "type": "node",
            "id": 7139715638,
            "lat": 45.4687483,
            "lon": 9.1526145,
            "timestamp": "2024-03-20T18:29:35Z",
            "version": 3,
            "changeset": 148928694,
            "user": "Chiarant",
            "uid": 18452174,
            "tags": {
                "addr:city": "Milano",
                "addr:housenumber": "14",
                "addr:street": "Via Raffaello Sanzio",
                "amenity": "restaurant",
                "check_date": "2024-03-20",
                "currency:XBT": "yes",
                "email": "sanzio@organya.it",
                "name": "Organya - The Italian Bowl",
                "phone": "+39  02 38316982",
                "website": "https://www.organya.it/"
            }
        },
        {
            "type": "node",
            "id": 7206271085,
            "lat": 45.4836041,
            "lon": 9.2301553,
            "timestamp": "2024-06-11T20:19:45Z",
            "version": 6,
            "changeset": 152560504,
            "user": "Rockedf",
            "uid": 7522075,
            "tags": {
                "addr:city": "Milano",
                "addr:housenumber": "12",
                "addr:postcode": "20131",
                "addr:street": "Via Teodosio",
                "amenity": "atm",
                "branch": "Milano",
                "cash_in": "yes",
                "cash_out": "yes",
                "cash_withdrawal": "yes",
                "check_date": "2024-01-03",
                "contact:email": "support@shitcoins.club",
                "contact:facebook": "https://www.facebook.com/shitcoins.club",
                "contact:instagram": "https://www.instagram.com/shitcoinsclub",
                "contact:telegram": "https://t.me/shitcoinsclub",
                "contact:twitter": "https://twitter.com/BitomatCom",
                "currency:CHF": "yes",
                "currency:DASH": "yes",
                "currency:ETH": "yes",
                "currency:EUR": "yes",
                "currency:GBP": "yes",
                "currency:HUF": "yes",
                "currency:LTC": "yes",
                "currency:RON": "yes",
                "currency:USD": "yes",
                "currency:USDC": "yes",
                "currency:USDT": "yes",
                "currency:XBT": "yes",
                "indoor": "yes",
                "level": "0",
                "name": "Bitcoin ATM - Shitcoins.club",
                "opening_hours": "24/7",
                "operator": "Shitcoins.club",
                "payment:cash": "yes",
                "payment:onchain": "yes",
                "phone": "+39 34 8048 7308",
                "start_date": "2019-12-18",
                "url": "https://coinatmradar.com/bitcoin_atm/10875/bitcoin-atm-shitcoins-club-milan-punto-atm-bitcoin/",
                "website": "https://shitcoins.club/localizzazione-atm/atm-bitcoin-milano-via-teodosio"
            }
        },
        {
            "type": "node",
            "id": 7985349866,
            "lat": 45.4312724,
            "lon": 9.2017584,
            "timestamp": "2024-04-14T08:27:09Z",
            "version": 4,
            "changeset": 149981162,
            "user": "Chiarant",
            "uid": 18452174,
            "tags": {
                "addr:city": "Milano",
                "addr:housenumber": "207",
                "addr:postcode": "20141",
                "addr:street": "Via Giuseppe Ripamonti",
                "amenity": "atm",
                "check_date": "2024-04-14",
                "currency:XBT": "yes",
                "description": "Bitcoin ATM che permette di acquistare Bitcoin, Ethereum, Litecoin, Dogecoin, Bitcoin Cash, Dash, Monero. L'ATM \u00e8 situato all'interno del negozio Euroumby SAS.",
                "email": "support@cryptolocalatm.com",
                "name": "CryptoLocalATM C/o Euroumby SAS",
                "website": "https://cryptolocalatm.com"
            }
        },
        {
            "type": "node",
            "id": 8419981910,
            "lat": 45.4671186,
            "lon": 9.1588398,
            "timestamp": "2024-02-19T04:34:23Z",
            "version": 6,
            "changeset": 147632920,
            "user": "Igor Bubelov",
            "uid": 2104834,
            "tags": {
                "addr:city": "Milano",
                "addr:country": "IT",
                "addr:housenumber": "6a",
                "addr:postcode": "20145",
                "addr:street": "Via Belfiore",
                "check_date": "2023-03-27",
                "check_date:opening_hours": "2023-02-12",
                "clothes": "men",
                "currency:XBT": "yes",
                "name": "Doppelg\u00e4nger",
                "opening_hours": "Mo-Su 10:00-20:00",
                "opening_hours:signed": "no",
                "payment:lightning": "no",
                "payment:lightning_contactless": "no",
                "payment:onchain": "yes",
                "phone": "02437237",
                "shop": "clothes"
            }
        },
        {
            "type": "node",
            "id": 8460786530,
            "lat": 45.5222014,
            "lon": 9.2164337,
            "timestamp": "2024-04-20T11:31:18Z",
            "version": 5,
            "changeset": 150258952,
            "user": "Igor Bubelov",
            "uid": 2104834,
            "tags": {
                "amenity": "atm",
                "cash_in": "yes",
                "check_date": "2024-04-20",
                "covered": "yes",
                "currency:XBT": "yes",
                "drive_through": "no",
                "indoor": "yes",
                "level": "1",
                "operator": "shitcoins.club",
                "website": "https://shitcoins.club/localizzazione-atm/atm-bitcoin-milano-bicocca-village",
                "wikimedia_commons": "File:Bitcoin ATM in Bicocca Village.jpg"
            }
        },
        {
            "type": "node",
            "id": 8661356185,
            "lat": 45.4711281,
            "lon": 9.1562621,
            "timestamp": "2023-02-26T10:50:54Z",
            "version": 3,
            "changeset": 133036844,
            "user": "perpetual nomad",
            "uid": 17199501,
            "tags": {
                "addr:city": "Milano",
                "addr:housenumber": "5",
                "addr:street": "Via Tiziano",
                "amenity": "bar",
                "check_date:currency:XBT": "2023-02-26",
                "currency:XBT": "yes",
                "name": "Bar Ros"
            }
        },
        {
            "type": "node",
            "id": 8820954622,
            "lat": 45.4728829,
            "lon": 9.2139454,
            "timestamp": "2024-04-14T08:30:41Z",
            "version": 4,
            "changeset": 149981288,
            "user": "Chiarant",
            "uid": 18452174,
            "tags": {
                "addr:city": "Milano",
                "addr:housenumber": "47",
                "addr:postcode": "20129",
                "addr:street": "Via Nino Bixio",
                "amenity": "atm",
                "check_date": "2024-04-14",
                "currency:XBT": "yes",
                "description": "Bitcoin ATM che permette di acquistare Bitcoin, Ethereum, Litecoin, Dogecoin, Bitcoin Cash, Dash, Monero. L'ATM \u00e8 situato all'interno del negozio WOWBIT.",
                "email": "support@cryptolocalatm.com",
                "name": "CryptoLocalATM c/o WOWBIT",
                "payment:onchain": "yes",
                "phone": "+447894438974",
                "website": "https://cryptolocalatm.com"
            }
        },
        {
            "type": "node",
            "id": 8953557082,
            "lat": 45.4536509,
            "lon": 9.2001468,
            "timestamp": "2024-01-06T17:40:12Z",
            "version": 4,
            "changeset": 145965647,
            "user": "descubrebitcoin",
            "uid": 17565129,
            "tags": {
                "addr:city": "Milano",
                "addr:housenumber": "114",
                "addr:postcode": "20122",
                "addr:street": "Corso di Porta Romana",
                "beauty": "nails",
                "check_date": "2022-12-08",
                "currency:XBT": "yes",
                "name": "Seta Beauty",
                "opening_hours": "Mo-Tu 09:30-20:00; We-Fr 08:00-20:00, Sa 08:00-19:00",
                "payment:lightning": "yes",
                "payment:onchain": "yes",
                "phone": "+390236576527",
                "shop": "beauty"
            }
        },
        {
            "type": "node",
            "id": 9308132564,
            "lat": 45.4931467,
            "lon": 9.1913046,
            "timestamp": "2024-04-14T08:40:00Z",
            "version": 4,
            "changeset": 149981629,
            "user": "Chiarant",
            "uid": 18452174,
            "tags": {
                "addr:city": "Milano",
                "addr:housenumber": "16",
                "addr:postcode": "20159",
                "addr:street": "Viale Stelvio",
                "amenity": "atm",
                "check_date": "2024-04-14",
                "currency:XBT": "yes",
                "description": "Bitcoin ATM che permette di acquistare Bitcoin, Ethereum, Litecoin, Dogecoin, Bitcoin Cash, Dash, Monero, Dai, Ripple e USDT. L'ATM \u00e8 situato all'interno dell'azienda CR CONSULER SERVICE",
                "email": "support@cryptolocalatm.com",
                "name": "CryptoLocalATM c/o CR Consuler Services",
                "payment:onchain": "yes",
                "phone": "+447894438974",
                "website": "https://cryptolocalatm.com"
            }
        },
        {
            "type": "node",
            "id": 9461841472,
            "lat": 45.4375121,
            "lon": 9.1587881,
            "timestamp": "2024-05-16T11:46:45Z",
            "version": 2,
            "changeset": 151404081,
            "user": "Chiarant",
            "uid": 18452174,
            "tags": {
                "addr:city": "Milano",
                "addr:housenumber": "31",
                "addr:postcode": "20142",
                "addr:street": "Viale Famagosta",
                "check_date": "2024-05-16",
                "currency:XBT": "yes",
                "name": "Mozzarellino",
                "phone": "+39  02 35983530",
                "shop": "cheese",
                "survey:date": "2022-01-27"
            }
        },
        {
            "type": "node",
            "id": 9830606783,
            "lat": 45.4619866,
            "lon": 9.207853,
            "timestamp": "2024-01-25T09:48:40Z",
            "version": 4,
            "changeset": 146665386,
            "user": "Igor Bubelov",
            "uid": 2104834,
            "tags": {
                "addr:city": "Milano",
                "addr:housenumber": "10",
                "addr:postcode": "20129",
                "addr:street": "Piazza Cinque Giornate",
                "check_date": "2023-03-27",
                "clothes": "men",
                "currency:XBT": "yes",
                "name": "Doppleg\u00e4nger",
                "payment:lightning": "no",
                "payment:lightning_contactless": "no",
                "payment:onchain": "yes",
                "phone": "0255013691",
                "shop": "clothes",
                "wheelchair": "limited"
            }
        },
        {
            "type": "node",
            "id": 10126022945,
            "lat": 45.4548702,
            "lon": 9.173021,
            "timestamp": "2023-02-19T12:48:41Z",
            "version": 5,
            "changeset": 132745851,
            "user": "Valerio_Bozzolan",
            "uid": 1875845,
            "tags": {
                "addr:city": "Milano",
                "addr:housenumber": "1",
                "addr:postcode": "20144",
                "addr:street": "Viale Gorizia",
                "check_date:currency:XBT": "2022-12-08",
                "currency:XBT": "yes",
                "name": "Seta Beauty",
                "opening_hours": "Mo-Fr 09:30-20:00, Sa 08:00-20:00",
                "payment:lightning": "yes",
                "payment:onchain": "yes",
                "phone": "+390236584172",
                "shop": "beauty",
                "wheelchair": "limited"
            }
        },
        {
            "type": "node",
            "id": 10155364925,
            "lat": 45.7020082,
            "lon": 9.1155577,
            "timestamp": "2024-02-17T06:33:18Z",
            "version": 6,
            "changeset": 147558186,
            "user": "Igor Bubelov",
            "uid": 2104834,
            "tags": {
                "addr:city": "Carimate",
                "addr:housenumber": "4",
                "addr:postcode": "22060",
                "addr:street": "piazza castello",
                "check_date": "2023-05-26",
                "currency:XBT": "yes",
                "name": "Studio Interior Design Cappelletti Gabriele",
                "office": "interior_design",
                "phone": "+39 031791264",
                "website": "https://www.cappellettiarchitetti.com/"
            }
        },
        {
            "type": "node",
            "id": 10247805662,
            "lat": 45.4754583,
            "lon": 9.2141064,
            "timestamp": "2023-12-04T14:08:59Z",
            "version": 2,
            "changeset": 144756387,
            "user": "kauevestena",
            "uid": 2052228,
            "tags": {
                "addr:city": "Milano",
                "addr:country": "IT",
                "addr:housenumber": "18",
                "addr:postcode": "20129",
                "addr:street": "Via Achille Maiocchi",
                "check_date": "2022-12-08",
                "currency:XBT": "yes",
                "name": "Seta Beauty",
                "opening_hours": "Mo-Fr 09:30-20:00, Sa 09:00-18:00",
                "payment:lightning": "yes",
                "payment:onchain": "yes",
                "phone": "+393756370903",
                "shop": "beauty",
                "website": "http://setabeauty.com/index.php",
                "wheelchair": "no"
            }
        },
        {
            "type": "node",
            "id": 10247805663,
            "lat": 45.4675295,
            "lon": 9.2138636,
            "timestamp": "2023-11-07T09:57:32Z",
            "version": 2,
            "changeset": 143728702,
            "user": "b-jazz-bot",
            "uid": 9451067,
            "tags": {
                "addr:city": "Milano",
                "addr:country": "IT",
                "addr:housenumber": "14",
                "addr:postcode": "20129",
                "addr:street": "Corso Indipendenza",
                "check_date": "2022-12-08",
                "currency:XBT": "yes",
                "name": "Seta Beauty",
                "opening_hours": "Mo-Tu 09:30-20:00; Fr, We 08:00-20:00; Sa 08:00-19:00",
                "payment:lightning": "yes",
                "payment:onchain": "yes",
                "phone": "+393208659232",
                "shop": "beauty",
                "website": "https://setabeauty.com/"
            }
        },
        {
            "type": "node",
            "id": 10271499562,
            "lat": 45.6182477,
            "lon": 9.0807281,
            "timestamp": "2024-02-09T23:50:22Z",
            "version": 2,
            "changeset": 147277075,
            "user": "fick89",
            "uid": 1781586,
            "tags": {
                "addr:city": "Solaro",
                "addr:housenumber": "2",
                "addr:postcode": "20020",
                "addr:street": "Via Varese",
                "check_date": "2022-12-18",
                "currency:XBT": "yes",
                "mobile": "+393757842955",
                "name": "Nexxtgen",
                "opening_hours": "Mo 10:00-13:00, 15:30-19:30; Tu 15:30-19:30; We 09:30-12:30, 15:30-19:30; Th-Sa 09:30-12:30, 15:00-19:30; Su off",
                "operator": "Nexxtgen S.N.C.",
                "payment:lightning": "yes",
                "payment:onchain": "yes",
                "phone": "+390299768620",
                "shop": "telecommunication",
                "website": "https://nexxtgen-snc-fastweb-vodafone-windtre-iliad-sky-luce-e-gas.business.site/"
            }
        },
        {
            "type": "node",
            "id": 10273256949,
            "lat": 45.4434479,
            "lon": 9.1710005,
            "timestamp": "2023-05-24T08:08:10Z",
            "version": 2,
            "changeset": 136486340,
            "user": "paulbrunner",
            "uid": 15541433,
            "tags": {
                "addr:city": "Milano",
                "addr:housenumber": "24",
                "addr:postcode": "20143",
                "addr:street": "Viale Liguria",
                "check_date": "2022-12-19",
                "currency:XBT": "yes",
                "name": "Studio Brega",
                "office": "accountant",
                "opening_hours": "Mo-Fr 09:00-12:30,14:30-19:00",
                "payment:lightning": "yes",
                "payment:onchain": "yes",
                "phone": "+39038542259",
                "website": "https://www.studiobrega.it/"
            }
        },
        {
            "type": "node",
            "id": 10275637372,
            "lat": 45.7485649,
            "lon": 9.2773904,
            "timestamp": "2022-12-20T12:31:55Z",
            "version": 1,
            "changeset": 130288824,
            "user": "saunter",
            "uid": 10396321,
            "tags": {
                "check_date": "2022-12-20",
                "currency:XBT": "yes",
                "man_made": "works",
                "name": "Clean Air Europe S.R.L.",
                "payment:lightning": "yes",
                "payment:onchain": "yes",
                "website": "https://www.cleanairworld.it/index.php/it/"
            }
        },
        {
            "type": "node",
            "id": 10275645027,
            "lat": 45.6103183,
            "lon": 9.089132,
            "timestamp": "2023-06-04T23:07:17Z",
            "version": 3,
            "changeset": 136950126,
            "user": "paulbrunner",
            "uid": 15541433,
            "tags": {
                "addr:city": "Solaro",
                "addr:housenumber": "3",
                "addr:postcode": "20033",
                "addr:street": "Via della Repubblica",
                "amenity": "restaurant",
                "check_date": "2022-12-20",
                "contact:facebook": "https://www.facebook.com/people/Pizzeria-da-MIKE/100063618574875/",
                "cuisine": "pizza",
                "currency:XBT": "yes",
                "name": "Pizzeria da MIKE",
                "opening_hours": "Tu-Sa 11:30-13:00,18:30-21:00",
                "payment:cash": "yes",
                "payment:lightning": "yes",
                "payment:onchain": "yes",
                "phone": "+393395776396",
                "website": "https://pizzeria-da-mike.business.site/"
            }
        },
        {
            "type": "node",
            "id": 10296649679,
            "lat": 45.4642318,
            "lon": 9.1892532,
            "timestamp": "2022-12-31T11:50:50Z",
            "version": 1,
            "changeset": 130717474,
            "user": "BSN21M",
            "uid": 17441326,
            "tags": {
                "addr:city": "Milano",
                "addr:postcode": "20123",
                "addr:street": "Piazza del Duomo",
                "check_date:currency:XBT": "2022-12-31",
                "contact:instagram": "https://bio.site/Gk76QF",
                "craft": "photographer",
                "currency:XBT": "yes",
                "email": "anademartinoph@gmail.com",
                "name": "Ana de Martino Photography",
                "payment:lightning": "yes",
                "payment:lightning_contactless": "no",
                "payment:onchain": "yes",
                "website": "https://bio.site/Gk76QF"
            }
        },
        {
            "type": "node",
            "id": 10748866710,
            "lat": 45.4735691,
            "lon": 9.13399,
            "timestamp": "2024-02-25T09:12:45Z",
            "version": 4,
            "changeset": 147881881,
            "user": "aa30mom",
            "uid": 13840929,
            "tags": {
                "addr:city": "Milano",
                "addr:housenumber": "73",
                "addr:postcode": "20153",
                "addr:street": "Via Pier Alessandro Paravia",
                "check_date": "2023-03-20",
                "club": "sport",
                "contact:facebook": "https://www.facebook.com/thiagocapoeiramilano",
                "currency:XBT": "yes",
                "description": "School of Capoeira in Milan",
                "email": "info@capoeiramilano.it",
                "leisure": "sports_centre",
                "name": "Capoeira School - Professor Thiago - Capoeira Sul da Bahia",
                "payment:lightning": "yes",
                "payment:lightning_contactless": "yes",
                "payment:onchain": "yes",
                "phone": "+393518585180",
                "sport": "capoeira",
                "website": "https://www.capoeiramilano.it/"
            }
        },
        {
            "type": "node",
            "id": 10765750238,
            "lat": 45.4446133,
            "lon": 9.1546949,
            "timestamp": "2023-08-01T12:10:39Z",
            "version": 4,
            "changeset": 139297426,
            "user": "Igor Bubelov",
            "uid": 2104834,
            "tags": {
                "addr:city": "Milano",
                "addr:housenumber": "4",
                "addr:postcode": "20143",
                "addr:street": "Via Giacomo Watt",
                "check_date": "2023-03-27",
                "craft": "photographer",
                "currency:XBT": "yes",
                "name": "Larix Studio",
                "opening_hours": "\"by appointment\"",
                "payment:lightning": "yes",
                "payment:lightning_contactless": "yes",
                "payment:onchain": "yes",
                "website": "https://enricotabacchi.it/"
            }
        },
        {
            "type": "node",
            "id": 10768366442,
            "lat": 45.4742304,
            "lon": 9.1411054,
            "timestamp": "2023-03-28T10:34:40Z",
            "version": 1,
            "changeset": 134214134,
            "user": "inbitcoin",
            "uid": 4533749,
            "tags": {
                "addr:city": "Milano",
                "addr:housenumber": "6",
                "addr:postcode": "20148",
                "addr:street": "Piazza Monte Falterona",
                "beauty": "nails",
                "check_date:currency:XBT": "2023-03-28",
                "currency:XBT": "yes",
                "name": "Alice Beauty",
                "payment:bitcoin:operator": "bitcoinpos.it",
                "payment:onchain": "yes",
                "phone": "02406210",
                "shop": "beauty"
            }
        },
        {
            "type": "node",
            "id": 10788155081,
            "lat": 45.6205028,
            "lon": 9.4737745,
            "timestamp": "2023-08-21T14:24:38Z",
            "version": 3,
            "changeset": 140185299,
            "user": "Aiman",
            "uid": 67550,
            "tags": {
                "addr:city": "Busnago",
                "addr:housenumber": "197",
                "addr:postcode": "20874",
                "addr:street": "Via Italia",
                "check_date:currency:XBT": "2023-05-13",
                "clothes": "men",
                "currency:XBT": "yes",
                "fixme": "da controllare, sembra che non esiste",
                "name": "DOPPELG\u00c4NGER",
                "payment:lightning": "no",
                "payment:lightning_contactless": "no",
                "payment:onchain": "yes",
                "phone": "+39 039 695 6928",
                "shop": "clothes"
            }
        },
        {
            "type": "node",
            "id": 10788404140,
            "lat": 45.5191876,
            "lon": 9.1489041,
            "timestamp": "2023-08-04T10:29:48Z",
            "version": 3,
            "changeset": 139434735,
            "user": "Igor Bubelov",
            "uid": 2104834,
            "tags": {
                "addr:city": "Novate Milanese",
                "addr:housenumber": "1",
                "addr:postcode": "20026",
                "addr:street": "Via Carlo Amoretti",
                "check_date": "2023-04-05",
                "clothes": "men",
                "currency:XBT": "yes",
                "name": "Nuvolari c.c. Metropoli",
                "payment:lightning": "no",
                "payment:lightning_contactless": "no",
                "payment:onchain": "yes",
                "phone": "023552337",
                "shop": "clothes",
                "website": "https://www.centrometropoli.net/nuvolari/"
            }
        },
        {
            "type": "node",
            "id": 10797740383,
            "lat": 45.5845323,
            "lon": 9.4159209,
            "timestamp": "2023-04-27T14:38:21Z",
            "version": 2,
            "changeset": 135431496,
            "user": "jmann6",
            "uid": 668096,
            "tags": {
                "addr:city": "Cavenago di Brianza",
                "addr:housenumber": "12",
                "addr:postcode": "20873",
                "addr:street": "Piazza Libert\u00e0",
                "check_date:currency:XBT": "2023-04-27",
                "currency:XBT": "yes",
                "description": "Progettazione, Certificazione energetica, coordinamento della sicurezza, sanatorie, pratiche catastale",
                "name": "Geom. Pietro Ditroia",
                "office": "architect",
                "opening_hours": "Mo-Fr 09:00-18:00",
                "payment:lightning": "yes",
                "payment:lightning_contactless": "no",
                "payment:onchain": "yes",
                "phone": "+39 393 879 7471",
                "website": "https://www.pietroditroiageometra.com/"
            }
        },
        {
            "type": "node",
            "id": 10840032354,
            "lat": 45.7261155,
            "lon": 9.2858882,
            "timestamp": "2024-01-02T11:49:21Z",
            "version": 4,
            "changeset": 145794666,
            "user": "Stemby",
            "uid": 28559,
            "tags": {
                "addr:city": "Renate",
                "addr:housenumber": "4",
                "addr:postcode": "20838",
                "addr:street": "Via Fratelli Bandiera",
                "amenity": "music_school",
                "check_date": "2024-01-02",
                "contact:facebook": "https://www.facebook.com/associazioneadlibitum.it/",
                "contact:phone": "+39 333 4200593",
                "contact:website": "http://associazioneadlibitum.it",
                "currency:XBT": "yes",
                "level": "0",
                "name": "Scuola di musica di Renate",
                "operator": "Associazione musicale e culturale \"Ad libitum\"",
                "payment:lightning": "yes",
                "payment:onchain": "yes",
                "wheelchair": "no"
            }
        },
        {
            "type": "node",
            "id": 11033018168,
            "lat": 45.4600171,
            "lon": 9.1478308,
            "timestamp": "2023-07-07T18:01:03Z",
            "version": 1,
            "changeset": 138239105,
            "user": "Chiarant",
            "uid": 18452174,
            "tags": {
                "addr:city": "Milano",
                "addr:housenumber": "22",
                "addr:postcode": "20146",
                "addr:street": "Piazzale Tripoli",
                "check_date": "2023-07-07",
                "currency:XBT": "yes",
                "name": "Ecotaurus - Noleggio Bagni Chimici",
                "shop": "yes",
                "website": "https://www.ecotaurus.it/"
            }
        },
        {
            "type": "node",
            "id": 11232198302,
            "lat": 45.4729189,
            "lon": 9.2351923,
            "timestamp": "2023-10-11T11:39:52Z",
            "version": 5,
            "changeset": 142432960,
            "user": "descubrebitcoin",
            "uid": 17565129,
            "tags": {
                "addr:city": "Milano",
                "addr:housenumber": "2",
                "addr:postcode": "20133",
                "addr:street": "Largo Oreste Murani",
                "amenity": "bar",
                "currency:XBT": "yes",
                "name": "Bar Taita",
                "opening_hours": "Mo-Fr 06:00-19:00; Sa 06:00-14:00",
                "payment:cards": "yes",
                "payment:cash": "yes",
                "payment:lightning": "yes",
                "payment:lightning_contactless": "no",
                "payment:onchain": "no",
                "payment:satispay": "yes",
                "phone": "+39 338 692 3799",
                "survey:date": "2023-10-05"
            }
        },
        {
            "type": "node",
            "id": 11331131338,
            "lat": 45.466885,
            "lon": 9.1520127,
            "timestamp": "2023-11-07T13:34:47Z",
            "version": 1,
            "changeset": 143737619,
            "user": "Chiarant",
            "uid": 18452174,
            "tags": {
                "addr:city": "Milano",
                "addr:housenumber": "24",
                "addr:postcode": "20149",
                "addr:street": "Via Marghera",
                "amenity": "fast_food",
                "check_date": "2023-11-07",
                "cuisine": "kebab",
                "currency:XBT": "yes",
                "name": "Kebhouze - Marghera",
                "payment:lightning": "yes",
                "payment:lightning_contactless": "yes",
                "payment:onchain": "yes",
                "website": "https://kebhouze.com/"
            }
        },
        {
            "type": "node",
            "id": 11357948821,
            "lat": 45.461258,
            "lon": 9.2095498,
            "timestamp": "2024-02-19T04:28:43Z",
            "version": 3,
            "changeset": 147632781,
            "user": "Igor Bubelov",
            "uid": 2104834,
            "tags": {
                "addr:city": "Milano",
                "addr:housenumber": "7",
                "addr:postcode": "20135",
                "addr:street": "Via Amatore Sciesa",
                "amenity": "fast_food",
                "check_date": "2023-11-17",
                "cuisine": "kebab",
                "currency:XBT": "yes",
                "name": "Kebhouze - Cinque Giornate",
                "payment:lightning": "yes",
                "payment:lightning_contactless": "yes",
                "payment:onchain": "yes",
                "website": "https://kebhouze.com/"
            }
        },
        {
            "type": "node",
            "id": 11357967715,
            "lat": 45.5132406,
            "lon": 9.0995912,
            "timestamp": "2024-02-23T12:01:05Z",
            "version": 4,
            "changeset": 147809039,
            "user": "Igor Bubelov",
            "uid": 2104834,
            "tags": {
                "addr:city": "Milano",
                "addr:housenumber": "24",
                "addr:postcode": "20149",
                "addr:street": "Via Gottlieb Wilhelm Daimler",
                "amenity": "fast_food",
                "branch": "Merlata Bloom",
                "brand": "Kebhouze",
                "check_date": "2023-11-17",
                "contact:website": "https://kebhouze.com/",
                "cuisine": "kebab",
                "currency:XBT": "yes",
                "level": "0",
                "name": "Kebhouze",
                "payment:lightning": "yes",
                "payment:lightning_contactless": "yes",
                "payment:onchain": "yes"
            }
        },
        {
            "type": "node",
            "id": 11419984446,
            "lat": 45.4526855,
            "lon": 9.2100717,
            "timestamp": "2024-02-22T11:41:30Z",
            "version": 2,
            "changeset": 147769261,
            "user": "Igor Bubelov",
            "uid": 2104834,
            "tags": {
                "addr:city": "Milano",
                "addr:housenumber": "10",
                "addr:postcode": "20135",
                "addr:street": "Via Sigieri",
                "amenity": "bar",
                "check_date": "2023-12-15",
                "currency:XBT": "yes",
                "description": "Bar diurno aperto dalle 7:00 alle 22:00. Chiuso la Domenica.",
                "email": "ncretella@outlook.it",
                "name": "Leyla Food & Drink",
                "phone": "+39 3287053652"
            }
        },
        {
            "type": "node",
            "id": 11471372956,
            "lat": 45.5291844,
            "lon": 9.0436866,
            "timestamp": "2024-02-24T05:02:11Z",
            "version": 5,
            "changeset": 147841450,
            "user": "Igor Bubelov",
            "uid": 2104834,
            "tags": {
                "addr:city": "Rho",
                "addr:housenumber": "52",
                "addr:postcode": "20017",
                "addr:street": "Via Giacomo Matteotti",
                "check_date": "2023-12-31",
                "currency:XBT": "yes",
                "email": "antoniof.gestione@gmail.com",
                "internet_access": "wlan",
                "internet_access:fee": "no",
                "name": "casa vacanze - rho fiera (centro di rho)",
                "operator": "antonio",
                "payment:american_express": "yes",
                "payment:cards": "yes",
                "payment:cash": "yes",
                "payment:coins": "yes",
                "payment:contactless": "yes",
                "payment:credit_cards": "yes",
                "payment:cryptocurrencies": "yes",
                "payment:debit_cards": "yes",
                "payment:ethereum": "yes",
                "payment:lightning": "yes",
                "payment:maestro": "yes",
                "payment:mastercard": "yes",
                "payment:notes": "yes",
                "payment:onchain": "yes",
                "payment:visa": "yes",
                "phone": "+39 3420128164",
                "reservation": "required",
                "rooms": "3",
                "tourism": "apartment"
            }
        },
        {
            "type": "node",
            "id": 11478770391,
            "lat": 45.7242169,
            "lon": 9.2786869,
            "timestamp": "2024-01-02T12:52:06Z",
            "version": 1,
            "changeset": 145796815,
            "user": "Stemby",
            "uid": 28559,
            "tags": {
                "addr:city": "Renate",
                "addr:housenumber": "80",
                "addr:postcode": "20838",
                "addr:street": "Via Umberto I",
                "check_date": "2024-01-02",
                "contact:facebook": "https://www.facebook.com/associazioneadlibitum.it/",
                "contact:phone": "+39 333 4200593",
                "contact:website": "http://associazioneadlibitum.it/",
                "currency:XBT": "yes",
                "name": "Associazione Ad libitum",
                "office": "association",
                "operator": "Associazione musicale e culturale \"Ad libitum\"",
                "payment:lightning": "yes",
                "payment:onchain": "yes"
            }
        },
        {
            "type": "node",
            "id": 11670308721,
            "lat": 45.4628908,
            "lon": 9.1870628,
            "timestamp": "2024-03-21T15:54:45Z",
            "version": 5,
            "changeset": 148971159,
            "user": "aa30mom",
            "uid": 13840929,
            "tags": {
                "addr:city": "Milano",
                "addr:housenumber": "20",
                "addr:postcode": "20123",
                "addr:street": "Via Torino",
                "check_date": "2024-03-06",
                "contact:facebook": "https://www.facebook.com/boutiquedelgioiello/",
                "contact:phone": "+39 02 86461726",
                "contact:website": "https://www.boutiquedelgioiello.it/",
                "currency:XBT": "yes",
                "name": "Boutique del Gioiello",
                "opening_hours": "Mo 14:00-19:00; Tu-Sa 10:00-19:00",
                "payment:american_express": "yes",
                "payment:bancomat": "yes",
                "payment:cash": "yes",
                "payment:lightning": "yes",
                "payment:lightning_contactless": "yes",
                "payment:mastercard": "yes",
                "payment:onchain": "yes",
                "payment:visa": "yes",
                "ref:vatin": "IT06093180153",
                "shop": "jewelry",
                "wheelchair": "yes"
            }
        },
        {
            "type": "node",
            "id": 11697369298,
            "lat": 45.4506071,
            "lon": 9.1968048,
            "timestamp": "2024-03-06T12:58:59Z",
            "version": 1,
            "changeset": 148293884,
            "user": "Chiarant",
            "uid": 18452174,
            "tags": {
                "addr:city": "Milano",
                "addr:housenumber": "40",
                "addr:postcode": "20136",
                "addr:street": "Via Salasco",
                "beauty": "hair",
                "check_date": "2024-03-06",
                "currency:XBT": "yes",
                "name": "Bellezza Studio",
                "phone": "+39 02 62063142",
                "shop": "beauty",
                "website": "https://www.bellezzastudio.eu/"
            }
        },
        {
            "type": "node",
            "id": 11808165663,
            "lat": 45.5081589,
            "lon": 9.1335392,
            "timestamp": "2024-04-10T20:24:46Z",
            "version": 1,
            "changeset": 149838119,
            "user": "Rockedf",
            "uid": 7522075,
            "tags": {
                "addr:city": "Milano",
                "addr:housenumber": "22",
                "addr:postcode": "20157",
                "addr:street": "Via Antonio Mambretti",
                "check_date": "2024-04-10",
                "currency:XBT": "yes",
                "guest_house": "guest_house",
                "name": "Cesco's Home - Milano Certosa - Fiera",
                "payment:lightning": "yes",
                "payment:lightning_contactless": "no",
                "payment:onchain": "yes",
                "phone": "+39 33 3273 6528",
                "tourism": "apartment",
                "website": "https://zamperlinfrancesco.wixsite.com/cesco-s-home"
            }
        },
        {
            "type": "node",
            "id": 11926113163,
            "lat": 45.5223721,
            "lon": 9.2153456,
            "timestamp": "2024-06-11T20:15:56Z",
            "version": 3,
            "changeset": 152560390,
            "user": "Rockedf",
            "uid": 7522075,
            "tags": {
                "addr:city": "Milano",
                "addr:postcode": "20126",
                "addr:street": "Viale Sarca, angolo via Chiese",
                "amenity": "atm",
                "cash_in": "yes",
                "cash_out": "yes",
                "cash_withdrawal": "yes",
                "check_date": "2024-05-22",
                "contact:email": "support@shitcoins.club",
                "contact:facebook": "https://www.facebook.com/shitcoins.club",
                "contact:instagram": "https://www.instagram.com/shitcoinsclub",
                "contact:telegram": "https://t.me/shitcoinsclub",
                "contact:twitter": "https://twitter.com/BitomatCom",
                "currency:CHF": "yes",
                "currency:DASH": "yes",
                "currency:ETH": "yes",
                "currency:EUR": "yes",
                "currency:GBP": "yes",
                "currency:HUF": "yes",
                "currency:LTC": "yes",
                "currency:RON": "yes",
                "currency:USD": "yes",
                "currency:USDC": "yes",
                "currency:USDT": "yes",
                "currency:XBT": "yes",
                "indoor": "yes",
                "name": "Bitcoin ATM - Shitcoins.club",
                "opening_hours": "Mo-Su 07:00-00:00",
                "operator": "Shitcoins.club",
                "payment:cash": "yes",
                "payment:lightning": "no",
                "payment:lightning_contactless": "no",
                "payment:onchain": "yes",
                "phone": "+39 34 8048 7308",
                "website": "https://shitcoins.club/localizzazione-atm/atm-bitcoin-milano-bicocca-village"
            }
        },
        {
            "type": "node",
            "id": 11926366152,
            "lat": 45.4703906,
            "lon": 9.1400807,
            "timestamp": "2024-06-11T20:17:42Z",
            "version": 3,
            "changeset": 152560449,
            "user": "Rockedf",
            "uid": 7522075,
            "tags": {
                "addr:city": "Milano",
                "addr:housenumber": "21",
                "addr:postcode": "20148",
                "addr:street": "Via Daniele Ricciarelli",
                "amenity": "atm",
                "cash_in": "yes",
                "cash_out": "yes",
                "cash_withdrawal": "yes",
                "check_date": "2024-05-22",
                "contact:email": "support@shitcoins.club",
                "contact:facebook": "https://www.facebook.com/shitcoins.club",
                "contact:instagram": "https://www.instagram.com/shitcoinsclub",
                "contact:telegram": "https://t.me/shitcoinsclub",
                "contact:twitter": "https://twitter.com/BitomatCom",
                "currency:CHF": "yes",
                "currency:DASH": "yes",
                "currency:ETH": "yes",
                "currency:EUR": "yes",
                "currency:GBP": "yes",
                "currency:HUF": "yes",
                "currency:LTC": "yes",
                "currency:RON": "yes",
                "currency:USD": "yes",
                "currency:USDC": "yes",
                "currency:USDT": "yes",
                "currency:XBT": "yes",
                "indoor": "yes",
                "name": "Bitcoin ATM - Shitcoins.club",
                "opening_hours": "24/7",
                "operator": "Shitcoins.club",
                "payment:cash": "yes",
                "payment:lightning": "no",
                "payment:lightning_contactless": "no",
                "payment:onchain": "yes",
                "phone": "+39 34 8048 7308",
                "website": "https://shitcoins.club/localizzazione-atm/atm-bitcoin-milano-ricciarelli"
            }
        },
        {
            "type": "node",
            "id": 11926560044,
            "lat": 45.5742949,
            "lon": 9.1799422,
            "timestamp": "2024-06-11T20:20:52Z",
            "version": 3,
            "changeset": 152560541,
            "user": "Rockedf",
            "uid": 7522075,
            "tags": {
                "addr:city": "Paderno Dugnano",
                "addr:housenumber": "35",
                "addr:postcode": "20037",
                "addr:street": "Via Strada Statale",
                "amenity": "atm",
                "cash_in": "yes",
                "cash_out": "yes",
                "cash_withdrawal": "yes",
                "check_date": "2024-05-22",
                "contact:email": "support@shitcoins.club",
                "contact:facebook": "https://www.facebook.com/shitcoins.club",
                "contact:instagram": "https://www.instagram.com/shitcoinsclub",
                "contact:telegram": "https://t.me/shitcoinsclub",
                "contact:twitter": "https://twitter.com/BitomatCom",
                "currency:CHF": "yes",
                "currency:DASH": "yes",
                "currency:ETH": "yes",
                "currency:EUR": "yes",
                "currency:GBP": "yes",
                "currency:HUF": "yes",
                "currency:LTC": "yes",
                "currency:RON": "yes",
                "currency:USD": "yes",
                "currency:USDC": "yes",
                "currency:USDT": "yes",
                "currency:XBT": "yes",
                "indoor": "yes",
                "name": "Bitcoin ATM - Shitcoins.club",
                "opening_hours": "Mo-Sa 07:30-22:00; Su 08:00-21:00",
                "operator": "Shitcoins.club",
                "payment:cash": "yes",
                "payment:lightning": "no",
                "payment:lightning_contactless": "no",
                "payment:onchain": "yes",
                "phone": "+39 34 8048 7308",
                "website": "https://shitcoins.club/"
            }
        },
        {
            "type": "node",
            "id": 11937296236,
            "lat": 45.5874469,
            "lon": 9.0712247,
            "timestamp": "2024-05-27T14:33:05Z",
            "version": 1,
            "changeset": 151902939,
            "user": "Rockedf",
            "uid": 7522075,
            "tags": {
                "addr:city": "Cesate",
                "addr:housenumber": "1",
                "addr:postcode": "20020",
                "addr:street": "Via Italia",
                "amenity": "atm",
                "cash_in": "yes",
                "cash_out": "yes",
                "cash_withdrawal": "yes",
                "check_date": "2024-05-27",
                "contact:email": "support@shitcoins.club",
                "contact:facebook": "https://www.facebook.com/shitcoins.club",
                "contact:instagram": "https://www.instagram.com/shitcoinsclub",
                "contact:telegram": "https://t.me/shitcoinsclub",
                "contact:twitter": "https://twitter.com/BitomatCom",
                "currency:DASH": "yes",
                "currency:ETH": "yes",
                "currency:EUR": "yes",
                "currency:LTC": "yes",
                "currency:USDC": "yes",
                "currency:USDT": "yes",
                "currency:XBT": "yes",
                "indoor": "yes",
                "name": "Bancomat Bitcoin ATM - Shitcoins.club",
                "opening_hours": "24/7",
                "operator": "Shitcoins.club",
                "payment:cash": "yes",
                "payment:lightning": "no",
                "payment:lightning_contactless": "no",
                "payment:onchain": "yes",
                "phone": "+39 34 8048 7308",
                "website": "https://shitcoins.club/localizzazione-atm/bancomat-bitcoin-Cesate-MI"
            }
        },
        {
            "type": "node",
            "id": 11975334227,
            "lat": 45.4917956,
            "lon": 9.2936367,
            "timestamp": "2024-06-12T12:42:44Z",
            "version": 1,
            "changeset": 152585768,
            "user": "Chiarant",
            "uid": 18452174,
            "tags": {
                "addr:city": "Segrate",
                "addr:housenumber": "23",
                "addr:postcode": "20054",
                "addr:street": "Via Roma",
                "check_date": "2024-06-12",
                "currency:XBT": "yes",
                "name": "SCINTYLLA Beauty Feeling",
                "shop": "beauty",
                "website": "https://www.centroesteticosegrate.com/"
            }
        }
    ]
}