{
    "id": "ss-mantova",
    "name": "Satoshi Spritz Mantova",
    "lng": 45.15726772,
    "lat": 10.79277363,
    "localita": "Mantova",
    "telegram_weburl": "https://web.telegram.org/a/#-1001795422137",
    "telegram_app": "https://t.me/SatoshiSpritzMantova",
    "telegram_members": 78.0,
    "network": "satoshispritz",
    "poi": [
        {
            "type": "node",
            "id": 6180386635,
            "lat": 45.3307492,
            "lon": 10.9512601,
            "timestamp": "2024-03-12T19:54:00Z",
            "version": 7,
            "changeset": 148565311,
            "user": "Chiarant",
            "uid": 18452174,
            "tags": {
                "addr:city": "Vigasio",
                "addr:housenumber": "92",
                "addr:postcode": "37068",
                "addr:street": "Via Verona",
                "check_date:currency:XBT": "2024-03-12",
                "currency:XBT": "yes",
                "description": "Nella tranquilla campagna Veronese, l'Hotel Montemezzi \u00e8 una moderna struttura 4 stelle, ideale sia per viaggi di piacere che per meeting di lavoro. Il ristorante offre piatti e vini tipici della gastronomia veneta anche con materie prime a km 0.",
                "email": "direzione@montemezzi.it",
                "name": "Hotel Montemezzi",
                "payment:bitcoin:operator": "inbitcoin.it",
                "phone": "+39 045 7363440",
                "tourism": "hotel",
                "website": "https://www.montemezzi.it/",
                "wikidata": "Q111412887"
            }
        },
        {
            "type": "node",
            "id": 6835335762,
            "lat": 45.14667,
            "lon": 10.798655,
            "timestamp": "2023-11-17T18:12:37Z",
            "version": 5,
            "changeset": 144149923,
            "user": "toponomastica_comune_arenzano",
            "uid": 14257573,
            "tags": {
                "addr:city": "Mantova",
                "addr:housenumber": "5a",
                "addr:postcode": "46100",
                "addr:street": "Via Leopoldo Camillo Volta",
                "check_date:currency:XBT": "2023-07-18",
                "currency:XBT": "yes",
                "description": "Soluzioni blockchain e mining.",
                "name": "Bitviking",
                "telecom": "data_center",
                "website": "https://www.bitviking.it"
            }
        },
        {
            "type": "node",
            "id": 9933827401,
            "lat": 45.322813,
            "lon": 10.9494663,
            "timestamp": "2023-07-18T16:38:00Z",
            "version": 3,
            "changeset": 138678439,
            "user": "saunter",
            "uid": 10396321,
            "tags": {
                "addr:city": "Vigasio",
                "addr:housenumber": "14",
                "addr:postcode": "37068",
                "addr:street": "Via Alzeri",
                "check_date:currency:XBT": "2023-07-18",
                "craft": "electrician",
                "currency:XBT": "yes",
                "description": "Impianti elettrici e automazione cancelli.",
                "email": "info@zoccatelli.it",
                "name": "Z. M. Zoccatelli Impianti",
                "phone": "+39 3484447118",
                "website": "https://www.impiantizoccatelli.it"
            }
        },
        {
            "type": "node",
            "id": 10766227160,
            "lat": 45.1577683,
            "lon": 10.7918184,
            "timestamp": "2023-08-01T12:14:23Z",
            "version": 3,
            "changeset": 139297583,
            "user": "Igor Bubelov",
            "uid": 2104834,
            "tags": {
                "addr:housenumber": "45",
                "addr:postcode": "46100",
                "addr:street": "Corso Umberto I\u00b0",
                "check_date": "2023-03-27",
                "clothes": "men",
                "currency:XBT": "yes",
                "name": "DOPPELG\u00c4NGER",
                "phone": "0376360615",
                "shop": "clothes",
                "website": "https://www.doppelganger.it/it/"
            }
        }
    ]
}