{
    "id": "ss-nuoro",
    "name": "Satoshi Spritz Nuoro",
    "lng": 40.31477,
    "lat": 9.27983,
    "localita": "Nuoro",
    "idlocalita": "nuoro",
    "telegram_weburl": "https://web.telegram.org/a/#-1002070892703",
    "telegram_app": "https://t.me/SatoshiSpritzNuoro",
    "telegram_members": 13.0,
    "network": "satoshispritz",
    "poi": [
        {
            "type": "node",
            "id": 226951843,
            "lat": 40.025384,
            "lon": 9.168579,
            "timestamp": "2025-06-02T08:16:01Z",
            "version": 7,
            "changeset": 167080105,
            "user": "kr\u00e4ckel",
            "uid": 1092114,
            "tags": {
                "addr:city": "Tonara",
                "addr:postcode": "08039",
                "amenity": "fuel",
                "brand": "Q8",
                "brand:wikidata": "Q4119207",
                "name": "Q8",
                "operator": "Q8"
            }
        },
        {
            "type": "node",
            "id": 775971539,
            "lat": 40.3276157,
            "lon": 9.3393533,
            "timestamp": "2025-08-29T15:46:48Z",
            "version": 5,
            "changeset": 171191684,
            "user": "dan980",
            "uid": 1240942,
            "tags": {
                "addr:city": "Nuoro",
                "addr:postcode": "08100",
                "addr:street": "Viale della Solitudine",
                "amenity": "fuel",
                "brand": "Q8",
                "brand:wikidata": "Q1634762",
                "brand:wikipedia": "en:Kuwait Petroleum Corporation",
                "name": "Q8",
                "operator": "Q8",
                "ref:mise": "6699"
            }
        },
        {
            "type": "node",
            "id": 4207201109,
            "lat": 40.32105,
            "lon": 9.3312468,
            "timestamp": "2025-04-20T20:53:57Z",
            "version": 5,
            "changeset": 165212102,
            "user": "btcitnet",
            "uid": 22525435,
            "tags": {
                "addr:city": "Nuoro",
                "addr:housenumber": "148",
                "addr:postcode": "08100",
                "addr:street": "Corso Giuseppe Garibaldi",
                "brand": "Calzedonia",
                "brand:wikidata": "Q1027874",
                "clothes": "underwear",
                "name": "Calzedonia",
                "operator": "Calzedonia",
                "phone": "+39 0784 30856",
                "shop": "clothes",
                "source": "Regione Autonoma della Sardegna (www.sardegnageoportale.it)",
                "website": "https://it.calzedonia.com"
            }
        },
        {
            "type": "node",
            "id": 4207232769,
            "lat": 40.3210256,
            "lon": 9.3306162,
            "timestamp": "2025-04-21T08:08:24Z",
            "version": 5,
            "changeset": 165225054,
            "user": "btcitnet",
            "uid": 22525435,
            "tags": {
                "addr:city": "Nuoro",
                "addr:housenumber": "180",
                "addr:postcode": "08100",
                "addr:street": "Corso Giuseppe Garibaldi",
                "brand": "Intimissimi",
                "brand:wikidata": "Q305404",
                "clothes": "underwear",
                "name": "Intimissimi",
                "operator": "Intimissimi",
                "shop": "clothes",
                "source": "Regione Autonoma della Sardegna (www.sardegnageoportale.it)",
                "website": "https://it.intimissimi.com/"
            }
        },
        {
            "type": "node",
            "id": 6505603590,
            "lat": 40.3224367,
            "lon": 9.3060924,
            "timestamp": "2025-01-03T14:14:45Z",
            "version": 2,
            "changeset": 160951120,
            "user": "mpbin",
            "uid": 21850090,
            "tags": {
                "addr:city": "Nuoro",
                "addr:postcode": "08100",
                "addr:street": "Via San Giovanni Bosco",
                "brand": "OVS",
                "brand:wikidata": "Q2042514",
                "brand:wikipedia": "en:OVS (company)",
                "level": "1",
                "name": "OVS",
                "opening_hours": "Mo-Sa 09:00-20:30; Su 10:00-20:00",
                "operator": "OVS",
                "phone": "+39 0784 1952756",
                "shop": "clothes",
                "website": "https://www.ovs.it/"
            }
        },
        {
            "type": "node",
            "id": 6505685738,
            "lat": 40.3231596,
            "lon": 9.3065765,
            "timestamp": "2025-01-01T22:37:59Z",
            "version": 2,
            "changeset": 160887722,
            "user": "mpbin",
            "uid": 21850090,
            "tags": {
                "addr:city": "Nuoro",
                "addr:postcode": "08100",
                "addr:street": "Via San Giovanni Bosco",
                "air_conditioning": "yes",
                "brand": "Trony",
                "brand:wikidata": "Q3999692",
                "brand:wikipedia": "it:Trony",
                "email": "nuoro@trony.it",
                "level": "0",
                "name": "Trony",
                "opening_hours": "Mo-Su 09:00-20:00",
                "operator": "Trony",
                "phone": "+39 0784 1940371",
                "shop": "electronics",
                "website": "https://www.trony.it"
            }
        },
        {
            "type": "node",
            "id": 7503750848,
            "lat": 40.324457,
            "lon": 9.3136797,
            "timestamp": "2020-05-10T15:49:38Z",
            "version": 1,
            "changeset": 84976671,
            "user": "mascalzone67",
            "uid": 1861652,
            "tags": {
                "addr:city": "Nuoro",
                "addr:postcode": "08100",
                "addr:street": "Via Biscollai",
                "amenity": "pharmacy",
                "dispensing": "no",
                "healthcare": "pharmacy",
                "name": "Parafarmacia Conad",
                "operator": "Conad"
            }
        },
        {
            "type": "node",
            "id": 10262476930,
            "lat": 40.7226408,
            "lon": 9.1064746,
            "timestamp": "2022-12-14T13:26:10Z",
            "version": 1,
            "changeset": 130076106,
            "user": "BSN21M",
            "uid": 17441326,
            "tags": {
                "addr:city": "Oschiri",
                "addr:housenumber": "11",
                "addr:postcode": "07027",
                "addr:street": "Via Filippo Turati",
                "check_date:currency:XBT": "2022-12-14",
                "contact:twitter": "https://twitter.com/AntoniBatzu",
                "craft": "pottery",
                "currency:XBT": "yes",
                "description": "Art, Pottery, Ceramics",
                "email": "info@comefareceramica.com",
                "name": "Antonio Batzu Ceramiche Artistiche",
                "opening_hours": "Mo-Fr 08:00-19:00",
                "payment:lightning": "yes",
                "payment:lightning_contactless": "no",
                "payment:onchain": "yes",
                "phone": "+39 331 5412413",
                "website": "https://www.comefareceramica.com"
            }
        },
        {
            "type": "node",
            "id": 10887466088,
            "lat": 40.5874384,
            "lon": 9.002794,
            "timestamp": "2025-01-03T14:26:44Z",
            "version": 2,
            "changeset": 160951655,
            "user": "mpbin",
            "uid": 21850090,
            "tags": {
                "addr:city": "Otieri/Ozieri",
                "addr:housenumber": "4",
                "addr:postcode": "07014",
                "addr:street": "Via Alcide De Gasperi",
                "alt_name": "OVS I.M.C srl",
                "brand": "OVS",
                "brand:wikidata": "Q2042514",
                "name": "OVS",
                "opening_hours": "Mo-Sa 09:00-13:00,16:00-19:30",
                "operator": "OVS",
                "phone": "+39 079 786009",
                "shop": "clothes",
                "website": "https://stores.ovs.it/it/italia/sardegna/sassari/ovs-ozieri"
            }
        },
        {
            "type": "way",
            "id": 62201186,
            "timestamp": "2024-08-09T18:42:00Z",
            "version": 5,
            "changeset": 155036158,
            "user": "Panpa",
            "uid": 11404081,
            "nodes": [
                775883682,
                775883750,
                775883701,
                775883744,
                775883722,
                775883765,
                775883671,
                775883710,
                775883676,
                775883718,
                775883760,
                775883669,
                775883647,
                775883690,
                775883732,
                775883746,
                775883638,
                775883737,
                775883693,
                775883649,
                775883704,
                775883660,
                775883696,
                775883682
            ],
            "tags": {
                "addr:city": "Nuoro",
                "addr:postcode": "08100",
                "addr:street": "Via Biscollai",
                "brand": "Conad",
                "brand:wikidata": "Q639075",
                "brand:wikipedia": "it:Conad",
                "building": "yes",
                "layer": "1",
                "name": "Conad",
                "opening_hours": "Mo-Sa 07:30-21:00; Su 08:30-21:00",
                "operator": "Conad",
                "payment:bancomat": "yes",
                "payment:cash": "yes",
                "payment:credit_cards": "yes",
                "phone": "+39 0784 204371",
                "shop": "supermarket",
                "toilets": "yes",
                "website": "https://www.conad.it/ricerca-negozi/negozio.008430.html"
            }
        },
        {
            "type": "way",
            "id": 267200635,
            "timestamp": "2025-05-19T07:27:21Z",
            "version": 6,
            "changeset": 166461028,
            "user": "kr\u00e4ckel",
            "uid": 1092114,
            "nodes": [
                2726703555,
                2726703556,
                2726703557,
                2726703558,
                2726703555
            ],
            "tags": {
                "addr:city": "Nuoro",
                "addr:postcode": "08100",
                "addr:street": "Via Lombardia",
                "amenity": "fuel",
                "brand": "Q8",
                "brand:wikidata": "Q4119207",
                "brand:wikipedia": "en:Kuwait Petroleum Corporation",
                "name": "Q8",
                "operator": "Q8",
                "ref:mise": "6697",
                "source:date": "2018-04-16"
            }
        },
        {
            "type": "way",
            "id": 1212500811,
            "timestamp": "2023-10-02T12:10:16Z",
            "version": 1,
            "changeset": 142036246,
            "user": "dbrgn",
            "uid": 317694,
            "nodes": [
                2370553432,
                11233581401,
                11233581402,
                11233581403,
                2370553432
            ],
            "tags": {
                "access": "customers",
                "amenity": "parking",
                "fee": "no",
                "operator": "Despar",
                "parking": "surface",
                "surface": "asphalt"
            }
        }
    ],
    "telegram": []
}