{
    "id": "ss-napoli",
    "name": "Satoshi Spritz Napoli",
    "lng": 40.8517746,
    "lat": 14.2681244,
    "localita": "Napoli",
    "telegram_weburl": "https://web.telegram.org/a/#-1001823139796",
    "telegram_app": "https://t.me/SatoshiSpritzNapoli",
    "telegram_members": 86.0,
    "network": "satoshispritz",
    "poi": [
        {
            "type": "node",
            "id": 2377927022,
            "lat": 40.854605,
            "lon": 14.2678392,
            "timestamp": "2023-02-12T15:00:53Z",
            "version": 7,
            "changeset": 132449304,
            "user": "saunter",
            "uid": 10396321,
            "tags": {
                "addr:housenumber": "340c",
                "addr:street": "Corso Giuseppe Garibaldi",
                "check_date:currency:XBT": "2023-02-12",
                "currency:XBT": "yes",
                "name": "BB del Corso",
                "tourism": "guest_house",
                "website": "https://bnbnapoli.it/"
            }
        },
        {
            "type": "node",
            "id": 3344792543,
            "lat": 40.8533607,
            "lon": 14.2692365,
            "timestamp": "2024-04-14T11:21:38Z",
            "version": 4,
            "changeset": 149988209,
            "user": "Igor Bubelov",
            "uid": 2104834,
            "tags": {
                "check_date": "2024-04-11",
                "contact:instagram": "https://www.instagram.com/dolcevitaroomsnaples/",
                "currency:XBT": "yes",
                "name": "Dolce Vita Rooms & Breakfast",
                "opening_hours": "24/7",
                "phone": "+39 333 988 8176",
                "tourism": "guest_house",
                "website": "https://www.hoteldolcevitanapoli.it/"
            }
        },
        {
            "type": "node",
            "id": 5261859892,
            "lat": 40.8375865,
            "lon": 14.2489764,
            "timestamp": "2024-01-20T03:25:29Z",
            "version": 4,
            "changeset": 146464303,
            "user": "Igor Bubelov",
            "uid": 2104834,
            "tags": {
                "addr:city": "Napoli",
                "addr:housenumber": "4",
                "addr:postcode": "80132",
                "addr:street": "Via San Carlo",
                "check_date": "2022-12-17",
                "currency:XBT": "yes",
                "name": "Pasticceria Carraturo",
                "outdoor_seating": "yes",
                "shop": "pastry",
                "source": "mapillary"
            }
        },
        {
            "type": "node",
            "id": 5863672777,
            "lat": 40.697485,
            "lon": 14.482456,
            "timestamp": "2023-04-13T03:40:07Z",
            "version": 3,
            "changeset": 134842842,
            "user": "Igor Bubelov",
            "uid": 2104834,
            "tags": {
                "addr:city": "Castellammare di Stabia",
                "addr:housenumber": "50",
                "addr:postcode": "80053",
                "addr:street": "Corso Vittorio Emanuele",
                "check_date:currency:XBT": "2023-04-09",
                "currency:XBT": "yes",
                "email": "coinfinanziaria@gmail.com",
                "name": "COIN",
                "office": "financial",
                "phone": "+39 081 8705399",
                "website": "https://www.facebook.com/coinfinanziaria"
            }
        },
        {
            "type": "node",
            "id": 6902000257,
            "lat": 40.825805,
            "lon": 14.2044445,
            "timestamp": "2024-04-14T09:18:22Z",
            "version": 5,
            "changeset": 149983284,
            "user": "Chiarant",
            "uid": 18452174,
            "tags": {
                "addr:city": "Napoli",
                "addr:housenumber": "4-6-8",
                "addr:postcode": "80125",
                "addr:street": "Via Giulio Cesare",
                "amenity": "atm",
                "check_date": "2024-04-14",
                "currency:XBT": "yes",
                "description": "Bitcoin ATM che permette di acquistare Bitcoin, Ethereum, Litecoin, Dogecoin, Bitcoin Cash, Dash, Monero. L'ATM \u00e8 situato all'interno del negozio di autoricambi R.A.M.I.R.A.",
                "email": "support@cryptolocalatm.com",
                "name": "CryptoLocalATM c/o R.A.M.I.R.A.",
                "payment:onchain": "yes",
                "website": "https://cryptolocalatm.com"
            }
        },
        {
            "type": "node",
            "id": 8046848126,
            "lat": 41.0069059,
            "lon": 14.3271132,
            "timestamp": "2023-07-31T14:23:33Z",
            "version": 6,
            "changeset": 139256906,
            "user": "BTC Map",
            "uid": 18545877,
            "tags": {
                "addr:city": "Marcianise",
                "addr:housenumber": "87",
                "addr:postcode": "81025",
                "addr:street": "Strada Statale Sannitica",
                "addr:unit": "SP336",
                "branch": "Marcianise",
                "brand": "Mondo Convenienza",
                "brand:wikidata": "Q55830962",
                "check_date:currency:XBT": "2023-07-31",
                "currency:XBT": "yes",
                "name": "Mondo Convenienza",
                "opening_hours": "Mo-Su 09:30-21:00",
                "shop": "furniture",
                "wheelchair": "yes"
            }
        },
        {
            "type": "node",
            "id": 9408705233,
            "lat": 40.8427177,
            "lon": 14.225596,
            "timestamp": "2023-04-13T20:47:39Z",
            "version": 3,
            "changeset": 134878644,
            "user": "Chiarant",
            "uid": 18452174,
            "tags": {
                "addr:city": "Napoli",
                "addr:housenumber": "11",
                "addr:postcode": "80127",
                "addr:street": "Via Belvedere",
                "check_date": "2023-04-13",
                "contact:facebook": "https://www.facebook.com/macelleriavegetariana/",
                "contact:instagram": "https://www.instagram.com/macelleriavegetarianaitalia/",
                "currency:XBT": "yes",
                "description": "prima macelleria vegetariana in Italia, prodotti freschi vegetariani e vegani",
                "name": "Macelleria Vegetariana Italia(Vegetarian butcher shop Italy)",
                "phone": "379 155 5646",
                "shop": "butcher",
                "website": "https://macelleria-vegetariana-italia-butcher-shop.business.site/"
            }
        },
        {
            "type": "node",
            "id": 9713321069,
            "lat": 40.9024409,
            "lon": 14.3559825,
            "timestamp": "2023-11-03T11:15:35Z",
            "version": 3,
            "changeset": 143569593,
            "user": "b-jazz-bot",
            "uid": 9451067,
            "tags": {
                "addr:city": "Casalnuovo di Napoli",
                "addr:housenumber": "275",
                "addr:postcode": "80013",
                "addr:street": "Via Nazionale delle Puglie",
                "check_date:currency:XBT": "2023-07-10",
                "currency:XBT": "yes",
                "description": "Abbigliamento professionale, ingrosso e dettaglio. Forniture aziendali, stampa serigrafica, ricami personalizzati, gadgets aziendali. Abbigliamento, scarpe e accessori.",
                "email": "info@texgroupitalia.com",
                "name": "Texgroupitalia",
                "phone": "+39 0815227724",
                "shop": "clothes",
                "website": "https://www.texgroupitalia.com/"
            }
        },
        {
            "type": "node",
            "id": 10879388285,
            "lat": 41.0085448,
            "lon": 14.1319408,
            "timestamp": "2023-05-08T18:22:53Z",
            "version": 1,
            "changeset": 135864776,
            "user": "Chiarant",
            "uid": 18452174,
            "tags": {
                "addr:city": "Casal di Principe",
                "addr:housenumber": "85",
                "addr:postcode": "81033",
                "addr:street": "Via Vaticale",
                "currency:XBT": "yes",
                "description": "Negozio di alimentari biologici",
                "email": "biocorner18@gmail.com",
                "name": "Bio Corner",
                "payment:lightning": "yes",
                "payment:lightning_contactless": "yes",
                "payment:onchain": "yes",
                "phone": "+39 351 961 2716",
                "shop": "convenience",
                "survey:date": "2023-05-08",
                "website": "https://www.biocorner.it/"
            }
        },
        {
            "type": "node",
            "id": 11816197261,
            "lat": 40.7817553,
            "lon": 14.3801717,
            "timestamp": "2024-04-14T09:30:07Z",
            "version": 1,
            "changeset": 149983720,
            "user": "Chiarant",
            "uid": 18452174,
            "tags": {
                "addr:city": "Torre del Greco",
                "addr:housenumber": "67",
                "addr:postcode": "80059",
                "addr:street": "Via Nazionale",
                "amenity": "atm",
                "check_date": "2024-04-14",
                "currency:XBT": "yes",
                "description": "Bitcoin ATM che permette di acquistare Bitcoin, Ethereum, Litecoin, Dogecoin, Bitcoin Cash, Dash, Monero. L'ATM \u00e8 situato all'interno del negozio OFFICINA DI STAMPA",
                "email": "support@cryptolocalatm.com",
                "indoor": "yes",
                "name": "CryptoLocalATM c/o OFFICINA DI STAMPA",
                "payment:onchain": "yes",
                "website": "https://cryptolocalatm.com"
            }
        },
        {
            "type": "node",
            "id": 11938374731,
            "lat": 40.9338464,
            "lon": 14.3568569,
            "timestamp": "2024-06-16T03:25:39Z",
            "version": 2,
            "changeset": 152743846,
            "user": "Rockedf",
            "uid": 7522075,
            "tags": {
                "addr:city": "Afragola",
                "addr:housenumber": "1",
                "addr:postcode": "80021",
                "addr:street": "Via Santa Maria la Nova",
                "amenity": "atm",
                "cash_in": "yes",
                "cash_out": "yes",
                "cash_withdrawal": "yes",
                "check_date": "2024-05-27",
                "contact:email": "support@shitcoins.club",
                "contact:facebook": "https://www.facebook.com/shitcoins.club",
                "contact:instagram": "https://www.instagram.com/shitcoinsclub",
                "contact:telegram": "https://t.me/shitcoinsclub",
                "contact:twitter": "https://twitter.com/BitomatCom",
                "currency:CHF": "yes",
                "currency:DASH": "yes",
                "currency:ETH": "yes",
                "currency:EUR": "yes",
                "currency:GBP": "yes",
                "currency:HUF": "yes",
                "currency:LTC": "yes",
                "currency:RON": "yes",
                "currency:USD": "yes",
                "currency:USDC": "yes",
                "currency:USDT": "yes",
                "currency:XBT": "yes",
                "indoor": "yes",
                "name": "Bitcoin ATM - Shitcoins.club",
                "opening_hours": "Mo-Fr 09:00-21:00; Sa-Su 19:00-21:00",
                "operator": "Shitcoins.club",
                "payment:cash": "yes",
                "payment:lightning": "no",
                "payment:lightning_contactless": "no",
                "payment:onchain": "yes",
                "phone": "+39 34 8048 7308",
                "website": "https://shitcoins.club/localizzazione-atm/bitcoin-bancomat-napoli-centro-commerciale-le-porte-di-napoli"
            }
        },
        {
            "type": "node",
            "id": 11954291648,
            "lat": 40.8793936,
            "lon": 14.1126243,
            "timestamp": "2024-06-03T18:00:05Z",
            "version": 1,
            "changeset": 152211461,
            "user": "Rockedf",
            "uid": 7522075,
            "tags": {
                "addr:city": "Napoli",
                "addr:housenumber": "76",
                "addr:postcode": "80010",
                "addr:street": "Via Masullo",
                "amenity": "atm",
                "cash_in": "yes",
                "cash_out": "yes",
                "cash_withdrawal": "yes",
                "check_date": "2024-06-03",
                "contact:email": "support@shitcoins.club",
                "contact:facebook": "https://www.facebook.com/shitcoins.club",
                "contact:instagram": "https://www.instagram.com/shitcoinsclub",
                "contact:telegram": "https://t.me/shitcoinsclub",
                "contact:twitter": "https://twitter.com/BitomatCom",
                "currency:CHF": "yes",
                "currency:DASH": "yes",
                "currency:ETH": "yes",
                "currency:EUR": "yes",
                "currency:GBP": "yes",
                "currency:HUF": "yes",
                "currency:LTC": "yes",
                "currency:RON": "yes",
                "currency:USD": "yes",
                "currency:USDC": "yes",
                "currency:USDT": "yes",
                "currency:XBT": "yes",
                "indoor": "yes",
                "name": "Bitcoin ATM - Shitcoins.club",
                "opening_hours": "Mo-Sa 09:00-21:00; Su 10:00-21:00",
                "operator": "Shitcoins.club",
                "payment:cash": "yes",
                "payment:lightning": "no",
                "payment:lightning_contactless": "no",
                "payment:onchain": "yes",
                "phone": "+39 34 8048 7308",
                "website": "https://shitcoins.club/localizzazione-atm/bitcoin-bancomat-napoli-centro-commerciale-quarto-nuovo-"
            }
        }
    ]
}