{
    "id": "ss-pesaro",
    "name": "Satoshi Spritz Pesaro",
    "lng": 43.90921,
    "lat": 12.9164,
    "localita": "Pesaro",
    "idlocalita": NaN,
    "telegram_weburl": "https://web.telegram.org/k/#?tgaddr=tg%3A%2F%2Fresolve%3Fdomain%3DSatoshiSpritzPesaro",
    "telegram_app": "https://t.me/SatoshiSpritzPesaro",
    "network": "satoshispritz",
    "poi": [
        {
            "type": "node",
            "id": 281339878,
            "lat": 43.9987595,
            "lon": 12.6312577,
            "timestamp": "2024-12-30T22:50:18Z",
            "version": 8,
            "changeset": 160813222,
            "user": "mpbin",
            "uid": 21850090,
            "tags": {
                "addr:city": "Riccione",
                "addr:housenumber": "43",
                "addr:postcode": "47838",
                "addr:street": "Viale Veneto",
                "check_date": "2024-05-30",
                "name": "Conad Boschetto",
                "operator": "Conad",
                "shop": "supermarket"
            }
        },
        {
            "type": "node",
            "id": 318114360,
            "lat": 43.5431846,
            "lon": 13.0289579,
            "timestamp": "2024-12-30T22:35:38Z",
            "version": 7,
            "changeset": 160812881,
            "user": "mpbin",
            "uid": 21850090,
            "tags": {
                "addr:city": "Serra de' Conti",
                "addr:housenumber": "21",
                "addr:postcode": "60030",
                "addr:street": "Via Aristide Merloni",
                "brand": "Conad",
                "brand:wikidata": "Q639075",
                "brand:wikipedia": "it:Conad",
                "name": "Conad",
                "operator": "Conad",
                "shop": "supermarket"
            }
        },
        {
            "type": "node",
            "id": 503495931,
            "lat": 43.9790769,
            "lon": 12.6960604,
            "timestamp": "2023-11-11T19:44:29Z",
            "version": 4,
            "changeset": 143912910,
            "user": "\u0110uro Ji\u0159\u00ed",
            "uid": 14617702,
            "tags": {
                "addr:city": "Misano Adriatico",
                "addr:housenumber": "21",
                "addr:postcode": "47843",
                "addr:street": "Via Romagna",
                "name": "Tuday Conad",
                "not:brand:wikidata": "Q639075",
                "opening_hours": "Mo-Sa 08:00-20:30, Su 08:00-13:00",
                "operator": "Conad",
                "payment:bancomat": "yes",
                "payment:cash": "yes",
                "payment:credit_cards": "yes",
                "phone": "+39 0541 613561",
                "shop": "supermarket",
                "source": "https://www.gdonews.it/2023/03/30/il-conad-rio-agina-di-misano-diventa-tuday-conad/",
                "website": "https://www.conad.it/ricerca-negozi/tuday-conad-via-romagna-21-47843-misano-adriatico--009772",
                "wheelchair": "yes"
            }
        },
        {
            "type": "node",
            "id": 1766521593,
            "lat": 43.9085527,
            "lon": 12.9181644,
            "timestamp": "2012-05-26T18:57:39Z",
            "version": 1,
            "changeset": 11709252,
            "user": "Captain Tancredi",
            "uid": 209340,
            "tags": {
                "operator": "Conad",
                "shop": "convenience"
            }
        },
        {
            "type": "node",
            "id": 2509581941,
            "lat": 43.7667375,
            "lon": 13.1352112,
            "timestamp": "2020-05-13T15:20:59Z",
            "version": 2,
            "changeset": 85152900,
            "user": "marchemap",
            "uid": 4624362,
            "tags": {
                "addr:city": "Marotta",
                "addr:housenumber": "2",
                "addr:postcode": "61037",
                "addr:street": "Via Molise",
                "brand": "Conad City",
                "brand:wikidata": "Q57543102",
                "name": "Conad City",
                "operator": "Conad",
                "shop": "supermarket"
            }
        },
        {
            "type": "node",
            "id": 2718103390,
            "lat": 44.0600462,
            "lon": 12.5677448,
            "timestamp": "2023-06-26T10:58:05Z",
            "version": 5,
            "changeset": 137786952,
            "user": "Chiarant",
            "uid": 18452174,
            "tags": {
                "addr:city": "Rimini",
                "addr:country": "IT",
                "addr:housenumber": "107",
                "addr:postcode": "47921",
                "addr:street": "Corso d'Augusto",
                "check_date": "2023-06-26",
                "clothes": "underwear",
                "currency:XBT": "yes",
                "description": "Negozio di intimo e accessori di grandi brand come Triumph e Sloggi.",
                "name": "Since 1886",
                "payment:lightning": "yes",
                "payment:onchain": "yes",
                "phone": "+390541783603",
                "shop": "clothes",
                "website": "https://www.ginevraunderwear.it"
            }
        },
        {
            "type": "node",
            "id": 2718109273,
            "lat": 44.0601434,
            "lon": 12.5676513,
            "timestamp": "2023-06-15T20:46:45Z",
            "version": 7,
            "changeset": 137389471,
            "user": "Chiarant",
            "uid": 18452174,
            "tags": {
                "addr:city": "Rimini",
                "addr:country": "IT",
                "addr:housenumber": "113",
                "addr:postcode": "47921",
                "addr:street": "Corso d'Augusto",
                "amenity": "cafe",
                "check_date": "2023-06-15",
                "currency:XBT": "yes",
                "description": "Colazioni e aperitivi.",
                "email": "mingo.mattia@gmail.com",
                "name": "Mythos cafe",
                "payment:lightning": "yes",
                "phone": "+39 3423284951",
                "source:wheelchair": "survey",
                "wheelchair": "yes"
            }
        },
        {
            "type": "node",
            "id": 2718119263,
            "lat": 44.0394683,
            "lon": 12.5664577,
            "timestamp": "2024-12-03T20:32:52Z",
            "version": 3,
            "changeset": 159896063,
            "user": "mpbin",
            "uid": 21850090,
            "tags": {
                "addr:city": "Rimini",
                "addr:country": "IT",
                "addr:housenumber": "15",
                "addr:postcode": "47923",
                "addr:street": "Via Consolare Rimini-San Marino",
                "brand": "Trony",
                "brand:wikidata": "Q3999692",
                "name": "Trony",
                "operator": "Trony",
                "phone": "+390541771605",
                "shop": "electronics",
                "website": "https://www.trony.it/online/store/TRO044_A"
            }
        },
        {
            "type": "node",
            "id": 2718136968,
            "lat": 44.039718,
            "lon": 12.5874819,
            "timestamp": "2024-12-04T09:46:54Z",
            "version": 6,
            "changeset": 159911573,
            "user": "Aluminum0173",
            "uid": 16035231,
            "tags": {
                "addr:city": "Rimini",
                "addr:country": "IT",
                "addr:housenumber": "20",
                "addr:postcode": "47924",
                "addr:street": "Via Caduti di Nassiriya",
                "branch": "c c  Le Befane",
                "brand": "Nuvolari",
                "brand:wikidata": "Q130702590",
                "check_date:currency:XBT": "2023-05-13",
                "clothes": "men",
                "currency:XBT": "yes",
                "name": "Nuvolari",
                "payment:lightning": "no",
                "payment:lightning_contactless": "no",
                "payment:onchain": "yes",
                "phone": "+39 05411491632",
                "shop": "clothes"
            }
        },
        {
            "type": "node",
            "id": 2718150316,
            "lat": 44.0420988,
            "lon": 12.5654896,
            "timestamp": "2023-07-31T14:23:33Z",
            "version": 3,
            "changeset": 139256906,
            "user": "BTC Map",
            "uid": 18545877,
            "tags": {
                "addr:city": "Rimini",
                "addr:country": "IT",
                "addr:housenumber": "28",
                "addr:postcode": "47924",
                "addr:street": "Via Pomposa",
                "brand": "Mondo Convenienza",
                "brand:wikidata": "Q55830962",
                "check_date:currency:XBT": "2023-07-31",
                "currency:XBT": "yes",
                "name": "Mondo Convenienza",
                "shop": "furniture",
                "website": "https://www.mondoconv.it/"
            }
        },
        {
            "type": "node",
            "id": 2718191192,
            "lat": 44.0290234,
            "lon": 12.6232892,
            "timestamp": "2024-09-23T12:20:05Z",
            "version": 3,
            "changeset": 156993043,
            "user": "mpbin",
            "uid": 21850090,
            "tags": {
                "addr:city": "Rimini",
                "addr:country": "IT",
                "addr:housenumber": "5",
                "addr:postcode": "47924",
                "addr:street": "Viale Brescia",
                "check_date": "2024-09-22",
                "check_date:currency:XBT": "2024-09-22",
                "contact:facebook": "HotelEliseoMiramare",
                "contact:whatsapp": "+39 333 858 2258",
                "currency:XBT": "yes",
                "description": "E se volete fare un tuffo nel passato... il mare dista solo 150mt!",
                "email": "eliseomiramare@gmail.com",
                "name": "Hotel Eliseo",
                "payment:lightning": "no",
                "payment:lightning_contactless": "no",
                "payment:onchain": "yes",
                "phone": "+39 333 858 2258",
                "survey:date": "2023-07-26",
                "tourism": "hotel",
                "website": "https://www.hoteleliseorimini.it"
            }
        },
        {
            "type": "node",
            "id": 2718195221,
            "lat": 44.0521444,
            "lon": 12.5591925,
            "timestamp": "2024-11-10T15:57:46Z",
            "version": 5,
            "changeset": 158973340,
            "user": "mpbin",
            "uid": 21850090,
            "tags": {
                "addr:city": "Rimini",
                "addr:country": "IT",
                "addr:housenumber": "57a",
                "addr:postcode": "47923",
                "addr:street": "Via Covignano",
                "amenity": "restaurant",
                "check_date": "2023-11-27",
                "contact:facebook": "https://www.facebook.com/RainbowSushi2.0Rimini",
                "cuisine": "sushi",
                "currency:XBT": "yes",
                "email": "rimini@rainbowsushibar.com",
                "name": "Rainbow sushi 2.0",
                "payment:lightning": "yes",
                "phone": "+39 0541 772363",
                "website": "https://www.rainbowsushibar.com/"
            }
        },
        {
            "type": "node",
            "id": 3074007138,
            "lat": 44.1631031,
            "lon": 12.443792,
            "timestamp": "2024-07-11T20:55:12Z",
            "version": 9,
            "changeset": 153829634,
            "user": "mauropili",
            "uid": 1496865,
            "tags": {
                "addr:city": "San Mauro a Mare",
                "addr:housenumber": "16",
                "addr:postcode": "47030",
                "addr:street": "Via della Repubblica",
                "check_date:currency:XBT": "2023-07-17",
                "contact:facebook": "https://www.facebook.com/laplajahotel",
                "currency:XBT": "yes",
                "email": "info@hotellaplaja.it",
                "name": "Hotel La Plaja",
                "phone": "+39 0541 346154",
                "rooms": "37",
                "source": "Provincia di Forl\u00ec-Cesena",
                "stars": "3",
                "swimming_pool": "yes",
                "tourism": "hotel",
                "website": "http://hotellaplaja.it/"
            }
        },
        {
            "type": "node",
            "id": 4794806657,
            "lat": 44.1052484,
            "lon": 12.42164,
            "timestamp": "2021-03-09T17:28:32Z",
            "version": 3,
            "changeset": 100725206,
            "user": "mascalzone67",
            "uid": 1861652,
            "tags": {
                "addr:city": "San Mauro Pascoli",
                "addr:housenumber": "95",
                "addr:postcode": "47030",
                "addr:street": "Via Sigismondo Malatesta",
                "brand": "Conad",
                "brand:wikidata": "Q639075",
                "brand:wikipedia": "it:Conad",
                "name": "Conad",
                "opening_hours": "Mo-Sa 07:30-20:00, Su 08:30-13:00",
                "operator": "Conad",
                "payment:bancomat": "yes",
                "payment:cash": "yes",
                "payment:credit_cards": "yes",
                "phone": "+39 0543 800111",
                "shop": "supermarket",
                "start_date": "2021-03-11",
                "website": "https://www.conad.it/ricerca-negozi/negozio.010207.html"
            }
        },
        {
            "type": "node",
            "id": 5122058024,
            "lat": 43.769602,
            "lon": 12.608906,
            "timestamp": "2023-07-14T17:24:09Z",
            "version": 5,
            "changeset": 138517152,
            "user": "saunter",
            "uid": 10396321,
            "tags": {
                "addr:city": "Urbino",
                "addr:housenumber": "1",
                "addr:postcode": "61029",
                "addr:street": "Via della Valle",
                "check_date:currency:XBT": "2023-07-14",
                "currency:XBT": "yes",
                "description": "Bed and breakfast vicino ad Urbino, immerso nella verde campagna del Montefeltro.",
                "email": "prenotazioni@bblavalle.com",
                "guest_house": "bed_and_breakfast",
                "name": "B&B La Valle",
                "phone": "+39 3406747644",
                "tourism": "guest_house",
                "website": "https://www.bblavalle.com/"
            }
        },
        {
            "type": "node",
            "id": 7512115514,
            "lat": 44.0490635,
            "lon": 12.5674352,
            "timestamp": "2024-09-01T09:03:13Z",
            "version": 3,
            "changeset": 156044668,
            "user": "Aluminum0173",
            "uid": 16035231,
            "tags": {
                "addr:city": "Rimini",
                "addr:housenumber": "50",
                "addr:postcode": "47923",
                "addr:street": "Via della Fiera",
                "amenity": "pharmacy",
                "dispensing": "no",
                "healthcare": "pharmacy",
                "name": "Parafarmacia Conad",
                "operator": "Conad"
            }
        },
        {
            "type": "node",
            "id": 7512127904,
            "lat": 44.0485178,
            "lon": 12.5670564,
            "timestamp": "2020-05-12T19:01:14Z",
            "version": 1,
            "changeset": 85102237,
            "user": "mascalzone67",
            "uid": 1861652,
            "tags": {
                "addr:city": "Rimini",
                "addr:housenumber": "50",
                "addr:postcode": "47923",
                "addr:street": "Via della Fiera",
                "brand": "Conad",
                "brand:wikidata": "Q639075",
                "brand:wikipedia": "it:Conad",
                "name": "Conad",
                "opening_hours": "Mo-Sa 08:00-20:30; Su 08:00-20:00",
                "operator": "Conad",
                "payment:bancomat": "yes",
                "payment:cash": "yes",
                "payment:credit_cards": "yes",
                "phone": "+39 0541 727256",
                "shop": "supermarket",
                "website": "https://www.conad.it/ricerca-negozi/negozio.009577.html"
            }
        },
        {
            "type": "node",
            "id": 7512158210,
            "lat": 43.9947565,
            "lon": 12.4175164,
            "timestamp": "2023-10-17T09:02:06Z",
            "version": 7,
            "changeset": 142702145,
            "user": "Aluminum0173",
            "uid": 16035231,
            "tags": {
                "addr:city": "Verucchio",
                "addr:housenumber": "38",
                "addr:postcode": "47826",
                "addr:street": "Via Statale Marecchia",
                "amenity": "pharmacy",
                "brand": "Parafarmacia Conad",
                "dispensing": "no",
                "drive_through": "no",
                "healthcare": "pharmacy",
                "name": "Parafarmacia Conad",
                "opening_hours": "Mo-Su 08:30-20:00",
                "operator": "Conad"
            }
        },
        {
            "type": "node",
            "id": 7512172489,
            "lat": 43.9947328,
            "lon": 12.4172392,
            "timestamp": "2023-03-02T15:41:43Z",
            "version": 7,
            "changeset": 133217264,
            "user": "Aluminum0173",
            "uid": 16035231,
            "tags": {
                "addr:city": "Verucchio",
                "addr:housenumber": "38",
                "addr:postcode": "47826",
                "addr:street": "Via Statale Marecchia",
                "brand": "Conad",
                "brand:wikidata": "Q639075",
                "brand:wikipedia": "it:Conad",
                "name": "Conad",
                "opening_hours": "Mo-Su 08:00-20:00",
                "operator": "Conad",
                "payment:bancomat": "yes",
                "payment:cash": "yes",
                "payment:credit_cards": "yes",
                "phone": "+390541678063",
                "shop": "supermarket",
                "website": "https://www.conad.it/ricerca-negozi/negozio.009655.html",
                "wheelchair": "yes"
            }
        },
        {
            "type": "node",
            "id": 7512177059,
            "lat": 44.039003,
            "lon": 12.5877744,
            "timestamp": "2020-05-12T19:17:59Z",
            "version": 1,
            "changeset": 85102790,
            "user": "mascalzone67",
            "uid": 1861652,
            "tags": {
                "addr:city": "Rimini",
                "addr:housenumber": "20",
                "addr:postcode": "47924",
                "addr:street": "Via Caduti di Nassiriya",
                "amenity": "pharmacy",
                "dispensing": "no",
                "healthcare": "pharmacy",
                "name": "Parafarmacia Conad",
                "operator": "Conad"
            }
        },
        {
            "type": "node",
            "id": 7512199305,
            "lat": 44.0395622,
            "lon": 12.5862428,
            "timestamp": "2024-12-01T21:03:28Z",
            "version": 2,
            "changeset": 159820219,
            "user": "sorcrosc",
            "uid": 160229,
            "tags": {
                "addr:city": "Rimini",
                "addr:housenumber": "20",
                "addr:postcode": "47924",
                "addr:street": "Via Caduti di Nassiriya",
                "brand": "Conad",
                "brand:wikidata": "Q639075",
                "brand:wikipedia": "it:Conad",
                "name": "Conad",
                "opening_hours": "Mo-Su 09:00-21:00",
                "operator": "Conad",
                "payment:bancomat": "yes",
                "payment:cash": "yes",
                "payment:credit_cards": "yes",
                "phone": "+39 0541 769611",
                "shop": "supermarket",
                "website": "https://www.conad.it/ricerca-negozi/negozio.006886.html"
            }
        },
        {
            "type": "node",
            "id": 7518377976,
            "lat": 43.8004905,
            "lon": 13.0118826,
            "timestamp": "2021-03-26T09:59:56Z",
            "version": 4,
            "changeset": 101781332,
            "user": "totera",
            "uid": 123412,
            "tags": {
                "addr:city": "Fano",
                "addr:housenumber": "30",
                "addr:postcode": "61032",
                "addr:street": "Via Luigi Einaudi",
                "amenity": "pharmacy",
                "brand": "Parafarmacia Conad",
                "dispensing": "no",
                "healthcare": "pharmacy",
                "name": "Parafarmacia Conad",
                "operator": "Conad",
                "ref:msal": "005201",
                "ref:vatin": "IT01170560419"
            }
        },
        {
            "type": "node",
            "id": 7518395807,
            "lat": 43.9042396,
            "lon": 12.8685293,
            "timestamp": "2023-11-14T08:26:00Z",
            "version": 5,
            "changeset": 143999768,
            "user": "\u0110uro Ji\u0159\u00ed",
            "uid": 14617702,
            "tags": {
                "addr:city": "Pesaro",
                "addr:postcode": "61122",
                "addr:street": "Via Yuri Gagarin",
                "amenity": "pharmacy",
                "brand": "Parafarmacia Conad",
                "dispensing": "no",
                "healthcare": "pharmacy",
                "name": "Parafarmacia Conad",
                "operator": "Conad",
                "ref:msal": "004629",
                "ref:vatin": "IT02675680413",
                "wheelchair": "yes"
            }
        },
        {
            "type": "node",
            "id": 10788250052,
            "lat": 44.1581639,
            "lon": 12.4294307,
            "timestamp": "2023-05-12T22:47:49Z",
            "version": 2,
            "changeset": 136036841,
            "user": "saunter",
            "uid": 10396321,
            "tags": {
                "addr:city": "Savignano sul Rubicone",
                "addr:housenumber": "3",
                "addr:postcode": "47039",
                "addr:street": "piazza colombo",
                "check_date:currency:XBT": "2023-05-13",
                "clothes": "men",
                "currency:XBT": "yes",
                "name": "DOPPELG\u00c4NGER",
                "payment:lightning": "no",
                "payment:lightning_contactless": "no",
                "payment:onchain": "yes",
                "phone": "0541347999",
                "shop": "clothes"
            }
        },
        {
            "type": "node",
            "id": 10788254893,
            "lat": 43.9091098,
            "lon": 12.9115822,
            "timestamp": "2024-12-30T19:02:28Z",
            "version": 6,
            "changeset": 160804903,
            "user": "DnaX",
            "uid": 69259,
            "tags": {
                "addr:city": "Pesaro",
                "addr:housenumber": "42",
                "addr:postcode": "61121",
                "addr:street": "Via Giovanni Branca",
                "brand": "Doppelg\u00e4nger",
                "brand:wikidata": "Q117451227",
                "check_date": "2024-09-09",
                "check_date:opening_hours": "2024-09-09",
                "clothes": "men",
                "currency:XBT": "yes",
                "name": "Doppelg\u00e4nger",
                "opening_hours:signed": "no",
                "payment:lightning": "no",
                "payment:lightning_contactless": "no",
                "payment:onchain": "yes",
                "phone": "+39 0721 31511",
                "shop": "clothes"
            }
        },
        {
            "type": "node",
            "id": 12147929280,
            "lat": 44.0590112,
            "lon": 12.5627959,
            "timestamp": "2024-08-31T15:19:00Z",
            "version": 1,
            "changeset": 156020066,
            "user": "Rockedf",
            "uid": 7522075,
            "tags": {
                "addr:city": "Rimini",
                "addr:housenumber": "1",
                "addr:postcode": "47922",
                "addr:street": "Via Dario Campana",
                "check_date": "2024-08-31",
                "contact:instagram": "https://www.instagram.com/orivel.moda/",
                "currency:XBT": "yes",
                "name": "Orivel Moda",
                "payment:lightning": "yes",
                "payment:lightning_contactless": "no",
                "payment:onchain": "yes",
                "shop": "clothes"
            }
        }
    ],
    "telegram": []
}