{
    "id": "ss-padova",
    "name": "Satoshi Spritz Padova",
    "lng": 45.40692987,
    "lat": 11.87608719,
    "localita": "Padova",
    "telegram_weburl": "https://web.telegram.org/a/#-1001686253647",
    "telegram_app": "https://t.me/SatoshiSpritzPadova",
    "telegram_members": 102.0,
    "network": "satoshispritz",
    "poi": [
        {
            "type": "node",
            "id": 2800768123,
            "lat": 45.371839,
            "lon": 11.7913317,
            "timestamp": "2023-08-26T12:03:17Z",
            "version": 6,
            "changeset": 140408952,
            "user": "Chiarant",
            "uid": 18452174,
            "tags": {
                "addr:city": "Abano Terme",
                "addr:housenumber": "129",
                "addr:postcode": "35031",
                "addr:street": "Via Cesare Battisti",
                "check_date": "2023-08-26",
                "currency:XBT": "yes",
                "email": "info@autofesio.com",
                "landuse": "commercial",
                "name": "AutoFesio Salone Auto",
                "phone": "+39 329 6876517",
                "shop": "car",
                "website": "https://www.autofesio.com/"
            }
        },
        {
            "type": "node",
            "id": 4727745918,
            "lat": 45.4090126,
            "lon": 11.8788211,
            "timestamp": "2023-08-26T09:32:32Z",
            "version": 5,
            "changeset": 140403176,
            "user": "Chiarant",
            "uid": 18452174,
            "tags": {
                "addr:city": "Padova",
                "addr:housenumber": "9",
                "addr:postcode": "35121",
                "addr:street": "Via Altinate",
                "check_date": "2023-08-26",
                "clothes": "men",
                "currency:XBT": "yes",
                "name": "Doppelg\u00e4nger",
                "phone": "+39 0498757916",
                "shop": "clothes"
            }
        },
        {
            "type": "node",
            "id": 6131287245,
            "lat": 45.354129,
            "lon": 11.772486,
            "timestamp": "2023-07-21T00:41:15Z",
            "version": 2,
            "changeset": 138788730,
            "user": "saunter",
            "uid": 10396321,
            "tags": {
                "addr:city": "Abano Terme",
                "addr:housenumber": "21",
                "addr:postcode": "35031",
                "addr:street": "Via Monteortone",
                "check_date:currency:XBT": "2023-07-21",
                "currency:XBT": "yes",
                "description": "Consulenza su criptovalute e blockchain, cambio critpovalute contro euro, messa in sicurezza, vendita gadget informatici, hardware wallet, T-shirt, corsi di formazione sul mondo cripto e bitcoin.",
                "email": "center@bitcoinveneto.it",
                "name": "Bitcoin Veneto Center",
                "office": "educational_institution",
                "phone": "+39 3405035130",
                "website": "https://www.bitcoinvenetocenter.it"
            }
        },
        {
            "type": "node",
            "id": 7272505722,
            "lat": 45.402589,
            "lon": 11.8830613,
            "timestamp": "2023-08-28T20:24:03Z",
            "version": 4,
            "changeset": 140511909,
            "user": "Rockedf",
            "uid": 7522075,
            "tags": {
                "amenity": "restaurant",
                "check_date:currency:XBT": "2023-08-28",
                "currency:XBT": "yes",
                "name": "Da Giggino - Rosticceria",
                "payment:lightning": "yes",
                "payment:onchain": "yes",
                "phone": "+393777073860"
            }
        },
        {
            "type": "node",
            "id": 10155200041,
            "lat": 45.3915973,
            "lon": 11.8928962,
            "timestamp": "2023-08-09T12:07:17Z",
            "version": 5,
            "changeset": 139656821,
            "user": "Rockedf",
            "uid": 7522075,
            "tags": {
                "addr:housenumber": "1",
                "addr:street": "Via Giuseppe Perin",
                "amenity": "cafe",
                "check_date:currency:XBT": "2023-08-09",
                "cuisine": "coffee_shop",
                "currency:XBT": "yes",
                "name": "20quadricafe'",
                "payment:lightning": "yes",
                "survey:date": "2022-11-03"
            }
        },
        {
            "type": "node",
            "id": 10879354113,
            "lat": 45.370045,
            "lon": 11.922507,
            "timestamp": "2023-05-10T12:11:02Z",
            "version": 2,
            "changeset": 135933878,
            "user": "Chiarant",
            "uid": 18452174,
            "tags": {
                "addr:city": "Ponte San Nicol\u00f2",
                "addr:housenumber": "130",
                "addr:postcode": "35020",
                "addr:street": "Via Guglielmo Marconi",
                "addr:unit": "A",
                "amenity": "restaurant",
                "contact:facebook": "https://www.facebook.com/montenapoleonespaten/",
                "contact:instagram": "https://www.instagram.com/montenapoleonespaten/",
                "currency:XBT": "yes",
                "email": "ponte@ristorantimontenapoleone.com",
                "name": "SPATEN - BIRRERIA MONTENAPOLEONE",
                "payment:lightning": "yes",
                "payment:lightning_contactless": "yes",
                "payment:onchain": "no",
                "phone": "+39 0498882698",
                "survey:date": "2023-05-10",
                "website": "https://www.ristorantimontenapoleone.com/"
            }
        },
        {
            "type": "node",
            "id": 11812265884,
            "lat": 45.384531,
            "lon": 11.7844921,
            "timestamp": "2024-04-12T17:35:59Z",
            "version": 1,
            "changeset": 149921966,
            "user": "Rockedf",
            "uid": 7522075,
            "tags": {
                "amenity": "pub",
                "check_date": "2024-04-12",
                "currency:XBT": "yes",
                "name": "Dalle Canaglie",
                "payment:lightning": "yes",
                "payment:lightning_contactless": "no",
                "payment:onchain": "no",
                "phone": "+39 04 9261 5718"
            }
        },
        {
            "type": "node",
            "id": 11975303381,
            "lat": 45.4030901,
            "lon": 11.691016,
            "timestamp": "2024-06-12T12:30:05Z",
            "version": 1,
            "changeset": 152585259,
            "user": "Chiarant",
            "uid": 18452174,
            "tags": {
                "addr:city": "Fossona",
                "addr:housenumber": "148",
                "addr:postcode": "35030",
                "addr:street": "Via Roma",
                "check_date": "2024-06-12",
                "currency:XBT": "yes",
                "email": "gioielli@lineagem.it",
                "name": "Lineagem S.p.A.",
                "shop": "jewelry",
                "website": "https://www.lineagem.it/"
            }
        }
    ]
}