{
    "id": "ss-prato",
    "name": "Satoshi Spritz Prato",
    "lng": 43.8926686,
    "lat": 11.1049362,
    "localita": "Prato",
    "idlocalita": "prato",
    "telegram_weburl": "https://web.telegram.org/a/#-1002376586155",
    "telegram_app": "https://t.me/satoshispritzprato",
    "telegram_members": 29.0,
    "network": "satoshispritz",
    "poi": [
        {
            "type": "node",
            "id": 535340062,
            "lat": 43.7652441,
            "lon": 11.1965498,
            "timestamp": "2025-01-03T17:13:56Z",
            "version": 9,
            "changeset": 160958443,
            "user": "mpbin",
            "uid": 21850090,
            "tags": {
                "brand": "MediaWorld",
                "brand:wikidata": "Q76504823",
                "name": "MediaWorld",
                "operator": "MediaMarket S.p.A.",
                "shop": "electronics",
                "wheelchair": "yes"
            }
        },
        {
            "type": "node",
            "id": 613467795,
            "lat": 43.773942,
            "lon": 11.2162996,
            "timestamp": "2025-01-03T15:37:26Z",
            "version": 6,
            "changeset": 160954560,
            "user": "mpbin",
            "uid": 21850090,
            "tags": {
                "addr:city": "Firenze",
                "addr:postcode": "50142",
                "addr:street": "Viale Francesco Talenti",
                "name": "OVS",
                "operator": "OVS",
                "shop": "department_store"
            }
        },
        {
            "type": "node",
            "id": 623913279,
            "lat": 43.7941266,
            "lon": 11.1858298,
            "timestamp": "2024-07-13T01:55:37Z",
            "version": 4,
            "changeset": 153876850,
            "user": "Rockedf",
            "uid": 7522075,
            "tags": {
                "addr:city": "Firenze",
                "addr:country": "IT",
                "addr:housenumber": "154",
                "addr:postcode": "50145",
                "addr:street": "Via Pistoiese",
                "amenity": "restaurant",
                "check_date": "2024-07-12",
                "contact:instagram": "@trattoriadaburde",
                "cuisine": "italian",
                "currency:XBT": "yes",
                "description": "Trattoria dal 1901 pluri premiata , rinomata per cucina tipica toscana in particolare la bistecca",
                "name": "Trattoria da Burde",
                "payment:lightning": "yes",
                "payment:lightning_contactless": "no",
                "payment:onchain": "yes",
                "phone": "+39 055 317206",
                "website": "https://landing.vinodaburde.eu/"
            }
        },
        {
            "type": "node",
            "id": 625386035,
            "lat": 43.8596037,
            "lon": 11.1058985,
            "timestamp": "2024-12-31T17:20:33Z",
            "version": 6,
            "changeset": 160842192,
            "user": "mpbin",
            "uid": 21850090,
            "tags": {
                "addr:city": "Prato",
                "addr:housenumber": "195",
                "addr:postcode": "59100",
                "addr:street": "Via Enrico Berlinguer",
                "brand": "Unieuro",
                "brand:wikidata": "Q4004687",
                "name": "Unieuro",
                "operator": "Unieuro S.p.A.",
                "shop": "electronics"
            }
        },
        {
            "type": "node",
            "id": 625386070,
            "lat": 43.8914021,
            "lon": 11.1009353,
            "timestamp": "2024-12-31T17:35:23Z",
            "version": 7,
            "changeset": 160842691,
            "user": "mpbin",
            "uid": 21850090,
            "tags": {
                "addr:city": "Prato",
                "addr:housenumber": "14",
                "addr:postcode": "59100",
                "addr:street": "Via Ferdinando Targetti",
                "brand": "Unieuro",
                "brand:wikidata": "Q4004687",
                "brand:wikipedia": "en:Unieuro",
                "name": "Unieuro",
                "operator": "Unieuro S.p.A.",
                "phone": "+39 0574 691842",
                "shop": "electronics",
                "website": "https://www.unieuro.it/online/negozi/Unieuro-Prato---via-Targetti"
            }
        },
        {
            "type": "node",
            "id": 677693002,
            "lat": 43.8481744,
            "lon": 11.1444052,
            "timestamp": "2025-01-03T17:15:16Z",
            "version": 5,
            "changeset": 160958473,
            "user": "mpbin",
            "uid": 21850090,
            "tags": {
                "brand": "MediaWorld",
                "brand:wikidata": "Q76504823",
                "name": "MediaWorld",
                "operator": "MediaMarket S.p.A.",
                "shop": "electronics",
                "source": "survey",
                "wheelchair": "yes"
            }
        },
        {
            "type": "node",
            "id": 715759085,
            "lat": 43.7962647,
            "lon": 11.239877,
            "timestamp": "2025-01-03T13:57:50Z",
            "version": 8,
            "changeset": 160950353,
            "user": "mpbin",
            "uid": 21850090,
            "tags": {
                "addr:city": "Firenze",
                "addr:housenumber": "12",
                "addr:street": "Piazza Dalmazia",
                "brand": "OVS",
                "brand:wikidata": "Q2042514",
                "brand:wikipedia": "it:OVS",
                "check_date": "2022-08-20",
                "name": "OVS",
                "operator": "OVS",
                "shop": "clothes"
            }
        },
        {
            "type": "node",
            "id": 1864012829,
            "lat": 43.8728232,
            "lon": 11.0645025,
            "timestamp": "2025-01-03T09:18:23Z",
            "version": 7,
            "changeset": 160939425,
            "user": "mpbin",
            "uid": 21850090,
            "tags": {
                "addr:city": "Prato",
                "addr:housenumber": "89",
                "addr:postcode": "59100",
                "addr:street": "Via delle Pleiadi",
                "brand": "Decathlon",
                "brand:wikidata": "Q509349",
                "brand:wikipedia": "en:Decathlon (retailer)",
                "name": "Decathlon",
                "opening_hours": "Mo-Sa 09:00-21:00; Su 09:00-20:00",
                "operator": "Decathlon",
                "shop": "sports",
                "wheelchair": "yes"
            }
        },
        {
            "type": "node",
            "id": 1977670183,
            "lat": 43.9086456,
            "lon": 10.9955687,
            "timestamp": "2025-01-03T17:19:35Z",
            "version": 6,
            "changeset": 160958619,
            "user": "mpbin",
            "uid": 21850090,
            "tags": {
                "name": "MediaWorld",
                "operator": "MediaMarket S.p.A.",
                "shop": "electronics"
            }
        },
        {
            "type": "node",
            "id": 2412833409,
            "lat": 43.6257939,
            "lon": 10.6213009,
            "timestamp": "2025-01-03T15:59:02Z",
            "version": 3,
            "changeset": 160955463,
            "user": "mpbin",
            "uid": 21850090,
            "tags": {
                "addr:city": "Ponsacco",
                "addr:postcode": "56038",
                "addr:street": "Via Bologna",
                "brand": "OVS",
                "brand:wikidata": "Q2042514",
                "brand:wikipedia": "en:OVS (company)",
                "name": "OVS",
                "operator": "OVS",
                "shop": "clothes"
            }
        },
        {
            "type": "node",
            "id": 2538783212,
            "lat": 43.8200192,
            "lon": 11.2099341,
            "timestamp": "2025-01-03T09:19:19Z",
            "version": 6,
            "changeset": 160939456,
            "user": "mpbin",
            "uid": 21850090,
            "tags": {
                "addr:city": "Sesto Fiorentino",
                "addr:country": "IT",
                "addr:housenumber": "19",
                "addr:postcode": "50019",
                "addr:street": "via Petrosa",
                "brand": "Decathlon",
                "brand:wikidata": "Q509349",
                "name": "Decathlon",
                "operator": "Decathlon",
                "phone": "+39 055 3985266",
                "shop": "sports",
                "website": "https://www.decathlon.it/"
            }
        },
        {
            "type": "node",
            "id": 2575758955,
            "lat": 43.7910313,
            "lon": 10.709964,
            "timestamp": "2024-10-15T07:58:51Z",
            "version": 10,
            "changeset": 157908468,
            "user": "mpbin",
            "uid": 21850090,
            "tags": {
                "addr:city": "Altopascio",
                "addr:housenumber": "116/a",
                "addr:postcode": "55011",
                "addr:street": "Via del Maggino",
                "check_date": "2024-10-15",
                "check_date:currency:XBT": "2024-10-15",
                "contact:facebook": "https://www.facebook.com/imballoinlegno.it",
                "contact:instagram": "https://www.instagram.com/imballoinlegno.it/",
                "contact:linkedin": "https://www.linkedin.com/company/imballoinlegno/",
                "contact:pinterest": "https://it.pinterest.com/nardiebanti/",
                "contact:twitter": "https://x.com/Imballoinlegno",
                "craft": "carpenter",
                "currency:XBT": "yes",
                "description": "Produzione di imballaggi in legno per l'industria e per l'arredamento, anche a norma ISPM15 per esportazione all'estero.",
                "email": "info@imballoinlegno.it",
                "name": "Nardi e Banti imballaggi srl",
                "payment:litecoin": "yes",
                "phone": "+39 0583 289258",
                "website": "https://imballoinlegno.it"
            }
        },
        {
            "type": "node",
            "id": 2576987957,
            "lat": 43.8641556,
            "lon": 10.5811948,
            "timestamp": "2024-09-18T10:43:34Z",
            "version": 5,
            "changeset": 156766121,
            "user": "mpbin",
            "uid": 21850090,
            "tags": {
                "addr:city": "Lammari",
                "addr:housenumber": "44",
                "addr:postcode": "55012",
                "addr:street": "Viale Europa",
                "amenity": "restaurant",
                "check_date": "2022-12-20",
                "contact:facebook": "https://www.facebook.com/pizzerie.marameo",
                "currency:XBT": "yes",
                "email": "prenota@marameo.lucca.it",
                "name": "Mara Meo Lammari",
                "payment:lightning": "yes",
                "payment:onchain": "yes",
                "phone": "+39 0583 436400",
                "website": "https://www.marameo-lucca.it/"
            }
        },
        {
            "type": "node",
            "id": 2671167531,
            "lat": 43.7715336,
            "lon": 11.2599932,
            "timestamp": "2024-07-05T19:20:02Z",
            "version": 8,
            "changeset": 153601671,
            "user": "mauropili",
            "uid": 1496865,
            "tags": {
                "addr:city": "Firenze",
                "addr:housenumber": "16",
                "addr:postcode": "50122",
                "addr:street": "Borgo degli Albizi",
                "currency:XBT": "yes",
                "name": "Tuscan Smoking",
                "shop": "e-cigarette",
                "survey:date": "2022-08-24",
                "website": "https://aziende.virgilio.it/smokies-fumare-digitale_3"
            }
        },
        {
            "type": "node",
            "id": 2982900042,
            "lat": 43.9304681,
            "lon": 10.9151299,
            "timestamp": "2025-01-03T16:05:45Z",
            "version": 4,
            "changeset": 160955773,
            "user": "mpbin",
            "uid": 21850090,
            "tags": {
                "addr:city": "Pistoia",
                "addr:housenumber": "13",
                "addr:postcode": "51100",
                "addr:street": "Via Atto Vannucci",
                "brand": "OVS",
                "brand:wikidata": "Q2042514",
                "name": "OVS",
                "operator": "OVS",
                "shop": "clothes"
            }
        },
        {
            "type": "node",
            "id": 3109248291,
            "lat": 43.8486025,
            "lon": 10.5237788,
            "timestamp": "2023-08-19T09:11:26Z",
            "version": 5,
            "changeset": 140086443,
            "user": "Chiarant",
            "uid": 18452174,
            "tags": {
                "addr:city": "Lucca",
                "addr:housenumber": "7",
                "addr:street": "Via Papa Giovanni XXIII",
                "amenity": "cafe",
                "check_date": "2023-06-29",
                "currency:XBT": "yes",
                "email": "info@pasticceriareginalucca.it",
                "name": "Pasticceria Regina",
                "payment:bancomat": "yes",
                "payment:lightning": "yes",
                "payment:mastercard": "yes",
                "payment:onchain": "yes",
                "payment:visa": "yes",
                "phone": "+390583954475",
                "shop": "pastry",
                "survey:date": "2023-08-16",
                "website": "https://www.pasticceriareginalucca.it/"
            }
        },
        {
            "type": "node",
            "id": 3118020509,
            "lat": 43.6276625,
            "lon": 11.462054,
            "timestamp": "2025-01-03T10:17:49Z",
            "version": 7,
            "changeset": 160941476,
            "user": "mpbin",
            "uid": 21850090,
            "tags": {
                "addr:city": "Figline Valdarno",
                "addr:housenumber": "6",
                "addr:postcode": "50063",
                "addr:street": "Via Comunit\u00e0 Europea",
                "branch": "Figline e Incisa Valdarno",
                "brand": "Decathlon",
                "brand:wikidata": "Q509349",
                "brand:wikipedia": "en:Decathlon (retailer)",
                "contact:phone": "+39 055 9154060",
                "name": "Decathlon",
                "opening_hours": "Mo-Su 09:00-20:00",
                "operator": "Decathlon",
                "shop": "sports",
                "wheelchair": "yes"
            }
        },
        {
            "type": "node",
            "id": 3209003514,
            "lat": 43.8334976,
            "lon": 10.7034311,
            "timestamp": "2025-01-02T21:09:05Z",
            "version": 5,
            "changeset": 160926295,
            "user": "mpbin",
            "uid": 21850090,
            "tags": {
                "addr:city": "Altopascio",
                "addr:housenumber": "10",
                "addr:postcode": "55011",
                "addr:street": "Via Ponte alla Ciliegia",
                "brand": "Trony",
                "brand:wikidata": "Q3999692",
                "brand:wikipedia": "it:Trony",
                "name": "Trony",
                "operator": "Trony",
                "shop": "electronics",
                "wheelchair": "yes"
            }
        },
        {
            "type": "node",
            "id": 3647648283,
            "lat": 43.8612043,
            "lon": 10.7640935,
            "timestamp": "2025-01-03T16:14:38Z",
            "version": 4,
            "changeset": 160956144,
            "user": "mpbin",
            "uid": 21850090,
            "tags": {
                "addr:city": "Montecatini Terme",
                "addr:housenumber": "48",
                "addr:postcode": "51016",
                "addr:street": "Via Biscolla",
                "brand": "OVS",
                "brand:wikidata": "Q2042514",
                "brand:wikipedia": "en:OVS (company)",
                "name": "OVS",
                "operator": "OVS",
                "shop": "clothes",
                "wheelchair": "yes"
            }
        },
        {
            "type": "node",
            "id": 3764922637,
            "lat": 43.7208534,
            "lon": 10.9488863,
            "timestamp": "2024-02-20T22:05:27Z",
            "version": 3,
            "changeset": 147709031,
            "user": "PaperJack",
            "uid": 12156681,
            "tags": {
                "addr:city": "Empoli",
                "addr:housenumber": "12",
                "addr:postcode": "50053",
                "addr:street": "Via Tinto Da Battifolle",
                "brand": "Conad City",
                "brand:wikidata": "Q57543102",
                "name": "Conad City",
                "opening_hours": "Mo-Sa 07:30-21:00, Su 08:30-20:00",
                "operator": "Conad",
                "payment:bancomat": "yes",
                "payment:cash": "yes",
                "payment:credit_cards": "yes",
                "shop": "supermarket",
                "start_date": "2020-11-14",
                "survey:date": "2024-02-20",
                "website": "https://www.conad.it/ricerca-negozi/negozio.010155.html"
            }
        },
        {
            "type": "node",
            "id": 3784590817,
            "lat": 43.842695,
            "lon": 10.5036654,
            "timestamp": "2025-01-03T14:06:00Z",
            "version": 7,
            "changeset": 160950727,
            "user": "mpbin",
            "uid": 21850090,
            "tags": {
                "addr:city": "Lucca",
                "addr:housenumber": "13",
                "addr:postcode": "55100",
                "addr:street": "Via Roma",
                "branch": "Industry",
                "brand": "OVS",
                "brand:wikidata": "Q2042514",
                "name": "OVS",
                "opening_hours": "Mo-Fr 09:00-19:30; Sa 09:00-20:00; Su,PH 10:00-13:00,15:00-19:30",
                "operator": "OVS",
                "phone": "+39 0583 467272",
                "shop": "clothes",
                "website": "https://negozi.ovs.it/en/stores/italy/lucca/ovs-lucca_01504.aspx",
                "wheelchair": "yes"
            }
        },
        {
            "type": "node",
            "id": 3796135257,
            "lat": 43.7715247,
            "lon": 11.2599468,
            "timestamp": "2024-04-16T13:07:28Z",
            "version": 8,
            "changeset": 150084634,
            "user": "Igor Bubelov",
            "uid": 2104834,
            "tags": {
                "addr:city": "Firenze",
                "addr:housenumber": "72r",
                "addr:postcode": "50122",
                "addr:street": "Borgo degli Albizi",
                "amenity": "atm",
                "check_date": "2024-04-16",
                "currency:XBT": "yes",
                "description": "Bitcoin ATM di Chainblock, situato all'interno di Tuscan Smoking.",
                "email": "info@chainblock.it",
                "name": "Chainblock ATM",
                "website": "https://chainblock.it",
                "wheelchair": "yes"
            }
        },
        {
            "type": "node",
            "id": 3813802842,
            "lat": 43.8455129,
            "lon": 10.5106394,
            "timestamp": "2024-11-29T16:34:23Z",
            "version": 12,
            "changeset": 159749010,
            "user": "mpbin",
            "uid": 21850090,
            "tags": {
                "addr:city": "Lucca",
                "addr:housenumber": "17",
                "addr:postcode": "55100",
                "addr:street": "Piazza San Francesco",
                "amenity": "restaurant",
                "check_date": "2024-11-29",
                "check_date:currency:XBT": "2024-11-29",
                "contact:facebook": "https://www.facebook.com/pizzerie.marameo",
                "contact:instagram": "https://www.instagram.com/marameopizzerie/",
                "cuisine": "italian",
                "currency:XBT": "yes",
                "email": "prenota@marameo.lucca.it",
                "name": "Mara Meo San Francesco",
                "opening_hours": "Mo-Th 12:00-15:00; 18:00-23:00; Sa-Su 12:00-15:00; 18:00-24:00",
                "outdoor_seating": "yes",
                "payment:lightning": "no",
                "payment:lightning_contactless": "no",
                "payment:onchain": "yes",
                "phone": "+39 0583 467084",
                "website": "https://www.marameo-lucca.it/"
            }
        },
        {
            "type": "node",
            "id": 4207953950,
            "lat": 43.793687,
            "lon": 11.1857952,
            "timestamp": "2019-08-24T12:46:50Z",
            "version": 2,
            "changeset": 73695628,
            "user": "trekker48",
            "uid": 961387,
            "tags": {
                "addr:city": "Firenze",
                "addr:housenumber": "209",
                "addr:postcode": "50145",
                "addr:street": "Via Pistoiese",
                "brand": "Conad",
                "brand:wikidata": "Q639075",
                "brand:wikipedia": "it:Conad",
                "name": "Conad",
                "operator": "Conad",
                "shop": "supermarket"
            }
        },
        {
            "type": "node",
            "id": 4377139792,
            "lat": 43.7910973,
            "lon": 11.2289703,
            "timestamp": "2025-01-03T17:24:31Z",
            "version": 7,
            "changeset": 160958828,
            "user": "mpbin",
            "uid": 21850090,
            "tags": {
                "addr:street": "Via Carlo Ludovico Ragghianti",
                "brand": "MediaWorld",
                "brand:wikidata": "Q76504823",
                "name": "MediaWorld",
                "opening_hours": "Mo-Sa 09:30-20:00; Su 10:00-20:00",
                "operator": "MediaMarket S.p.A.",
                "shop": "electronics"
            }
        },
        {
            "type": "node",
            "id": 4778357929,
            "lat": 44.228753,
            "lon": 11.3447045,
            "timestamp": "2024-11-19T13:24:10Z",
            "version": 6,
            "changeset": 159324565,
            "user": "mpbin",
            "uid": 21850090,
            "tags": {
                "addr:city": "Monghidoro",
                "addr:housenumber": "24",
                "addr:postcode": "40063",
                "addr:province": "Bologna",
                "addr:street": "Via Sumbilla",
                "contact:instagram": "https://www.instagram.com/datasapiens_",
                "contact:twitter": "https://x.com/datasapiens__",
                "currency:XBT": "yes",
                "description": "Datasapiens eroga competenze e specifici devices con lo scopo di tutelare il flusso informatico e finanziario di persone ed aziende in ottica privacy",
                "email": "info@datasapiens.online",
                "name": "Datasapiens S.R.L.",
                "office": "consulting",
                "payment:lightning": "yes",
                "phone": "+39 3454566438",
                "website": "https://datasapiens.online/"
            }
        },
        {
            "type": "node",
            "id": 5003769421,
            "lat": 43.7776046,
            "lon": 11.2525059,
            "timestamp": "2025-01-03T16:36:24Z",
            "version": 6,
            "changeset": 160956985,
            "user": "mpbin",
            "uid": 21850090,
            "tags": {
                "addr:city": "Firenze",
                "addr:housenumber": "29",
                "addr:postcode": "50123",
                "addr:street": "Via Nazionale",
                "brand": "OVS",
                "brand:wikidata": "Q2042514",
                "check_date": "2024-04-30",
                "name": "OVS",
                "opening_hours": "Mo-Sa 09:00-19:30; PH,Su 10:00-13:00,15:00-19:30",
                "operator": "OVS",
                "shop": "clothes",
                "wheelchair": "yes"
            }
        },
        {
            "type": "node",
            "id": 7513351699,
            "lat": 43.8987794,
            "lon": 11.0701282,
            "timestamp": "2020-05-13T06:20:26Z",
            "version": 1,
            "changeset": 85122544,
            "user": "mascalzone67",
            "uid": 1861652,
            "tags": {
                "addr:city": "Prato",
                "addr:housenumber": "3",
                "addr:postcode": "59100",
                "addr:street": "Via Anna Kuliscioff",
                "amenity": "pharmacy",
                "dispensing": "no",
                "healthcare": "pharmacy",
                "name": "Parafarmacia Conad",
                "operator": "Conad"
            }
        },
        {
            "type": "node",
            "id": 9631522101,
            "lat": 43.8412423,
            "lon": 10.6167649,
            "timestamp": "2024-07-05T19:42:51Z",
            "version": 6,
            "changeset": 153602448,
            "user": "mauropili",
            "uid": 1496865,
            "tags": {
                "addr:city": "Porcari",
                "addr:housenumber": "5",
                "addr:postcode": "55016",
                "addr:street": "Via Guglielmo Marconi",
                "amenity": "cafe",
                "check_date": "2022-12-20",
                "contact:mobile": "+39 345 807 9076",
                "contact:website": "http://www.pasticceriareginalucca.it/",
                "currency:XBT": "yes",
                "name": "Pasticceria Petit Regina",
                "opening_hours": "Tu-Su 08:00-20:00",
                "payment:lightning": "yes",
                "payment:onchain": "yes"
            }
        },
        {
            "type": "node",
            "id": 9770542786,
            "lat": 43.7139722,
            "lon": 10.9238015,
            "timestamp": "2025-01-03T17:30:51Z",
            "version": 6,
            "changeset": 160959056,
            "user": "mpbin",
            "uid": 21850090,
            "tags": {
                "brand": "MediaWorld",
                "brand:wikidata": "Q2381223",
                "name": "MediaWorld",
                "operator": "MediaMarket S.p.A.",
                "phone": "+39 057120940111",
                "shop": "electronics",
                "website": "https://www.mediaworld.it/"
            }
        },
        {
            "type": "node",
            "id": 10111933427,
            "lat": 43.7644967,
            "lon": 11.1712714,
            "timestamp": "2025-01-02T22:04:29Z",
            "version": 2,
            "changeset": 160927860,
            "user": "mpbin",
            "uid": 21850090,
            "tags": {
                "addr:city": "Scandicci",
                "addr:housenumber": "13",
                "addr:postcode": "50018",
                "addr:street": "Largo Pierluigi da Palestrina",
                "brand": "Trony",
                "brand:wikidata": "Q3999692",
                "name": "Trony",
                "operator": "Trony",
                "shop": "electronics"
            }
        },
        {
            "type": "node",
            "id": 10119266824,
            "lat": 43.9308473,
            "lon": 10.9143641,
            "timestamp": "2022-10-21T17:10:49Z",
            "version": 1,
            "changeset": 127894894,
            "user": "mascalzone67",
            "uid": 1861652,
            "tags": {
                "addr:city": "Pistoia",
                "addr:housenumber": "17",
                "addr:postcode": "51100",
                "addr:street": "Corso Antonio Gramsci",
                "name": "TuDay Conad",
                "not:brand:wikidata": "Q639075",
                "opening_hours": "Mo-Sa 08:00-20:30, Su 8:30-13:00, 15:30-20:00",
                "operator": "Conad",
                "payment:bancomat": "yes",
                "payment:cash": "yes",
                "payment:credit_cards": "yes",
                "phone": "+39 0573 26706",
                "shop": "supermarket",
                "source": "https://www.gdonews.it/2022/10/20/la-nuova-insegna-tuday-conad-inaugura-a-pistoia/",
                "start_date": "2022-10-20"
            }
        },
        {
            "type": "node",
            "id": 10138673678,
            "lat": 43.7937509,
            "lon": 11.2199873,
            "timestamp": "2024-10-13T17:13:37Z",
            "version": 5,
            "changeset": 157844781,
            "user": "mpbin",
            "uid": 21850090,
            "tags": {
                "addr:city": "Firenze",
                "addr:housenumber": "42",
                "addr:postcode": "50127",
                "addr:street": "Via di Novoli",
                "check_date": "2024-10-13",
                "contact:facebook": "https://www.facebook.com/people/ferramenta-altilio/100057285505023/",
                "contact:pinterest": "https://it.pinterest.com/altilioferramenta/",
                "currency:XBT": "yes",
                "email": "webmail@altilioferramenta.it",
                "name": "Ferramenta Altilio",
                "payment:lightning": "yes",
                "payment:lightning_contactless": "2024-10-13",
                "payment:onchain": "yes",
                "phone": "+39 055 413 640",
                "shop": "hardware",
                "survey:date": "2022-10-30",
                "website": "https://www.altilioferramenta.it/"
            }
        },
        {
            "type": "node",
            "id": 10202296781,
            "lat": 43.7227816,
            "lon": 10.9739028,
            "timestamp": "2022-11-19T17:05:15Z",
            "version": 1,
            "changeset": 129131776,
            "user": "vignaccia",
            "uid": 208336,
            "tags": {
                "brand": "Decathlon",
                "brand:wikidata": "Q509349",
                "name": "Decathlon",
                "operator": "Decathlon",
                "shop": "sports"
            }
        },
        {
            "type": "node",
            "id": 10275711661,
            "lat": 43.832708,
            "lon": 10.6158035,
            "timestamp": "2024-10-10T21:01:34Z",
            "version": 3,
            "changeset": 157733257,
            "user": "mpbin",
            "uid": 21850090,
            "tags": {
                "addr:city": "Porcari",
                "addr:housenumber": "7",
                "addr:postcode": "55016",
                "addr:street": "Via de' Casoni",
                "check_date": "2022-12-20",
                "currency:XBT": "yes",
                "email": "info@ecoprintlucchese.com",
                "name": "Ecoprint Lucchese",
                "office": "company",
                "payment:lightning": "yes",
                "payment:onchain": "yes",
                "phone": "+390583298474",
                "website": "http://www.ecoprintlucchese.com/home.php"
            }
        },
        {
            "type": "node",
            "id": 10275711662,
            "lat": 43.8442126,
            "lon": 10.4855757,
            "timestamp": "2024-07-08T16:11:50Z",
            "version": 5,
            "changeset": 153710539,
            "user": "mauropili",
            "uid": 1496865,
            "tags": {
                "addr:city": "Lucca",
                "addr:housenumber": "473",
                "addr:postcode": "55100",
                "addr:street": "Viale Giacomo Puccini",
                "amenity": "pharmacy",
                "check_date": "2022-12-20",
                "currency:XBT": "yes",
                "healthcare": "pharmacy",
                "name": "Parafarmacia Cura e Natura",
                "payment:lightning": "yes",
                "payment:onchain": "yes",
                "phone": "+3905831535745",
                "website": "https://www.curaenatura.com/"
            }
        },
        {
            "type": "node",
            "id": 10721887873,
            "lat": 43.6298198,
            "lon": 11.4614133,
            "timestamp": "2025-01-03T17:32:23Z",
            "version": 4,
            "changeset": 160959094,
            "user": "mpbin",
            "uid": 21850090,
            "tags": {
                "addr:city": "Figline e Incisa Valdarno",
                "addr:housenumber": "40",
                "addr:postcode": "50063",
                "addr:street": "Via Romania",
                "air_conditioning": "yes",
                "brand": "MediaWorld",
                "brand:wikidata": "Q2381223",
                "name": "MediaWorld",
                "opening_hours": "Mo-Sa 09:30-20:00; Su 09:30-13:30,15:30-19:30",
                "operator": "MediaMarket S.p.A.",
                "payment:cash": "yes",
                "payment:credit_cards": "yes",
                "phone": "0559506111",
                "shop": "electronics",
                "wheelchair": "yes"
            }
        },
        {
            "type": "node",
            "id": 10721944833,
            "lat": 43.6296611,
            "lon": 11.4619065,
            "timestamp": "2023-03-08T18:14:27Z",
            "version": 1,
            "changeset": 133451143,
            "user": "gi_maf",
            "uid": 18559051,
            "tags": {
                "addr:city": "Figline e Incisa Valdarno",
                "addr:housenumber": "40",
                "addr:postcode": "50063",
                "addr:street": "Via Romania",
                "brand": "OVS",
                "brand:wikidata": "Q2042514",
                "clothes": "women;underwear;men;children;sports;workwear;suits;hats",
                "name": "OVS",
                "opening_hours": "Mo-Sa 09:00-20:00; Su 08:30-13:30",
                "operator": "OVS",
                "phone": "+39 055 9154196",
                "shop": "clothes",
                "website": "https://stores.ovs.it/it/italia/toscana/firenze/ovs-figline-valdarno",
                "wheelchair": "yes"
            }
        },
        {
            "type": "node",
            "id": 10788497657,
            "lat": 43.8469029,
            "lon": 11.1427246,
            "timestamp": "2023-08-04T10:32:40Z",
            "version": 3,
            "changeset": 139434864,
            "user": "Igor Bubelov",
            "uid": 2104834,
            "tags": {
                "addr:city": "Campi Bisenzio",
                "addr:housenumber": "125",
                "addr:postcode": "50013",
                "addr:street": "Via San Quirico",
                "check_date": "2023-04-05",
                "clothes": "men",
                "currency:XBT": "yes",
                "name": "Nuvolari c.c. I Gigli",
                "payment:lightning": "no",
                "payment:lightning_contactless": "no",
                "payment:onchain": "yes",
                "phone": "0550458188",
                "shop": "clothes",
                "website": "https://www.igigli.it/shop/nuvolari/"
            }
        },
        {
            "type": "node",
            "id": 10995234405,
            "lat": 43.8947309,
            "lon": 11.0857113,
            "timestamp": "2024-07-05T19:58:32Z",
            "version": 7,
            "changeset": 153602937,
            "user": "mauropili",
            "uid": 1496865,
            "tags": {
                "addr:city": "Prato",
                "addr:housenumber": "58",
                "addr:postcode": "59100",
                "addr:street": "Via Garigliano",
                "check_date:currency:XBT": "2023-12-16",
                "currency:XBT": "yes",
                "email": "info@idigservizi.it",
                "internet_access": "wlan",
                "name": "Identit\u00e0 Digitale Tommaso",
                "name:en": "Thomas Digital Identity",
                "opening_hours": "Mo-Su 09:00-13:30",
                "payment:lightning": "yes",
                "payment:onchain": "yes",
                "shop": "computer",
                "website": "https://www.idigservizi.it/"
            }
        },
        {
            "type": "node",
            "id": 11127205683,
            "lat": 44.1449402,
            "lon": 10.6639539,
            "timestamp": "2023-08-19T10:06:00Z",
            "version": 1,
            "changeset": 140088218,
            "user": "Chiarant",
            "uid": 18452174,
            "tags": {
                "addr:city": "Abetone",
                "addr:housenumber": "321",
                "addr:street": "Strada Statale 12 dell'Abetone e del Brennero",
                "check_date": "2023-08-19",
                "currency:XBT": "yes",
                "name": "Spacciottica",
                "payment:onchain": "yes",
                "phone": "+39 0573606857",
                "shop": "optician",
                "website": "https://spacciottica.it/"
            }
        },
        {
            "type": "node",
            "id": 11127218111,
            "lat": 43.8519625,
            "lon": 10.5074554,
            "timestamp": "2023-08-19T09:38:25Z",
            "version": 1,
            "changeset": 140087318,
            "user": "Chiarant",
            "uid": 18452174,
            "tags": {
                "addr:city": "Lucca",
                "addr:housenumber": "320",
                "addr:postcode": "55100",
                "addr:street": "Via Borgo Giannotti",
                "check_date": "2023-08-19",
                "currency:XBT": "yes",
                "email": "info@spacciotticalucca.it",
                "name": "Spacciottica",
                "payment:onchain": "yes",
                "phone": "+390583342035",
                "shop": "optician",
                "website": "https://spacciottica.it/"
            }
        },
        {
            "type": "node",
            "id": 11160213374,
            "lat": 43.7915888,
            "lon": 11.2294213,
            "timestamp": "2025-01-03T09:52:19Z",
            "version": 3,
            "changeset": 160940502,
            "user": "mpbin",
            "uid": 21850090,
            "tags": {
                "addr:city": "Firenze",
                "addr:housenumber": "10",
                "addr:postcode": "50127",
                "addr:street": "Via dei Rastrelli",
                "addr:unit": "a",
                "brand": "Decathlon",
                "brand:wikidata": "Q509349",
                "name": "Decathlon",
                "opening_hours": "Mo-Su 09:00-20:00",
                "operator": "Decathlon",
                "shop": "sports"
            }
        },
        {
            "type": "node",
            "id": 11200140615,
            "lat": 44.2520768,
            "lon": 11.4329193,
            "timestamp": "2024-08-30T19:41:15Z",
            "version": 8,
            "changeset": 155989423,
            "user": "Resist2020",
            "uid": 20644993,
            "tags": {
                "addr:city": "Monterenzio",
                "addr:housenumber": "1",
                "addr:postcode": "40050",
                "addr:street": "Via Casoni di Romagna",
                "check_date": "2023-09-18",
                "check_date:currency:XBT": "2024-07-27",
                "currency:EUR": "yes",
                "currency:XBT": "yes",
                "delivery": "yes",
                "delivery:zone": "IT",
                "name": "Azienda Agricola Ca' dei Signori",
                "organic": "only",
                "payment:cash": "yes",
                "payment:coins": "yes",
                "payment:cryptocurrencies": "yes",
                "payment:lightning": "yes",
                "payment:lightning_contactless": "no",
                "payment:notes": "yes",
                "payment:onchain": "yes",
                "payment:paypal": "yes",
                "payment:satispay": "yes",
                "produce": "honey,plants,aromatics",
                "shop": "farm",
                "website": "https://www.aziendacadeisignori.it/"
            }
        },
        {
            "type": "node",
            "id": 11233246709,
            "lat": 43.8417693,
            "lon": 10.4858201,
            "timestamp": "2024-02-12T14:38:23Z",
            "version": 2,
            "changeset": 147370167,
            "user": "Igor Bubelov",
            "uid": 2104834,
            "tags": {
                "addr:city": "Lucca",
                "addr:housenumber": "492",
                "addr:postcode": "55100",
                "addr:street": "Via Pisana",
                "check_date": "2023-10-02",
                "currency:XBT": "yes",
                "description": "Negozio di assistenza computer.",
                "email": "info@mftechnology.it",
                "name": "MF Technology",
                "shop": "computer"
            }
        },
        {
            "type": "node",
            "id": 11255129975,
            "lat": 44.2247643,
            "lon": 11.0680552,
            "timestamp": "2024-09-24T12:00:06Z",
            "version": 21,
            "changeset": 157036336,
            "user": "Michele Cati",
            "uid": 20445873,
            "tags": {
                "addr:city": "Grizzana Morandi",
                "addr:housenumber": "26",
                "addr:postcode": "40030",
                "addr:street": "Via Archetta",
                "addr:unit": "f",
                "check_date": "2024-09-24",
                "check_date:currency:XBT": "2024-09-22",
                "currency:EPIC": "yes",
                "currency:ETH": "yes",
                "currency:XBT": "yes",
                "currency:XMR": "yes",
                "currency:ZANO": "yes",
                "email": "labalconcina@proton.me",
                "guest_house": "guest_house",
                "internet_access": "wlan",
                "internet_access:fee": "no",
                "name": "La Balconcina B&B",
                "payment:lightning": "yes",
                "payment:lightning_contactless": "no",
                "payment:onchain": "yes",
                "phone": "+39 34 8728 1656",
                "rooms": "2",
                "tourism": "guest_house",
                "website": "https://airbnb.com/h/labalconcina"
            }
        },
        {
            "type": "node",
            "id": 11255256454,
            "lat": 44.2308577,
            "lon": 11.053126,
            "timestamp": "2024-10-29T21:28:56Z",
            "version": 10,
            "changeset": 158517708,
            "user": "mpbin",
            "uid": 21850090,
            "tags": {
                "addr:city": "Vergato",
                "addr:housenumber": "351",
                "addr:postcode": "40038",
                "addr:street": "Via Castagnoli",
                "check_date": "2024-10-29",
                "check_date:currency:XBT": "2024-10-29",
                "contact:email": "michele@michelecati.com",
                "craft": "photographer",
                "currency:EPIC": "yes",
                "currency:ETH": "yes",
                "currency:XBT": "yes",
                "currency:XMR": "yes",
                "currency:ZANO": "yes",
                "name": "Michele Cati Fotografia",
                "operator": "Michele Cati",
                "payment:lightning": "yes",
                "payment:lightning_contactless": "no",
                "payment:onchain": "yes",
                "phone": "+39 34 8728 1656",
                "website": "https://www.michelecati.com/"
            }
        },
        {
            "type": "node",
            "id": 11255281367,
            "lat": 44.2036469,
            "lon": 11.0591517,
            "timestamp": "2024-08-17T14:11:25Z",
            "version": 15,
            "changeset": 155373005,
            "user": "Michele Cati",
            "uid": 20445873,
            "tags": {
                "addr:city": "Camugnano",
                "addr:housenumber": "54",
                "addr:postcode": "40032",
                "addr:street": "Ponte di Verzuno",
                "addr:unit": "b",
                "check_date": "2024-05-01",
                "check_date:currency:XBT": "2024-05-01",
                "contact:email": "info@mieleinformatica.com",
                "currency:EPIC": "yes",
                "currency:ETH": "yes",
                "currency:XBT": "yes",
                "currency:XMR": "yes",
                "currency:ZANO": "yes",
                "name": "Miele Informatica di Michele Cati",
                "office": "it",
                "payment:lightning": "yes",
                "payment:lightning_contactless": "no",
                "payment:onchain": "yes",
                "phone": "+39 34 8728 1656",
                "ref:vatin": "03667231207",
                "website": "https://www.mieleinformatica.com/"
            }
        },
        {
            "type": "node",
            "id": 11375064371,
            "lat": 43.6488721,
            "lon": 11.3917506,
            "timestamp": "2023-11-25T10:44:33Z",
            "version": 1,
            "changeset": 144436664,
            "user": "Chiarant",
            "uid": 18452174,
            "tags": {
                "addr:city": "Poggio alla Croce",
                "addr:housenumber": "16",
                "addr:postcode": "50022",
                "addr:street": "Localit\u00e0 Musignana",
                "amenity": "animal_boarding",
                "check_date": "2023-11-25",
                "currency:XBT": "yes",
                "name": "Mayra e Sasha - Pensione Casalinga",
                "website": "https://www.dogsitterfiglinevaldarno.com/"
            }
        },
        {
            "type": "node",
            "id": 11418023292,
            "lat": 43.8835574,
            "lon": 11.0824179,
            "timestamp": "2024-10-06T17:49:29Z",
            "version": 3,
            "changeset": 157551772,
            "user": "mpbin",
            "uid": 21850090,
            "tags": {
                "addr:city": "Prato",
                "addr:postcode": "59100",
                "addr:street": "Via Giudo Monaco",
                "amenity": "arts_centre",
                "check_date": "2024-10-06",
                "check_date:currency:XBT": "2024-10-06",
                "contact:facebook": "https://www.facebook.com/LanarchicoPrato/",
                "contact:instagram": "https://www.instagram.com/lanarchico_prato/",
                "contact:twitter": "https://x.com/LanarchicoPrato",
                "currency:XBT": "yes",
                "email": "lanarchicoprato@gmail.com",
                "mobile": "+39 331 366 4642",
                "name": "Lanarchico",
                "payment:lightning": "yes",
                "payment:onchain": "yes",
                "website": "https://linktr.ee/lanarchico"
            }
        },
        {
            "type": "node",
            "id": 11540683992,
            "lat": 43.4781259,
            "lon": 11.1310074,
            "timestamp": "2025-01-02T22:17:36Z",
            "version": 2,
            "changeset": 160928164,
            "user": "mpbin",
            "uid": 21850090,
            "tags": {
                "addr:city": "Poggibonsi",
                "addr:postcode": "53036",
                "addr:street": "Strada Provinciale di San Gimignano",
                "brand": "Trony",
                "brand:wikidata": "Q3999692",
                "name": "Trony",
                "operator": "Trony",
                "shop": "electronics"
            }
        },
        {
            "type": "node",
            "id": 11819774023,
            "lat": 43.8253425,
            "lon": 11.127688,
            "timestamp": "2024-04-15T18:39:04Z",
            "version": 1,
            "changeset": 150053590,
            "user": "Chiarant",
            "uid": 18452174,
            "tags": {
                "addr:city": "Campi Bisenzio",
                "addr:housenumber": "30",
                "addr:street": "Via Pier Paolo Pasolini",
                "amenity": "restaurant",
                "check_date": "2024-04-15",
                "cuisine": "regional",
                "currency:XBT": "yes",
                "description": "Braceria toscana solo carne rossa",
                "diet:meat": "yes",
                "email": "info@carnam.it",
                "name": "Carnam Ciccia Club",
                "phone": "+39 378 305 3350",
                "website": "https://www.carnam.it/"
            }
        },
        {
            "type": "node",
            "id": 11879303927,
            "lat": 43.8914565,
            "lon": 11.016168,
            "timestamp": "2025-01-01T21:37:54Z",
            "version": 2,
            "changeset": 160886348,
            "user": "mpbin",
            "uid": 21850090,
            "tags": {
                "addr:city": "Agliana",
                "addr:housenumber": "85",
                "addr:postcode": "51031",
                "addr:street": "Via Panaro",
                "brand": "Unieuro",
                "brand:wikidata": "Q4004687",
                "brand:wikipedia": "en:Unieuro",
                "name": "Unieuro",
                "operator": "Unieuro S.p.A.",
                "shop": "electronics"
            }
        },
        {
            "type": "node",
            "id": 11919563705,
            "lat": 44.2149974,
            "lon": 10.9006228,
            "timestamp": "2024-05-20T14:01:40Z",
            "version": 4,
            "changeset": 151582283,
            "user": "Benjamin De Lorenzo Gardinal",
            "uid": 21543332,
            "tags": {
                "addr:city": "Montese",
                "addr:housenumber": "500",
                "addr:postcode": "41055",
                "addr:street": "Via Ronchidoso",
                "currency:EUR": "yes",
                "currency:USD": "yes",
                "currency:XBT": "yes",
                "email": "info@xoobit.com",
                "image": "https://www.xoobit.com/themes/xoobit/frontend/images/ico.png",
                "name": "Xoobit - Sviluppo web",
                "office": "it",
                "opening_hours": "24/7",
                "payment:lightning": "no",
                "payment:lightning_contactless": "no",
                "payment:onchain": "yes",
                "phone": "+393476815600",
                "start_date": "2018-03-01",
                "survey:date": "2024-05-20",
                "website": "https://www.xoobit.com/"
            }
        },
        {
            "type": "node",
            "id": 11925854975,
            "lat": 43.8113167,
            "lon": 11.2341989,
            "timestamp": "2024-06-11T19:39:16Z",
            "version": 3,
            "changeset": 152559157,
            "user": "Rockedf",
            "uid": 7522075,
            "tags": {
                "addr:city": "Florence",
                "addr:housenumber": "236",
                "addr:postcode": "50141",
                "addr:street": "Via delle Panche",
                "amenity": "atm",
                "cash_in": "yes",
                "cash_out": "yes",
                "cash_withdrawal": "yes",
                "check_date": "2024-05-22",
                "contact:email": "support@shitcoins.club",
                "contact:facebook": "https://www.facebook.com/shitcoins.club",
                "contact:instagram": "https://www.instagram.com/shitcoinsclub",
                "contact:telegram": "https://t.me/shitcoinsclub",
                "contact:twitter": "https://twitter.com/BitomatCom",
                "currency:CHF": "yes",
                "currency:DASH": "yes",
                "currency:ETH": "yes",
                "currency:EUR": "yes",
                "currency:GBP": "yes",
                "currency:HUF": "yes",
                "currency:LTC": "yes",
                "currency:RON": "yes",
                "currency:USD": "yes",
                "currency:USDC": "yes",
                "currency:USDT": "yes",
                "currency:XBT": "yes",
                "indoor": "yes",
                "name": "Bitcoin ATM - Shitcoins.club",
                "opening_hours": "24/7",
                "operator": "Shitcoins.club",
                "payment:cash": "yes",
                "payment:lightning": "no",
                "payment:lightning_contactless": "no",
                "payment:onchain": "yes",
                "phone": "+39 34 8048 7308",
                "website": "https://shitcoins.club/localizzazione-atm/atm-bitcoin-florence-via-delle-panche"
            }
        },
        {
            "type": "node",
            "id": 12168280526,
            "lat": 44.2100373,
            "lon": 11.490843,
            "timestamp": "2024-10-08T19:06:23Z",
            "version": 2,
            "changeset": 157642260,
            "user": "mpbin",
            "uid": 21850090,
            "tags": {
                "addr:city": "Castel del Rio",
                "addr:housenumber": "1229",
                "addr:postcode": "40022",
                "addr:street": "Via della Casaccia",
                "check_date": "2024-10-08",
                "check_date:currency:XBT": "2024-10-08",
                "contact:telegram": "https://t.me/VincoCdR",
                "currency:XBT": "yes",
                "description": "Appartamento ammobiliato ad uso turistico",
                "email": "leobetta.vinco@gmail.com",
                "name": "Vinco",
                "payment:lightning": "yes",
                "phone": "+39 349 368 0615",
                "tourism": "apartment",
                "website": "http://vinco.altervista.org/"
            }
        },
        {
            "type": "way",
            "id": 109770103,
            "timestamp": "2025-01-06T14:40:42Z",
            "version": 14,
            "changeset": 161061019,
            "user": "mpbin",
            "uid": 21850090,
            "nodes": [
                1255701487,
                1255701491,
                1255701504,
                6837554599,
                2003731806,
                4305663143,
                1255701663,
                1255701493,
                1255701555,
                1255701616,
                1255701644,
                1255701513,
                7046642309,
                1255701511,
                1255701487
            ],
            "tags": {
                "addr:city": "Sesto Fiorentino",
                "addr:housenumber": "1",
                "addr:postcode": "50019",
                "addr:street": "Via Francesco Redi",
                "brand": "IKEA",
                "brand:wikidata": "Q54078",
                "brand:wikipedia": "en:IKEA",
                "building": "yes",
                "name": "IKEA",
                "opening_hours": "Mo-Fr 09:00-20:00; Sa,Su 09:00-21:00",
                "operator": "Ikea Italia Retail S.r.l.",
                "phone:IT": "199 11 46 46",
                "shop": "furniture",
                "website": "https://www.ikea.com/it/it/",
                "wheelchair": "yes"
            }
        },
        {
            "type": "way",
            "id": 255482371,
            "timestamp": "2020-05-13T06:22:22Z",
            "version": 2,
            "changeset": 85122659,
            "user": "mascalzone67",
            "uid": 1861652,
            "nodes": [
                2611691095,
                2611691096,
                2611691097,
                2611691098,
                2611691099,
                2611691100,
                2611691101,
                2611691102,
                2611691103,
                2611691104,
                2611691095
            ],
            "tags": {
                "addr:city": "Prato",
                "addr:housenumber": "3",
                "addr:postcode": "59100",
                "addr:street": "Via Anna Kuliscioff",
                "brand": "Conad",
                "brand:wikidata": "Q639075",
                "brand:wikipedia": "it:Conad",
                "building": "retail",
                "name": "Conad",
                "opening_hours": "Mo-Su 07:30-21:00",
                "operator": "Conad",
                "payment:bancomat": "yes",
                "payment:cash": "yes",
                "payment:credit_cards": "yes",
                "phone": "+39 0574 651618",
                "shop": "supermarket",
                "website": "https://www.conad.it/ricerca-negozi/negozio.004839.html"
            }
        },
        {
            "type": "way",
            "id": 458843592,
            "timestamp": "2019-02-10T18:57:50Z",
            "version": 2,
            "changeset": 67079826,
            "user": "fgouget",
            "uid": 2678738,
            "nodes": [
                3814209413,
                3814209414,
                3814209415,
                4547834385,
                4547834153,
                3814209411,
                4547834281,
                4547834387,
                4547834251,
                4547834285,
                4547834386,
                3814209413
            ],
            "tags": {
                "addr:city": "Firenze",
                "addr:housenumber": "49",
                "addr:postcode": "50136",
                "addr:street": "Via di Rocca Tedalda",
                "building": "yes",
                "name": "Conad City MAJA srl",
                "opening_hours": "Mo-Sa 08:00-20:30; Su 09:00-13:30,15:30-19:30",
                "operator": "Conad",
                "phone": "+39055 690804",
                "shop": "department_store",
                "wheelchair": "yes"
            }
        },
        {
            "type": "way",
            "id": 463899810,
            "timestamp": "2024-12-03T19:55:34Z",
            "version": 3,
            "changeset": 159894978,
            "user": "mpbin",
            "uid": 21850090,
            "nodes": [
                4591038773,
                4591038900,
                4591038754,
                4591039166,
                4591038773
            ],
            "tags": {
                "brand": "Trony",
                "brand:wikidata": "Q3999692",
                "building": "yes",
                "name": "Trony",
                "operator": "Trony",
                "shop": "electronics"
            }
        },
        {
            "type": "way",
            "id": 464802122,
            "timestamp": "2023-10-09T10:07:21Z",
            "version": 5,
            "changeset": 142342379,
            "user": "mau59",
            "uid": 257767,
            "nodes": [
                4598743948,
                4598744138,
                4598744149,
                4598743893,
                4598743904,
                4598744085,
                4598744096,
                9275689810,
                4598744044,
                4598744059,
                4598743792,
                4598743784,
                4598743879,
                9275732928,
                9275732917,
                4598743948
            ],
            "tags": {
                "addr:city": "Firenze",
                "addr:housenumber": "111",
                "addr:postcode": "50126",
                "addr:street": "Via Erbosa",
                "brand": "Trony",
                "brand:wikidata": "Q3999692",
                "brand:wikipedia": "it:Trony",
                "building": "retail",
                "name": "Trony",
                "operator": "Trony",
                "shop": "electronics"
            }
        },
        {
            "type": "way",
            "id": 476927487,
            "timestamp": "2024-12-08T15:33:43Z",
            "version": 3,
            "changeset": 160061031,
            "user": "b-jazz-bot",
            "uid": 9451067,
            "nodes": [
                4703473954,
                4703473535,
                4703473540,
                4703474032,
                4703473954
            ],
            "tags": {
                "building": "yes",
                "craft": "handicraft",
                "currency:XBT": "yes",
                "name": "Stenopeika Large Format Cameras",
                "payment:lightning": "yes",
                "payment:lightning_contactless": "yes",
                "payment:onchain": "yes",
                "phone": "+3905731716127",
                "website": "https://www.stenopeika.com/"
            }
        },
        {
            "type": "way",
            "id": 540037084,
            "timestamp": "2023-07-31T14:41:06Z",
            "version": 4,
            "changeset": 139257764,
            "user": "BTC Map",
            "uid": 18545877,
            "nodes": [
                5225047799,
                5225047477,
                5225046990,
                5225047500,
                5225047860,
                5225047795,
                5225047828,
                10199159228,
                5225047823,
                5225047847,
                5225047871,
                5225047929,
                5225047373,
                5225047358,
                10199159229,
                5225047954,
                5225047964,
                5225047799
            ],
            "tags": {
                "brand": "Mondo Convenienza",
                "brand:wikidata": "Q55830962",
                "building": "yes",
                "check_date:currency:XBT": "2023-07-31",
                "currency:XBT": "yes",
                "name": "Mondo Convenienza",
                "operator": "Mondo Convenienza",
                "payment:cash": "yes",
                "payment:credit_cards": "yes",
                "payment:debit_cards": "yes",
                "shop": "furniture"
            }
        },
        {
            "type": "way",
            "id": 599250609,
            "timestamp": "2025-01-06T12:31:46Z",
            "version": 3,
            "changeset": 161055691,
            "user": "mpbin",
            "uid": 21850090,
            "nodes": [
                5701762798,
                5701762799,
                5701762800,
                5701762801,
                5701762802,
                5701762803,
                5701762804,
                5701762805,
                5701762806,
                5701762807,
                5701762808,
                5701762809,
                5701762810,
                5701762811,
                5701762812,
                4591038762,
                3734577211,
                5701762813,
                5701762798
            ],
            "tags": {
                "access": "permissive",
                "amenity": "parking",
                "name": "Parcheggio",
                "operator": "Conad",
                "parking": "surface",
                "supervised": "no"
            }
        },
        {
            "type": "way",
            "id": 850278650,
            "timestamp": "2025-01-06T12:34:07Z",
            "version": 4,
            "changeset": 161055790,
            "user": "mpbin",
            "uid": 21850090,
            "nodes": [
                7932566911,
                9275689813,
                9275732921,
                9275732943,
                4592448874,
                4592448935,
                9275732937,
                4598744021,
                9275732940,
                9275732928,
                4598743879,
                4598743784,
                4598743792,
                4598744059,
                4598744044,
                9275689810,
                9275689808,
                4598744055,
                7932566919,
                9275732918,
                9275732931,
                7932566920,
                7932566911
            ],
            "tags": {
                "access": "customers",
                "amenity": "parking",
                "name": "Parcheggio",
                "operator": "Trony",
                "operator:type": "private",
                "parking": "surface",
                "surface": "asphalt"
            }
        }
    ],
    "telegram": []
}