{
    "id": "ss-palermo-e-sicilia-occ",
    "name": "Satoshi Spritz Palermo (e Sicilia Occidentale)",
    "lng": 38.11569725,
    "lat": 13.36235675,
    "localita": "Palermo (e Sicilia Occidentale)",
    "idlocalita": "palermo",
    "telegram_weburl": "https://web.telegram.org/a/#-1001737216631",
    "telegram_app": "https://t.me/SatoshiSpritzPalermo",
    "telegram_members": 62.0,
    "network": "satoshispritz",
    "poi": [
        {
            "type": "node",
            "id": 5710611329,
            "lat": 38.1069016,
            "lon": 13.340126,
            "timestamp": "2024-04-14T09:50:22Z",
            "version": 8,
            "changeset": 149984515,
            "user": "Chiarant",
            "uid": 18452174,
            "tags": {
                "addr:city": "Palermo",
                "addr:housenumber": "220",
                "addr:postcode": "90145",
                "addr:street": "Corso Calatafimi",
                "amenity": "atm",
                "check_date": "2024-04-14",
                "currency:XBT": "yes",
                "description": "Bitcoin ATM che permette di acquistare Bitcoin, Ethereum, Litecoin, Dogecoin, Bitcoin Cash, Dash, Monero. L'ATM \u00e8 situato all'interno del negozio LOP STORE",
                "email": "support@cryptolocalatm.com",
                "name": "CryptoLocalATM C/o LOP STORE",
                "payment:onchain": "yes",
                "phone": "+447894438974",
                "website": "https://cryptolocalatm.com"
            }
        },
        {
            "type": "node",
            "id": 7522945573,
            "lat": 38.0956766,
            "lon": 13.3624443,
            "timestamp": "2022-02-13T19:40:59Z",
            "version": 4,
            "changeset": 117367020,
            "user": "fayor",
            "uid": 743479,
            "tags": {
                "addr:city": "Palermo",
                "addr:housenumber": "79",
                "addr:postcode": "90100",
                "addr:street": "Via Villagrazia",
                "brand": "Conad",
                "brand:wikidata": "Q639075",
                "brand:wikipedia": "it:Conad",
                "name": "Conad",
                "opening_hours": "Mo-Sa 09:00-20:30; Su 09:00-20:30",
                "operator": "Conad",
                "payment:bancomat": "yes",
                "payment:cash": "yes",
                "payment:credit_cards": "yes",
                "phone": "+39 091 6157212",
                "shop": "supermarket",
                "website": "https://www.conad.it/ricerca-negozi/negozio.009155.html"
            }
        },
        {
            "type": "node",
            "id": 7522952285,
            "lat": 38.1567878,
            "lon": 13.319282,
            "timestamp": "2024-02-14T15:15:10Z",
            "version": 3,
            "changeset": 147453865,
            "user": "\u0110uro Ji\u0159\u00ed",
            "uid": 14617702,
            "tags": {
                "addr:city": "Palermo",
                "addr:housenumber": "3",
                "addr:postcode": "90146",
                "addr:street": "Via Ugo La Malfa",
                "amenity": "pharmacy",
                "dispensing": "no",
                "healthcare": "pharmacy",
                "name": "Parafarmacia Conad",
                "operator": "Conad",
                "wheelchair": "yes"
            }
        },
        {
            "type": "node",
            "id": 7522973272,
            "lat": 38.0954951,
            "lon": 13.3625676,
            "timestamp": "2020-05-15T13:52:18Z",
            "version": 1,
            "changeset": 85265432,
            "user": "mascalzone67",
            "uid": 1861652,
            "tags": {
                "addr:city": "Palermo",
                "addr:housenumber": "79",
                "addr:postcode": "90100",
                "addr:street": "Via Villagrazia",
                "amenity": "pharmacy",
                "dispensing": "no",
                "healthcare": "pharmacy",
                "name": "Parafarmacia Conad",
                "operator": "Conad"
            }
        },
        {
            "type": "node",
            "id": 7525236376,
            "lat": 38.055411,
            "lon": 13.1133005,
            "timestamp": "2020-05-16T07:27:09Z",
            "version": 1,
            "changeset": 85292513,
            "user": "mascalzone67",
            "uid": 1861652,
            "tags": {
                "addr:city": "Partinico",
                "addr:housenumber": "87",
                "addr:postcode": "90047",
                "addr:street": "Viale dei Platani",
                "amenity": "pharmacy",
                "dispensing": "no",
                "healthcare": "pharmacy",
                "name": "Parafarmacia Conad",
                "operator": "Conad"
            }
        },
        {
            "type": "node",
            "id": 7525308301,
            "lat": 38.0845652,
            "lon": 13.4502246,
            "timestamp": "2020-05-16T07:38:48Z",
            "version": 1,
            "changeset": 85292891,
            "user": "mascalzone67",
            "uid": 1861652,
            "tags": {
                "addr:city": "Villabate",
                "addr:housenumber": "257",
                "addr:postcode": "90039",
                "addr:street": "Via Alcide De Gasperi",
                "amenity": "pharmacy",
                "dispensing": "no",
                "healthcare": "pharmacy",
                "name": "Parafarmacia Conad",
                "operator": "Conad"
            }
        },
        {
            "type": "node",
            "id": 7525314832,
            "lat": 38.0518878,
            "lon": 13.1295855,
            "timestamp": "2022-02-13T19:40:59Z",
            "version": 3,
            "changeset": 117367020,
            "user": "fayor",
            "uid": 743479,
            "tags": {
                "addr:city": "Borgetto",
                "addr:postcode": "90042",
                "addr:street": "Via Dommartino",
                "brand": "Conad",
                "brand:wikidata": "Q639075",
                "brand:wikipedia": "it:Conad",
                "email": "essegi-1@virgilio.it",
                "name": "Conad",
                "opening_hours": "Mo-Su 09:00-13:45,16:00-20:30",
                "operator": "Conad",
                "payment:bancomat": "yes",
                "payment:cash": "yes",
                "payment:credit_cards": "yes",
                "phone": "+39 091 8919395",
                "shop": "supermarket",
                "website": "https://www.conad.it/ricerca-negozi/negozio.007560.html"
            }
        },
        {
            "type": "node",
            "id": 7525322999,
            "lat": 38.0519469,
            "lon": 13.1298001,
            "timestamp": "2020-05-16T07:43:30Z",
            "version": 1,
            "changeset": 85293062,
            "user": "mascalzone67",
            "uid": 1861652,
            "tags": {
                "addr:city": "Borgetto",
                "addr:postcode": "90042",
                "addr:street": "Via Dommartino",
                "amenity": "pharmacy",
                "dispensing": "no",
                "healthcare": "pharmacy",
                "name": "Parafarmacia Conad",
                "operator": "Conad"
            }
        },
        {
            "type": "node",
            "id": 11353695812,
            "lat": 37.7441396,
            "lon": 13.6044122,
            "timestamp": "2023-11-16T09:29:29Z",
            "version": 1,
            "changeset": 144086145,
            "user": "ross-map",
            "uid": 8215303,
            "tags": {
                "brand": "Conad",
                "brand:wikidata": "Q639075",
                "brand:wikipedia": "it:Conad",
                "name": "Supermecato Conad",
                "operator": "Conad",
                "payment:bancomat": "yes",
                "payment:cash": "yes",
                "payment:credit_cards": "yes",
                "shop": "supermarket",
                "website": "https://www.conad.it/ricerca-negozi/negozio.008966.html"
            }
        },
        {
            "type": "node",
            "id": 11433129234,
            "lat": 37.9326062,
            "lon": 13.665301,
            "timestamp": "2023-12-19T22:48:13Z",
            "version": 1,
            "changeset": 145309680,
            "user": "Chiarant",
            "uid": 18452174,
            "tags": {
                "addr:city": "Caccamo",
                "addr:housenumber": "144",
                "addr:postcode": "90012",
                "addr:street": "Corso Umberto Primo",
                "check_date": "2023-12-19",
                "currency:XBT": "yes",
                "email": "info@gioiellerialbanese.it",
                "name": "Gioielleria Albanese",
                "phone": "+39 091 8121440",
                "shop": "jewelry",
                "website": "https://gioiellerialbanese.it/"
            }
        },
        {
            "type": "node",
            "id": 11537311210,
            "lat": 38.1582476,
            "lon": 13.1716835,
            "timestamp": "2024-02-25T11:57:44Z",
            "version": 2,
            "changeset": 147887582,
            "user": "Igor Bubelov",
            "uid": 2104834,
            "tags": {
                "addr:city": "Carini",
                "addr:housenumber": "85",
                "addr:postcode": "90044",
                "addr:street": "Via Nazionale",
                "check_date": "2024-01-21",
                "currency:XBT": "yes",
                "description": "Casa vacanza a 10 minuti dall'aeroporto di Palermo.",
                "email": "acasadiste@gmail.com",
                "name": "A casa di Ste'",
                "phone": "+39 3289514162",
                "tourism": "apartment",
                "website": "https://www.airbnb.it/rooms/11705866"
            }
        },
        {
            "type": "node",
            "id": 12314553169,
            "lat": 38.1232662,
            "lon": 13.3564683,
            "timestamp": "2024-11-05T15:45:55Z",
            "version": 1,
            "changeset": 158784465,
            "user": "mpbin",
            "uid": 21850090,
            "tags": {
                "addr:city": "Palermo",
                "addr:housenumber": "52",
                "addr:postcode": "90141",
                "addr:street": "Via Ruggero Settimo",
                "brand": "DOPPELG\u00c4NGER",
                "contact:facebook": "https://www.facebook.com/doppelganger.abbigliamento/",
                "contact:instagram": "https://www.instagram.com/doppelgangerofficial/",
                "currency:XBT": "yes",
                "name": "Doppelg\u00e4nger palermo ruggerosettimo",
                "shop": "clothes",
                "website": "https://www.doppelganger.it/"
            }
        }
    ],
    "telegram": []
}