{
    "id": "ss-parma-e-piacenza",
    "name": "Satoshi Spritz Parma e Piacenza",
    "lng": 45.052621,
    "lat": 9.692984,
    "localita": "Parma e Piacenza",
    "idlocalita": "parma",
    "telegram_weburl": "https://web.telegram.org/a/#-1001926008431",
    "telegram_app": "https://t.me/SatoshiSpritzParmaePiacenza",
    "telegram_members": 105.0,
    "network": "satoshispritz",
    "poi": [
        {
            "type": "node",
            "id": 1797393762,
            "lat": 45.305864,
            "lon": 9.508433,
            "timestamp": "2023-07-07T18:18:25Z",
            "version": 4,
            "changeset": 138239702,
            "user": "Chiarant",
            "uid": 18452174,
            "tags": {
                "addr:city": "Lodi",
                "addr:housenumber": "67",
                "addr:street": "Corso Giuseppe Mazzini",
                "check_date": "2023-07-07",
                "currency:XBT": "yes",
                "name": "Ecotaurus - Noleggio Bagni Chimici",
                "shop": "trade",
                "source": "Cartografia Provincia di Lodi",
                "website": "https://www.ecotaurus.it/"
            }
        },
        {
            "type": "node",
            "id": 2389503405,
            "lat": 45.3536264,
            "lon": 9.6636353,
            "timestamp": "2022-11-08T07:54:20Z",
            "version": 2,
            "changeset": 128627733,
            "user": "BSN21M",
            "uid": 17441326,
            "tags": {
                "addr:city": "Crema",
                "addr:postcode": "26013",
                "addr:street": "Via Cappuccini",
                "currency:XBT": "yes",
                "name": "Matilde Parrucchiera",
                "payment:lightning": "no",
                "payment:lightning_contactless": "no",
                "payment:onchain": "yes",
                "phone": "+39 037330293",
                "shop": "hairdresser",
                "survey:date": "2022-11-08",
                "unisex": "yes",
                "website": "https://www.facebook.com/matildeparrucchiera/"
            }
        },
        {
            "type": "node",
            "id": 2404906848,
            "lat": 45.3662308,
            "lon": 9.6291806,
            "timestamp": "2025-01-01T22:57:38Z",
            "version": 8,
            "changeset": 160888120,
            "user": "mpbin",
            "uid": 21850090,
            "tags": {
                "addr:city": "Bagnolo Cremasco",
                "addr:postcode": "26010",
                "addr:street": "Strada Provinciale 415 Paullese",
                "brand": "Trony",
                "brand:wikidata": "Q3999692",
                "name": "Trony",
                "operator": "Trony",
                "shop": "electronics"
            }
        },
        {
            "type": "node",
            "id": 3344567960,
            "lat": 45.481276,
            "lon": 9.7813136,
            "timestamp": "2025-01-02T21:10:35Z",
            "version": 12,
            "changeset": 160926333,
            "user": "mpbin",
            "uid": 21850090,
            "tags": {
                "addr:city": "Antegnate",
                "addr:housenumber": "3",
                "addr:postcode": "24051",
                "addr:street": "Via del commercio",
                "brand": "Trony",
                "brand:wikidata": "Q3999692",
                "brand:wikipedia": "it:Trony",
                "check_date": "2024-07-06",
                "check_date:opening_hours": "2024-07-06",
                "level": "1",
                "name": "Trony",
                "opening_hours": "Mo-Su 09:00-20:00",
                "operator": "Trony",
                "shop": "electronics",
                "toilets": "no",
                "wheelchair": "yes"
            }
        },
        {
            "type": "node",
            "id": 4756783299,
            "lat": 44.8610971,
            "lon": 10.0676522,
            "timestamp": "2024-03-14T17:04:28Z",
            "version": 2,
            "changeset": 148652536,
            "user": "Chiarant",
            "uid": 18452174,
            "tags": {
                "addr:city": "Fidenza",
                "addr:housenumber": "3",
                "addr:postcode": "43036",
                "addr:street": "Via Francesco Baracca",
                "check_date": "2024-03-14",
                "contact:facebook": "https://www.facebook.com/p/Dolcepasta-Cavallo-100064162410169/",
                "currency:XBT": "yes",
                "description": "Siamo un laboratorio/vendita di pasta fresca, dolci caserecci e piccola gastronomia.\nTutto esclusivamente di nostra produzione.",
                "name": "DolcePasta Cavallo di Dioni Barbara",
                "payment:lightning": "yes",
                "payment:lightning_contactless": "no",
                "payment:onchain": "no",
                "phone": "+39 347 149 5268",
                "shop": "pasta"
            }
        },
        {
            "type": "node",
            "id": 4932271986,
            "lat": 45.0015109,
            "lon": 9.0710686,
            "timestamp": "2024-09-09T14:58:16Z",
            "version": 4,
            "changeset": 156398868,
            "user": "damianeue",
            "uid": 10124288,
            "tags": {
                "addr:city": "Montebello della Battaglia",
                "addr:postcode": "27054",
                "brand": "Mondo Convenienza",
                "brand:wikidata": "Q55830962",
                "check_date:currency:XBT": "2023-07-31",
                "currency:XBT": "yes",
                "name": "Mondo Convenienza",
                "shop": "furniture"
            }
        },
        {
            "type": "node",
            "id": 4962059509,
            "lat": 45.1647929,
            "lon": 9.1357787,
            "timestamp": "2025-01-01T18:25:22Z",
            "version": 4,
            "changeset": 160879868,
            "user": "mpbin",
            "uid": 21850090,
            "tags": {
                "addr:city": "San Martino Siccomario",
                "addr:housenumber": "8",
                "addr:postcode": "27028",
                "addr:street": "Via Piemonte",
                "brand": "Unieuro",
                "brand:wikidata": "Q4004687",
                "name": "Unieuro",
                "operator": "Unieuro S.p.A.",
                "shop": "electronics"
            }
        },
        {
            "type": "node",
            "id": 5351518575,
            "lat": 45.3020694,
            "lon": 9.7554851,
            "timestamp": "2024-06-18T11:33:47Z",
            "version": 11,
            "changeset": 152844218,
            "user": "descubrebitcoin",
            "uid": 17565129,
            "tags": {
                "addr:city": "Castelleone",
                "addr:housenumber": "9",
                "addr:postcode": "26012",
                "addr:street": "Via Mariani",
                "amenity": "dentist",
                "check_date:currency:XBT": "2018-01-20",
                "currency:XBT": "yes",
                "email": "mar_anti@yahoo.it",
                "healthcare": "dentist",
                "healthcare:speciality": "orthodontics",
                "name": "Studio dentistico dott. Marco Antinori",
                "operator": "Dott. Marco Antinori",
                "payment:litecoin": "yes",
                "phone": "+39 037457727",
                "website": "http://studioantinori.com"
            }
        },
        {
            "type": "node",
            "id": 5742258055,
            "lat": 45.1336971,
            "lon": 10.0232059,
            "timestamp": "2023-06-02T13:31:15Z",
            "version": 4,
            "changeset": 136868712,
            "user": "paulbrunner",
            "uid": 15541433,
            "tags": {
                "addr:city": "Cremona",
                "addr:housenumber": "20",
                "addr:postcode": "26100",
                "addr:street": "Piazza Antonio Stradivari",
                "amenity": "cafe",
                "check_date": "2022-12-20",
                "currency:XBT": "yes",
                "name": "Chocabeck",
                "opening_hours": "Tu-Fr 12:00-15:00,18:00-26:00",
                "operator": "Mama S.r.l.",
                "payment:lightning": "yes",
                "payment:onchain": "yes",
                "phone": "+39037234988",
                "ref:vatin": "IT01572680195",
                "website": "https://chocabeck.net/"
            }
        },
        {
            "type": "node",
            "id": 6185696785,
            "lat": 45.1336065,
            "lon": 10.0227861,
            "timestamp": "2024-03-03T11:08:27Z",
            "version": 3,
            "changeset": 148161072,
            "user": "Chiarant",
            "uid": 18452174,
            "tags": {
                "addr:city": "Cremona",
                "addr:housenumber": "17",
                "addr:postcode": "26100",
                "addr:street": "Piazza Antonio Stradivari",
                "amenity": "bar",
                "check_date": "2024-03-03",
                "currency:XBT": "yes",
                "name": "Di Bianco",
                "payment:lightning": "no",
                "payment:onchain": "yes"
            }
        },
        {
            "type": "node",
            "id": 6758886855,
            "lat": 44.8432632,
            "lon": 10.0157361,
            "timestamp": "2024-10-11T13:41:06Z",
            "version": 11,
            "changeset": 157757849,
            "user": "Chiarant",
            "uid": 18452174,
            "tags": {
                "addr:city": "Fidenza",
                "addr:housenumber": "32",
                "addr:place": "Ponte Ghiara",
                "addr:postcode": "43036",
                "amenity": "restaurant",
                "check_date": "2024-10-11",
                "contact:email": "info@bar50special.it",
                "contact:facebook": "https://www.facebook.com/bar50special/",
                "cuisine": "pizza;coffee_shop;italian",
                "currency:XBT": "yes",
                "email": "info@bar50special.it",
                "name": "50 Special",
                "opening_hours": "Mo-Su 07:00-01:30",
                "payment:lightning": "yes",
                "payment:lightning_contactless": "yes",
                "payment:onchain": "no",
                "phone": "+39 0524 202364"
            }
        },
        {
            "type": "node",
            "id": 6961538410,
            "lat": 45.2942693,
            "lon": 9.7636712,
            "timestamp": "2023-11-03T20:49:15Z",
            "version": 5,
            "changeset": 143591052,
            "user": "b-jazz-bot",
            "uid": 9451067,
            "tags": {
                "addr:city": "Castelleone",
                "addr:housenumber": "5",
                "addr:postcode": "26012",
                "addr:street": "Via Garibaldi",
                "air_conditioning": "yes",
                "check_date:currency:XBT": "2022-12-09",
                "craft": "photographer",
                "currency:XBT": "yes",
                "email": "info@fotorizzotti.it",
                "internet_access": "wlan",
                "name": "Foto Rizzotti",
                "payment:lightning": "yes",
                "payment:onchain": "yes",
                "phone": "+39 0374350151",
                "website": "https://www.fotorizzotti.it/",
                "wheelchair": "yes"
            }
        },
        {
            "type": "node",
            "id": 7252184316,
            "lat": 45.1744253,
            "lon": 9.6552251,
            "timestamp": "2020-02-29T06:31:11Z",
            "version": 1,
            "changeset": 81613175,
            "user": "mascalzone67",
            "uid": 1861652,
            "tags": {
                "addr:city": "Casalpusterlengo",
                "addr:housenumber": "8",
                "addr:postcode": "26841",
                "addr:street": "Via Salvo D'Acquisto",
                "amenity": "pharmacy",
                "dispensing": "no",
                "healthcare": "pharmacy",
                "name": "Parafarmacia Conad",
                "opening_hours": "Mo-Su 08:00-20:00",
                "operator": "Conad",
                "phone": "+39 0377 911132"
            }
        },
        {
            "type": "node",
            "id": 9454741561,
            "lat": 45.3577268,
            "lon": 9.323079,
            "timestamp": "2024-11-30T14:05:53Z",
            "version": 2,
            "changeset": 159775141,
            "user": "Chiarant",
            "uid": 18452174,
            "tags": {
                "addr:city": "Melegnano",
                "addr:housenumber": "15",
                "addr:postcode": "20077",
                "addr:street": "Via Monte Suello",
                "check_date": "2024-11-30",
                "currency:XBT": "yes",
                "email": "info@osteopatamelegnano.it",
                "healthcare": "physiotherapist",
                "healthcare:speciality": "osteopathy",
                "name": "Alessandro Marazzina Osteopata Fisioterapista",
                "phone": "+39 333 586 0526",
                "website": "https://osteopatamelegnano.it/"
            }
        },
        {
            "type": "node",
            "id": 9732393851,
            "lat": 44.8591105,
            "lon": 10.0879228,
            "timestamp": "2025-01-01T20:44:31Z",
            "version": 2,
            "changeset": 160884757,
            "user": "mpbin",
            "uid": 21850090,
            "tags": {
                "addr:city": "Fidenza",
                "addr:housenumber": "11",
                "addr:postcode": "43036",
                "addr:street": "Via Galileo Ferraris",
                "brand": "Unieuro",
                "name": "Unieuro",
                "operator": "Unieuro S.p.A.",
                "shop": "electronics"
            }
        },
        {
            "type": "node",
            "id": 10165712913,
            "lat": 45.3555613,
            "lon": 9.6627822,
            "timestamp": "2022-11-07T08:23:25Z",
            "version": 1,
            "changeset": 128585645,
            "user": "BSN21M",
            "uid": 17441326,
            "tags": {
                "addr:city": "Crema",
                "addr:postcode": "26013",
                "addr:street": "Via Cappuccini",
                "craft": "painter",
                "currency:XBT": "yes",
                "name": "DOLDI LUCA IMBIANCHINO",
                "payment:lightning": "no",
                "payment:lightning_contactless": "no",
                "payment:onchain": "yes",
                "phone": "+39 3384808366",
                "survey:date": "2022-11-07"
            }
        },
        {
            "type": "node",
            "id": 10165750730,
            "lat": 45.356339,
            "lon": 9.6515674,
            "timestamp": "2022-11-07T08:18:54Z",
            "version": 1,
            "changeset": 128585463,
            "user": "BSN21M",
            "uid": 17441326,
            "tags": {
                "addr:city": "Crema",
                "addr:postcode": "26013",
                "addr:street": "Via Pandino",
                "amenity": "restaurant",
                "currency:XBT": "yes",
                "email": "scorse_89@hotmail.it",
                "name": "Dal Barbarossa",
                "payment:lightning": "no",
                "payment:lightning_contactless": "no",
                "payment:onchain": "yes",
                "phone": "+393491745630",
                "survey:date": "2022-11-07",
                "website": "https://it-it.facebook.com/dalbarbarossaOBV/"
            }
        },
        {
            "type": "node",
            "id": 10178685928,
            "lat": 44.9995252,
            "lon": 9.074914,
            "timestamp": "2025-01-01T20:55:26Z",
            "version": 5,
            "changeset": 160885117,
            "user": "mpbin",
            "uid": 21850090,
            "tags": {
                "addr:city": "Montebello della Battaglia",
                "addr:housenumber": "50",
                "addr:postcode": "27054",
                "addr:street": "Via Ing. Adolfo Mazza",
                "brand": "Unieuro",
                "brand:wikidata": "Q4004687",
                "name": "Unieuro",
                "operator": "Unieuro S.p.A.",
                "shop": "electronics",
                "wheelchair": "yes"
            }
        },
        {
            "type": "node",
            "id": 10250750357,
            "lat": 45.3462702,
            "lon": 10.1350625,
            "timestamp": "2025-01-02T16:46:35Z",
            "version": 2,
            "changeset": 160916701,
            "user": "demon_box",
            "uid": 350864,
            "tags": {
                "addr:city": "Manerbio",
                "addr:housenumber": "10",
                "addr:postcode": "25025",
                "addr:street": "Via Cremona",
                "amenity": "fast_food",
                "check_date": "2022-12-12",
                "contact:phone": "+390309938067",
                "contact:website": "https://www.lapiadineria.com/",
                "cuisine": "italian;sandwich",
                "currency:XBT": "yes",
                "name": "La Piadineria",
                "payment:lightning": "yes",
                "payment:onchain": "yes"
            }
        },
        {
            "type": "node",
            "id": 10273236375,
            "lat": 45.2226058,
            "lon": 9.7706893,
            "timestamp": "2024-08-31T16:40:12Z",
            "version": 2,
            "changeset": 156023778,
            "user": "mpbin",
            "uid": 21850090,
            "tags": {
                "addr:city": "Formigara",
                "addr:housenumber": "1",
                "addr:postcode": "26020",
                "addr:street": "Via Castello",
                "check_date": "2022-12-19",
                "contact:facebook": "https://www.facebook.com/MaisCorvino/",
                "contact:instagram": "https://www.instagram.com/mais_corvino/",
                "currency:XBT": "yes",
                "email": "info@maiscorvino.it",
                "name": "Mais Corvino",
                "payment:lightning": "yes",
                "payment:onchain": "yes",
                "phone": "+393477191733",
                "shop": "health_food",
                "website": "https://www.maiscorvino.it/"
            }
        },
        {
            "type": "node",
            "id": 10844464866,
            "lat": 45.3120876,
            "lon": 9.9985,
            "timestamp": "2025-01-02T16:46:35Z",
            "version": 6,
            "changeset": 160916701,
            "user": "demon_box",
            "uid": 350864,
            "tags": {
                "addr:city": "Quinzano D'Oglio",
                "addr:housenumber": "30",
                "addr:postcode": "25027",
                "addr:street": "Via Luigi Ciocca",
                "check_date": "2024-09-21",
                "check_date:currency:XBT": "2024-09-21",
                "contact:email": "info@2fsas.com",
                "contact:phone": "+390309924331",
                "contact:website": "https://www.2fsas.com",
                "currency:XBT": "yes",
                "name": "2F Computer",
                "shop": "computer"
            }
        },
        {
            "type": "node",
            "id": 10844470943,
            "lat": 45.0753716,
            "lon": 9.3032702,
            "timestamp": "2024-10-09T18:39:11Z",
            "version": 3,
            "changeset": 157685215,
            "user": "mpbin",
            "uid": 21850090,
            "tags": {
                "addr:city": "Stradella",
                "addr:housenumber": "23/24",
                "addr:postcode": "27049",
                "addr:street": "Piazzale Trieste",
                "check_date": "2024-10-09",
                "check_date:currency:XBT": "2024-10-09",
                "currency:XBT": "yes",
                "email": "info@studiobrega.it",
                "name": "Studio Brega",
                "office": "accountant",
                "phone": "+39 038 542259",
                "website": "https://www.studiobrega.it"
            }
        },
        {
            "type": "node",
            "id": 11104778454,
            "lat": 44.8156263,
            "lon": 9.9773502,
            "timestamp": "2024-09-15T06:12:43Z",
            "version": 3,
            "changeset": 156634732,
            "user": "paulbrunner",
            "uid": 15541433,
            "tags": {
                "addr:city": "Salsomaggiore Terme",
                "addr:housenumber": "9",
                "addr:postcode": "43039",
                "addr:street": "Via Loschi",
                "check_date": "2024-09-14",
                "contact:facebook": "https://www.facebook.com/diegopaccini.macelleria.streetfood.catering/",
                "currency:XBT": "yes",
                "email": "info@diegopaccini.it",
                "name": "Macelleria Paccini",
                "payment:lightning": "yes",
                "payment:onchain": "yes",
                "phone": "+39 0524 573219",
                "shop": "butcher",
                "website": "https://diegopaccini.it/",
                "wheelchair": "limited"
            }
        },
        {
            "type": "node",
            "id": 11907356017,
            "lat": 45.1588719,
            "lon": 10.1061461,
            "timestamp": "2024-09-14T12:51:59Z",
            "version": 7,
            "changeset": 156611202,
            "user": "Rockedf",
            "uid": 7522075,
            "tags": {
                "addr:city": "Gadesco Pieve Delmona",
                "addr:country": "IT",
                "addr:housenumber": "20",
                "addr:postcode": "26030",
                "addr:street": "Via Sandro Pertini",
                "amenity": "marketplace",
                "check_date:currency:XBT": "2024-09-14",
                "currency:XBT": "yes",
                "name": "Spend Your Sats",
                "payment:lightning": "yes",
                "payment:lightning_contactless": "yes",
                "payment:onchain": "yes",
                "website": "https://www.spendsats.org"
            }
        },
        {
            "type": "node",
            "id": 12238931073,
            "lat": 45.0160643,
            "lon": 9.1244964,
            "timestamp": "2024-10-09T18:34:26Z",
            "version": 1,
            "changeset": 157685021,
            "user": "mpbin",
            "uid": 21850090,
            "tags": {
                "addr:city": "Casteggio",
                "addr:housenumber": "10",
                "addr:postcode": "27045",
                "addr:street": "Via Console Marcello",
                "check_date": "2024-10-09",
                "check_date:currency:XBT": "2024-10-09",
                "currency:XBT": "yes",
                "email": "info@studiobrega.it",
                "name": "Studio Brega",
                "office": "accountant",
                "phone": "+39 038 542259",
                "website": "https://www.studiobrega.it/"
            }
        }
    ],
    "telegram": []
}