{
    "id": "ss-rovigo",
    "name": "Satoshi Spritz Rovigo",
    "lng": 45.07107288,
    "lat": 11.79007,
    "localita": "Rovigo",
    "idlocalita": NaN,
    "telegram_weburl": "https://web.telegram.org/k/#-1723866695",
    "telegram_app": "https://t.me/SatoshiSpritzRovigo",
    "telegram_members": 28.0,
    "network": "satoshispritz",
    "poi": [
        {
            "type": "node",
            "id": 257552971,
            "lat": 45.0680737,
            "lon": 11.7878289,
            "timestamp": "2024-12-10T14:45:31Z",
            "version": 8,
            "changeset": 160132407,
            "user": "Rockedf",
            "uid": 7522075,
            "tags": {
                "addr:city": "Rovigo",
                "addr:housenumber": "84",
                "addr:postcode": "45100",
                "addr:street": "Via Nicola Badaloni",
                "amenity": "pub",
                "check_date:currency:XBT": "2024-12-10",
                "contact:instagram": "https://www.instagram.com/mobydick_beerpub/",
                "currency:XBT": "yes",
                "name": "Moby Dick",
                "payment:lightning": "yes",
                "payment:lightning_contactless": "yes",
                "payment:onchain": "no"
            }
        },
        {
            "type": "node",
            "id": 334511575,
            "lat": 45.412015,
            "lon": 11.9082358,
            "timestamp": "2023-06-05T14:36:32Z",
            "version": 7,
            "changeset": 136976080,
            "user": "Friendly_Ghost",
            "uid": 10875409,
            "tags": {
                "addr:city": "Padova",
                "addr:housenumber": "61",
                "addr:postcode": "35131",
                "addr:street": "Via Venezia",
                "brand": "Conad",
                "brand:wikidata": "Q639075",
                "brand:wikipedia": "it:Conad",
                "level": "0",
                "name": "Conad",
                "opening_hours": "Mo-Su 08:30-21:00",
                "operator": "Conad",
                "payment:bancomat": "yes",
                "payment:cash": "yes",
                "payment:credit_cards": "yes",
                "phone": "+39 049 8690111",
                "shop": "supermarket",
                "website": "https://www.conad.it/ricerca-negozi/negozio.009946.html",
                "wheelchair": "yes"
            }
        },
        {
            "type": "node",
            "id": 334512025,
            "lat": 45.4116273,
            "lon": 11.9107073,
            "timestamp": "2024-02-06T22:24:32Z",
            "version": 7,
            "changeset": 147153939,
            "user": "ezio_m",
            "uid": 2795300,
            "tags": {
                "addr:city": "Padova",
                "addr:housenumber": "104",
                "addr:postcode": "35131",
                "addr:street": "Via Venezia",
                "branch": "Italia SRL",
                "brand": "Decathlon",
                "brand:wikidata": "Q509349",
                "name": "Decathlon",
                "opening_hours": "Mo-Su 09:00-20:00",
                "operator": "Decathlon",
                "shop": "sports",
                "website": "https://www.decathlon.it/store-view/negozio-sport-padova-0070026800268"
            }
        },
        {
            "type": "node",
            "id": 843506208,
            "lat": 45.0692125,
            "lon": 11.7898454,
            "timestamp": "2024-04-21T03:26:20Z",
            "version": 2,
            "changeset": 150285875,
            "user": "Rockedf",
            "uid": 7522075,
            "tags": {
                "addr:city": "Rovigo",
                "addr:housenumber": "5",
                "addr:postcode": "45100",
                "addr:street": "Piazzale Lionello Caffaratti",
                "amenity": "ice_cream",
                "check_date": "2024-04-21",
                "currency:XBT": "yes",
                "name": "Dolce Castigo Gelateria Artigianale",
                "payment:lightning": "yes",
                "payment:lightning_contactless": "no",
                "payment:onchain": "no",
                "phone": "+39 38 9449 3206"
            }
        },
        {
            "type": "node",
            "id": 844684096,
            "lat": 45.0705762,
            "lon": 11.7907889,
            "timestamp": "2024-04-21T02:02:13Z",
            "version": 3,
            "changeset": 150285025,
            "user": "Rockedf",
            "uid": 7522075,
            "tags": {
                "addr:city": "Rovigo",
                "addr:housenumber": "38",
                "addr:postcode": "45100",
                "addr:street": "Piazza Vittorio Emanuele II",
                "amenity": "pub",
                "check_date": "2024-04-20",
                "currency:XBT": "yes",
                "name": "Pedavena",
                "payment:lightning": "yes",
                "payment:lightning_contactless": "yes",
                "payment:onchain": "no",
                "phone": "+39 39 2165 0044"
            }
        },
        {
            "type": "node",
            "id": 846780779,
            "lat": 45.0702684,
            "lon": 11.7911899,
            "timestamp": "2024-12-14T13:15:36Z",
            "version": 3,
            "changeset": 160279339,
            "user": "Rockedf",
            "uid": 7522075,
            "tags": {
                "addr:city": "Rovigo",
                "addr:housenumber": "4",
                "addr:postcode": "45100",
                "addr:street": "Vicolo Canevone",
                "amenity": "bar",
                "check_date": "2024-04-20",
                "check_date:currency:XBT": "2024-12-14",
                "currency:XBT": "yes",
                "name": "Canevone",
                "payment:lightning": "yes",
                "payment:lightning_contactless": "yes",
                "payment:onchain": "no",
                "phone": "+39 34 8073 3806"
            }
        },
        {
            "type": "node",
            "id": 860165497,
            "lat": 45.0703994,
            "lon": 11.7895194,
            "timestamp": "2024-11-13T16:24:52Z",
            "version": 2,
            "changeset": 159098386,
            "user": "Rockedf",
            "uid": 7522075,
            "tags": {
                "addr:city": "Rovigo",
                "addr:housenumber": "4",
                "addr:postcode": "45100",
                "addr:street": "Via Giuseppe Laurenti",
                "check_date": "2024-11-13",
                "currency:XBT": "yes",
                "name": "Tabaccheria Roverella",
                "payment:lightning": "yes",
                "payment:lightning_contactless": "yes",
                "payment:onchain": "yes",
                "phone": "+39 04 252 7547",
                "shop": "tobacco"
            }
        },
        {
            "type": "node",
            "id": 860165498,
            "lat": 45.0707825,
            "lon": 11.7905142,
            "timestamp": "2024-04-23T14:27:25Z",
            "version": 4,
            "changeset": 150398652,
            "user": "Rockedf",
            "uid": 7522075,
            "tags": {
                "addr:city": "Rovigo",
                "addr:housenumber": "24",
                "addr:postcode": "45100",
                "addr:street": "Piazza Vittorio Emanuele II",
                "amenity": "cafe",
                "check_date": "2024-04-23",
                "contact:housenumber": "24",
                "contact:street": "Piazza Vittorio Emanuele II",
                "currency:XBT": "yes",
                "name": "Caff\u00e8 Franchin",
                "operator": "Shooter's sas",
                "payment:lightning": "yes",
                "payment:lightning_contactless": "yes",
                "payment:onchain": "no",
                "phone": "+39 34 8073 3806",
                "ref:vatin": "IT00969380294"
            }
        },
        {
            "type": "node",
            "id": 861325859,
            "lat": 45.0710746,
            "lon": 11.7950794,
            "timestamp": "2024-07-05T19:04:37Z",
            "version": 3,
            "changeset": 153601227,
            "user": "mauropili",
            "uid": 1496865,
            "tags": {
                "addr:city": "Rovigo",
                "addr:housenumber": "1",
                "addr:postcode": "45100",
                "addr:street": "Piazza Venti settembre",
                "amenity": "fast_food",
                "check_date": "2024-04-20",
                "cuisine": "pizza",
                "currency:XBT": "yes",
                "name": "Pizzeria La Rotonda",
                "payment:lightning": "yes",
                "payment:lightning_contactless": "no",
                "payment:onchain": "no",
                "phone": "+39 04 252 7204"
            }
        },
        {
            "type": "node",
            "id": 1534384046,
            "lat": 45.3778806,
            "lon": 11.8558106,
            "timestamp": "2025-01-03T17:18:17Z",
            "version": 5,
            "changeset": 160958572,
            "user": "mpbin",
            "uid": 21850090,
            "tags": {
                "brand": "MediaWorld",
                "brand:wikidata": "Q2381223",
                "name": "MediaWorld",
                "operator": "MediaMarket S.p.A.",
                "shop": "electronics",
                "wheelchair": "yes"
            }
        },
        {
            "type": "node",
            "id": 1938540695,
            "lat": 45.2275755,
            "lon": 11.5234776,
            "timestamp": "2024-12-31T18:05:18Z",
            "version": 6,
            "changeset": 160843704,
            "user": "mpbin",
            "uid": 21850090,
            "tags": {
                "addr:city": "Borgo Veneto",
                "addr:country": "IT",
                "addr:housename": "Centro Commerciale Megliadino",
                "addr:postcode": "35040",
                "addr:street": "Via Vallesella",
                "brand": "Unieuro",
                "brand:wikidata": "Q4004687",
                "brand:wikipedia": "en:Unieuro",
                "name": "Unieuro",
                "operator": "Unieuro S.p.A.",
                "shop": "electronics",
                "wheelchair": "yes"
            }
        },
        {
            "type": "node",
            "id": 2569978163,
            "lat": 45.4109517,
            "lon": 11.8761919,
            "timestamp": "2025-01-03T14:02:16Z",
            "version": 4,
            "changeset": 160950583,
            "user": "mpbin",
            "uid": 21850090,
            "tags": {
                "addr:city": "Padova",
                "addr:housenumber": "58",
                "addr:postcode": "35137",
                "addr:street": "Via San Fermo",
                "brand": "OVS",
                "brand:wikidata": "Q2042514",
                "brand:wikipedia": "en:OVS (company)",
                "name": "OVS",
                "operator": "OVS",
                "shop": "clothes"
            }
        },
        {
            "type": "node",
            "id": 2800768123,
            "lat": 45.371839,
            "lon": 11.7913317,
            "timestamp": "2024-10-06T08:30:00Z",
            "version": 7,
            "changeset": 157528611,
            "user": "mpbin",
            "uid": 21850090,
            "tags": {
                "addr:city": "Abano Terme",
                "addr:housenumber": "129",
                "addr:postcode": "35031",
                "addr:street": "Via Cesare Battisti",
                "check_date": "2024-10-06",
                "check_date:currency:XBT": "2024-10-06",
                "contact:facebook": "https://www.facebook.com/www.autofesiocom/",
                "currency:XBT": "yes",
                "email": "info@autofesio.com",
                "landuse": "commercial",
                "name": "AutoFesio Salone Auto",
                "phone": "+39 329 6876517",
                "shop": "car",
                "website": "https://www.autofesio.com/"
            }
        },
        {
            "type": "node",
            "id": 3380264635,
            "lat": 45.0736427,
            "lon": 11.7874789,
            "timestamp": "2024-04-22T02:16:58Z",
            "version": 4,
            "changeset": 150324103,
            "user": "Rockedf",
            "uid": 7522075,
            "tags": {
                "addr:city": "Rovigo",
                "addr:housenumber": "1",
                "addr:postcode": "45100",
                "addr:street": "Via Domenico Piva",
                "amenity": "ice_cream",
                "check_date": "2024-04-22",
                "currency:XBT": "yes",
                "name": "Godot",
                "payment:lightning": "yes",
                "payment:lightning_contactless": "no",
                "payment:onchain": "no",
                "phone": "+39 04 2520 2044",
                "website": "https://www.gelateriagodot.it/"
            }
        },
        {
            "type": "node",
            "id": 3781255724,
            "lat": 45.3934924,
            "lon": 11.8176793,
            "timestamp": "2025-01-01T17:47:25Z",
            "version": 7,
            "changeset": 160878588,
            "user": "mpbin",
            "uid": 21850090,
            "tags": {
                "addr:city": "Selvazzano Dentro",
                "addr:housenumber": "113",
                "addr:postcode": "35030",
                "addr:street": "Via Padova",
                "brand": "Unieuro",
                "brand:wikidata": "Q4004687",
                "contact:phone": "+39 0498687460",
                "contact:website": "https://www.unieuro.it/online/negozi/Unieuro-Selvazzano",
                "name": "Unieuro",
                "opening_hours": "Mo-Fr 09:00-12:30,15:00-19:30; Sa 09:00-13:00,14:30-19:30; Su 09:00-12:30,14:30-19:30",
                "operator": "Unieuro S.p.A.",
                "shop": "electronics"
            }
        },
        {
            "type": "node",
            "id": 3797820139,
            "lat": 45.2289045,
            "lon": 11.4748883,
            "timestamp": "2025-01-02T21:28:49Z",
            "version": 3,
            "changeset": 160926929,
            "user": "mpbin",
            "uid": 21850090,
            "tags": {
                "addr:city": "Montagnana",
                "addr:housenumber": "2",
                "addr:postcode": "35044",
                "addr:street": "Via San Zeno",
                "brand": "Trony",
                "brand:wikidata": "Q3999692",
                "name": "Trony",
                "operator": "Trony",
                "shop": "electronics"
            }
        },
        {
            "type": "node",
            "id": 3801818316,
            "lat": 45.0723941,
            "lon": 11.7969114,
            "timestamp": "2024-11-02T18:36:33Z",
            "version": 2,
            "changeset": 158671862,
            "user": "Rockedf",
            "uid": 7522075,
            "tags": {
                "addr:city": "Rovigo",
                "addr:housenumber": "23",
                "addr:postcode": "45100",
                "addr:street": "Viale Erminia Fu\u00e0 Fusinato",
                "addr:unit": "A",
                "amenity": "restaurant",
                "check_date": "2024-11-02",
                "cuisine": "italian",
                "currency:XBT": "yes",
                "name": "Pizzeria MArechiaro",
                "payment:lightning": "yes",
                "payment:lightning_contactless": "yes",
                "payment:onchain": "no",
                "phone": "+39 328 766 1125"
            }
        },
        {
            "type": "node",
            "id": 4336855840,
            "lat": 45.1900889,
            "lon": 12.2783531,
            "timestamp": "2025-01-01T22:36:45Z",
            "version": 8,
            "changeset": 160887693,
            "user": "mpbin",
            "uid": 21850090,
            "tags": {
                "addr:city": "Chioggia",
                "addr:housenumber": "508m",
                "addr:postcode": "30015",
                "addr:province": "Venezia",
                "addr:state": "Italia",
                "addr:street": "Strada Statale 309 Romea",
                "brand": "Trony",
                "brand:wikidata": "Q3999692",
                "email": "chioggia@trony.it",
                "fax": "+39 041 494699",
                "name": "Trony",
                "opening_hours": "Oct-Apr: Mo-Sa 09:00-20:30; Oct-Apr: Su 09:30-20:00; May-Sep: Mo-Su 09:00-21:00",
                "operator": "Trony",
                "phone": "+39 041 554 1442",
                "shop": "electronics",
                "wheelchair": "yes"
            }
        },
        {
            "type": "node",
            "id": 4727745918,
            "lat": 45.4090126,
            "lon": 11.8788211,
            "timestamp": "2024-12-30T18:55:58Z",
            "version": 6,
            "changeset": 160804689,
            "user": "DnaX",
            "uid": 69259,
            "tags": {
                "addr:city": "Padova",
                "addr:housenumber": "9",
                "addr:postcode": "35121",
                "addr:street": "Via Altinate",
                "brand": "Doppelg\u00e4nger",
                "brand:wikidata": "Q117451227",
                "check_date": "2023-08-26",
                "clothes": "men",
                "currency:XBT": "yes",
                "name": "Doppelg\u00e4nger",
                "phone": "+39 0498757916",
                "shop": "clothes"
            }
        },
        {
            "type": "node",
            "id": 5010147423,
            "lat": 45.037075,
            "lon": 11.782145,
            "timestamp": "2024-09-30T08:48:23Z",
            "version": 8,
            "changeset": 157286135,
            "user": "mpbin",
            "uid": 21850090,
            "tags": {
                "addr:city": "Rovigo",
                "addr:housenumber": "53",
                "addr:postcode": "45100",
                "addr:street": "Via del Mercante",
                "check_date": "2024-09-30",
                "check_date:currency:XBT": "2024-09-30",
                "currency:XBT": "yes",
                "description": "Realizzazione immagine pubblicitaria, progettazione grafica di marchi, brochure, manifesti, stampa piccolo e grande formato, decorazioni automezzi, personalizzazione abbigliamento e gadget, siti internet, adesivi, vetrofanie ed insegne.",
                "email": "info@graphicdivision.it",
                "name": "Graphic Division",
                "office": "graphic_design",
                "phone": "+39 0425 410616",
                "website": "https://www.graphicdivision.it/"
            }
        },
        {
            "type": "node",
            "id": 5418461939,
            "lat": 45.2275701,
            "lon": 11.5236765,
            "timestamp": "2025-01-03T14:12:20Z",
            "version": 4,
            "changeset": 160951019,
            "user": "mpbin",
            "uid": 21850090,
            "tags": {
                "addr:city": "Borgo Veneto",
                "addr:country": "IT",
                "addr:housename": "Centro Commerciale Megliadino",
                "addr:postcode": "35040",
                "addr:street": "Via Vallesella",
                "brand": "OVS",
                "brand:wikidata": "Q2042514",
                "brand:wikipedia": "en:OVS (company)",
                "name": "OVS",
                "operator": "OVS",
                "shop": "clothes",
                "wheelchair": "yes"
            }
        },
        {
            "type": "node",
            "id": 5805243372,
            "lat": 44.8920806,
            "lon": 11.6166262,
            "timestamp": "2025-01-03T14:14:05Z",
            "version": 3,
            "changeset": 160951093,
            "user": "mpbin",
            "uid": 21850090,
            "tags": {
                "addr:city": "Santa Maria Maddalena",
                "addr:housenumber": "30",
                "addr:postcode": "45030",
                "addr:street": "Via Maestri del Lavoro",
                "name": "OVS",
                "opening_hours": "Mo-Fr 09:00-12:30, 15:30-19:30; Sa 09:30-13:00, 15:00-19:30",
                "operator": "OVS",
                "shop": "clothes",
                "wheelchair": "yes"
            }
        },
        {
            "type": "node",
            "id": 6131287245,
            "lat": 45.354129,
            "lon": 11.772486,
            "timestamp": "2023-07-21T00:41:15Z",
            "version": 2,
            "changeset": 138788730,
            "user": "saunter",
            "uid": 10396321,
            "tags": {
                "addr:city": "Abano Terme",
                "addr:housenumber": "21",
                "addr:postcode": "35031",
                "addr:street": "Via Monteortone",
                "check_date:currency:XBT": "2023-07-21",
                "currency:XBT": "yes",
                "description": "Consulenza su criptovalute e blockchain, cambio critpovalute contro euro, messa in sicurezza, vendita gadget informatici, hardware wallet, T-shirt, corsi di formazione sul mondo cripto e bitcoin.",
                "email": "center@bitcoinveneto.it",
                "name": "Bitcoin Veneto Center",
                "office": "educational_institution",
                "phone": "+39 3405035130",
                "website": "https://www.bitcoinvenetocenter.it"
            }
        },
        {
            "type": "node",
            "id": 7010944119,
            "lat": 45.0690798,
            "lon": 11.7924896,
            "timestamp": "2024-07-05T19:36:47Z",
            "version": 3,
            "changeset": 153602223,
            "user": "mauropili",
            "uid": 1496865,
            "tags": {
                "addr:city": "Rovigo",
                "addr:housenumber": "10",
                "addr:postcode": "45100",
                "addr:street": "Via Giovanni Miani",
                "check_date": "2024-04-29",
                "currency:XBT": "yes",
                "name": "Rubiero",
                "payment:lightning": "yes",
                "payment:lightning_contactless": "yes",
                "payment:onchain": "no",
                "phone": "+39 04 2553 7438",
                "shop": "bakery"
            }
        },
        {
            "type": "node",
            "id": 7010956711,
            "lat": 45.0707116,
            "lon": 11.7906036,
            "timestamp": "2024-12-10T14:40:21Z",
            "version": 4,
            "changeset": 160132200,
            "user": "Rockedf",
            "uid": 7522075,
            "tags": {
                "addr:city": "Rovigo",
                "addr:housenumber": "28",
                "addr:postcode": "45100",
                "addr:street": "Piazza Vittorio Emanuele II",
                "check_date": "2024-03-20",
                "check_date:currency:XBT": "2024-12-10",
                "contact:email": "laboutiquedellosmartphone64@gmail.com",
                "currency:XBT": "yes",
                "name": "La boutique dello smartphone",
                "payment:lightning": "yes",
                "payment:lightning_contactless": "yes",
                "payment:onchain": "no",
                "shop": "mobile_phone"
            }
        },
        {
            "type": "node",
            "id": 7485672568,
            "lat": 45.3037889,
            "lon": 12.0212547,
            "timestamp": "2025-01-01T20:03:13Z",
            "version": 3,
            "changeset": 160883521,
            "user": "mpbin",
            "uid": 21850090,
            "tags": {
                "addr:city": "Piove di Sacco",
                "addr:housenumber": "1",
                "addr:postcode": "35028",
                "addr:street": "Via Fratelli Sanguinazzi",
                "brand": "Unieuro",
                "brand:wikidata": "Q4004687",
                "brand:wikipedia": "en:Unieuro",
                "name": "Unieuro",
                "opening_hours": "Mo-Sa 09:00-13:00,15:00-19:00",
                "operator": "Unieuro S.p.A.",
                "shop": "electronics"
            }
        },
        {
            "type": "node",
            "id": 7486874106,
            "lat": 45.4177654,
            "lon": 11.86183,
            "timestamp": "2024-08-10T14:39:32Z",
            "version": 2,
            "changeset": 155065448,
            "user": "voschix",
            "uid": 305001,
            "tags": {
                "addr:city": "Padova",
                "addr:housenumber": "8",
                "addr:postcode": "35139",
                "addr:street": "Ostiala Gallenia",
                "amenity": "pharmacy",
                "dispensing": "no",
                "healthcare": "pharmacy",
                "name": "Parafarmacia Conad",
                "operator": "Conad"
            }
        },
        {
            "type": "node",
            "id": 7486909410,
            "lat": 45.4119799,
            "lon": 11.9077824,
            "timestamp": "2023-06-05T14:36:32Z",
            "version": 4,
            "changeset": 136976080,
            "user": "Friendly_Ghost",
            "uid": 10875409,
            "tags": {
                "addr:city": "Padova",
                "addr:housenumber": "61",
                "addr:postcode": "35131",
                "addr:street": "Via Venezia",
                "amenity": "pharmacy",
                "dispensing": "no",
                "healthcare": "pharmacy",
                "level": "0",
                "name": "Parafarmacia Conad",
                "operator": "Conad"
            }
        },
        {
            "type": "node",
            "id": 7834164182,
            "lat": 45.4175724,
            "lon": 11.8247384,
            "timestamp": "2024-12-30T16:37:10Z",
            "version": 5,
            "changeset": 160799972,
            "user": "mpbin",
            "uid": 21850090,
            "tags": {
                "addr:city": "Rubano",
                "addr:housenumber": "1",
                "addr:postcode": "35030",
                "addr:street": "Via della Provvidenza",
                "brand": "Trony",
                "brand:wikidata": "Q3999692",
                "email": "sarmeola@trony.it",
                "facebook": "https://www.facebook.com/TronySarmeolaViaDellaProvvidenza/",
                "level": "1",
                "name": "Trony",
                "opening_hours": "Mo-Sa 09:30-20:30; Su 10:00-20:30",
                "operator": "Trony",
                "phone": "+39 049 897 9275",
                "shop": "electronics",
                "website": "https://www.trony.it/online/store/TRO477_A",
                "wheelchair": "yes"
            }
        },
        {
            "type": "node",
            "id": 8154718782,
            "lat": 45.0677021,
            "lon": 11.7877546,
            "timestamp": "2024-04-17T13:57:11Z",
            "version": 2,
            "changeset": 150131386,
            "user": "Rockedf",
            "uid": 7522075,
            "tags": {
                "addr:city": "Rovigo",
                "addr:housenumber": "43",
                "addr:postcode": "45100",
                "addr:street": "Via Nicola Badaloni",
                "check_date": "2024-04-17",
                "currency:XBT": "yes",
                "name": "Nuovo Forno a Legna",
                "payment:lightning": "yes",
                "payment:lightning_contactless": "no",
                "payment:onchain": "no",
                "phone": "+39 34 7504 0891",
                "shop": "bakery"
            }
        },
        {
            "type": "node",
            "id": 8154718783,
            "lat": 45.0682612,
            "lon": 11.7881041,
            "timestamp": "2024-04-17T14:21:58Z",
            "version": 3,
            "changeset": 150132399,
            "user": "Rockedf",
            "uid": 7522075,
            "tags": {
                "addr:city": "Rovigo",
                "addr:housenumber": "66",
                "addr:postcode": "45100",
                "addr:street": "Via Nicola Badaloni",
                "amenity": "pub",
                "check_date": "2024-04-17",
                "contact:facebook": "https://www.facebook.com/p/Badabeer-Birreria-100063565181483/",
                "contact:instagram": "https://www.instagram.com/birreriabadabeer/",
                "currency:XBT": "yes",
                "name": "Badabeer",
                "payment:lightning": "yes",
                "payment:lightning_contactless": "yes",
                "payment:onchain": "no",
                "phone": "+39 33 3498 1015",
                "website": "https://www.badabeer.it/"
            }
        },
        {
            "type": "node",
            "id": 8154718784,
            "lat": 45.068445,
            "lon": 11.7883165,
            "timestamp": "2024-04-21T03:02:30Z",
            "version": 2,
            "changeset": 150285583,
            "user": "Rockedf",
            "uid": 7522075,
            "tags": {
                "addr:city": "Rovigo",
                "addr:housenumber": "60",
                "addr:postcode": "45100",
                "addr:street": "Via Nicola Badaloni",
                "amenity": "fast_food",
                "check_date": "2024-04-20",
                "contact:email": "pizzeriaalvescovado@gmail.con",
                "contact:facebook": "https://www.facebook.com/pizzeriaalvescovado",
                "contact:instagram": "https://www.instagram.com/pizzeriaalvescovado.it_rovigo/",
                "cuisine": "pizza",
                "currency:XBT": "yes",
                "name": "Pizzeria al Vescovado",
                "payment:lightning": "yes",
                "payment:lightning_contactless": "yes",
                "payment:onchain": "no",
                "phone": "+39 04 2507 0029",
                "website": "https://pizzeriaalvescovado.it/"
            }
        },
        {
            "type": "node",
            "id": 8168616368,
            "lat": 45.0719266,
            "lon": 11.786415,
            "timestamp": "2024-07-05T19:39:29Z",
            "version": 3,
            "changeset": 153602318,
            "user": "mauropili",
            "uid": 1496865,
            "tags": {
                "addr:city": "Rovigo",
                "addr:housenumber": "20",
                "addr:postcode": "45100",
                "addr:street": "Via Umberto I\u00b0",
                "check_date": "2024-04-22",
                "currency:XBT": "yes",
                "name": "Biliardo",
                "payment:lightning": "yes",
                "payment:lightning_contactless": "yes",
                "payment:onchain": "no",
                "phone": "+39 04 2527 906",
                "shop": "clothes"
            }
        },
        {
            "type": "node",
            "id": 8267271770,
            "lat": 45.0453701,
            "lon": 12.0581442,
            "timestamp": "2025-01-01T20:21:13Z",
            "version": 3,
            "changeset": 160884050,
            "user": "mpbin",
            "uid": 21850090,
            "tags": {
                "addr:city": "Adria",
                "addr:housenumber": "11324",
                "addr:postcode": "45100",
                "addr:street": "Piazzale Rovigno",
                "brand": "Unieuro",
                "brand:wikidata": "Q4004687",
                "name": "Unieuro",
                "operator": "Unieuro S.p.A.",
                "shop": "electronics"
            }
        },
        {
            "type": "node",
            "id": 8455564266,
            "lat": 45.4521146,
            "lon": 12.0719097,
            "timestamp": "2025-01-01T20:04:23Z",
            "version": 3,
            "changeset": 160883558,
            "user": "mpbin",
            "uid": 21850090,
            "tags": {
                "addr:city": "Ball\u00f2",
                "addr:housenumber": "80",
                "addr:postcode": "30035",
                "addr:street": "Via Stazione",
                "name": "Unieuro",
                "not:brand:wikidata": "Q4004687",
                "operator": "Unieuro S.p.A.",
                "payment:cash": "yes",
                "payment:credit_cards": "yes",
                "phone": "+39 041 415652",
                "shop": "electronics"
            }
        },
        {
            "type": "node",
            "id": 8753097385,
            "lat": 45.0707688,
            "lon": 11.7867961,
            "timestamp": "2024-04-14T08:49:11Z",
            "version": 5,
            "changeset": 149981966,
            "user": "Chiarant",
            "uid": 18452174,
            "tags": {
                "addr:city": "Rovigo",
                "addr:housenumber": "8",
                "addr:postcode": "45100",
                "addr:street": "Via Marcello Grimani",
                "amenity": "atm",
                "brand": "CryptoLocalATM",
                "check_date": "2024-04-14",
                "currency:XBT": "yes",
                "description": "Bitcoin ATM che permette di acquistare Bitcoin, Ethereum, Litecoin, Dogecoin, Bitcoin Cash, Dash, Monero. L'ATM \u00e8 situato all'interno della TABACCHERIA ZIOSMOKE.",
                "email": "support@cryptolocalatm.com",
                "location": "indoor",
                "name": "CryptoLocalATM c/o TABACCHERIA ZIOSMOKE",
                "payment:onchain": "yes",
                "phone": "+447894438974",
                "website": "https://cryptolocalatm.com"
            }
        },
        {
            "type": "node",
            "id": 9672164356,
            "lat": 45.4225305,
            "lon": 12.073525,
            "timestamp": "2025-01-03T14:22:57Z",
            "version": 2,
            "changeset": 160951512,
            "user": "mpbin",
            "uid": 21850090,
            "tags": {
                "addr:city": "Dolo",
                "addr:housenumber": "102",
                "addr:postcode": "30031",
                "addr:street": "Via Giuseppe Mazzini",
                "brand": "OVS",
                "brand:wikidata": "Q2042514",
                "brand:wikipedia": "en:OVS (company)",
                "name": "OVS",
                "operator": "OVS",
                "shop": "clothes"
            }
        },
        {
            "type": "node",
            "id": 10044774234,
            "lat": 44.8506302,
            "lon": 11.6265662,
            "timestamp": "2024-10-11T20:21:19Z",
            "version": 4,
            "changeset": 157772368,
            "user": "mpbin",
            "uid": 21850090,
            "tags": {
                "addr:city": "Ferrara",
                "addr:housenumber": "103",
                "addr:postcode": "44121",
                "addr:street": "Via Riccardo Bacchelli",
                "amenity": "restaurant",
                "check_date": "2022-12-17",
                "currency:XBT": "yes",
                "email": "prenotazioni.bacchelli@gmail.com",
                "name": "Kaf\u00e8 Bacchelli",
                "website": "https://kafebacchelli.it/"
            }
        },
        {
            "type": "node",
            "id": 10155200041,
            "lat": 45.3915973,
            "lon": 11.8928962,
            "timestamp": "2024-07-05T19:47:53Z",
            "version": 6,
            "changeset": 153602587,
            "user": "mauropili",
            "uid": 1496865,
            "tags": {
                "addr:city": "Padova",
                "addr:housenumber": "1",
                "addr:postcode": "35127",
                "addr:street": "Via Giuseppe Perin",
                "amenity": "cafe",
                "check_date:currency:XBT": "2023-08-09",
                "cuisine": "coffee_shop",
                "currency:XBT": "yes",
                "name": "20quadricafe'",
                "payment:lightning": "yes",
                "survey:date": "2022-11-03"
            }
        },
        {
            "type": "node",
            "id": 10273264150,
            "lat": 45.2024965,
            "lon": 12.2981574,
            "timestamp": "2024-10-28T17:15:09Z",
            "version": 3,
            "changeset": 158465653,
            "user": "mpbin",
            "uid": 21850090,
            "tags": {
                "addr:city": "Chioggia",
                "addr:housenumber": "206",
                "addr:postcode": "30015",
                "addr:street": "Viale Cristoforo Colombo",
                "amenity": "restaurant",
                "check_date": "2024-10-28",
                "check_date:currency:XBT": "2024-10-28",
                "contact:facebook": "https://www.facebook.com/MammaMiaSottomarina/",
                "cuisine": "pizza",
                "currency:XBT": "yes",
                "email": "mammamiasottomarina@gmail.com",
                "name": "MammaMia",
                "opening_hours": "Fr 18:00-22:00; Sa-Su 10:00-02:00, 18:00-22:00",
                "payment:lightning": "yes",
                "payment:lightning_contactless": "no",
                "payment:onchain": "yes",
                "phone": "+390417792544"
            }
        },
        {
            "type": "node",
            "id": 10295315911,
            "lat": 45.4247877,
            "lon": 11.9654184,
            "timestamp": "2025-01-03T14:26:11Z",
            "version": 2,
            "changeset": 160951636,
            "user": "mpbin",
            "uid": 21850090,
            "tags": {
                "addr:city": "Vigonza",
                "addr:housenumber": "86",
                "addr:postcode": "35010",
                "addr:street": "Via Regia",
                "brand": "OVS",
                "brand:wikidata": "Q2042514",
                "name": "OVS",
                "operator": "OVS",
                "shop": "clothes"
            }
        },
        {
            "type": "node",
            "id": 10296719986,
            "lat": 45.410309,
            "lon": 11.9083833,
            "timestamp": "2025-01-03T17:31:59Z",
            "version": 4,
            "changeset": 160959082,
            "user": "mpbin",
            "uid": 21850090,
            "tags": {
                "addr:city": "Padova",
                "addr:housenumber": "98",
                "addr:postcode": "35131",
                "addr:street": "Via Venezia",
                "brand": "MediaWorld",
                "brand:wikidata": "Q2381223",
                "fixme": "The website says that the postcode is 35129 and I don't know which postcode is correct",
                "name": "MediaWorld",
                "operator": "MediaMarket S.p.A.",
                "shop": "electronics",
                "website": "https://www.mediaworld.it/it/store/padova-2126"
            }
        },
        {
            "type": "node",
            "id": 10576219949,
            "lat": 44.8938149,
            "lon": 11.610334,
            "timestamp": "2023-07-18T16:34:03Z",
            "version": 2,
            "changeset": 138678234,
            "user": "saunter",
            "uid": 10396321,
            "tags": {
                "addr:city": "Occhiobello",
                "addr:housenumber": "9",
                "addr:postcode": "45030",
                "addr:street": "Vicolo A. Fleming",
                "check_date:currency:XBT": "2023-07-18",
                "currency:XBT": "yes",
                "email": "mabiz66@gmail.com",
                "name": "Studio Ingegneria ing. Bizzi Marco",
                "payment:onchain": "yes",
                "phone": "+39 348 6902866",
                "shop": "yes"
            }
        },
        {
            "type": "node",
            "id": 10834405910,
            "lat": 45.071072,
            "lon": 11.7875442,
            "timestamp": "2024-04-21T03:34:11Z",
            "version": 2,
            "changeset": 150285955,
            "user": "Rockedf",
            "uid": 7522075,
            "tags": {
                "addr:city": "Rovigo",
                "addr:housenumber": "141",
                "addr:postcode": "45100",
                "addr:street": "Corso del Popolo",
                "amenity": "restaurant",
                "check_date": "2024-04-21",
                "contact:instagram": "https://www.instagram.com/inkimakisushi/",
                "cuisine": "sushi",
                "currency:XBT": "yes",
                "name": "Inki Makisushi Rovigo",
                "payment:lightning": "yes",
                "payment:lightning_contactless": "no",
                "payment:onchain": "no",
                "phone": "+39 04 25168 5995",
                "website": "https://inki.it/"
            }
        },
        {
            "type": "node",
            "id": 10879354113,
            "lat": 45.370045,
            "lon": 11.922507,
            "timestamp": "2023-05-10T12:11:02Z",
            "version": 2,
            "changeset": 135933878,
            "user": "Chiarant",
            "uid": 18452174,
            "tags": {
                "addr:city": "Ponte San Nicol\u00f2",
                "addr:housenumber": "130",
                "addr:postcode": "35020",
                "addr:street": "Via Guglielmo Marconi",
                "addr:unit": "A",
                "amenity": "restaurant",
                "contact:facebook": "https://www.facebook.com/montenapoleonespaten/",
                "contact:instagram": "https://www.instagram.com/montenapoleonespaten/",
                "currency:XBT": "yes",
                "email": "ponte@ristorantimontenapoleone.com",
                "name": "SPATEN - BIRRERIA MONTENAPOLEONE",
                "payment:lightning": "yes",
                "payment:lightning_contactless": "yes",
                "payment:onchain": "no",
                "phone": "+39 0498882698",
                "survey:date": "2023-05-10",
                "website": "https://www.ristorantimontenapoleone.com/"
            }
        },
        {
            "type": "node",
            "id": 11125250762,
            "lat": 45.1834148,
            "lon": 11.2548832,
            "timestamp": "2025-01-01T21:14:48Z",
            "version": 2,
            "changeset": 160885668,
            "user": "mpbin",
            "uid": 21850090,
            "tags": {
                "addr:city": "San Pietro",
                "addr:postcode": "37045",
                "addr:street": "Via Luciano Lama",
                "brand": "Unieuro",
                "brand:wikidata": "Q4004687",
                "name": "Unieuro",
                "operator": "Unieuro S.p.A.",
                "shop": "electronics"
            }
        },
        {
            "type": "node",
            "id": 11144535811,
            "lat": 45.4115379,
            "lon": 11.9084568,
            "timestamp": "2023-08-25T18:39:05Z",
            "version": 1,
            "changeset": 140384840,
            "user": "Friendly_Ghost",
            "uid": 10875409,
            "tags": {
                "amenity": "trolley_bay",
                "covered": "yes",
                "operator": "Conad"
            }
        },
        {
            "type": "node",
            "id": 11241833922,
            "lat": 45.4111335,
            "lon": 11.9071442,
            "timestamp": "2023-10-05T17:16:51Z",
            "version": 1,
            "changeset": 142199524,
            "user": "Friendly_Ghost",
            "uid": 10875409,
            "tags": {
                "amenity": "trolley_bay",
                "covered": "yes",
                "operator": "Conad"
            }
        },
        {
            "type": "node",
            "id": 11812265884,
            "lat": 45.384531,
            "lon": 11.7844921,
            "timestamp": "2024-07-05T20:00:22Z",
            "version": 2,
            "changeset": 153602990,
            "user": "mauropili",
            "uid": 1496865,
            "tags": {
                "addr:city": "Selvazzano Dentro",
                "addr:housenumber": "151",
                "addr:postcode": "35030",
                "addr:street": "Via Euganea",
                "amenity": "pub",
                "check_date": "2024-04-12",
                "currency:XBT": "yes",
                "name": "Dalle Canaglie",
                "payment:lightning": "yes",
                "payment:lightning_contactless": "no",
                "payment:onchain": "no",
                "phone": "+39 04 9261 5718"
            }
        },
        {
            "type": "node",
            "id": 11817877407,
            "lat": 45.2289756,
            "lon": 11.7389913,
            "timestamp": "2025-01-01T21:34:45Z",
            "version": 4,
            "changeset": 160886258,
            "user": "mpbin",
            "uid": 21850090,
            "tags": {
                "addr:city": "Monselice",
                "addr:housenumber": "79",
                "addr:postcode": "35043",
                "addr:street": "Via Cristoforo Colombo",
                "brand": "Unieuro",
                "brand:wikidata": "Q4004687",
                "name": "Unieuro",
                "operator": "Unieuro S.p.A.",
                "shop": "electronics",
                "wheelchair": "yes"
            }
        },
        {
            "type": "node",
            "id": 11822788620,
            "lat": 45.0653346,
            "lon": 11.7844629,
            "timestamp": "2024-04-16T18:59:00Z",
            "version": 1,
            "changeset": 150099311,
            "user": "Rockedf",
            "uid": 7522075,
            "tags": {
                "addr:city": "Rovigo",
                "addr:housenumber": "2",
                "addr:postcode": "45100",
                "addr:street": "Via Vittorio Veneto",
                "check_date": "2024-04-16",
                "currency:XBT": "yes",
                "name": "Trend Hair di Pasetto Rudi",
                "opening_hours": "Mo-Fr 08:30-19:30; Sa 08:30-19:00",
                "payment:lightning": "yes",
                "payment:lightning_contactless": "yes",
                "payment:onchain": "no",
                "phone": "+39 34 8711 3978",
                "shop": "hairdresser",
                "website": "https://tend-hair.net/"
            }
        },
        {
            "type": "node",
            "id": 11824889366,
            "lat": 45.0679373,
            "lon": 11.7881238,
            "timestamp": "2024-04-17T14:13:36Z",
            "version": 1,
            "changeset": 150132073,
            "user": "Rockedf",
            "uid": 7522075,
            "tags": {
                "addr:city": "Rovigo",
                "addr:housenumber": "33",
                "addr:postcode": "45100",
                "addr:street": "Via Nicola Badaloni",
                "check_date": "2024-04-17",
                "currency:XBT": "yes",
                "name": "La Verdura dei Santi",
                "payment:lightning": "yes",
                "payment:lightning_contactless": "no",
                "payment:onchain": "no",
                "phone": "+39 35 1917 9962",
                "shop": "greengrocer",
                "website": "https://laverduradeisanti.it/"
            }
        },
        {
            "type": "node",
            "id": 11824904423,
            "lat": 45.0679786,
            "lon": 11.788055,
            "timestamp": "2024-04-17T14:30:48Z",
            "version": 1,
            "changeset": 150132786,
            "user": "Rockedf",
            "uid": 7522075,
            "tags": {
                "addr:city": "Rovigo",
                "addr:housenumber": "33",
                "addr:postcode": "45100",
                "addr:street": "Via Nicola Badaloni",
                "addr:unit": "B",
                "check_date": "2024-04-17",
                "currency:XBT": "yes",
                "name": "Tabaccheria N. 7",
                "payment:lightning": "yes",
                "payment:lightning_contactless": "yes",
                "payment:onchain": "no",
                "phone": "+39 04 2509 0084",
                "shop": "tobacco"
            }
        },
        {
            "type": "node",
            "id": 11833115727,
            "lat": 45.0681037,
            "lon": 11.787879,
            "timestamp": "2024-04-20T14:51:13Z",
            "version": 1,
            "changeset": 150266875,
            "user": "Rockedf",
            "uid": 7522075,
            "tags": {
                "addr:city": "Rovigo",
                "addr:housenumber": "80",
                "addr:postcode": "45100",
                "addr:street": "Via Nicola Badaloni",
                "check_date": "2024-04-20",
                "currency:XBT": "yes",
                "name": "Coco' Parrucchieri",
                "payment:lightning": "yes",
                "payment:lightning_contactless": "no",
                "payment:onchain": "no",
                "phone": "+39 04 252 2037",
                "shop": "hairdresser_supply"
            }
        },
        {
            "type": "node",
            "id": 11833137935,
            "lat": 45.0741038,
            "lon": 11.7973561,
            "timestamp": "2024-04-20T15:01:02Z",
            "version": 1,
            "changeset": 150267289,
            "user": "Rockedf",
            "uid": 7522075,
            "tags": {
                "addr:city": "Rovigo",
                "addr:housenumber": "85",
                "addr:postcode": "45100",
                "addr:street": "Viale della Pace",
                "amenity": "restaurant",
                "check_date": "2024-04-20",
                "cuisine": "pizza",
                "currency:XBT": "yes",
                "name": "Speedy Pizza",
                "payment:lightning": "yes",
                "payment:lightning_contactless": "no",
                "payment:onchain": "no",
                "phone": "+39 04 253 3122"
            }
        },
        {
            "type": "node",
            "id": 11834096056,
            "lat": 45.0712841,
            "lon": 11.7954225,
            "timestamp": "2024-04-21T02:39:12Z",
            "version": 1,
            "changeset": 150285324,
            "user": "Rockedf",
            "uid": 7522075,
            "tags": {
                "addr:city": "Rovigo",
                "addr:housenumber": "36",
                "addr:postcode": "45100",
                "addr:street": "Via Silvestri",
                "addr:unit": "38",
                "amenity": "bar",
                "check_date": "2024-04-20",
                "contact:facebook": "https://www.facebook.com/Le-Chat-Noir-759138697545989/",
                "currency:XBT": "yes",
                "name": "Le chat noir",
                "payment:lightning": "yes",
                "payment:lightning_contactless": "no",
                "payment:onchain": "no",
                "phone": "+39 32 9237 3299",
                "website": "https://www.lechatnoirbar.it/"
            }
        },
        {
            "type": "node",
            "id": 11834101066,
            "lat": 45.0707532,
            "lon": 11.7914037,
            "timestamp": "2024-04-21T02:30:51Z",
            "version": 1,
            "changeset": 150285248,
            "user": "Rockedf",
            "uid": 7522075,
            "tags": {
                "addr:city": "Rovigo",
                "addr:housenumber": "4",
                "addr:postcode": "45100",
                "addr:street": "Piazza Giuseppe Garibaldi",
                "check_date": "2024-04-20",
                "contact:email": "info@tosinitabacchi.it",
                "contact:facebook": "https://www.facebook.com/iqosrovigo",
                "contact:instagram": "https://www.instagram.com/iqosrovigo/",
                "currency:XBT": "yes",
                "name": "Tabaccheria Garibaldi",
                "payment:lightning": "yes",
                "payment:lightning_contactless": "no",
                "payment:onchain": "no",
                "phone": "+39 04 2520 0275",
                "shop": "tobacco",
                "website": "https://tabaccheriagaribaldi.it/"
            }
        },
        {
            "type": "node",
            "id": 11834187170,
            "lat": 45.0506244,
            "lon": 11.7829758,
            "timestamp": "2024-04-21T03:18:33Z",
            "version": 1,
            "changeset": 150285777,
            "user": "Rockedf",
            "uid": 7522075,
            "tags": {
                "addr:city": "Rovigo",
                "addr:housenumber": "90",
                "addr:postcode": "45100",
                "addr:street": "Via Luigi Einaudi",
                "addr:unit": "A",
                "check_date": "2024-04-20",
                "contact:email": "info@oldinktattoo.it",
                "contact:facebook": "https://www.facebook.com/oldinktattoorovigo/",
                "contact:instagram": "https://www.instagram.com/old_ink_tattoo_rovigo/?hl=en",
                "currency:XBT": "yes",
                "name": "Old Ink Tattoo Studio",
                "payment:lightning": "yes",
                "payment:lightning_contactless": "no",
                "payment:onchain": "yes",
                "phone": "+39 38 8473 1358",
                "shop": "tattoo",
                "website": "https://oldinktattoo.it/"
            }
        },
        {
            "type": "node",
            "id": 11836264303,
            "lat": 45.0720251,
            "lon": 11.7964567,
            "timestamp": "2024-04-22T02:06:40Z",
            "version": 1,
            "changeset": 150323943,
            "user": "Rockedf",
            "uid": 7522075,
            "tags": {
                "addr:city": "Rovigo",
                "addr:housenumber": "9",
                "addr:postcode": "45100",
                "addr:street": "Viale Erminia Fu\u00e0 Fusinato",
                "amenity": "restaurant",
                "check_date": "2024-04-22",
                "contact:facebook": "https://www.facebook.com/prosciuttiamoristoranterovigo/",
                "currency:XBT": "yes",
                "name": "Prosciuttiamo",
                "payment:lightning": "yes",
                "payment:lightning_contactless": "no",
                "payment:onchain": "no",
                "phone": "+39 04 252 6178"
            }
        },
        {
            "type": "node",
            "id": 11837695495,
            "lat": 45.0703555,
            "lon": 11.7914006,
            "timestamp": "2024-04-22T14:44:44Z",
            "version": 1,
            "changeset": 150350804,
            "user": "Rockedf",
            "uid": 7522075,
            "tags": {
                "addr:city": "Rovigo",
                "addr:housenumber": "1",
                "addr:postcode": "45100",
                "addr:street": "Via Dieci luglio",
                "check_date": "2024-04-22",
                "currency:XBT": "yes",
                "name": "Avignon",
                "payment:lightning": "yes",
                "payment:lightning_contactless": "yes",
                "payment:onchain": "no",
                "phone": "+39 04 2520 0027",
                "shop": "clothes"
            }
        },
        {
            "type": "node",
            "id": 11848020162,
            "lat": 45.0696853,
            "lon": 11.7935393,
            "timestamp": "2024-04-25T18:12:35Z",
            "version": 1,
            "changeset": 150508862,
            "user": "Rockedf",
            "uid": 7522075,
            "tags": {
                "addr:city": "Rovigo",
                "addr:housenumber": "2",
                "addr:postcode": "45100",
                "addr:street": "Via Luigi Boscolo",
                "amenity": "cafe",
                "check_date": "2024-04-25",
                "currency:XBT": "yes",
                "name": "Bad Wolf Caf\u00e9",
                "payment:lightning": "yes",
                "payment:lightning_contactless": "no",
                "payment:onchain": "no",
                "phone": "+39 32 7713 9947"
            }
        },
        {
            "type": "node",
            "id": 11848051720,
            "lat": 45.0769004,
            "lon": 11.7873506,
            "timestamp": "2024-04-25T18:20:26Z",
            "version": 1,
            "changeset": 150509180,
            "user": "Rockedf",
            "uid": 7522075,
            "tags": {
                "addr:city": "Rovigo",
                "addr:housenumber": "4",
                "addr:postcode": "45100",
                "addr:street": "Largo Fratelli Bandiera",
                "amenity": "bar",
                "check_date": "2024-04-25",
                "currency:XBT": "yes",
                "name": "Bar Commenda",
                "payment:lightning": "yes",
                "payment:lightning_contactless": "no",
                "payment:onchain": "no",
                "phone": "+39 34 5762 7308"
            }
        },
        {
            "type": "node",
            "id": 11866205904,
            "lat": 45.0639892,
            "lon": 11.7842022,
            "timestamp": "2024-04-29T13:06:30Z",
            "version": 1,
            "changeset": 150662956,
            "user": "Rockedf",
            "uid": 7522075,
            "tags": {
                "addr:city": "Rovigo",
                "addr:housenumber": "29",
                "addr:postcode": "45100",
                "addr:street": "Via Vittorio Veneto",
                "check_date": "2024-04-29",
                "currency:XBT": "yes",
                "name": "Salone Maria Grazia Prandini",
                "payment:lightning": "yes",
                "payment:lightning_contactless": "no",
                "payment:onchain": "no",
                "phone": "+39 04 2542 2310",
                "shop": "hairdresser"
            }
        },
        {
            "type": "node",
            "id": 11925847081,
            "lat": 44.8449059,
            "lon": 11.6482092,
            "timestamp": "2024-06-11T19:13:47Z",
            "version": 3,
            "changeset": 152558252,
            "user": "Rockedf",
            "uid": 7522075,
            "tags": {
                "addr:city": "Ferrara",
                "addr:housenumber": "132",
                "addr:postcode": "44123",
                "addr:street": "Via Copparo",
                "amenity": "atm",
                "cash_in": "yes",
                "cash_out": "yes",
                "cash_withdrawal": "yes",
                "check_date": "2024-05-22",
                "contact:email": "support@shitcoins.club",
                "contact:facebook": "https://www.facebook.com/shitcoins.club",
                "contact:instagram": "https://www.instagram.com/shitcoinsclub",
                "contact:telegram": "https://t.me/shitcoinsclub",
                "contact:twitter": "https://twitter.com/BitomatCom",
                "currency:CHF": "yes",
                "currency:DASH": "yes",
                "currency:ETH": "yes",
                "currency:EUR": "yes",
                "currency:GBP": "yes",
                "currency:HUF": "yes",
                "currency:LTC": "yes",
                "currency:RON": "yes",
                "currency:USD": "yes",
                "currency:USDC": "yes",
                "currency:USDT": "yes",
                "currency:XBT": "yes",
                "indoor": "yes",
                "name": "Bitcoin ATM - Shitcoins.club",
                "opening_hours": "Mo-Sa 08:30-21:00; Su 09:00-20:00",
                "operator": "Shitcoins.club",
                "payment:cash": "yes",
                "payment:lightning": "no",
                "payment:lightning_contactless": "no",
                "payment:onchain": "yes",
                "phone": "+39 34 8048 7308",
                "website": "https://shitcoins.club/localizzazione-atm/atm-bitcoin-ferrara-le-mura-centro-commerciale"
            }
        },
        {
            "type": "node",
            "id": 11975303381,
            "lat": 45.4030901,
            "lon": 11.691016,
            "timestamp": "2024-06-12T12:30:05Z",
            "version": 1,
            "changeset": 152585259,
            "user": "Chiarant",
            "uid": 18452174,
            "tags": {
                "addr:city": "Fossona",
                "addr:housenumber": "148",
                "addr:postcode": "35030",
                "addr:street": "Via Roma",
                "check_date": "2024-06-12",
                "currency:XBT": "yes",
                "email": "gioielli@lineagem.it",
                "name": "Lineagem S.p.A.",
                "shop": "jewelry",
                "website": "https://www.lineagem.it/"
            }
        },
        {
            "type": "node",
            "id": 12102810313,
            "lat": 45.4177936,
            "lon": 11.8618561,
            "timestamp": "2024-08-10T14:39:32Z",
            "version": 1,
            "changeset": 155065448,
            "user": "voschix",
            "uid": 305001,
            "tags": {
                "addr:city": "Padova",
                "addr:housenumber": "8",
                "addr:postcode": "35139",
                "addr:street": "Ostiala Gallenia",
                "brand": "Conad",
                "brand:wikidata": "Q639075",
                "brand:wikipedia": "it:Conad",
                "name": "Conad",
                "opening_hours": "Mo-Sa 08:00-20:30; Su 09:00-20:00",
                "operator": "Conad",
                "payment:bancomat": "yes",
                "payment:cash": "yes",
                "payment:credit_cards": "yes",
                "phone": "+39 049 723073",
                "shop": "supermarket",
                "website": "https://www.conad.it/ricerca-negozi/negozio.009282.html"
            }
        },
        {
            "type": "node",
            "id": 12128566402,
            "lat": 45.3979849,
            "lon": 11.5793774,
            "timestamp": "2025-01-02T22:34:10Z",
            "version": 2,
            "changeset": 160928574,
            "user": "mpbin",
            "uid": 21850090,
            "tags": {
                "addr:city": "Ponte di Barbarano",
                "addr:housenumber": "8",
                "addr:postcode": "36048",
                "addr:street": "Via del Commercio",
                "brand": "Trony",
                "brand:wikidata": "Q3999692",
                "name": "Trony",
                "operator": "Trony",
                "shop": "electronics"
            }
        },
        {
            "type": "node",
            "id": 12480515452,
            "lat": 45.4647802,
            "lon": 11.9635919,
            "timestamp": "2025-01-07T14:31:40Z",
            "version": 3,
            "changeset": 161097949,
            "user": "MC DRIVER NCC",
            "uid": 22309106,
            "tags": {
                "addr:city": "vigonza",
                "addr:housenumber": "4",
                "addr:postcode": "35010",
                "amenity": "taxi",
                "currency:XBT": "yes",
                "e-card": "https://kipin.app/30nlj60d7v7k",
                "email": "mcdriver.noleggio@gmail.com",
                "name": "Mc Driver Ncc",
                "payment:cards": "yes",
                "payment:cash": "yes",
                "payment:credit_cards": "yes",
                "payment:lightning": "yes",
                "payment:lightning_contactless": "no",
                "payment:onchain": "no",
                "survey:date": "2024-08-01",
                "taxi_vehicle": "van"
            }
        },
        {
            "type": "way",
            "id": 24317204,
            "timestamp": "2025-01-06T14:39:30Z",
            "version": 12,
            "changeset": 161060963,
            "user": "mpbin",
            "uid": 21850090,
            "nodes": [
                2559658585,
                1311764939,
                2559597887,
                263675809,
                1311764878,
                1311765023,
                12176777719,
                12176777722,
                1311764957,
                2559597885,
                1311764891,
                263675810,
                9076958820,
                263675807,
                2559658585
            ],
            "tags": {
                "brand": "IKEA",
                "brand:wikidata": "Q54078",
                "building": "yes",
                "layer": "1",
                "name": "IKEA",
                "opening_hours": "Mo-Su 09:30-20:30",
                "operator": "Ikea Italia Retail S.r.l.",
                "shop": "furniture",
                "website": "https://m.ikea.com/it/it/",
                "wheelchair": "yes"
            }
        },
        {
            "type": "way",
            "id": 262134580,
            "timestamp": "2023-07-21T00:36:09Z",
            "version": 7,
            "changeset": 138788658,
            "user": "saunter",
            "uid": 10396321,
            "nodes": [
                2677813322,
                2677813293,
                2677813375,
                2677813386,
                2677813365,
                2677812936,
                2677812997,
                2677813032,
                2677813070,
                2677813106,
                2677813117,
                2677813332,
                2677813322
            ],
            "tags": {
                "addr:city": "Padova",
                "addr:housenumber": "90",
                "addr:postcode": "35129",
                "addr:street": "Via Madonna del Rosario",
                "building": "industrial",
                "building:levels": "1",
                "check_date:currency:XBT": "2023-07-21",
                "currency:XBT": "yes",
                "email": "torrecarrozzeria@gmail.com",
                "name": "Carrozzeria Torre",
                "phone": "+39 049 725460",
                "shop": "car_repair",
                "website": "https://carrozzeriatorre.it/"
            }
        }
    ],
    "telegram": []
}