{
    "id": "ss-rimini",
    "name": "Satoshi Spritz Rimini",
    "lng": 44.0678288,
    "lat": 12.5695158,
    "localita": "Rimini",
    "telegram_weburl": "https://web.telegram.org/a/#-1001887746692",
    "telegram_app": "https://t.me/SatoshiSpritzRimini",
    "telegram_members": 117.0,
    "network": "satoshispritz",
    "poi": [
        {
            "type": "node",
            "id": 2718103390,
            "lat": 44.0600462,
            "lon": 12.5677448,
            "timestamp": "2023-06-26T10:58:05Z",
            "version": 5,
            "changeset": 137786952,
            "user": "Chiarant",
            "uid": 18452174,
            "tags": {
                "addr:city": "Rimini",
                "addr:country": "IT",
                "addr:housenumber": "107",
                "addr:postcode": "47921",
                "addr:street": "Corso d'Augusto",
                "check_date": "2023-06-26",
                "clothes": "underwear",
                "currency:XBT": "yes",
                "description": "Negozio di intimo e accessori di grandi brand come Triumph e Sloggi.",
                "name": "Since 1886",
                "payment:lightning": "yes",
                "payment:onchain": "yes",
                "phone": "+390541783603",
                "shop": "clothes",
                "website": "https://www.ginevraunderwear.it"
            }
        },
        {
            "type": "node",
            "id": 2718109273,
            "lat": 44.0601434,
            "lon": 12.5676513,
            "timestamp": "2023-06-15T20:46:45Z",
            "version": 7,
            "changeset": 137389471,
            "user": "Chiarant",
            "uid": 18452174,
            "tags": {
                "addr:city": "Rimini",
                "addr:country": "IT",
                "addr:housenumber": "113",
                "addr:postcode": "47921",
                "addr:street": "Corso d'Augusto",
                "amenity": "cafe",
                "check_date": "2023-06-15",
                "currency:XBT": "yes",
                "description": "Colazioni e aperitivi.",
                "email": "mingo.mattia@gmail.com",
                "name": "Mythos cafe",
                "payment:lightning": "yes",
                "phone": "+39 3423284951",
                "source:wheelchair": "survey",
                "wheelchair": "yes"
            }
        },
        {
            "type": "node",
            "id": 2718136968,
            "lat": 44.039718,
            "lon": 12.5874819,
            "timestamp": "2023-05-12T22:49:20Z",
            "version": 4,
            "changeset": 136036867,
            "user": "saunter",
            "uid": 10396321,
            "tags": {
                "addr:city": "Rimini",
                "addr:country": "IT",
                "addr:housenumber": "20",
                "addr:postcode": "47924",
                "addr:street": "Via Caduti di Nassiriya",
                "check_date:currency:XBT": "2023-05-13",
                "clothes": "men",
                "currency:XBT": "yes",
                "name": "Nuvolari c.c. Le Befane",
                "payment:lightning": "no",
                "payment:lightning_contactless": "no",
                "payment:onchain": "yes",
                "phone": "05411491632",
                "shop": "clothes"
            }
        },
        {
            "type": "node",
            "id": 2718150316,
            "lat": 44.0420988,
            "lon": 12.5654896,
            "timestamp": "2023-07-31T14:23:33Z",
            "version": 3,
            "changeset": 139256906,
            "user": "BTC Map",
            "uid": 18545877,
            "tags": {
                "addr:city": "Rimini",
                "addr:country": "IT",
                "addr:housenumber": "28",
                "addr:postcode": "47924",
                "addr:street": "Via Pomposa",
                "brand": "Mondo Convenienza",
                "brand:wikidata": "Q55830962",
                "check_date:currency:XBT": "2023-07-31",
                "currency:XBT": "yes",
                "name": "Mondo Convenienza",
                "shop": "furniture",
                "website": "https://www.mondoconv.it/"
            }
        },
        {
            "type": "node",
            "id": 2718191192,
            "lat": 44.0290234,
            "lon": 12.6232892,
            "timestamp": "2024-06-18T07:27:56Z",
            "version": 2,
            "changeset": 152834032,
            "user": "Aluminum0173",
            "uid": 16035231,
            "tags": {
                "addr:city": "Rimini",
                "addr:country": "IT",
                "addr:housenumber": "5",
                "addr:postcode": "47924",
                "addr:street": "Viale Brescia",
                "contact:facebook": "HotelEliseoMiramare",
                "contact:whatsapp": "+39 333 858 2258",
                "currency:XBT": "yes",
                "description": "E se volete fare un tuffo nel passato... il mare dista solo 150mt!",
                "email": "eliseomiramare@gmail.com",
                "name": "Hotel Eliseo",
                "payment:lightning": "no",
                "payment:lightning_contactless": "no",
                "payment:onchain": "yes",
                "phone": "+39 333 858 2258",
                "survey:date": "2023-07-26",
                "tourism": "hotel",
                "website": "https://www.hoteleliseorimini.it"
            }
        },
        {
            "type": "node",
            "id": 2718195221,
            "lat": 44.0521444,
            "lon": 12.5591925,
            "timestamp": "2023-11-27T12:03:27Z",
            "version": 4,
            "changeset": 144505371,
            "user": "Chiarant",
            "uid": 18452174,
            "tags": {
                "addr:city": "Rimini",
                "addr:country": "IT",
                "addr:housenumber": "57a",
                "addr:postcode": "47923",
                "addr:street": "Via Covignano",
                "amenity": "restaurant",
                "check_date": "2023-11-27",
                "contact:facebook": "https://www.facebook.com/RainbowSushi2.0Rimini",
                "cuisine": "sushi",
                "currency:XBT": "yes",
                "name": "Rainbow sushi 2.0",
                "payment:lightning": "yes",
                "phone": "+39 0541 772363",
                "website": "https://www.rainbowsushibar.com/"
            }
        },
        {
            "type": "node",
            "id": 3074007138,
            "lat": 44.1631031,
            "lon": 12.443792,
            "timestamp": "2023-07-17T12:58:02Z",
            "version": 8,
            "changeset": 138621492,
            "user": "saunter",
            "uid": 10396321,
            "tags": {
                "addr:city": "San Mauro a Mare",
                "addr:housenumber": "16",
                "addr:postcode": "47030",
                "addr:street": "Via della Repubblica",
                "check_date:currency:XBT": "2023-07-17",
                "currency:XBT": "yes",
                "name": "Hotel La Plaja",
                "phone": "+39 0541 346154",
                "rooms": "37",
                "source": "Provincia di Forl\u00ec-Cesena",
                "stars": "3",
                "swimming_pool": "yes",
                "tourism": "hotel",
                "website": "http://hotellaplaja.it/"
            }
        },
        {
            "type": "node",
            "id": 10788250052,
            "lat": 44.1581639,
            "lon": 12.4294307,
            "timestamp": "2023-05-12T22:47:49Z",
            "version": 2,
            "changeset": 136036841,
            "user": "saunter",
            "uid": 10396321,
            "tags": {
                "addr:city": "Savignano sul Rubicone",
                "addr:housenumber": "3",
                "addr:postcode": "47039",
                "addr:street": "piazza colombo",
                "check_date:currency:XBT": "2023-05-13",
                "clothes": "men",
                "currency:XBT": "yes",
                "name": "DOPPELG\u00c4NGER",
                "payment:lightning": "no",
                "payment:lightning_contactless": "no",
                "payment:onchain": "yes",
                "phone": "0541347999",
                "shop": "clothes"
            }
        }
    ]
}