{
    "id": "ss-reggio-emilia",
    "name": "Satoshi Spritz Reggio Emilia",
    "lng": 44.699,
    "lat": 10.6297,
    "localita": "Reggio Emilia",
    "telegram_weburl": "https://web.telegram.org/a/#-1001569629484",
    "telegram_app": "https://t.me/SatoshiSpritzReggioEmilia",
    "telegram_members": 117.0,
    "network": "satoshispritz",
    "poi": [
        {
            "type": "node",
            "id": 4513679325,
            "lat": 44.6953631,
            "lon": 10.4970745,
            "timestamp": "2023-11-17T18:12:13Z",
            "version": 4,
            "changeset": 144149891,
            "user": "toponomastica_comune_arenzano",
            "uid": 14257573,
            "tags": {
                "addr:city": "Barco",
                "addr:housenumber": "34a",
                "addr:postcode": "42021",
                "addr:street": "Via Nazario Sauro",
                "check_date": "2023-04-26",
                "currency:XBT": "yes",
                "email": "info@senso-unico.net",
                "name": "Senso Unico snc grafica & Design",
                "office": "graphic_design",
                "phone": "0522372351",
                "website": "https://www.senso-unico.net"
            }
        },
        {
            "type": "node",
            "id": 4525313285,
            "lat": 44.6606931,
            "lon": 10.5891065,
            "timestamp": "2024-01-03T18:57:59Z",
            "version": 4,
            "changeset": 145851439,
            "user": "descubrebitcoin",
            "uid": 17565129,
            "tags": {
                "addr:city": "Reggio nell'Emilia",
                "addr:housenumber": "19/1",
                "addr:postcode": "42123",
                "addr:street": "Via della Repubblica",
                "check_date:currency:XBT": "2024-01-03",
                "currency:XBT": "yes",
                "name": "BS VILLAGE",
                "operator": "BUSINESS SHOP S.r.l.",
                "payment:onchain": "yes",
                "phone": "+39 0522 153 6417",
                "shop": "swimming_pool",
                "website": "https://www.bsvillage.com/"
            }
        },
        {
            "type": "node",
            "id": 8706247731,
            "lat": 44.6972465,
            "lon": 10.6272017,
            "timestamp": "2024-04-14T19:59:39Z",
            "version": 2,
            "changeset": 150008013,
            "user": "Chiarant",
            "uid": 18452174,
            "tags": {
                "addr:city": "Reggio nell'Emilia",
                "addr:housenumber": "31",
                "addr:postcode": "42121",
                "addr:street": "Corso Giuseppe Garibaldi",
                "addr:unit": "a",
                "amenity": "restaurant",
                "check_date": "2024-04-14",
                "currency:XBT": "yes",
                "name": "Oltre Restaurant",
                "phone": "+39 342 081 0328"
            }
        },
        {
            "type": "node",
            "id": 10661986526,
            "lat": 44.66928,
            "lon": 10.7403141,
            "timestamp": "2023-02-15T14:20:08Z",
            "version": 1,
            "changeset": 132584333,
            "user": "BSN21M",
            "uid": 17441326,
            "tags": {
                "addr:city": "Reggio Emilia",
                "addr:postcode": "42122",
                "addr:street": "Via Romani",
                "check_date:currency:XBT": "2023-02-15",
                "craft": "winery",
                "currency:XBT": "yes",
                "email": "dario_rota@yahoo.com",
                "name": "Cantina Rota",
                "opening_hours": "Mo-Fr 8:00-18:00",
                "payment:lightning": "no",
                "payment:lightning_contactless": "no",
                "payment:onchain": "yes",
                "phone": "+39 0522 340 118",
                "website": "https://cantinarota.com"
            }
        },
        {
            "type": "node",
            "id": 10840421518,
            "lat": 44.6299722,
            "lon": 10.6131363,
            "timestamp": "2023-04-25T21:08:00Z",
            "version": 3,
            "changeset": 135360378,
            "user": "Chiarant",
            "uid": 18452174,
            "tags": {
                "addr:city": "Albinea",
                "addr:housenumber": "5",
                "addr:postcode": "42020",
                "addr:street": "Via Grandi",
                "addr:unit": "30",
                "check_date": "2023-04-25",
                "currency:XBT": "yes",
                "description": "Negozio di strumenti armonici: Campane tibetane, diapason, gong, tamburi...",
                "email": "info@tibetstrumentiarmonici.com",
                "name": "Armonie Sonore",
                "phone": "0522598264",
                "ref:vatin": "02540600356",
                "shop": "musical_instrument",
                "website": "https://www.tibetstrumentiarmonici.com/"
            }
        },
        {
            "type": "node",
            "id": 11384696081,
            "lat": 44.7054455,
            "lon": 10.6116509,
            "timestamp": "2023-11-29T22:50:51Z",
            "version": 1,
            "changeset": 144606423,
            "user": "Chiarant",
            "uid": 18452174,
            "tags": {
                "addr:city": "Reggio nell'Emilia",
                "addr:housenumber": "17/a",
                "addr:postcode": "42124",
                "addr:street": "Via Fratelli Cervi",
                "amenity": "pub",
                "check_date": "2023-11-29",
                "contact:facebook": "https://www.facebook.com/ghigiuristopub/",
                "cuisine": "burger;pinsa",
                "currency:XBT": "yes",
                "email": "graziano-valentina@hotmail.it",
                "name": "Birreria Ghigiu Risto Pub",
                "payment:lightning": "yes",
                "payment:onchain": "yes",
                "phone": "+39 0522 303884",
                "website": "https://www.ghigiuristopub.it/"
            }
        }
    ]
}