{
    "id": "ss-rovereto-e-trento",
    "name": "SatoshiSpritz Rovereto e Trento (TN)",
    "lng": 46.065088,
    "lat": 11.123858,
    "localita": "Rovereto e Trento (TN)",
    "telegram_weburl": "https://web.telegram.org/a/#-1001781332904",
    "telegram_app": "https://t.me/SatoshiSpritzRovereto",
    "telegram_members": 133.0,
    "network": "satoshispritz",
    "poi": [
        {
            "type": "node",
            "id": 288938675,
            "lat": 46.0647594,
            "lon": 11.1504525,
            "timestamp": "2023-11-08T03:55:18Z",
            "version": 14,
            "changeset": 143761703,
            "user": "b-jazz-bot",
            "uid": 9451067,
            "tags": {
                "addr:city": "Trento",
                "addr:housenumber": "10",
                "addr:postcode": "38123",
                "addr:street": "Via Sommarive",
                "amenity": "restaurant",
                "check_date:currency:XBT": "2023-03-09",
                "cuisine": "pizza",
                "currency:XBT": "yes",
                "name": "Pizzeria OroStube",
                "opening_hours": "Mo-Fr 11:45-14:00, 18:30-22:00; Sa 18:30-22:00",
                "payment:bitcoin:operator": "inbitcoin.it",
                "website": "https://orostube.it/",
                "wheelchair": "yes"
            }
        },
        {
            "type": "node",
            "id": 853801236,
            "lat": 46.065984,
            "lon": 11.131204,
            "timestamp": "2024-03-06T12:44:18Z",
            "version": 11,
            "changeset": 148293111,
            "user": "Chiarant",
            "uid": 18452174,
            "tags": {
                "addr:city": "Trento",
                "addr:country": "IT",
                "addr:housenumber": "104",
                "addr:postcode": "38122",
                "addr:street": "Via Giuseppe Grazioli",
                "beauty": "hair,_cosmerics",
                "check_date": "2024-03-06",
                "currency:XBT": "yes",
                "description": "Parrucchiere e Studio Estetico",
                "name": "Bellezza Studio",
                "opening_hours": "08:00-19:00",
                "payment:bitcoin:operator": "inbitcoin.it",
                "shop": "beauty",
                "website": "https://www.bellezzastudio.eu/"
            }
        },
        {
            "type": "node",
            "id": 906968501,
            "lat": 46.0671884,
            "lon": 11.1222426,
            "timestamp": "2023-11-23T14:00:06Z",
            "version": 10,
            "changeset": 144370880,
            "user": "baprischka",
            "uid": 974272,
            "tags": {
                "addr:city": "Trento",
                "addr:country": "IT",
                "addr:housenumber": "25",
                "addr:postcode": "38122",
                "addr:street": "Via Giuseppe Garibaldi",
                "check_date": "2023-11-23",
                "currency:XBT": "yes",
                "name": "Meroni",
                "opening_hours": "Mo-Sa 15:15-19:15, Tu-Sa 09:15-12:15, Su 10:00-13:00,14:30-19:15",
                "payment:bitcoin:operator": "inbitcoin.it",
                "shop": "clothes",
                "wheelchair": "limited"
            }
        },
        {
            "type": "node",
            "id": 963712306,
            "lat": 46.0688508,
            "lon": 11.12012,
            "timestamp": "2024-04-10T08:47:00Z",
            "version": 13,
            "changeset": 149808574,
            "user": "Igor Bubelov",
            "uid": 2104834,
            "tags": {
                "addr:city": "Trento",
                "addr:country": "IT",
                "addr:housenumber": "23",
                "addr:postcode": "38122",
                "addr:street": "Via delle Orfane",
                "check_date": "2024-04-10",
                "contact:fax": "+39 0461 1920370",
                "contact:phone": "+39 0461 1920371",
                "contact:website": "https://www.cec.com/negozi-apple/trento",
                "currency:XBT": "yes",
                "name": "C&C Trento",
                "opening_hours": "Mo-Sa 09:30-13:00,14:30-19:00; Su off",
                "payment:bitcoin:operator": "inbitcoin.it",
                "shop": "computer"
            }
        },
        {
            "type": "node",
            "id": 983735426,
            "lat": 46.0698171,
            "lon": 11.1236723,
            "timestamp": "2023-05-12T22:47:37Z",
            "version": 14,
            "changeset": 136036834,
            "user": "saunter",
            "uid": 10396321,
            "tags": {
                "addr:city": "Trento",
                "addr:country": "IT",
                "addr:housenumber": "58",
                "addr:postcode": "38122",
                "addr:street": "Via Giannantonio Manci",
                "check_date:currency:XBT": "2023-05-13",
                "clothes": "men",
                "currency:XBT": "yes",
                "name": "Doppleg\u00e4nger",
                "opening_hours": "Mo-Fr 10:00-19:00; Sa 10:00-19:30; Su 10:00-13:00,15:00-19:00",
                "payment:lightning": "no",
                "payment:lightning_contactless": "no",
                "payment:onchain": "yes",
                "phone": "0461521650",
                "shop": "clothes",
                "wheelchair": "yes"
            }
        },
        {
            "type": "node",
            "id": 1318116512,
            "lat": 46.0384428,
            "lon": 11.1230431,
            "timestamp": "2024-01-20T03:20:03Z",
            "version": 15,
            "changeset": 146464250,
            "user": "Igor Bubelov",
            "uid": 2104834,
            "tags": {
                "addr:city": "Trento",
                "amenity": "fuel",
                "brand": "Agip Eni",
                "check_date": "2022-12-20",
                "currency:XBT": "yes",
                "email": "info@petrol-airport.it",
                "fuel:GTL_diesel": "yes",
                "fuel:cng": "yes",
                "fuel:diesel": "yes",
                "fuel:diesel:class2": "yes",
                "fuel:octane_100": "yes",
                "fuel:octane_95": "yes",
                "name": "Area di Servizio Petrol-Airport",
                "operator": "Petrol-Airport S.A.S. di Degasperi Diego, Tomasi Luca & C.",
                "payment:bitcoin:operator": "inbitcoin.it",
                "payment:onchain": "yes",
                "ref:mise": "8259",
                "source": "MISE - Ministero Sviluppo Economico",
                "website": "http://petrol-airport.it/"
            }
        },
        {
            "type": "node",
            "id": 1351488951,
            "lat": 46.0931109,
            "lon": 11.1121903,
            "timestamp": "2022-12-20T23:57:16Z",
            "version": 5,
            "changeset": 130309820,
            "user": "saunter",
            "uid": 10396321,
            "tags": {
                "addr:city": "Trento",
                "addr:country": "IT",
                "addr:housenumber": "26",
                "addr:postcode": "38121",
                "addr:street": "Via Giancarlo Maroni",
                "check_date:currency:XBT": "2022-12-20",
                "currency:XBT": "yes",
                "description": "e-commerce articoli equitazione e sportivi",
                "name": "La selleria on line",
                "payment:bitcoin:operator": "inbitcoin.it",
                "payment:onchain": "yes",
                "shop": "sports",
                "sport": "equestrian",
                "website": "https://www.laselleriaonline.it/"
            }
        },
        {
            "type": "node",
            "id": 1737540231,
            "lat": 45.9151296,
            "lon": 11.0343215,
            "timestamp": "2024-04-23T12:53:24Z",
            "version": 8,
            "changeset": 150394331,
            "user": "saunter",
            "uid": 10396321,
            "tags": {
                "addr:city": "Villa Lagarina",
                "addr:housenumber": "17",
                "addr:postcode": "38060",
                "addr:street": "Via Salisburgo",
                "amenity": "bar",
                "check_date": "2024-04-23",
                "check_date:currency:XBT": "2024-04-23",
                "currency:XBT": "yes",
                "email": "millenniumcaffebar@gmail.com",
                "name": "Ciro Caff\u00e8",
                "payment:bitcoin:operator": "inbitcoin.it",
                "payment:lightning": "yes",
                "payment:onchain": "yes",
                "phone": "+390464490383",
                "website": "https://www.millenniumcaffedaciro.it/"
            }
        },
        {
            "type": "node",
            "id": 2748239833,
            "lat": 46.0947719,
            "lon": 11.1096204,
            "timestamp": "2024-04-17T12:49:44Z",
            "version": 7,
            "changeset": 150128186,
            "user": "Igor Bubelov",
            "uid": 2104834,
            "tags": {
                "addr:city": "Trento",
                "addr:country": "IT",
                "addr:housenumber": "7",
                "addr:postcode": "38121",
                "addr:street": "Via Giambattista Unterveger",
                "check_date": "2024-04-17",
                "contact:website": "http://www.laselleriaonline.it/",
                "currency:XBT": "yes",
                "description": "Negozio specializzato in articolo per equitazione",
                "name": "La Selleria",
                "payment:bitcoin:operator": "inbitcoin.it",
                "shop": "sports",
                "sport": "equestrian"
            }
        },
        {
            "type": "node",
            "id": 3359576846,
            "lat": 45.9080621,
            "lon": 11.0409184,
            "timestamp": "2023-12-06T16:57:46Z",
            "version": 8,
            "changeset": 144836369,
            "user": "inbitcoin",
            "uid": 4533749,
            "tags": {
                "addr:city": "Rovereto",
                "addr:housenumber": "77",
                "addr:postcode": "38068",
                "addr:street": "Viale Trento",
                "check_date:currency:XBT": "2023-10-20",
                "currency:XBT": "yes",
                "description": "Fant\u00e0sia \u00e8 il punto di riferimento per tutti gli appassionati di giochi da tavolo, di ruolo, di carte, di miniature e di tutto ci\u00f2 che riguarda il mondo nerd.",
                "description:it": "Fant\u00e0sia \u00e8 il punto di riferimento per tutti gli appassionati di giochi da tavolo, di ruolo, di carte, di miniature e di tutto ci\u00f2 che riguarda il mondo nerd.",
                "email": "servizioclienti@fantasiastore.it",
                "name": "Fant\u00e0sia Games Store",
                "opening_hours": "Tu-Sa 15:00-19:00",
                "payment:XBT:operator": "bitcoinpos.it",
                "payment:bitcoin:operator": "inbitcoin.it",
                "payment:lightning": "yes",
                "payment:onchain": "no",
                "shop": "toys",
                "website": "https://fantasiastore.it/"
            }
        },
        {
            "type": "node",
            "id": 3444507460,
            "lat": 45.8990073,
            "lon": 11.0368457,
            "timestamp": "2023-07-19T11:14:41Z",
            "version": 5,
            "changeset": 138711574,
            "user": "saunter",
            "uid": 10396321,
            "tags": {
                "addr:city": "Rovereto",
                "addr:housenumber": "28/6",
                "addr:postcode": "38068",
                "addr:street": "Via Pasqui",
                "check_date:currency:XBT": "2023-07-19",
                "contact:fax": "+39 0464 498714",
                "contact:phone": "+39 0464 490557",
                "contact:website": "http://www.studiocarollo.com/",
                "currency:XBT": "yes",
                "description": "Studio Legale e Commercialistico",
                "name": "Studio Carollo",
                "office": "accountant"
            }
        },
        {
            "type": "node",
            "id": 4650320954,
            "lat": 46.0068646,
            "lon": 11.1264895,
            "timestamp": "2024-03-12T09:32:06Z",
            "version": 12,
            "changeset": 148539973,
            "user": "Chiarant",
            "uid": 18452174,
            "tags": {
                "addr:city": "Mattarello",
                "addr:housenumber": "7",
                "addr:postcode": "38123",
                "addr:street": "Via della Stazione",
                "check_date": "2024-03-12",
                "currency:XBT": "yes",
                "email": "info@patiflex.it",
                "name": "Patiflex",
                "operator": "inbitcoin.it",
                "payment:bitcoin:operator": "inbitcoin.it",
                "payment:lightning": "yes",
                "payment:onchain": "yes",
                "phone": "+39 0461 945726",
                "shop": "bed",
                "website": "https://www.patiflex.it/"
            }
        },
        {
            "type": "node",
            "id": 4860505213,
            "lat": 45.9138611,
            "lon": 11.0325982,
            "timestamp": "2024-04-10T14:01:01Z",
            "version": 6,
            "changeset": 149821690,
            "user": "Igor Bubelov",
            "uid": 2104834,
            "tags": {
                "addr:city": "Villa Lagarina",
                "addr:housenumber": "90",
                "addr:postcode": "38060",
                "addr:street": "Via Damiano Chiesa",
                "amenity": "driving_school",
                "check_date": "2024-04-10",
                "currency:XBT": "yes",
                "email": "amadori.destraadige@gmail.com",
                "name": "Amadori snc",
                "payment:bitcoin:operator": "inbitcoin.it",
                "phone": "+39 0464 462334"
            }
        },
        {
            "type": "node",
            "id": 8701286579,
            "lat": 45.9622358,
            "lon": 10.9116349,
            "timestamp": "2024-02-10T08:45:53Z",
            "version": 11,
            "changeset": 147284298,
            "user": "Igor Bubelov",
            "uid": 2104834,
            "tags": {
                "addr:city": "Dro",
                "addr:housenumber": "6",
                "addr:postcode": "38074",
                "addr:street": "Via Torre",
                "check_date": "2023-02-24",
                "cuisine": "italian;regional;international",
                "currency:XBT": "yes",
                "diet:gluten_free": "yes",
                "diet:vegan": "yes",
                "email": "info@untempoperte.it",
                "guest_house": "bed_and_breakfast",
                "internet_access": "wlan",
                "internet_access:fee": "no",
                "name": "Un tempo per Te",
                "opening_hours": "\"su prenotazione\"",
                "payment:cash": "yes",
                "payment:dash": "yes",
                "payment:ethereum": "yes",
                "payment:lightning": "yes",
                "phone": "+39 333 364 9554",
                "tourism": "guest_house",
                "website": "https://www.untempoperte.it"
            }
        },
        {
            "type": "node",
            "id": 11275477472,
            "lat": 45.9080063,
            "lon": 11.0409278,
            "timestamp": "2023-12-26T10:53:56Z",
            "version": 4,
            "changeset": 145528273,
            "user": "mueschel",
            "uid": 616774,
            "tags": {
                "addr:city": "Rovereto",
                "addr:housenumber": "77",
                "addr:postcode": "38068",
                "addr:street": "Viale Trento",
                "check_date:currency:XBT": "2023-12-06",
                "currency:XBT": "yes",
                "description": "Fant\u00e0sia \u00e8 il punto di riferimento per tutti gli appassionati di giochi da tavolo, di ruolo, di carte, di miniature e di tutto ci\u00f2 che riguarda il mondo nerd.",
                "email": "servizioclienti@fantasiastore.it",
                "name": "Fantasia Store",
                "payment:XBT:operator": "bitcoinpos.it",
                "payment:lightning": "yes",
                "payment:onchain": "no",
                "shop": "anime",
                "website": "https://fantasiastore.it/"
            }
        },
        {
            "type": "node",
            "id": 11573964908,
            "lat": 45.9157088,
            "lon": 11.0314209,
            "timestamp": "2024-01-31T18:40:58Z",
            "version": 1,
            "changeset": 146916753,
            "user": "inbitcoin",
            "uid": 4533749,
            "tags": {
                "addr:city": "Villa Lagarina",
                "addr:housenumber": "8",
                "addr:postcode": "38060",
                "addr:street": "Via Venticinque Aprile",
                "check_date:currency:XBT": "2024-01-31",
                "currency:XBT": "yes",
                "name": "Edicola - Riv. Tabacchi n. 9 - Ric. Lotto n. TN437",
                "payment:XBT:operator": "bitcoinpos.it",
                "payment:lightning": "yes",
                "payment:onchain": "no",
                "phone": "+390464412950",
                "shop": "newsagent"
            }
        },
        {
            "type": "node",
            "id": 11841224513,
            "lat": 45.9159607,
            "lon": 11.0271675,
            "timestamp": "2024-04-23T12:53:24Z",
            "version": 1,
            "changeset": 150394331,
            "user": "saunter",
            "uid": 10396321,
            "tags": {
                "addr:city": "Rovereto",
                "addr:postcode": "38060",
                "addr:street": "Viale dei Tigli",
                "check_date:currency:XBT": "2024-04-23",
                "currency:XBT": "yes",
                "name": "Energie Alternative",
                "office": "yes",
                "payment:onchain": "yes",
                "website": "https://energiealternativetn.it/"
            }
        }
    ]
}