{
    "id": "ss-savona",
    "name": "Satoshi Spritz Savona",
    "lng": 44.2975603,
    "lat": 8.4645,
    "localita": "Savona",
    "telegram_weburl": "https://web.telegram.org/a/#-1002127523503",
    "telegram_app": "https://t.me/satoshispritzsavona",
    "telegram_members": 41.0,
    "network": "satoshispritz",
    "poi": [
        {
            "type": "node",
            "id": 3472684803,
            "lat": 44.3439635,
            "lon": 8.5441201,
            "timestamp": "2023-04-19T11:08:47Z",
            "version": 7,
            "changeset": 135097744,
            "user": "saunter",
            "uid": 10396321,
            "tags": {
                "addr:city": "Celle Ligure",
                "addr:housenumber": "48",
                "addr:postcode": "17015",
                "addr:street": "Via Federico Colla",
                "check_date:currency:XBT": "2023-04-19",
                "currency:XBT": "yes",
                "description": "Ferramenta e casalinghi.",
                "name": "Ferramenta Chiodo Scaccia Chiodo",
                "phone": "+39 019 990219",
                "shop": "hardware"
            }
        },
        {
            "type": "node",
            "id": 6283604849,
            "lat": 44.3059573,
            "lon": 8.482731,
            "timestamp": "2023-11-21T18:18:14Z",
            "version": 4,
            "changeset": 144298302,
            "user": "Chiarant",
            "uid": 18452174,
            "tags": {
                "addr:city": "Savona",
                "addr:housenumber": "32r",
                "addr:postcode": "17100",
                "addr:street": "Via Untoria",
                "amenity": "pub",
                "check_date": "2023-11-21",
                "contact:facebook": "https://www.facebook.com/RetrobottegaSV/",
                "currency:XBT": "yes",
                "description": "Locale specializzato nella preparazione di cocktails",
                "email": "retrobottega32@gmail.com",
                "name": "Retrobottega",
                "payment:lightning": "yes",
                "phone": "+39 375 782 8174",
                "website": "https://linktr.ee/retrobottega"
            }
        },
        {
            "type": "node",
            "id": 11005606809,
            "lat": 44.4519155,
            "lon": 8.3824973,
            "timestamp": "2023-06-26T11:02:12Z",
            "version": 2,
            "changeset": 137787152,
            "user": "Chiarant",
            "uid": 18452174,
            "tags": {
                "addr:city": "Giusvalla",
                "addr:housenumber": "2",
                "addr:postcode": "17010",
                "addr:street": "Localit\u00e0 Vicari",
                "check_date": "2023-06-26",
                "currency:XBT": "yes",
                "description": "Vendita cosmetici artigianali",
                "email": "info@bagnisliguria.it",
                "name": "Azienda Agricola Daniela Bagnis",
                "note": "Presente e-commerce",
                "payment:lightning": "yes",
                "phone": "+39 333 2471926",
                "shop": "cosmetics",
                "website": "https://www.bagnisliguria.it/"
            }
        }
    ]
}