{
    "id": "ss-treviso",
    "name": "Satoshi Spritz Treviso",
    "lng": 45.6675457,
    "lat": 12.24507364,
    "localita": "Treviso",
    "telegram_weburl": "https://web.telegram.org/a/#-1001574094874",
    "telegram_app": "https://t.me/SatoshiSpritzTreviso",
    "telegram_members": 85.0,
    "network": "satoshispritz",
    "poi": [
        {
            "type": "node",
            "id": 4377025289,
            "lat": 45.5475583,
            "lon": 12.3039652,
            "timestamp": "2023-07-31T14:23:33Z",
            "version": 2,
            "changeset": 139256906,
            "user": "BTC Map",
            "uid": 18545877,
            "tags": {
                "check_date:currency:XBT": "2023-07-31",
                "currency:XBT": "yes",
                "name": "Mondo Convenienza",
                "name:it": "Mondo Convenienza",
                "shop": "furniture"
            }
        },
        {
            "type": "node",
            "id": 4531889985,
            "lat": 45.6851608,
            "lon": 12.2466798,
            "timestamp": "2024-06-14T12:39:05Z",
            "version": 5,
            "changeset": 152676259,
            "user": "Rockedf",
            "uid": 7522075,
            "tags": {
                "addr:city": "Treviso",
                "addr:country": "IT",
                "addr:housenumber": "24",
                "addr:postcode": "31100",
                "addr:street": "Via dei Da Prata",
                "amenity": "restaurant",
                "check_date": "2022-12-12",
                "check_date:currency:XBT": "2024-06-14",
                "currency:XBT": "yes",
                "name": "Bastian Osteria",
                "opening_hours": "Mo-Fr 12:00-15:00,18:00-26:00; Sa 18:00-26:00; Su 16:30-26:00",
                "payment:lightning": "no",
                "payment:lightning_contactless": "no",
                "payment:onchain": "yes",
                "phone": "+390422424391",
                "website": "https://bastianosteria.it/"
            }
        },
        {
            "type": "node",
            "id": 9391569155,
            "lat": 45.6688905,
            "lon": 12.2412925,
            "timestamp": "2024-04-14T08:44:34Z",
            "version": 4,
            "changeset": 149981812,
            "user": "Chiarant",
            "uid": 18452174,
            "tags": {
                "addr:city": "Treviso",
                "addr:housenumber": "54",
                "addr:postcode": "31100",
                "addr:street": "Viale Bartolomeo D'Alviano",
                "amenity": "atm",
                "check_date": "2024-04-14",
                "currency:XBT": "yes",
                "description": "Bitcoin ATM che permette di acquistare Bitcoin, Ethereum, Litecoin, Dogecoin, Bitcoin Cash, Dash, Monero. L'ATM \u00e8 situato all'interno del BAR 98.",
                "email": "support@cryptolocalatm.com",
                "name": "CryptoLocalATM c/o BAR 98",
                "payment:onchain": "yes",
                "phone": "+447894438974",
                "website": "https://cryptolocalatm.com"
            }
        }
    ]
}