{
    "id": "ss-toscana-sud",
    "name": "Satoshi Spritz Toscana-Sud",
    "lng": 43.3186614,
    "lat": 11.3305135,
    "localita": "Toscana-Sud",
    "idlocalita": "grosseto",
    "telegram_weburl": "https://web.telegram.org/a/#-1001890322260",
    "telegram_app": "https://t.me/SatoshiSpritzToscanaSud",
    "telegram_members": 41.0,
    "network": "satoshispritz",
    "poi": [
        {
            "type": "node",
            "id": 227895561,
            "lat": 43.751397,
            "lon": 11.243084,
            "timestamp": "2014-09-17T13:22:10Z",
            "version": 3,
            "changeset": 25500680,
            "user": "dgitto",
            "uid": 554973,
            "tags": {
                "amenity": "fuel",
                "brand": "Q8",
                "name": "Q8",
                "operator": "Q8"
            }
        },
        {
            "type": "node",
            "id": 1491161940,
            "lat": 43.4069495,
            "lon": 11.1658857,
            "timestamp": "2025-01-03T10:05:59Z",
            "version": 6,
            "changeset": 160941030,
            "user": "mpbin",
            "uid": 21850090,
            "tags": {
                "addr:city": "Colle di Val d'Elsa",
                "addr:housenumber": "5",
                "addr:postcode": "53034",
                "addr:street": "Strada Provinciale Colligiana",
                "brand": "Decathlon",
                "brand:wikidata": "Q509349",
                "name": "Decathlon",
                "operator": "Decathlon",
                "shop": "sports"
            }
        },
        {
            "type": "node",
            "id": 1962273539,
            "lat": 43.4614836,
            "lon": 11.8787694,
            "timestamp": "2025-01-03T14:01:22Z",
            "version": 6,
            "changeset": 160950533,
            "user": "mpbin",
            "uid": 21850090,
            "tags": {
                "addr:city": "Arezzo",
                "addr:country": "IT",
                "addr:housenumber": "237",
                "addr:postcode": "52100",
                "addr:street": "Corso Italia",
                "brand": "OVS",
                "brand:wikidata": "Q2042514",
                "entrance": "yes",
                "name": "OVS",
                "opening_hours": "Mo-Sa 09:00-20:00; Su 09:30-20:00",
                "operator": "OVS",
                "shop": "clothes",
                "source": "survey"
            }
        },
        {
            "type": "node",
            "id": 2459967362,
            "lat": 43.436648,
            "lon": 11.8503191,
            "timestamp": "2024-12-31T18:19:23Z",
            "version": 6,
            "changeset": 160844086,
            "user": "mpbin",
            "uid": 21850090,
            "tags": {
                "addr:city": "Arezzo",
                "addr:housenumber": "137",
                "addr:postcode": "52100",
                "addr:street": "Localit\u00e0 Ripa di Olmo",
                "brand": "Unieuro",
                "brand:wikidata": "Q4004687",
                "name": "Unieuro",
                "opening_hours": "Mo-Fr 09:00-13:00,15:00-20:00; Sa 09:00-20:00; Su 10:00-12:30,15:30-19:30",
                "operator": "Unieuro S.p.A.",
                "shop": "electronics"
            }
        },
        {
            "type": "node",
            "id": 3118020509,
            "lat": 43.6276625,
            "lon": 11.462054,
            "timestamp": "2025-01-03T10:17:49Z",
            "version": 7,
            "changeset": 160941476,
            "user": "mpbin",
            "uid": 21850090,
            "tags": {
                "addr:city": "Figline Valdarno",
                "addr:housenumber": "6",
                "addr:postcode": "50063",
                "addr:street": "Via Comunit\u00e0 Europea",
                "branch": "Figline e Incisa Valdarno",
                "brand": "Decathlon",
                "brand:wikidata": "Q509349",
                "brand:wikipedia": "en:Decathlon (retailer)",
                "contact:phone": "+39 055 9154060",
                "name": "Decathlon",
                "opening_hours": "Mo-Su 09:00-20:00",
                "operator": "Decathlon",
                "shop": "sports",
                "wheelchair": "yes"
            }
        },
        {
            "type": "node",
            "id": 4257263027,
            "lat": 43.4762874,
            "lon": 11.8619554,
            "timestamp": "2025-01-03T10:27:10Z",
            "version": 4,
            "changeset": 160941754,
            "user": "mpbin",
            "uid": 21850090,
            "tags": {
                "addr:city": "Arezzo",
                "addr:housenumber": "12-13",
                "addr:postcode": "52100",
                "addr:street": "Via Giovanni Amendola",
                "brand": "Decathlon",
                "brand:wikidata": "Q509349",
                "name": "Decathlon",
                "operator": "Decathlon",
                "shop": "sports"
            }
        },
        {
            "type": "node",
            "id": 6775884898,
            "lat": 43.4632928,
            "lon": 11.8800925,
            "timestamp": "2024-10-08T17:43:58Z",
            "version": 5,
            "changeset": 157638637,
            "user": "Bota87",
            "uid": 19327867,
            "tags": {
                "addr:city": "Arezzo",
                "addr:housenumber": "15",
                "addr:postcode": "52100",
                "addr:street": "Via de Cenci",
                "check_date": "2023-09-07",
                "check_date:currency:XBT": "2024-10-08",
                "currency:XBT": "yes",
                "email": "info@capaccioli.net",
                "name": "Studio Associato Capaccioli Pucci Guiducci",
                "office": "accountant",
                "payment:bitcoin:operator": "inbitcoin.it",
                "phone": "+39 0575 323666",
                "website": "https://www.capaccioli.net/"
            }
        },
        {
            "type": "node",
            "id": 8839426101,
            "lat": 43.3053864,
            "lon": 11.3186985,
            "timestamp": "2024-12-03T20:30:26Z",
            "version": 5,
            "changeset": 159895982,
            "user": "mpbin",
            "uid": 21850090,
            "tags": {
                "addr:city": "Siena",
                "addr:housenumber": "24",
                "addr:postcode": "53100",
                "addr:street": "Strada Massetana Romana",
                "brand": "Trony",
                "brand:wikidata": "Q3999692",
                "name": "Trony",
                "operator": "Trony",
                "phone": "+39 0577 271600",
                "shop": "electronics",
                "website": "https://promozioni.trony.it/volantino/TRO019_A",
                "wheelchair": "no"
            }
        },
        {
            "type": "node",
            "id": 8889877950,
            "lat": 43.4099392,
            "lon": 11.134106,
            "timestamp": "2025-01-01T20:27:08Z",
            "version": 4,
            "changeset": 160884207,
            "user": "mpbin",
            "uid": 21850090,
            "tags": {
                "addr:city": "Colle di Val d'Elsa",
                "addr:housenumber": "46/D",
                "addr:postcode": "53034",
                "addr:street": "Viale dei Mille",
                "branch": "Pecchi",
                "brand": "Unieuro",
                "brand:wikidata": "Q4004687",
                "name": "Unieuro",
                "operator": "Unieuro S.p.A.",
                "shop": "electronics"
            }
        },
        {
            "type": "node",
            "id": 9949098849,
            "lat": 43.3212364,
            "lon": 11.3291768,
            "timestamp": "2025-01-03T14:24:50Z",
            "version": 7,
            "changeset": 160951578,
            "user": "mpbin",
            "uid": 21850090,
            "tags": {
                "addr:city": "Siena",
                "addr:country": "IT",
                "addr:housenumber": "6-12",
                "addr:postcode": "53100",
                "addr:street": "Piazza Giacomo Matteotti",
                "brand": "OVS",
                "brand:wikidata": "Q2042514",
                "contact:phone": "+39 0577 41390",
                "contact:website": "https://www.ovs.it/it/it/stores/italia/toscana/siena/ovs-siena",
                "name": "OVS",
                "operator": "OVS",
                "shop": "clothes"
            }
        },
        {
            "type": "node",
            "id": 10141459632,
            "lat": 43.2747497,
            "lon": 11.7494835,
            "timestamp": "2024-08-14T08:57:40Z",
            "version": 2,
            "changeset": 155229071,
            "user": "mauropili",
            "uid": 1496865,
            "tags": {
                "addr:city": "Lucignano",
                "addr:housenumber": "37",
                "addr:postcode": "52046",
                "addr:street": "Via Della Concia",
                "contact:facebook": "https://www.facebook.com/cipressoepietra",
                "contact:instagram": "https://www.instagram.com/cipressoepietra/",
                "contact:pinterest": "https://it.pinterest.com/cipressoepietra/",
                "currency:XBT": "yes",
                "email": "info@cipressoepietra.com",
                "guest_house": "bed_and_breakfast",
                "name": "Cipresso e Pietra",
                "payment:lightning": "yes",
                "payment:lightning_contactless": "no",
                "payment:onchain": "yes",
                "phone": "+39 353 345 9532",
                "survey:date": "2022-10-30",
                "tourism": "guest_house",
                "website": "https://CipressoePietra.com"
            }
        },
        {
            "type": "node",
            "id": 10604650892,
            "lat": 42.9107695,
            "lon": 11.2483749,
            "timestamp": "2023-02-03T18:28:28Z",
            "version": 1,
            "changeset": 132053146,
            "user": "gianlock",
            "uid": 18347620,
            "tags": {
                "addr:city": "Civitella Paganico",
                "addr:housenumber": "2",
                "addr:postcode": "58045",
                "addr:street": "Loc. Steccaia",
                "check_date": "2023-02-03",
                "currency:XBT": "yes",
                "email": "lasteccaiaalta@hotmail.com",
                "guest_house": "agritourism",
                "name": "Agriturismo La Steccaia Alta",
                "payment:lightning": "yes",
                "payment:lightning_contactless": "no",
                "payment:onchain": "yes",
                "phone": "+393401808494",
                "tourism": "guest_house",
                "website": "https://www.lasteccaiaalta.it"
            }
        },
        {
            "type": "node",
            "id": 10721887873,
            "lat": 43.6298198,
            "lon": 11.4614133,
            "timestamp": "2025-01-03T17:32:23Z",
            "version": 4,
            "changeset": 160959094,
            "user": "mpbin",
            "uid": 21850090,
            "tags": {
                "addr:city": "Figline e Incisa Valdarno",
                "addr:housenumber": "40",
                "addr:postcode": "50063",
                "addr:street": "Via Romania",
                "air_conditioning": "yes",
                "brand": "MediaWorld",
                "brand:wikidata": "Q2381223",
                "name": "MediaWorld",
                "opening_hours": "Mo-Sa 09:30-20:00; Su 09:30-13:30,15:30-19:30",
                "operator": "MediaMarket S.p.A.",
                "payment:cash": "yes",
                "payment:credit_cards": "yes",
                "phone": "0559506111",
                "shop": "electronics",
                "wheelchair": "yes"
            }
        },
        {
            "type": "node",
            "id": 10721944833,
            "lat": 43.6296611,
            "lon": 11.4619065,
            "timestamp": "2023-03-08T18:14:27Z",
            "version": 1,
            "changeset": 133451143,
            "user": "gi_maf",
            "uid": 18559051,
            "tags": {
                "addr:city": "Figline e Incisa Valdarno",
                "addr:housenumber": "40",
                "addr:postcode": "50063",
                "addr:street": "Via Romania",
                "brand": "OVS",
                "brand:wikidata": "Q2042514",
                "clothes": "women;underwear;men;children;sports;workwear;suits;hats",
                "name": "OVS",
                "opening_hours": "Mo-Sa 09:00-20:00; Su 08:30-13:30",
                "operator": "OVS",
                "phone": "+39 055 9154196",
                "shop": "clothes",
                "website": "https://stores.ovs.it/it/italia/toscana/firenze/ovs-figline-valdarno",
                "wheelchair": "yes"
            }
        },
        {
            "type": "node",
            "id": 10844391197,
            "lat": 43.0027559,
            "lon": 11.6877255,
            "timestamp": "2024-04-12T18:06:55Z",
            "version": 2,
            "changeset": 149923223,
            "user": "DabMK",
            "uid": 17965418,
            "tags": {
                "addr:city": "Gallina",
                "addr:postcode": "53023",
                "addr:street": "Via del Colombaio",
                "check_date": "2023-04-26",
                "contact:instagram": "https://www.instagram.com/pastapanarese/",
                "currency:XBT": "yes",
                "email": "info@pastapanarese.it",
                "name": "Pasta Panarese",
                "phone": "+39 0577 880233",
                "shop": "food",
                "website": "https://pastapanarese.it"
            }
        },
        {
            "type": "node",
            "id": 10881103069,
            "lat": 43.3868146,
            "lon": 11.7793179,
            "timestamp": "2024-09-23T12:43:23Z",
            "version": 4,
            "changeset": 156994099,
            "user": "mpbin",
            "uid": 21850090,
            "tags": {
                "addr:city": "Tegoleto",
                "addr:housenumber": "14",
                "addr:postcode": "52041",
                "addr:street": "Strada Statale 73 Senese Aretina",
                "amenity": "car_rental",
                "check_date": "2024-09-21",
                "check_date:currency:XBT": "2024-09-21",
                "contact:facebook": "https://www.facebook.com/nostalgicexperience/",
                "contact:instagram": "https://www.instagram.com/nostalgicexperience/",
                "currency:XBT": "yes",
                "description": "We rent our vintage vehicles only during weekends (i.e. Saturday or Sunday)",
                "email": "nostalgicexperience@gmail.com",
                "name": "Nostalgic Experience",
                "payment:lightning": "yes",
                "payment:lightning_contactless": "no",
                "payment:onchain": "yes",
                "phone": "+39 333 9996 146",
                "survey:date": "2023-05-09",
                "website": "https://www.nostalgicexperience.com/"
            }
        },
        {
            "type": "node",
            "id": 10914031678,
            "lat": 43.4642377,
            "lon": 11.8633333,
            "timestamp": "2024-10-08T17:43:58Z",
            "version": 9,
            "changeset": 157638637,
            "user": "Bota87",
            "uid": 19327867,
            "tags": {
                "addr:city": "Arezzo",
                "addr:housenumber": "35",
                "addr:postcode": "52100",
                "addr:street": "Via Alessandro dal Borro",
                "amenity": "restaurant",
                "contact:facebook": "https://www.facebook.com/mopizzapescaiola",
                "cuisine": "pizza",
                "currency:XBT": "yes",
                "description": "Pizza - Pinsa romana - A taglio - D'asporto - Consegna a domicilio",
                "indoor_seating": "yes",
                "name": "Mo' piZZa ex Mondo Pizza Pescaiola",
                "outdoor_seating": "yes",
                "payment:lightning": "yes",
                "payment:lightning_contactless": "no",
                "payment:onchain": "yes",
                "phone": "+39 0575 042931",
                "phone:mobile": "+39 333 6562147",
                "survey:date": "2024-10-08",
                "website": "https://mo-pizza.com"
            }
        },
        {
            "type": "node",
            "id": 10916834927,
            "lat": 43.4710712,
            "lon": 11.8881845,
            "timestamp": "2023-11-17T17:01:00Z",
            "version": 2,
            "changeset": 144147593,
            "user": "toponomastica_comune_arenzano",
            "uid": 14257573,
            "tags": {
                "addr:city": "Arezzo",
                "addr:housenumber": "26a",
                "addr:postcode": "52100",
                "addr:street": "Via Pier Luigi da Palestrina",
                "currency:XBT": "yes",
                "description": "Ingrosso Fiori e Piante",
                "name": "Coimf Snc Ingrosso Fiori e Piante",
                "payment:onchain": "yes",
                "shop": "florist",
                "survey:date": "2023-05-21",
                "website": "https://www.coimf.it"
            }
        },
        {
            "type": "node",
            "id": 10974559676,
            "lat": 42.9387386,
            "lon": 11.2837042,
            "timestamp": "2023-06-13T18:41:18Z",
            "version": 1,
            "changeset": 137298668,
            "user": "Chiarant",
            "uid": 18452174,
            "tags": {
                "addr:city": "Paganico",
                "addr:housenumber": "14",
                "addr:postcode": "58045",
                "addr:street": "Strada Provinciale 64 Cipressino",
                "amenity": "bar",
                "check_date": "2023-06-13",
                "contact:facebook": "https://www.facebook.com/Barilcacciatore2.0/",
                "currency:XBT": "yes",
                "name": "7e2 Wine e Food",
                "payment:lightning": "yes",
                "payment:onchain": "yes"
            }
        },
        {
            "type": "node",
            "id": 11071694522,
            "lat": 43.4635311,
            "lon": 11.8790102,
            "timestamp": "2024-10-08T17:43:58Z",
            "version": 4,
            "changeset": 157638637,
            "user": "Bota87",
            "uid": 19327867,
            "tags": {
                "addr:city": "Arezzo",
                "addr:floor": "Galleria I piano",
                "addr:housenumber": "25e",
                "addr:postcode": "52100",
                "addr:street": "Via Guido Monaco",
                "check_date": "2024-09-23",
                "check_date:currency:XBT": "2024-09-23",
                "currency:XBT": "yes",
                "description": "Intermediazione e consulenza assicurativa",
                "email": "assicurazioni.bartolozzi@gmail.com",
                "name": "Agenzia Assicurazioni Bartolozzi",
                "office": "insurance",
                "payment:lightning": "no",
                "payment:lightning_contactless": "no",
                "payment:onchain": "yes",
                "phone": "+39 346 585 5227",
                "ref:vatin": "02005380510",
                "survey:date": "2024-09-26"
            }
        },
        {
            "type": "node",
            "id": 11375064371,
            "lat": 43.6488721,
            "lon": 11.3917506,
            "timestamp": "2023-11-25T10:44:33Z",
            "version": 1,
            "changeset": 144436664,
            "user": "Chiarant",
            "uid": 18452174,
            "tags": {
                "addr:city": "Poggio alla Croce",
                "addr:housenumber": "16",
                "addr:postcode": "50022",
                "addr:street": "Localit\u00e0 Musignana",
                "amenity": "animal_boarding",
                "check_date": "2023-11-25",
                "currency:XBT": "yes",
                "name": "Mayra e Sasha - Pensione Casalinga",
                "website": "https://www.dogsitterfiglinevaldarno.com/"
            }
        },
        {
            "type": "node",
            "id": 11449547562,
            "lat": 43.0564151,
            "lon": 11.316437,
            "timestamp": "2024-10-09T20:06:37Z",
            "version": 4,
            "changeset": 157688135,
            "user": "mpbin",
            "uid": 21850090,
            "tags": {
                "addr:city": "Civitella Paganico",
                "addr:housenumber": "1",
                "addr:place": "Monte Acuto",
                "addr:postcode": "58045",
                "air_conditioning": "yes",
                "check_date": "2024-10-09",
                "check_date:currency:XBT": "2024-10-09",
                "currency:XBT": "yes",
                "description": "Poggio alla Rocca \u00e8 stato premiato :\n\u2013 da Maremmaguide come una delle migliori location della Maremma \u2013 Toscana\n\u2013 da Astronomitaly come uno dei cieli pi\u00f9 belli di Italia\nE\u2019 tra le 120 strutture in tutta italia che rispettano i criteri di qualit\u00e0 previsti",
                "email": "info@poggioallarocca.it",
                "image": "https://flic.kr/p/TGuUTq",
                "internet_access": "yes",
                "internet_access:fee": "no",
                "name": "Poggio alla Rocca",
                "payment:lightning": "yes",
                "payment:lightning_contactless": "no",
                "payment:onchain": "no",
                "phone": "+39 33 334 53871",
                "rooms": "5",
                "tourism": "hotel",
                "website": "https://www.poggioallarocca.it/"
            }
        },
        {
            "type": "node",
            "id": 11540683992,
            "lat": 43.4781259,
            "lon": 11.1310074,
            "timestamp": "2025-01-02T22:17:36Z",
            "version": 2,
            "changeset": 160928164,
            "user": "mpbin",
            "uid": 21850090,
            "tags": {
                "addr:city": "Poggibonsi",
                "addr:postcode": "53036",
                "addr:street": "Strada Provinciale di San Gimignano",
                "brand": "Trony",
                "brand:wikidata": "Q3999692",
                "name": "Trony",
                "operator": "Trony",
                "shop": "electronics"
            }
        },
        {
            "type": "node",
            "id": 11643046794,
            "lat": 43.3310333,
            "lon": 11.3221213,
            "timestamp": "2025-01-01T21:26:55Z",
            "version": 3,
            "changeset": 160886030,
            "user": "mpbin",
            "uid": 21850090,
            "tags": {
                "addr:city": "Siena",
                "addr:housenumber": "25",
                "addr:place": "Piazzale Carlo Rosselli",
                "addr:postcode": "53100",
                "brand": "Unieuro",
                "brand:wikidata": "Q4004687",
                "name": "Unieuro",
                "operator": "Unieuro S.p.A.",
                "phone": "+39 0577 226912",
                "shop": "electronics",
                "website": "https://www.unieuro.it/online/negozi/Unieuro-Siena"
            }
        },
        {
            "type": "node",
            "id": 11778374552,
            "lat": 43.3347691,
            "lon": 11.3007112,
            "timestamp": "2024-09-25T06:14:45Z",
            "version": 12,
            "changeset": 157065366,
            "user": "mpbin",
            "uid": 21850090,
            "tags": {
                "addr:city": "Siena",
                "addr:housenumber": "9",
                "addr:postcode": "53100",
                "addr:street": "Via Bernardino Perfetti",
                "addr:unit": "14",
                "check_date": "2024-09-25",
                "check_date:currency:XBT": "2024-09-25",
                "contact:instagram": "https://www.instagram.com/bed_and_breakfast_siena",
                "currency:XBT": "yes",
                "email": "homelatartuca@gmail.com",
                "guest_house": "apartment",
                "image": "https://www.booking.com/hotel/it/la-tartuca.it.html",
                "internet_access": "yes",
                "internet_access:fee": "no",
                "internet_access:ssid": "La_Tartuca-5G-F789EE",
                "level": "4",
                "name": "B&B LA TARTARUGA",
                "not:name": "GIULIA",
                "opening_hours": "24/7",
                "payment:cash": "yes",
                "payment:lightning": "yes",
                "payment:notes": "yes",
                "payment:onchain": "yes",
                "phone": "+393384845333",
                "rooms": "5",
                "tourism": "guest_house"
            }
        },
        {
            "type": "node",
            "id": 11953950669,
            "lat": 43.4736708,
            "lon": 11.8462018,
            "timestamp": "2024-10-08T17:57:59Z",
            "version": 2,
            "changeset": 157639323,
            "user": "Bota87",
            "uid": 19327867,
            "tags": {
                "addr:city": "Arezzo",
                "addr:housenumber": "439",
                "addr:postcode": "52100",
                "addr:street": "Via Fiorentina",
                "contact:facebook": "https://www.facebook.com/kasastorearezzo",
                "currency:XBT": "yes",
                "description": "Da noi potrai trovare tantissimi articoli per la casa, il fai da te e la cura del corpo",
                "name": "Kasa Store",
                "opening_hours": "Mo-Su 09:00-20:00",
                "payment:lightning": "yes",
                "payment:lightning_contactless": "yes",
                "payment:onchain": "yes",
                "phone": "+39 0575 969400",
                "shop": "variety_store",
                "survey:date": "2024-10-08"
            }
        },
        {
            "type": "node",
            "id": 11973785777,
            "lat": 43.5613878,
            "lon": 11.8477764,
            "timestamp": "2024-06-11T19:21:16Z",
            "version": 1,
            "changeset": 152558520,
            "user": "Bota87",
            "uid": 19327867,
            "tags": {
                "addr:city": "Capolona",
                "addr:housenumber": "18",
                "addr:postcode": "52010",
                "addr:street": "Via del Paradiso",
                "currency:XBT": "yes",
                "description": "Riparazione di ammaccature senza stucco e riverniciatura",
                "email": "m.ballantini63@gmail.com",
                "name": "Marco Ballantini - Specializzato in auto grandinate",
                "payment:lightning": "yes",
                "payment:onchain": "yes",
                "phone": "+39 333 8556 247",
                "shop": "car_repair",
                "survey:date": "2024-06-11"
            }
        },
        {
            "type": "node",
            "id": 12550106324,
            "lat": 43.4624968,
            "lon": 11.8768274,
            "timestamp": "2025-02-01T23:59:49Z",
            "version": 2,
            "changeset": 162030095,
            "user": "Bota87",
            "uid": 19327867,
            "tags": {
                "addr:city": "Arezzo",
                "addr:housenumber": "7",
                "addr:postcode": "52100",
                "addr:street": "Via Eritrea",
                "amenity": "atm",
                "cash_withdrawal": "no",
                "check_date": "2025-02-01",
                "contact:facebook": "https://www.facebook.com/goodluckarezzo786",
                "contact:instagram": "https://www.instagram.com/goodluckarezzo",
                "contact:whatsapp": "+39 380 580 5980",
                "currency:XBT": "yes",
                "description": "Bitcoin ATM operato da CoinFlip, situato all'interno di Good Luck, agenzia di viaggi e money transfer",
                "email": "arezzo4@yahoo.it",
                "indoor": "yes",
                "name": "CoinFlip ATM",
                "opening_hours": "Mo-Su 09:00-21:00",
                "operator": "CoinFlip",
                "payment:lightning": "no",
                "payment:lightning_contactless": "no",
                "payment:onchain": "yes",
                "phone": "+39 324 628 8800",
                "website": "https://locations.coinflip.tech/it/ar/arezzo/via-eritrea-7/7a"
            }
        },
        {
            "type": "way",
            "id": 161023267,
            "timestamp": "2023-09-20T08:05:39Z",
            "version": 9,
            "changeset": 141500103,
            "user": "Gioele2704",
            "uid": 18940820,
            "nodes": [
                1730294576,
                1730294577,
                1730294578,
                1730294579,
                1730294581,
                7276593794,
                1730294583,
                7276593787,
                1730294591,
                3904140529,
                11037121742,
                1730294589,
                3904140523,
                1730294587,
                2338644953,
                1730294576
            ],
            "tags": {
                "area": "yes",
                "highway": "services",
                "name": "Area di servizio Lastra a Signa",
                "operator": "Q8"
            }
        },
        {
            "type": "way",
            "id": 458843592,
            "timestamp": "2019-02-10T18:57:50Z",
            "version": 2,
            "changeset": 67079826,
            "user": "fgouget",
            "uid": 2678738,
            "nodes": [
                3814209413,
                3814209414,
                3814209415,
                4547834385,
                4547834153,
                3814209411,
                4547834281,
                4547834387,
                4547834251,
                4547834285,
                4547834386,
                3814209413
            ],
            "tags": {
                "addr:city": "Firenze",
                "addr:housenumber": "49",
                "addr:postcode": "50136",
                "addr:street": "Via di Rocca Tedalda",
                "building": "yes",
                "name": "Conad City MAJA srl",
                "opening_hours": "Mo-Sa 08:00-20:30; Su 09:00-13:30,15:30-19:30",
                "operator": "Conad",
                "phone": "+39055 690804",
                "shop": "department_store",
                "wheelchair": "yes"
            }
        },
        {
            "type": "way",
            "id": 464802122,
            "timestamp": "2023-10-09T10:07:21Z",
            "version": 5,
            "changeset": 142342379,
            "user": "mau59",
            "uid": 257767,
            "nodes": [
                4598743948,
                4598744138,
                4598744149,
                4598743893,
                4598743904,
                4598744085,
                4598744096,
                9275689810,
                4598744044,
                4598744059,
                4598743792,
                4598743784,
                4598743879,
                9275732928,
                9275732917,
                4598743948
            ],
            "tags": {
                "addr:city": "Firenze",
                "addr:housenumber": "111",
                "addr:postcode": "50126",
                "addr:street": "Via Erbosa",
                "brand": "Trony",
                "brand:wikidata": "Q3999692",
                "brand:wikipedia": "it:Trony",
                "building": "retail",
                "name": "Trony",
                "operator": "Trony",
                "shop": "electronics"
            }
        },
        {
            "type": "way",
            "id": 568452478,
            "timestamp": "2023-02-18T13:07:24Z",
            "version": 8,
            "changeset": 132714225,
            "user": "frasty",
            "uid": 549825,
            "nodes": [
                5468865733,
                8423923190,
                8423923191,
                8524799307,
                5468866007,
                10676157541,
                5468866054,
                5468865733
            ],
            "tags": {
                "building": "retail",
                "building:levels": "1",
                "operator": "Conad"
            }
        },
        {
            "type": "way",
            "id": 850278650,
            "timestamp": "2025-01-06T15:33:40Z",
            "version": 5,
            "changeset": 161063305,
            "user": "branco-revert",
            "uid": 19497998,
            "nodes": [
                7932566911,
                9275689813,
                9275732921,
                9275732943,
                4592448874,
                4592448935,
                9275732937,
                4598744021,
                9275732940,
                9275732928,
                4598743879,
                4598743784,
                4598743792,
                4598744059,
                4598744044,
                9275689810,
                9275689808,
                4598744055,
                7932566919,
                9275732918,
                9275732931,
                7932566920,
                7932566911
            ],
            "tags": {
                "access": "customers",
                "amenity": "parking",
                "operator": "Trony",
                "operator:type": "private",
                "parking": "surface",
                "surface": "asphalt"
            }
        }
    ],
    "telegram": []
}