{
    "id": "ss-torino",
    "name": "Satoshi Spritz Torino",
    "lng": 45.0732745,
    "lat": 7.68068748,
    "localita": "Torino",
    "idlocalita": "torino",
    "telegram_weburl": "https://web.telegram.org/a/#-1001385365071",
    "telegram_app": "https://t.me/SatoshiSpritzTorino",
    "telegram_members": 614.0,
    "network": "satoshispritz",
    "poi": [
        {
            "type": "node",
            "id": 2027837990,
            "lat": 44.8245882,
            "lon": 7.3032244,
            "timestamp": "2024-08-16T14:57:20Z",
            "version": 8,
            "changeset": 155332052,
            "user": "Rockedf",
            "uid": 7522075,
            "tags": {
                "addr:city": "Bricherasio",
                "addr:country": "IT",
                "addr:housenumber": "17",
                "addr:postcode": "10060",
                "addr:street": "Piazza Castelvecchio",
                "amenity": "restaurant",
                "atm": "yes",
                "check_date": "2024-08-16",
                "contact:instagram": "https://www.instagram.com/daldocpizzeria/",
                "cuisine": "pizza",
                "currency:XBT": "yes",
                "name": "Dal Doc",
                "opening_hours": "We-Mo 18:30-22:00",
                "payment:lightning": "yes",
                "payment:lightning_contactless": "no",
                "payment:onchain": "no",
                "phone": "+39 34 8296 8337",
                "website:menu": "https://www.flipbookpdf.net/web/site/be100d798e53688ed2b69df064a71c9ecafcb60b202404.pdf.html#page/2"
            }
        },
        {
            "type": "node",
            "id": 3351124329,
            "lat": 45.1377967,
            "lon": 7.7353549,
            "timestamp": "2024-07-06T05:55:34Z",
            "version": 6,
            "changeset": 153611251,
            "user": "mauropili",
            "uid": 1496865,
            "tags": {
                "addr:city": "Settimo Torinese",
                "addr:housenumber": "8",
                "addr:postcode": "10036",
                "addr:street": "Via Umberto Giordano",
                "brand": "Mondo Convenienza",
                "brand:wikidata": "Q55830962",
                "check_date:currency:XBT": "2023-07-31",
                "currency:XBT": "yes",
                "name": "Mondo Convenienza",
                "shop": "furniture"
            }
        },
        {
            "type": "node",
            "id": 3484016351,
            "lat": 45.0311269,
            "lon": 7.6399938,
            "timestamp": "2024-07-24T16:30:36Z",
            "version": 9,
            "changeset": 154358769,
            "user": "mauropili",
            "uid": 1496865,
            "tags": {
                "addr:city": "Torino",
                "addr:housenumber": "160",
                "addr:postcode": "10135",
                "addr:street": "Corso Giovanni Agnelli",
                "amenity": "pub",
                "brewery": "L\u00f6wenbr\u00e4u;Tennent\u2019s Super;Bass;Leffe;Franziskaner;Hoegaarden;Guinness;various",
                "check_date:currency:XBT": "2023-03-24",
                "contact:facebook": "https://www.facebook.com/1983JohnLennonsPub/",
                "contact:instagram": "https://www.instagram.com/johnlennonpub83/",
                "contact:mobile": "+39 339 1661356",
                "currency:XBT": "yes",
                "description": "Un autentico pub inglese a Torino, John Lennon's Pub offre un'esperienza unica dal 1983. Situato nel cuore della citt\u00e0, \u00e8 il luogo ideale per chi cerca l'atmosfera e il fascino dei tradizionali pub inglesi.",
                "email": "johnlennonsrl@gmail.com",
                "internet_access": "wlan",
                "internet_access:fee": "no",
                "name": "John Lennon's Pub",
                "opening_hours": "Tu-Th 18:30-02:00; Fr-Sa 18:30-03:00; Su 18:30-02:00",
                "operator": "Fans di John Lennon s.n.c. di Serra Marco & C.",
                "outdoor_seating": "yes",
                "payment:lightning": "yes",
                "payment:lightning_contactless": "no",
                "payment:onchain": "yes",
                "phone": "+39 0113202382",
                "ref:vatin": "IT05614630019",
                "website": "https://www.pubjohnlennontorino.com/"
            }
        },
        {
            "type": "node",
            "id": 3725873809,
            "lat": 45.0381159,
            "lon": 7.6439059,
            "timestamp": "2023-10-16T18:46:54Z",
            "version": 2,
            "changeset": 142679615,
            "user": "Chiarant",
            "uid": 18452174,
            "tags": {
                "addr:city": "Torino",
                "addr:housenumber": "55",
                "addr:postcode": "10137",
                "addr:street": "Via San Marino",
                "check_date": "2023-10-16",
                "currency:XBT": "yes",
                "description": "Studio di consulenza per le imprese in materia di obblighi normativi riguardo impianti elettrici,  sicurezza sul lavoro, formazione ecc.",
                "email": "info@studio-macri.it",
                "name": "STUDIO PROFESSIONALE MACR\u00cc VINCENZO",
                "office": "consulting",
                "phone": "+39 011 305 2826",
                "website": "http://www.studio-macri.it/"
            }
        },
        {
            "type": "node",
            "id": 4732590455,
            "lat": 45.0900022,
            "lon": 7.6913027,
            "timestamp": "2024-07-05T19:26:32Z",
            "version": 5,
            "changeset": 153601875,
            "user": "mauropili",
            "uid": 1496865,
            "tags": {
                "addr:city": "Torino",
                "addr:housenumber": "18e",
                "addr:postcode": "10155",
                "addr:street": "Via Lein\u00ec",
                "amenity": "fast_food",
                "currency:XBT": "yes",
                "fast_food": "cafeteria",
                "name": "Da Baffo Hub Culturale",
                "payment:lightning": "yes",
                "survey:date": "2023-05-29"
            }
        },
        {
            "type": "node",
            "id": 4732594081,
            "lat": 45.0911419,
            "lon": 7.6894599,
            "timestamp": "2024-10-10T20:49:59Z",
            "version": 8,
            "changeset": 157732914,
            "user": "mpbin",
            "uid": 21850090,
            "tags": {
                "addr:city": "Torino",
                "addr:housenumber": "76",
                "addr:postcode": "10155",
                "addr:street": "Corso Vercelli",
                "check_date": "2024-05-17",
                "contact:facebook": "https://www.facebook.com/eliocalzature.it",
                "contact:mobile": "+39 340 5983 113",
                "contact:twitter": "https://x.com/ElioCalzature",
                "currency:XBT": "yes",
                "description": "Calzature comfort, made in Italy.",
                "email": "info@eliocalzature.it",
                "name": "Elio Calzature",
                "opening_hours": "Mo-Sa 08:00-12:30,15:00-19:30",
                "payment:lightning": "yes",
                "payment:onchain": "no",
                "phone": "+39 0112482589",
                "shop": "shoes",
                "website": "http://eliocalzature.it/"
            }
        },
        {
            "type": "node",
            "id": 4732670608,
            "lat": 45.1057663,
            "lon": 7.7029688,
            "timestamp": "2023-11-17T20:03:03Z",
            "version": 6,
            "changeset": 144152914,
            "user": "toponomastica_comune_arenzano",
            "uid": 14257573,
            "tags": {
                "addr:city": "Torino",
                "addr:housenumber": "300a",
                "addr:postcode": "10154",
                "addr:street": "Corso Giulio Cesare",
                "amenity": "dive_centre",
                "check_date": "2023-06-30",
                "currency:XBT": "yes",
                "description": "Corsi subacquei a tutti i livelli, ricreativi tecnici e cave. Centro formazione istruttori. Brevetti riconosciuti in tutto il mondo a norma ISO 9001/2015.",
                "email": "fsas.info@gmail.com",
                "name": "F.S.A.S. - Formazione e Sviluppo Attivit\u00e0 Subacquee",
                "note": "Per i corsi subacquei alcuni istruttori accettano Bitcoin",
                "website": "https://www.scubatech.net/"
            }
        },
        {
            "type": "node",
            "id": 4735667327,
            "lat": 45.0545942,
            "lon": 7.6594632,
            "timestamp": "2024-10-11T20:09:29Z",
            "version": 4,
            "changeset": 157772026,
            "user": "mpbin",
            "uid": 21850090,
            "tags": {
                "addr:city": "Torino",
                "addr:housenumber": "37",
                "addr:postcode": "10129",
                "addr:street": "Via Evangelista Torricelli",
                "check_date": "2022-12-20",
                "currency:XBT": "yes",
                "email": "cantieri5@gmail.com",
                "name": "Igecos",
                "office": "company",
                "payment:lightning": "yes",
                "payment:onchain": "yes",
                "phone": "+39 348 3435455",
                "website": "https://igecos.net/"
            }
        },
        {
            "type": "node",
            "id": 4735799811,
            "lat": 45.0442086,
            "lon": 7.6717166,
            "timestamp": "2024-07-05T19:27:28Z",
            "version": 4,
            "changeset": 153601915,
            "user": "mauropili",
            "uid": 1496865,
            "tags": {
                "addr:city": "Torino",
                "addr:housenumber": "104",
                "addr:postcode": "10126",
                "addr:street": "Via Nizza",
                "clothes": "suits;men",
                "currency:XBT": "yes",
                "name": "Erzegovaz",
                "payment:cash": "yes",
                "payment:credit_cards": "yes",
                "payment:cryptocurrencies": "yes",
                "payment:debit_cards": "yes",
                "payment:onchain": "yes",
                "shop": "clothes",
                "survey:date": "2023-08-12",
                "website": "https://www.erzegovaz.com/"
            }
        },
        {
            "type": "node",
            "id": 4735867243,
            "lat": 45.067231,
            "lon": 7.6935195,
            "timestamp": "2023-11-17T20:03:25Z",
            "version": 4,
            "changeset": 144152935,
            "user": "toponomastica_comune_arenzano",
            "uid": 14257573,
            "tags": {
                "addr:city": "Torino",
                "addr:housenumber": "12b",
                "addr:postcode": "10124",
                "addr:street": "Via Sant'Ottavio",
                "amenity": "fast_food",
                "check_date": "2023-11-07",
                "cuisine": "kebab",
                "currency:XBT": "yes",
                "name": "Kebhouze - Aldo Moro",
                "payment:lightning": "yes",
                "payment:lightning_contactless": "yes",
                "payment:onchain": "yes",
                "website": "https://kebhouze.com/"
            }
        },
        {
            "type": "node",
            "id": 4736083065,
            "lat": 45.0768063,
            "lon": 7.6798288,
            "timestamp": "2024-07-24T16:27:27Z",
            "version": 8,
            "changeset": 154358659,
            "user": "mauropili",
            "uid": 1496865,
            "tags": {
                "addr:city": "Torino",
                "addr:housenumber": "2g",
                "addr:postcode": "10122",
                "addr:street": "Via Carlo Ignazio Giulio",
                "amenity": "pub",
                "check_date:currency:XBT": "2023-07-14",
                "contact:instagram": "https://www.instagram.com/the_novel.torino/",
                "currency:XBT": "yes",
                "email": "info@thenovel.it",
                "name": "The Novel",
                "payment:lightning": "yes",
                "phone": "+39 348 40 58 758",
                "smoking": "outside",
                "survey:date": "2023-05-26",
                "website": "https://www.thenovel.it/"
            }
        },
        {
            "type": "node",
            "id": 4736112446,
            "lat": 45.0640738,
            "lon": 7.6767083,
            "timestamp": "2024-05-21T16:39:58Z",
            "version": 4,
            "changeset": 151637707,
            "user": "Chiarant",
            "uid": 18452174,
            "tags": {
                "addr:city": "Torino",
                "addr:housenumber": "44b",
                "addr:postcode": "10121",
                "addr:street": "Via dell'Arsenale",
                "check_date": "2024-05-21",
                "currency:XBT": "yes",
                "email": "info@toeihouse.it",
                "name": "T\u014dei House",
                "phone": "+39 011 3851278",
                "shop": "hairdresser"
            }
        },
        {
            "type": "node",
            "id": 4823861580,
            "lat": 45.0675125,
            "lon": 7.583697,
            "timestamp": "2024-07-24T16:28:26Z",
            "version": 6,
            "changeset": 154358702,
            "user": "mauropili",
            "uid": 1496865,
            "tags": {
                "addr:city": "Grugliasco",
                "addr:housenumber": "59f",
                "addr:postcode": "10095",
                "addr:street": "Via Michelangelo",
                "amenity": "restaurant",
                "check_date": "2023-03-05",
                "contact:facebook": "https://www.facebook.com/PizzeriaMichelangeloGrugliasco/",
                "currency:XBT": "yes",
                "name": "Pizzeria Michelangelo",
                "payment:lightning": "yes",
                "payment:onchain": "yes",
                "phone": "+393775533447",
                "website": "http://pizzeriaristorantemichelangelo.it/"
            }
        },
        {
            "type": "node",
            "id": 4908962622,
            "lat": 45.0652622,
            "lon": 7.6916723,
            "timestamp": "2023-01-05T02:20:34Z",
            "version": 6,
            "changeset": 130888181,
            "user": "Igor Bubelov",
            "uid": 2104834,
            "tags": {
                "addr:city": "Torino",
                "addr:housenumber": "38",
                "addr:postcode": "10123",
                "addr:street": "Via Maria Vittoria",
                "amenity": "atm",
                "check_date:currency:XBT": "2023-01-04",
                "currency:XBT": "yes",
                "description": "Bitcoin ATM di Chainblock, situato all'interno di Rinascimenti Sociali.",
                "email": "info@chainblock.it",
                "name": "Chainblock ATM",
                "website": "https://chainblock.it"
            }
        },
        {
            "type": "node",
            "id": 5109621823,
            "lat": 44.9652254,
            "lon": 7.8413661,
            "timestamp": "2024-06-06T10:43:28Z",
            "version": 8,
            "changeset": 152325260,
            "user": "Mauro Lovato",
            "uid": 21592754,
            "tags": {
                "addr:city": "Chieri",
                "addr:housenumber": "1",
                "addr:postcode": "10023",
                "addr:street": "Piazza Luigi Rossi",
                "amenity": "pharmacy",
                "currency:XBT": "yes",
                "dispensing": "yes",
                "email": "eshop@farmaciaaliberti.it",
                "healthcare": "pharmacy",
                "name": "Farmacia Aliberti",
                "operator": "Dr.a LAURA RITA",
                "payment:onchain": "yes",
                "ref:msal": "494",
                "ref:vatin": "IT08073470018",
                "source": "Ministero della Salute",
                "start_date": "2010-09-01",
                "website": "https://www.farmaciaalibertishop.it"
            }
        },
        {
            "type": "node",
            "id": 5113659500,
            "lat": 45.0650307,
            "lon": 7.6793488,
            "timestamp": "2024-07-20T21:15:51Z",
            "version": 4,
            "changeset": 154196335,
            "user": "mauropili",
            "uid": 1496865,
            "tags": {
                "addr:city": "Torino",
                "addr:postcode": "10121",
                "addr:street": "Via Antonio Gramsci",
                "check_date:currency:XBT": "2023-07-18",
                "contact:facebook": "https://www.facebook.com/naresecalzature",
                "contact:instagram": "https://www.instagram.com/silvianaresecalzature",
                "currency:XBT": "yes",
                "email": "silvianaresecalzature@gmail.com",
                "level": "0",
                "name": "Silvia Narese calzature",
                "payment:lightning": "yes",
                "payment:lightning_contactless": "no",
                "payment:onchain": "yes",
                "phone": "+393713203475",
                "shop": "shoes",
                "website": "https://www.naresecalzature.com/it/"
            }
        },
        {
            "type": "node",
            "id": 6054921369,
            "lat": 45.0629723,
            "lon": 7.5772613,
            "timestamp": "2023-12-31T14:03:30Z",
            "version": 5,
            "changeset": 145734679,
            "user": "Chiarant",
            "uid": 18452174,
            "tags": {
                "addr:city": "Grugliasco",
                "addr:housenumber": "2",
                "addr:postcode": "10095",
                "addr:street": "Via Giovanni Lupo",
                "check_date": "2023-12-31",
                "currency:XBT": "yes",
                "email": "infoenryluxurydealer@gmail.com",
                "name": "Enry Luxury Dealer",
                "payment:bitcoin:operator": "inbitcoin.it",
                "payment:onchain": "yes",
                "phone": "+393289758857",
                "shop": "jewelry",
                "website": "https://enryluxurydealer.com/"
            }
        },
        {
            "type": "node",
            "id": 6804656410,
            "lat": 45.0700072,
            "lon": 7.6836035,
            "timestamp": "2023-07-12T14:25:16Z",
            "version": 5,
            "changeset": 138425659,
            "user": "Chiarant",
            "uid": 18452174,
            "tags": {
                "addr:city": "Torino",
                "addr:housenumber": "5",
                "addr:postcode": "10121",
                "addr:street": "Via Giambattista Viotti",
                "check_date:currency:XBT": "2023-07-12",
                "clothes": "men",
                "currency:XBT": "yes",
                "email": "torino.viotti@doppelganger.it",
                "name": "Doppelg\u00e4nger",
                "opening_hours": "Mo-Su 10:00-20:00",
                "phone": "011535799",
                "ref:vatin": "IT10471441005",
                "shop": "clothes",
                "website": "https://www.doppelganger.it"
            }
        },
        {
            "type": "node",
            "id": 8322417303,
            "lat": 45.0858784,
            "lon": 7.6644369,
            "timestamp": "2024-04-14T08:08:03Z",
            "version": 4,
            "changeset": 149980530,
            "user": "Chiarant",
            "uid": 18452174,
            "tags": {
                "addr:city": "Torino",
                "addr:housenumber": "28",
                "addr:postcode": "10144",
                "addr:street": "Via Capua",
                "amenity": "atm",
                "check_date": "2024-04-14",
                "currency:XBT": "yes",
                "description": "Bitcoin ATM che permette di acquistare Bitcoin, Ethereum, Litecoin, Dogecoin, Bitcoin Cash, Dash, Monero. L'ATM \u00e8 situato all'interno del negozio Media Service Italia.",
                "email": "support@cryptolocalatm.com",
                "name": "CryptoLocalATM c/o Media Service Italia",
                "payment:onchain": "yes",
                "website": "https://cryptolocalatm.com"
            }
        },
        {
            "type": "node",
            "id": 9261905781,
            "lat": 45.0314317,
            "lon": 7.6515884,
            "timestamp": "2024-07-15T17:10:09Z",
            "version": 6,
            "changeset": 153981513,
            "user": "Valerio_Bozzolan",
            "uid": 1875845,
            "tags": {
                "addr:city": "Torino",
                "addr:housenumber": "47",
                "addr:postcode": "10134",
                "addr:street": "Corso Eusebio Giambone",
                "check_date": "2024-04-23",
                "currency:XBT": "yes",
                "description": "Retail: Cartridge inkjet and Toner laser (vendita cartucce e toner per stampanti)",
                "name": "Cartucce Torino",
                "opening_hours": "Mo-Fr 09:00-12:45, 15:00-19:00",
                "phone": "+39 0113032782",
                "shop": "cartridges",
                "website": "https://www.cartuccetorino.it/"
            }
        },
        {
            "type": "node",
            "id": 10072472871,
            "lat": 44.8197462,
            "lon": 7.2854219,
            "timestamp": "2024-09-20T20:54:11Z",
            "version": 7,
            "changeset": 156887042,
            "user": "mpbin",
            "uid": 21850090,
            "tags": {
                "addr:city": "Bricherasio",
                "addr:housenumber": "31",
                "addr:postcode": "10060",
                "addr:street": "Strada Riv\u00e0",
                "check_date": "2023-08-26",
                "contact:facebook": "https://www.facebook.com/azienda.falco",
                "contact:instagram": "https://www.instagram.com/baccablu_riserva_naturale_/",
                "currency:XBT": "yes",
                "delivery": "yes",
                "description": "Azienda agricola con prodotti di stagione e trasformati, location per matrimoni, B&B.",
                "email": "agri.baccablu@libero.it",
                "name": "Agriturismo Bacca Blu",
                "phone": "+39 3933560497",
                "produce": "honey,cured meat,juice,oil,olive,jam",
                "shop": "farm",
                "website": "https://www.baccablu.it"
            }
        },
        {
            "type": "node",
            "id": 10275645029,
            "lat": 45.0585399,
            "lon": 7.6824893,
            "timestamp": "2024-08-22T10:58:38Z",
            "version": 5,
            "changeset": 155599438,
            "user": "mpbin",
            "uid": 21850090,
            "tags": {
                "addr:city": "Torino",
                "addr:housenumber": "17/B",
                "addr:postcode": "10125",
                "addr:street": "Via Claudio Luigi Berthollet",
                "amenity": "restaurant",
                "check_date": "2022-12-20",
                "check_date:currency:XBT": "2024-06-30",
                "contact:facebook": "https://www.facebook.com/uaopizza",
                "contact:instagram": "https://www.instagram.com/uaopizza/",
                "cuisine": "pizza",
                "currency:XBT": "yes",
                "name": "U\u00c1O Pizza",
                "payment:lightning": "yes",
                "payment:onchain": "yes",
                "phone": "+393490756953",
                "website": "https://uaopizza.it/"
            }
        },
        {
            "type": "node",
            "id": 10315188213,
            "lat": 45.3193759,
            "lon": 7.3804361,
            "timestamp": "2023-01-08T17:44:11Z",
            "version": 1,
            "changeset": 131024496,
            "user": "BSN21M",
            "uid": 17441326,
            "tags": {
                "addr:city": "Ceres",
                "addr:street": "Localit\u00e0 l'Aran",
                "check_date:currency:XBT": "2023-01-08",
                "contact:twitter": "@sfrrcr",
                "currency:XBT": "yes",
                "email": "sfrrcr@proton.me",
                "name": "ARAN",
                "payment:lightning": "yes",
                "payment:lightning_contactless": "no",
                "payment:onchain": "yes",
                "tourism": "apartment",
                "website": "https://linktr.ee/arancircle"
            }
        },
        {
            "type": "node",
            "id": 10706319580,
            "lat": 45.0528596,
            "lon": 7.6677867,
            "timestamp": "2023-07-31T13:17:43Z",
            "version": 3,
            "changeset": 139254029,
            "user": "Igor Bubelov",
            "uid": 2104834,
            "tags": {
                "addr:city": "Torino",
                "addr:housenumber": "102",
                "addr:postcode": "10128",
                "addr:street": "Via San Secondo",
                "check_date": "2023-07-31",
                "contact:facebook": "https://www.facebook.com/FerramentaGiustetto/",
                "currency:XBT": "yes",
                "description": "Negozio presente dal 1968. Articoli di tutti i generi, dei marchi pi\u00f9 affidabili e a prezzi competitivi con i colossi di oggi.",
                "email": "ferramentagiustetto@gmail.com",
                "name": "Ferramenta Giustetto",
                "phone": "+39 3663971662",
                "shop": "hardware"
            }
        },
        {
            "type": "node",
            "id": 10748770756,
            "lat": 45.1489796,
            "lon": 7.6612615,
            "timestamp": "2024-09-24T20:30:30Z",
            "version": 5,
            "changeset": 157056114,
            "user": "mpbin",
            "uid": 21850090,
            "tags": {
                "addr:city": "Borgaro Torinese",
                "addr:housenumber": "28",
                "addr:postcode": "10071",
                "addr:street": "Via Antonio Gramsci",
                "check_date": "2024-09-24",
                "check_date:currency:XBT": "2024-09-24",
                "contact:linkedin": "https://www.linkedin.com/company/i-ge-cos/",
                "contact:telegram": "https://t.me/IGECOS",
                "currency:XBT": "yes",
                "description": "Progettazioni e Costruzioni Innovative a basso consumo energetico e tecnologicamente avanzate.",
                "email": "cantieri5@gmail.com",
                "name": "I.GE.COS. S.a.s.",
                "office": "company",
                "opening_hours": "Mo-Fr 08:00-19:00",
                "payment:lightning": "yes",
                "payment:lightning_contactless": "no",
                "payment:onchain": "yes",
                "phone": "+39 348 3435455",
                "website": "https://igecos.net/"
            }
        },
        {
            "type": "node",
            "id": 10755605136,
            "lat": 45.057093,
            "lon": 7.6678842,
            "timestamp": "2023-08-01T11:51:25Z",
            "version": 3,
            "changeset": 139296510,
            "user": "Igor Bubelov",
            "uid": 2104834,
            "tags": {
                "addr:city": "Torino",
                "addr:housenumber": "64",
                "addr:postcode": "10128",
                "addr:street": "Corso Re Umberto",
                "check_date": "2023-03-23",
                "currency:XBT": "yes",
                "description": "Avvocato specializzato in diritto penale: possibilit\u00e0 di consulenza anche in altre branche del diritto.",
                "email": "avv.federicorosso@gmail.com",
                "name": "Avvocato Federico Rosso",
                "office": "lawyer",
                "phone": "+39 3336204640",
                "website": "https://avvocato-federico-rosso.business.site"
            }
        },
        {
            "type": "node",
            "id": 10766482289,
            "lat": 45.0772241,
            "lon": 7.5930279,
            "timestamp": "2024-06-13T02:31:57Z",
            "version": 6,
            "changeset": 152610689,
            "user": "Rockedf",
            "uid": 7522075,
            "tags": {
                "addr:city": "Collegno",
                "addr:housenumber": "1",
                "addr:postcode": "10093",
                "addr:street": "Centro Commerciale Piazza Paradiso Piazza Bruno Trentin",
                "amenity": "atm",
                "branch": "Piazza Paradiso, Torino",
                "cash_in": "yes",
                "cash_out": "yes",
                "cash_withdrawal": "yes",
                "check_date": "2024-05-02",
                "contact:email": "support@shitcoins.club",
                "contact:facebook": "https://www.facebook.com/shitcoins.club",
                "contact:instagram": "https://www.instagram.com/shitcoinsclub",
                "contact:telegram": "https://t.me/shitcoinsclub",
                "contact:twitter": "https://twitter.com/BitomatCom",
                "currency:CHF": "yes",
                "currency:DASH": "yes",
                "currency:ETH": "yes",
                "currency:EUR": "yes",
                "currency:GBP": "yes",
                "currency:HUF": "yes",
                "currency:LTC": "yes",
                "currency:RON": "yes",
                "currency:USD": "yes",
                "currency:USDC": "yes",
                "currency:USDT": "yes",
                "currency:XBT": "yes",
                "email": "support@shitcoins.club",
                "image": "https://shitcoins.club/resources/img/atms/IT/0photo_2022-07-21_10-44-36%20(4).jpg",
                "indoor": "yes",
                "level": "1",
                "name": "Bitcoin ATM - Shitcoins.club",
                "note": "Il bancomat Bitcoin a Collegno, Torino, si trova al primo piano del Centro Commerciale Piazza Paradiso, vicino all'ascensore e al punto di consegna dei pacchi Amazon.",
                "opening_hours": "Mo-Sa 08:30-21:00; Su 09:00-21:00",
                "operator": "Shitcoins.club",
                "payment:cash": "yes",
                "payment:lightning": "no",
                "payment:lightning_contactless": "no",
                "payment:onchain": "yes",
                "phone": "+39 34 8048 7308",
                "start_date": "2022-07-21",
                "url": "https://coinatmradar.com/bitcoin_atm/55467/bitcoin-atm-shitcoins-club-torino-piazza-paradiso-torino-bitcoin-atm/",
                "website": "https://shitcoins.club/localizzazione-atm/atm-bitcoin-torino-centro-commerciale-piazza-paradiso-piazza-bruno"
            }
        },
        {
            "type": "node",
            "id": 10770516395,
            "lat": 45.1225681,
            "lon": 7.0593844,
            "timestamp": "2023-04-13T03:29:07Z",
            "version": 4,
            "changeset": 134842705,
            "user": "Igor Bubelov",
            "uid": 2104834,
            "tags": {
                "addr:city": "Meana di Susa",
                "addr:housenumber": "1",
                "addr:postcode": "10050",
                "addr:street": "Via Gran Borgata",
                "amenity": "restaurant",
                "check_date:currency:XBT": "2023-03-29",
                "cuisine": "regional;italian",
                "currency:XBT": "yes",
                "name": "La Betola D'L'uva Frola",
                "payment:lightning": "yes",
                "payment:onchain": "yes",
                "phone": "+39 339 8130502",
                "website": "https://www.betolameana.it/"
            }
        },
        {
            "type": "node",
            "id": 10784287024,
            "lat": 45.0536968,
            "lon": 7.6925282,
            "timestamp": "2024-09-23T12:41:44Z",
            "version": 8,
            "changeset": 156994032,
            "user": "mpbin",
            "uid": 21850090,
            "tags": {
                "addr:city": "Torino",
                "addr:housenumber": "105",
                "addr:postcode": "10133",
                "addr:street": "Corso Giovanni Lanza",
                "check_date": "2024-09-21",
                "check_date:currency:XBT": "2024-09-21",
                "contact:facebook": "https://www.facebook.com/ArtOfLivingItalia/",
                "contact:instagram": "https://www.instagram.com/artoflivingitalia/",
                "currency:XBT": "yes",
                "description": "Breathing and Meditation instead of Yoga",
                "email": "danielemonterosso@gmail.com",
                "leisure": "fitness_centre",
                "name": "Art of Living",
                "phone": "+39 3347171147",
                "sport": "yoga",
                "survey:date": "2023-05-08",
                "website": "https://artoflivingtorino.it/"
            }
        },
        {
            "type": "node",
            "id": 10784291696,
            "lat": 44.8876553,
            "lon": 7.3151591,
            "timestamp": "2024-09-22T18:51:42Z",
            "version": 5,
            "changeset": 156965285,
            "user": "mpbin",
            "uid": 21850090,
            "tags": {
                "addr:city": "Pinerolo",
                "addr:housenumber": "37",
                "addr:postcode": "10064",
                "addr:street": "Via del Tiro a Segno",
                "check_date": "2024-09-22",
                "check_date:currency:XBT": "2024-09-22",
                "currency:XBT": "yes",
                "delivery": "yes",
                "description": "Vendita dettaglio di erbe alpine essiccate per liquori o tisane (Genep\u00ec, Arquebuse, Timo Serpillo).",
                "email": "info@meizoun.it",
                "name": "La Meizoun",
                "produce": "genepi, plants",
                "shop": "farm",
                "website": "https://www.meizoun.it"
            }
        },
        {
            "type": "node",
            "id": 10788389507,
            "lat": 45.0554165,
            "lon": 7.612245,
            "timestamp": "2023-08-22T19:59:02Z",
            "version": 4,
            "changeset": 140244940,
            "user": "ivanbranco",
            "uid": 11220113,
            "tags": {
                "addr:city": "Grugliasco",
                "addr:housenumber": "10",
                "addr:postcode": "10095",
                "addr:street": "Via Crea",
                "check_date": "2023-08-22",
                "clothes": "men",
                "currency:XBT": "yes",
                "level": "1",
                "name": "Nuvolari c.c. Le Gru",
                "payment:lightning": "no",
                "payment:lightning_contactless": "no",
                "payment:onchain": "yes",
                "phone": "0117079134",
                "shop": "clothes"
            }
        },
        {
            "type": "node",
            "id": 10788402216,
            "lat": 44.9821768,
            "lon": 7.6209179,
            "timestamp": "2023-10-18T10:16:53Z",
            "version": 4,
            "changeset": 142755331,
            "user": "lukasbrunner",
            "uid": 348712,
            "tags": {
                "addr:city": "Nichelino",
                "addr:postcode": "10042",
                "addr:street": "Strada Debouch\u00e8",
                "check_date": "2023-04-05",
                "clothes": "men",
                "currency:XBT": "yes",
                "name": "Nuvolari c.c. Mondojuve",
                "phone": "01118930118",
                "shop": "clothes"
            }
        },
        {
            "type": "node",
            "id": 10840502365,
            "lat": 44.8672378,
            "lon": 7.2981676,
            "timestamp": "2023-05-13T06:01:12Z",
            "version": 4,
            "changeset": 136041414,
            "user": "Igor Bubelov",
            "uid": 2104834,
            "tags": {
                "addr:city": "San Secondo di Pinerolo",
                "addr:housenumber": "2",
                "addr:postcode": "10060",
                "addr:street": "Piazza Europa",
                "amenity": "ice_cream",
                "check_date:currency:XBT": "2023-05-13",
                "currency:XBT": "yes",
                "description": "Gelateria e caffetteria.",
                "email": "sinoropi99@libero.it",
                "name": "Piazza Europa"
            }
        },
        {
            "type": "node",
            "id": 10863690407,
            "lat": 45.0120479,
            "lon": 7.546123,
            "timestamp": "2024-05-18T16:45:17Z",
            "version": 4,
            "changeset": 151503266,
            "user": "Rockedf",
            "uid": 7522075,
            "tags": {
                "addr:city": "Orbassano",
                "addr:postcode": "10043",
                "addr:street": "Via Lussemburgo",
                "check_date:currency:XBT": "2024-05-18",
                "currency:XBT": "yes",
                "description": "Operatore olistico",
                "name": "L'Arte del Massaggio",
                "opening_hours": "\"on appointment\"",
                "payment:lightning": "yes",
                "payment:onchain": "yes",
                "phone": "+39 389 029 3871",
                "shop": "massage",
                "website": "https://www.facebook.com/arletyoperatorebenessere"
            }
        },
        {
            "type": "node",
            "id": 10976170536,
            "lat": 44.9989917,
            "lon": 7.6670633,
            "timestamp": "2024-01-28T04:21:36Z",
            "version": 2,
            "changeset": 146766284,
            "user": "Igor Bubelov",
            "uid": 2104834,
            "tags": {
                "addr:city": "Moncalieri",
                "addr:housenumber": "14",
                "addr:postcode": "10024",
                "addr:street": "Str. Mongina",
                "check_date": "2023-06-14",
                "currency:XBT": "yes",
                "email": "donnadiomaurizio@libero.it",
                "name": "Carrozzeria Auto Donnadio",
                "phone": "+39 3280542471",
                "shop": "car_repair",
                "website": "https://www.carrozzeriadonnadio.it"
            }
        },
        {
            "type": "node",
            "id": 11013684727,
            "lat": 44.8855296,
            "lon": 7.31315,
            "timestamp": "2023-06-29T09:40:07Z",
            "version": 1,
            "changeset": 137910851,
            "user": "Chiarant",
            "uid": 18452174,
            "tags": {
                "addr:city": "Pinerolo",
                "addr:housenumber": "37",
                "addr:postcode": "10064",
                "addr:street": "Via Nazionale",
                "check_date": "2023-06-29",
                "currency:XBT": "yes",
                "description": "Vendita e assistenza tecnica su computer, centralini telefonici, Consulente privacy",
                "name": "Neo Computer Shop",
                "note": "Accetta Bitcoin per importi superiori ai 500\u20ac via on-chain",
                "payment:lightning": "no",
                "payment:onchain": "yes",
                "phone": "+39 0121377055",
                "shop": "computer",
                "website": "https://www.neocomputershop.biz/"
            }
        },
        {
            "type": "node",
            "id": 11113855890,
            "lat": 45.1899449,
            "lon": 7.8895998,
            "timestamp": "2023-11-16T17:19:58Z",
            "version": 4,
            "changeset": 144105369,
            "user": "DA CHOCHO'S",
            "uid": 20074357,
            "tags": {
                "addr:city": "Chivasso",
                "addr:housenumber": "2b",
                "addr:postcode": "10034",
                "addr:street": "Piazza della Repubblica",
                "check_date:currency:XBT": "2023-08-25",
                "clothes": "women",
                "currency:XBT": "yes",
                "name": "AMALO OUTLET",
                "opening_hours": "Mo-Sa 10:00-19:30",
                "payment:cards": "yes",
                "payment:cash": "yes",
                "payment:contactless": "yes",
                "payment:credit_cards": "yes",
                "payment:debit_cards": "yes",
                "payment:mastercard": "yes",
                "payment:notes": "yes",
                "payment:visa": "yes",
                "phone": "+393770808666",
                "shop": "clothes"
            }
        },
        {
            "type": "node",
            "id": 11113880257,
            "lat": 45.1985522,
            "lon": 7.8765691,
            "timestamp": "2024-09-23T12:51:09Z",
            "version": 8,
            "changeset": 156994464,
            "user": "mpbin",
            "uid": 21850090,
            "tags": {
                "addr:city": "Chivasso",
                "addr:housenumber": "102",
                "addr:postcode": "10034",
                "addr:street": "Via Monte Grappa",
                "air_conditioning": "yes",
                "check_date": "2024-09-21",
                "check_date:currency:XBT": "2024-09-21",
                "currency:XBT": "yes",
                "description": "Da Chocho's offre ai suoi ospiti un tranquillo posto dove poter pernottare",
                "email": "info@dachochos.it",
                "guest_house": "bed_and_breakfast",
                "internet_access": "wlan",
                "internet_access:fee": "no",
                "name": "DA CHOCHO'S",
                "opening_hours": "Mo-Su 08:00-22:00",
                "operator": "Privato",
                "payment:cash": "yes",
                "payment:credit_cards": "yes",
                "payment:lightning": "yes",
                "payment:lightning_contactless": "yes",
                "payment:onchain": "yes",
                "phone": "+39 339 3398222",
                "reservation": "required",
                "smoking": "outside",
                "survey:date": "2023-08-14",
                "tourism": "guest_house",
                "website": "https://www.dachochos.it/"
            }
        },
        {
            "type": "node",
            "id": 11197808949,
            "lat": 45.014689,
            "lon": 7.752561,
            "timestamp": "2024-10-07T16:45:20Z",
            "version": 5,
            "changeset": 157590821,
            "user": "Rockedf",
            "uid": 7522075,
            "tags": {
                "addr:city": "Pecetto Torinese",
                "addr:housenumber": "44",
                "addr:postcode": "10020",
                "addr:street": "Via Circonvallazione",
                "check_date": "2023-09-17",
                "check_date:currency:XBT": "2024-10-07",
                "contact:email": "info@santinastorni.com",
                "currency:XBT": "yes",
                "healthcare": "alternative",
                "healthcare:speciality": "reiki",
                "name": "Soul Healing System",
                "payment:lightning": "yes",
                "payment:lightning_contactless": "no",
                "phone": "+39 33 9802 1310",
                "website": "https://linktr.ee/santinastorni"
            }
        },
        {
            "type": "node",
            "id": 11267662527,
            "lat": 44.6895793,
            "lon": 7.8795567,
            "timestamp": "2023-10-16T19:58:58Z",
            "version": 1,
            "changeset": 142682144,
            "user": "Chiarant",
            "uid": 18452174,
            "tags": {
                "addr:city": "Bra",
                "addr:housenumber": "22",
                "addr:street": "Strada Orti",
                "addr:unit": "l",
                "check_date": "2023-10-16",
                "currency:XBT": "yes",
                "name": "Residenza da Luisa",
                "payment:lightning": "yes",
                "payment:onchain": "no",
                "phone": "+39 3668941251",
                "tourism": "apartment"
            }
        },
        {
            "type": "node",
            "id": 11283291611,
            "lat": 45.0783053,
            "lon": 7.6700284,
            "timestamp": "2024-07-24T16:34:20Z",
            "version": 2,
            "changeset": 154358896,
            "user": "mauropili",
            "uid": 1496865,
            "tags": {
                "addr:city": "Torino",
                "addr:housenumber": "51",
                "addr:postcode": "10149",
                "addr:street": "Via San Domenico",
                "addr:unit": "B",
                "amenity": "pub",
                "check_date": "2023-10-12",
                "contact:email": "info@lamolepub.it",
                "contact:mobile": "+393478639592",
                "currency:XBT": "yes",
                "description": "Storico pub torinese situato in centro, con interni in legno a forma di galeone. Offre un'ampia gamma di proposte culinarie, dai fritti agli hamburger, accompagnate da birre alla spina, cocktail e sport in TV. Dispone di oltre 12 birre internazionali alla",
                "karaoke": "yes",
                "name": "La Mole Pub",
                "payment:lightning": "yes",
                "website": "https://lamolepub.plateform.app/"
            }
        },
        {
            "type": "node",
            "id": 11300504433,
            "lat": 45.0721496,
            "lon": 7.723164,
            "timestamp": "2023-11-01T09:36:03Z",
            "version": 2,
            "changeset": 143464237,
            "user": "Anna Viarigi",
            "uid": 20524426,
            "tags": {
                "addr:city": "Torino",
                "addr:housenumber": "8",
                "addr:postcode": "10153",
                "addr:street": "Via Pallanza",
                "check_date": "2023-10-30",
                "contact:email": "viarianna@yahoo.it",
                "contact:phone": "+39 34 9219 3256",
                "currency:XBT": "yes",
                "healthcare": "alternative",
                "healthcare:speciality": "naturopathy;biology",
                "name": "Educatrice alimentare. Naturopata",
                "payment:lightning": "yes",
                "payment:lightning_contactless": "no",
                "payment:onchain": "yes"
            }
        },
        {
            "type": "node",
            "id": 11374940695,
            "lat": 45.0411591,
            "lon": 7.3498786,
            "timestamp": "2023-11-25T10:48:21Z",
            "version": 2,
            "changeset": 144436777,
            "user": "Chiarant",
            "uid": 18452174,
            "tags": {
                "addr:city": "Giaveno",
                "addr:housenumber": "5",
                "addr:postcode": "10094",
                "addr:street": "Via Coazze",
                "addr:unit": "b",
                "check_date": "2023-11-25",
                "currency:XBT": "yes",
                "female": "yes",
                "male": "yes",
                "name": "ForYou di Claudio Mele",
                "payment:lightning": "yes",
                "payment:lightning_contactless": "yes",
                "payment:onchain": "yes",
                "phone": "+39 0119376583",
                "shop": "hairdresser"
            }
        },
        {
            "type": "node",
            "id": 11597627873,
            "lat": 44.9418264,
            "lon": 7.9377116,
            "timestamp": "2024-02-22T20:46:00Z",
            "version": 4,
            "changeset": 147789136,
            "user": "nick1993",
            "uid": 3335735,
            "tags": {
                "addr:city": "Villanova d'Asti",
                "addr:housenumber": "3",
                "addr:place": "Piazza IV Novembre",
                "addr:postcode": "14019",
                "check_date:currency:XBT": "2024-02-08",
                "currency:XBT": "yes",
                "name": "De Natura",
                "opening_hours": "Mo-Sa 09:00-19:30",
                "operator": "Storari Daniela",
                "payment:cryptocurrencies": "yes",
                "payment:currency": "yes",
                "payment:lightning": "yes",
                "payment:onchain": "yes",
                "phone": "+39 0141 946747",
                "shop": "herbalist",
                "website": "https://www.denatura.it/"
            }
        },
        {
            "type": "node",
            "id": 11665555284,
            "lat": 44.7967359,
            "lon": 7.9915516,
            "timestamp": "2024-07-06T07:11:07Z",
            "version": 3,
            "changeset": 153612536,
            "user": "mauropili",
            "uid": 1496865,
            "tags": {
                "addr:city": "Canale",
                "addr:housenumber": "45",
                "addr:postcode": "12043",
                "addr:street": "Via Roma",
                "address": "Via Roma 41, Canale (CN)",
                "check_date": "2024-02-26",
                "contact:email": "OfficinadelcomputerCN@gmail.com",
                "contact:facebook": "https://www.facebook.com/OfficinaComputerCN",
                "contact:phone": "3669806896",
                "contact:website": "https://www.officinadelcomputer.net/",
                "currency:XBT": "yes",
                "description": "Riparazione e vendita Personal Computer e Smartphone. Assemblaggio PC da ufficio e gaming. Consulenza informatica su Bitcoin e criptovalute.",
                "name": "Officina del Computer",
                "opening_hours": "Tutti i pomeriggi dal marted\u00ec al sabato 15.30-19.30 Le mattine di marted\u00ec, gioved\u00ec e sabato 9.00-12.30 Chiuso domenica e luned\u00ec",
                "payment:lightning": "yes",
                "payment:lightning_contactless": "yes",
                "shop": "computer"
            }
        },
        {
            "type": "node",
            "id": 11709194508,
            "lat": 45.1370235,
            "lon": 7.7695757,
            "timestamp": "2024-05-04T14:37:58Z",
            "version": 3,
            "changeset": 150883236,
            "user": "Rockedf",
            "uid": 7522075,
            "tags": {
                "addr:city": "Settimo Torinese",
                "addr:housenumber": "30",
                "addr:postcode": "10036",
                "addr:street": "Via Italia",
                "addr:unit": "B",
                "check_date": "2024-03-12",
                "check_date:currency:XBT": "2024-05-04",
                "clothes": "underwear;swimwear",
                "contact:email": "info@intimodabygiustetto.it",
                "contact:facebook": "https://www.facebook.com/IntimodaByGiustetto/",
                "contact:instagram": "https://www.instagram.com/intimoda_by_giustetto/?hl=it",
                "contact:twitter": "https://twitter.com/intimodasettimo",
                "currency:XBT": "yes",
                "name": "Intimoda by Giustetto",
                "opening_hours": "Mo 15:30-19:30; Tu-Sa 09:00-19:30",
                "payment:lightning": "yes",
                "payment:lightning_contactless": "no",
                "payment:onchain": "yes",
                "phone": "+39 33 3792 8890",
                "shop": "clothes",
                "website": "https://www.intimodabygiustetto.it/"
            }
        },
        {
            "type": "node",
            "id": 11753095210,
            "lat": 45.4609447,
            "lon": 7.7709235,
            "timestamp": "2024-03-22T15:04:29Z",
            "version": 2,
            "changeset": 149017925,
            "user": "Giorgio Minguzzi",
            "uid": 21232339,
            "tags": {
                "addr:city": "Alice Superiore, TO",
                "addr:housenumber": "15",
                "addr:postcode": "10010",
                "addr:street": "Via Prov. Valchiusella",
                "amenity": "dentist",
                "currency:XBT": "yes",
                "healthcare": "dentist",
                "healthcare:speciality": "general",
                "name": "Studio Dentistico Valchiusella",
                "opening_hours": "By appointment only.",
                "operator": "Piergiacomo Drappero",
                "payment:lightning": "yes",
                "payment:onchain": "yes",
                "survey:date": "2024-03-22"
            }
        },
        {
            "type": "node",
            "id": 11764155670,
            "lat": 44.990709,
            "lon": 7.4640539,
            "timestamp": "2024-03-26T15:28:37Z",
            "version": 1,
            "changeset": 149183382,
            "user": "Rockedf",
            "uid": 7522075,
            "tags": {
                "addr:city": "Piossasco",
                "addr:housenumber": "15",
                "addr:postcode": "10045",
                "addr:street": "Via Roma",
                "check_date": "2024-03-26",
                "contact:email": "otticavisus1@gmail.com",
                "currency:XBT": "yes",
                "name": "Ottica Visus",
                "opening_hours": "Tu-Fr 09:30-12:30,16:00-19:00; Sa 09:30-12:30",
                "payment:lightning": "yes",
                "payment:lightning_contactless": "no",
                "payment:onchain": "yes",
                "phone": "+39 34 2164 6277",
                "shop": "optician",
                "website": "https://www.otticavisuspiossasco.com/"
            }
        },
        {
            "type": "node",
            "id": 11810603473,
            "lat": 45.088601,
            "lon": 7.6566943,
            "timestamp": "2024-04-12T01:51:09Z",
            "version": 1,
            "changeset": 149887677,
            "user": "Rockedf",
            "uid": 7522075,
            "tags": {
                "addr:city": "Torino",
                "addr:housenumber": "14",
                "addr:postcode": "10149",
                "addr:street": "Via Pianezza",
                "check_date": "2024-04-11",
                "currency:XBT": "yes",
                "email": "info@torinoloft.com",
                "name": "Torino Loft",
                "opening_hours": "24/7",
                "payment:lightning": "no",
                "payment:lightning_contactless": "no",
                "payment:onchain": "yes",
                "phone": "+39 33 8264 7168",
                "tourism": "hotel",
                "website": "https://www.torinoloft.com/"
            }
        },
        {
            "type": "node",
            "id": 11847907734,
            "lat": 45.3236069,
            "lon": 7.3972294,
            "timestamp": "2024-07-05T20:01:57Z",
            "version": 2,
            "changeset": 153603052,
            "user": "mauropili",
            "uid": 1496865,
            "tags": {
                "addr:city": "Ceres",
                "addr:place": "Regione Goletto",
                "addr:postcode": "10070",
                "beds": "12",
                "check_date": "2024-03-14",
                "contact:website": "https://www.airbnb.it/rooms/35394232?guests=1&adults=1&s=67&unique_share_id=e5341d0b-347d-4bac-8c3b-ab51e0ee0829",
                "currency:XBT": "yes",
                "email": "laura&lucahome@gmail.com",
                "guest_house": "bed_and_breakfast",
                "internet_access": "wlan",
                "internet_access:fee": "no",
                "mobile": "+39 348 2210779",
                "name": "Laura&Luca Home",
                "payment:cash": "yes",
                "payment:cryptocurrencies": "yes",
                "payment:debit_cards": "yes",
                "payment:lightning": "yes",
                "payment:nfc": "yes",
                "payment:paypal": "yes",
                "rooms": "4",
                "tourism": "guest_house"
            }
        },
        {
            "type": "node",
            "id": 11928356727,
            "lat": 45.0340051,
            "lon": 7.6485716,
            "timestamp": "2024-06-13T02:33:05Z",
            "version": 3,
            "changeset": 152610706,
            "user": "Rockedf",
            "uid": 7522075,
            "tags": {
                "addr:city": "Torino",
                "addr:housenumber": "237",
                "addr:postcode": "10134",
                "addr:street": "Corso Unione Sovietica",
                "amenity": "atm",
                "cash_in": "yes",
                "cash_out": "yes",
                "cash_withdrawal": "yes",
                "check_date": "2024-05-23",
                "contact:email": "support@shitcoins.club",
                "contact:facebook": "https://www.facebook.com/shitcoins.club",
                "contact:instagram": "https://www.instagram.com/shitcoinsclub",
                "contact:telegram": "https://t.me/shitcoinsclub",
                "contact:twitter": "https://twitter.com/BitomatCom",
                "currency:CHF": "yes",
                "currency:DASH": "yes",
                "currency:ETH": "yes",
                "currency:EUR": "yes",
                "currency:GBP": "yes",
                "currency:HUF": "yes",
                "currency:LTC": "yes",
                "currency:RON": "yes",
                "currency:USD": "yes",
                "currency:USDC": "yes",
                "currency:USDT": "yes",
                "currency:XBT": "yes",
                "indoor": "yes",
                "name": "Bitcoin ATM - Shitcoins.club",
                "opening_hours": "24/7",
                "operator": "Shitcoins.club",
                "payment:cash": "yes",
                "payment:lightning": "no",
                "payment:lightning_contactless": "no",
                "payment:onchain": "yes",
                "phone": "+39 34 8048 7308",
                "website": "https://shitcoins.club/localizzazione-atm/atm-bitcoin-torino-corso-unione-sovietica"
            }
        },
        {
            "type": "node",
            "id": 11955642309,
            "lat": 44.6458418,
            "lon": 7.4961578,
            "timestamp": "2024-07-05T20:03:29Z",
            "version": 4,
            "changeset": 153603115,
            "user": "mauropili",
            "uid": 1496865,
            "tags": {
                "addr:city": "Saluzzo",
                "addr:housenumber": "7",
                "addr:street": "Via Savigliano",
                "currency:XBT": "yes",
                "name": "Non solo tabacchi",
                "payment:onchain": "yes",
                "phone": "+39 0175 45337",
                "shop": "tobacco",
                "survey:date": "2024-05-31",
                "website": "https://www.nonsolotabacchi.com/"
            }
        },
        {
            "type": "node",
            "id": 11969129439,
            "lat": 45.0751067,
            "lon": 7.7249823,
            "timestamp": "2024-06-10T14:10:04Z",
            "version": 1,
            "changeset": 152500000,
            "user": "Rockedf",
            "uid": 7522075,
            "tags": {
                "addr:city": "Torino",
                "addr:housenumber": "171",
                "addr:postcode": "10153",
                "addr:street": "Corso Belgio",
                "check_date": "2024-06-10",
                "contact:email": "info@vinologo.it",
                "currency:XBT": "yes",
                "name": "Vinologo Belgio - Vini sfusi e Bag in box",
                "payment:lightning": "yes",
                "payment:lightning_contactless": "yes",
                "payment:onchain": "yes",
                "phone": "+39 01 1898 1063",
                "shop": "wine",
                "website": "https://vinologo.it/landing/"
            }
        },
        {
            "type": "node",
            "id": 12044691485,
            "lat": 44.862549,
            "lon": 7.3014684,
            "timestamp": "2024-08-01T20:09:18Z",
            "version": 2,
            "changeset": 154709713,
            "user": "Rockedf",
            "uid": 7522075,
            "tags": {
                "addr:city": "Pinerolo",
                "addr:housenumber": "17/A",
                "addr:postcode": "10060",
                "addr:street": "Via Godino Delio",
                "amenity": "restaurant",
                "contact:instagram": "https://www.instagram.com/brace_steakhouse",
                "cuisine": "italian",
                "currency:XBT": "yes",
                "description": "Steak House & Drinks",
                "name": "Brace",
                "payment:lightning": "yes",
                "payment:lightning_contactless": "no",
                "payment:onchain": "no",
                "phone": "+39 344 1567515",
                "website": "https://www.chefmehdi.com/"
            }
        },
        {
            "type": "node",
            "id": 12177051438,
            "lat": 45.0752719,
            "lon": 7.6791973,
            "timestamp": "2024-09-14T16:52:54Z",
            "version": 1,
            "changeset": 156620470,
            "user": "megaloman-it",
            "uid": 11928236,
            "tags": {
                "amenity": "restaurant",
                "cocktails": "yes",
                "contact:city": "Torino",
                "contact:facebook": "wide quadrilatero",
                "contact:housenumber": "16e",
                "contact:instagram": "https://www.instagram.com/wide.quadrilatero/",
                "contact:postcode": "10122",
                "contact:street": "Via delle Orfane",
                "cuisine": "fusion;cocktail",
                "currency:XBT": "yes",
                "diet:gluten_free": "yes",
                "diet:lactose_free": "yes",
                "diet:mediterranean": "yes",
                "diet:organic": "yes",
                "diet:vegetarian": "yes",
                "email": "widequadrilatero@gmail.com",
                "indoor_seating": "yes",
                "internet_access": "wlan",
                "name": "Wi.De",
                "opening_hours": "Tu-Th 17:00-01:00; Fr, Sa 17:00-03:00; Su 12:00-01:00",
                "outdoor_seating": "yes",
                "payment:cash": "yes",
                "payment:credit_cards": "yes",
                "payment:lightning": "yes",
                "phone": "+39 331 9813382",
                "website": "https://widequadrilatero.it/",
                "wheelchair": "yes"
            }
        }
    ],
    "telegram": []
}