{
    "id": "ss-taranto",
    "name": "Satoshi Spritz Taranto",
    "lng": 40.464361,
    "lat": 17.24703,
    "localita": "Taranto",
    "idlocalita": "taranto",
    "telegram_weburl": "https://web.telegram.org/k/#@SatoshiSpritzTaranto",
    "telegram_app": "https://t.me/SatoshiSpritzTaranto",
    "telegram_members": 20.0,
    "network": "satoshispritz",
    "poi": [
        {
            "type": "node",
            "id": 229122362,
            "lat": 40.7264311,
            "lon": 17.5792123,
            "timestamp": "2025-03-25T14:09:18Z",
            "version": 8,
            "changeset": 164079084,
            "user": "evillz",
            "uid": 22552063,
            "tags": {
                "amenity": "fuel",
                "brand": "Tamoil",
                "brand:wikidata": "Q706793",
                "name": "Tamoil",
                "operator": "Tamoil"
            }
        },
        {
            "type": "node",
            "id": 4210004214,
            "lat": 40.7902268,
            "lon": 17.5702366,
            "timestamp": "2025-06-09T19:31:47Z",
            "version": 4,
            "changeset": 167415395,
            "user": "Mateusz Konieczny",
            "uid": 1722488,
            "tags": {
                "abandoned:building": "yes",
                "amenity": "fuel",
                "brand": "Q8",
                "fuel:GTL_diesel": "yes",
                "fuel:diesel": "yes",
                "fuel:octane_95": "yes",
                "name": "Q8",
                "opening_hours": "24/7",
                "operator": "Q8",
                "shop": "yes"
            }
        },
        {
            "type": "node",
            "id": 4242939306,
            "lat": 40.7221146,
            "lon": 17.5776397,
            "timestamp": "2025-01-01T17:59:01Z",
            "version": 5,
            "changeset": 160879074,
            "user": "mpbin",
            "uid": 21850090,
            "tags": {
                "addr:city": "Ostuni",
                "addr:housenumber": "103/105",
                "addr:postcode": "72017",
                "addr:street": "Via Papa Giovanni XXIII",
                "branch": "City",
                "brand": "Unieuro",
                "brand:wikidata": "Q4004687",
                "name": "Unieuro",
                "operator": "Unieuro S.p.A.",
                "shop": "electronics"
            }
        },
        {
            "type": "node",
            "id": 4343903826,
            "lat": 40.4009646,
            "lon": 17.2855289,
            "timestamp": "2025-02-17T11:54:40Z",
            "version": 8,
            "changeset": 162608230,
            "user": "btcitnet",
            "uid": 22525435,
            "tags": {
                "addr:city": "Talsano",
                "addr:housenumber": "252",
                "addr:postcode": "74122",
                "addr:street": "Via Sanguzza",
                "check_date:currency:XBT": "2023-07-07",
                "contact:facebook": "https://www.facebook.com/RiparaTa.it",
                "contact:twitter": "https://x.com/riparata",
                "currency:XBT": "yes",
                "description": "Il centro informatico di Taranto. Laboratorio tecnico informatico, specializzato nella riparazione e assistenza di Smartphone, Tablet, PC e Notebook. Professionisti nel settore IT.",
                "email": "riparata@outlook.it",
                "name": "RiparaTa.it",
                "opening_hours": "Mo-Fr 09:15-13:15,16:00-19:00",
                "operator": "Alessandro Aloi",
                "payment:cash": "yes",
                "payment:credit_cards": "yes",
                "payment:onchain": "yes",
                "phone": "+39 388 8673983",
                "shop": "computer",
                "website": "https://www.riparata.it/"
            }
        },
        {
            "type": "node",
            "id": 5216221125,
            "lat": 40.7271146,
            "lon": 17.5763196,
            "timestamp": "2024-01-05T15:56:18Z",
            "version": 4,
            "changeset": 145927969,
            "user": "Chiarant",
            "uid": 18452174,
            "tags": {
                "addr:city": "Ostuni",
                "addr:housenumber": "67/b",
                "addr:postcode": "72017",
                "addr:street": "Via Pola",
                "check_date": "2024-01-05",
                "currency:XBT": "yes",
                "description": "Gioielleria e laboratorio di incastonatura pietre preziose.",
                "email": "clamagioielli@gmail.com",
                "name": "Clama Gioielli",
                "phone": "+39 3208818751",
                "shop": "jewelry",
                "website": "http://www.clamagioielli.com"
            }
        },
        {
            "type": "node",
            "id": 6867261335,
            "lat": 40.5366841,
            "lon": 17.4341804,
            "timestamp": "2025-08-07T15:17:29Z",
            "version": 3,
            "changeset": 170112618,
            "user": "OpenCode",
            "uid": 1196207,
            "tags": {
                "addr:city": "Grottaglie",
                "addr:postcode": "74023",
                "addr:street": "Viale Giacomo Matteotti",
                "brand": "OVS",
                "brand:wikidata": "Q2042514",
                "brand:wikipedia": "en:OVS (company)",
                "clothes": "children",
                "name": "OVS",
                "opening_hours": "Mo-Sa 08:00-13:00,17:00-20:30",
                "operator": "OVS",
                "shop": "clothes"
            }
        },
        {
            "type": "node",
            "id": 7765194018,
            "lat": 40.4462155,
            "lon": 17.2699366,
            "timestamp": "2024-11-04T22:47:55Z",
            "version": 3,
            "changeset": 158759434,
            "user": "mpbin",
            "uid": 21850090,
            "tags": {
                "addr:city": "Taranto",
                "addr:housenumber": "6",
                "addr:postcode": "74121",
                "addr:street": "Via Salina Piccola",
                "addr:unit": "A",
                "amenity": "pharmacy",
                "check_date": "2024-11-04",
                "check_date:currency:XBT": "2024-11-04",
                "contact:facebook": "https://www.facebook.com/FarmaciaMandurino",
                "contact:instagram": "farmaciamandurino",
                "currency:XBT": "yes",
                "description": "The Mandurino Pharmacy has been open since 1968. We have been pharmacists for three generations. We sell all kinds of human and veterinary drugs and medical devices and much more. We offer free home delivery service throughout the Taranto area with paymen",
                "dispensing": "yes",
                "email": "farmaciamandurino@hotmail.com",
                "healthcare": "pharmacy",
                "name": "MANDURINO DR.SSA FRANCIOSO GIUDITTA",
                "opening_hours": "Mo-Fr 08:30-13:00,16:30-20:00; Sa 09:00-13:00",
                "payment:lightning": "yes",
                "payment:lightning_contactless": "no",
                "payment:onchain": "no",
                "phone": "+39 099 7721124"
            }
        },
        {
            "type": "node",
            "id": 9064279244,
            "lat": 40.5030826,
            "lon": 17.6466031,
            "timestamp": "2025-07-09T08:21:23Z",
            "version": 3,
            "changeset": 168682645,
            "user": "Caseificio Pipino - Oria",
            "uid": 22505064,
            "tags": {
                "addr:city": "Oria",
                "addr:housenumber": "2",
                "addr:postcode": "72024",
                "addr:street": "Via Latiano",
                "currency:EUR": "yes",
                "currency:XBT": "yes",
                "name": "Wine Shop",
                "opening_hours": "Mo-Sa 08:00-13:30 & 17:30-21:00",
                "payment:cash": "yes",
                "payment:contactless": "yes",
                "payment:credit_cards": "yes",
                "payment:debit_cards": "yes",
                "payment:lightning": "yes",
                "payment:lightning_contactless": "yes",
                "shop": "wine",
                "survey:date": "2025-05-15"
            }
        },
        {
            "type": "node",
            "id": 9183675806,
            "lat": 40.5016937,
            "lon": 17.6417262,
            "timestamp": "2025-03-05T11:12:41Z",
            "version": 5,
            "changeset": 163240176,
            "user": "mueschel",
            "uid": 616774,
            "tags": {
                "addr:city": "Oria",
                "addr:postcode": "72024",
                "addr:street": "Via Epitaffio, 41",
                "currency:XBT": "yes",
                "name": "Ottica R-Quadro",
                "payment:cash": "yes",
                "payment:credit_cards": "yes",
                "payment:lightning": "yes",
                "payment:lightning_contactless": "yes",
                "payment:onchain": "no",
                "phone": "+39 0831 601967",
                "shop": "optician"
            }
        },
        {
            "type": "node",
            "id": 9312694973,
            "lat": 40.4904917,
            "lon": 17.6528245,
            "timestamp": "2025-05-19T14:35:07Z",
            "version": 2,
            "changeset": 166480345,
            "user": "Caseificio Pipino - Oria",
            "uid": 22505064,
            "tags": {
                "addr:city": "Oria",
                "addr:postcode": "72024",
                "addr:street": "Circonvallazione di Oria",
                "amenity": "cafe",
                "cuisine": "coffee_shop;sandwich;breakfast",
                "currency:XBT": "yes",
                "name": "Blue bar",
                "outdoor_seating": "yes",
                "payment:cash": "yes",
                "payment:lightning": "yes",
                "payment:onchain": "no",
                "survey:date": "2025-05-19"
            }
        },
        {
            "type": "node",
            "id": 9433258080,
            "lat": 40.6851525,
            "lon": 17.3318481,
            "timestamp": "2025-04-20T07:05:43Z",
            "version": 2,
            "changeset": 165179474,
            "user": "btcitnet",
            "uid": 22525435,
            "tags": {
                "addr:city": "Martina Franca",
                "amenity": "vending_machine",
                "currency:EUR": "yes",
                "name": "Q8",
                "operator": "Q8",
                "payment:cash": "yes",
                "payment:credit_cards": "yes",
                "vending": "fuel"
            }
        },
        {
            "type": "node",
            "id": 9860157704,
            "lat": 40.4615949,
            "lon": 17.3005575,
            "timestamp": "2025-04-19T09:04:55Z",
            "version": 4,
            "changeset": 165143853,
            "user": "btcitnet",
            "uid": 22525435,
            "tags": {
                "addr:city": "Taranto",
                "addr:postcode": "74121",
                "brand": "Spazio Conad",
                "brand:wikidata": "Q118130063",
                "name": "Spazio Conad",
                "opening_hours": "Mo-Sa 08:30-21:00, Su 09:00-21:00",
                "operator": "Conad",
                "payment:bancomat": "yes",
                "payment:cash": "yes",
                "payment:credit_cards": "yes",
                "phone": "+39 099 779 7543",
                "shop": "supermarket",
                "website": "https://www.conad.it/ricerca-negozi/spazio-conad-via-per-san-giorgio-jonico-km10-74121-taranto--010037"
            }
        },
        {
            "type": "node",
            "id": 9860173631,
            "lat": 40.4612246,
            "lon": 17.2996973,
            "timestamp": "2024-07-06T06:11:02Z",
            "version": 3,
            "changeset": 153611522,
            "user": "mauropili",
            "uid": 1496865,
            "tags": {
                "addr:city": "Taranto",
                "addr:postcode": "74121",
                "addr:street": "Via per S. Giorgio",
                "amenity": "fast_food",
                "check_date": "2023-11-09",
                "cuisine": "kebab",
                "currency:XBT": "yes",
                "name": "Kebhouze",
                "payment:lightning": "yes",
                "payment:lightning_contactless": "yes",
                "payment:onchain": "yes",
                "website": "https://kebhouze.com/"
            }
        },
        {
            "type": "node",
            "id": 11131394236,
            "lat": 40.2987932,
            "lon": 17.5617862,
            "timestamp": "2024-08-31T17:20:11Z",
            "version": 6,
            "changeset": 156025357,
            "user": "mpbin",
            "uid": 21850090,
            "tags": {
                "addr:city": "Campomarino di Maruggio",
                "addr:postcode": "74020",
                "addr:street": "Via Giovanni Boccaccio",
                "amenity": "ice_cream",
                "check_date": "2023-08-20",
                "contact:facebook": "https://www.facebook.com/people/Gelateria-La-Meringa-Campomarino/100063479922816/",
                "currency:XBT": "yes",
                "indoor_seating": "yes",
                "name": "Gelateria La Meringa",
                "outdoor_seating": "yes",
                "payment:cash": "yes",
                "payment:credit_cards": "yes",
                "payment:debit_cards": "yes",
                "phone": "+393279937879"
            }
        },
        {
            "type": "node",
            "id": 11412516681,
            "lat": 40.4955897,
            "lon": 17.6461029,
            "timestamp": "2025-07-09T09:22:30Z",
            "version": 5,
            "changeset": 168685306,
            "user": "Comino",
            "uid": 6794624,
            "tags": {
                "addr:city": "Oria",
                "addr:housenumber": "78",
                "addr:postcode": "72024",
                "addr:street": "Via De Marzo",
                "check_date": "2025-07-09",
                "check_date:currency:XBT": "2025-07-09",
                "currency:XBT": "yes",
                "name": "Caseificio Pipino",
                "opening_hours": "Mo-We 08:00-14:00,17:30-20:30; Th 08:00-14:30; Fr,Sa 08:00-14:30,17:30-20:30",
                "operator": "Caseifico Pipino di Pipino G. & C. SAS",
                "payment:cash": "yes",
                "payment:credit_cards": "yes",
                "payment:debit_cards": "yes",
                "payment:lightning": "yes",
                "payment:lightning_contactless": "yes",
                "payment:onchain": "no",
                "phone": "+39 831 845 550",
                "shop": "cheese",
                "survey:date": "2025-02-14",
                "website": "https://www.caseificiopipino.it/"
            }
        },
        {
            "type": "node",
            "id": 11775351701,
            "lat": 40.5281371,
            "lon": 17.5842733,
            "timestamp": "2024-03-31T13:13:59Z",
            "version": 1,
            "changeset": 149389955,
            "user": "Rockedf",
            "uid": 7522075,
            "tags": {
                "addr:city": "Francavilla Fontana",
                "addr:housenumber": "25",
                "addr:postcode": "72021",
                "addr:street": "Via Francesco Ribezzo",
                "check_date": "2024-03-31",
                "currency:XBT": "yes",
                "guest_house": "bed_and_breakfast",
                "name": "Laura Memmola",
                "opening_hours": "24/7",
                "payment:lightning": "yes",
                "payment:lightning_contactless": "yes",
                "payment:onchain": "yes",
                "phone": "+39 32 8151 6560",
                "tourism": "guest_house",
                "website": "https://www.vacation-bookings.com/d/54687750?locale=it_IT&utm_source=web_share&utm_term=CLIPBOARD"
            }
        },
        {
            "type": "node",
            "id": 11928327699,
            "lat": 40.5170203,
            "lon": 17.2912582,
            "timestamp": "2024-06-13T02:30:36Z",
            "version": 3,
            "changeset": 152610675,
            "user": "Rockedf",
            "uid": 7522075,
            "tags": {
                "addr:city": "Taranto",
                "addr:postcode": "74123",
                "addr:street": "Via per Montemesola",
                "amenity": "atm",
                "cash_in": "yes",
                "cash_out": "yes",
                "cash_withdrawal": "yes",
                "check_date": "2024-05-23",
                "contact:email": "support@shitcoins.club",
                "contact:facebook": "https://www.facebook.com/shitcoins.club",
                "contact:instagram": "https://www.instagram.com/shitcoinsclub",
                "contact:telegram": "https://t.me/shitcoinsclub",
                "contact:twitter": "https://twitter.com/BitomatCom",
                "currency:DASH": "yes",
                "currency:ETH": "yes",
                "currency:LTC": "yes",
                "currency:USDC": "yes",
                "currency:USDT": "yes",
                "currency:XBT": "yes",
                "drive_through": "yes",
                "indoor": "yes",
                "name": "Bitcoin ATM - Shitcoins.club",
                "opening_hours": "Mo-Sa 09:00-21:00; Su 10:00-21:00",
                "operator": "Shitcoins.club",
                "payment:cash": "yes",
                "payment:lightning": "no",
                "payment:lightning_contactless": "no",
                "payment:onchain": "yes",
                "phone": "+39 34 8048 7308",
                "website": "https://shitcoins.club/localizzazione-atm/atm-bitcoin-taranto-centro-commerciale-mongolfiera"
            }
        },
        {
            "type": "node",
            "id": 12324609959,
            "lat": 40.4984508,
            "lon": 17.6433669,
            "timestamp": "2025-01-02T12:10:50Z",
            "version": 2,
            "changeset": 160904209,
            "user": "mpbin",
            "uid": 21850090,
            "tags": {
                "addr:city": "Oria",
                "addr:housenumber": "2",
                "addr:postcode": "72024",
                "addr:street": "Piazza Albanese",
                "amenity": "bar",
                "contact:facebook": "https://www.facebook.com/p/Caveau-ExperienceBar-Oria-61555244900593/",
                "contact:instagram": "https://www.instagram.com/caveau_oria/",
                "currency:XBT": "yes",
                "email": "info@caveaubar.it",
                "name": "Caveau Bar",
                "phone": "+39 350 126 5170"
            }
        },
        {
            "type": "node",
            "id": 12598623349,
            "lat": 40.498549,
            "lon": 17.6434156,
            "timestamp": "2025-03-01T17:47:03Z",
            "version": 5,
            "changeset": 163097163,
            "user": "btcitnet",
            "uid": 22525435,
            "tags": {
                "addr:city": "Oria",
                "addr:housenumber": "7",
                "addr:postcode": "72024",
                "addr:street": "Corso Umberto 1\u00b0",
                "check_date": "2025-02-18",
                "contact:facebook": "bottegaoscuradelcuoio",
                "contact:instagram": "bottegaoscuradelcuoio",
                "craft": "leather",
                "currency:XBT": "yes",
                "description": "Incisione, cesellatura e lavorazione del cuoio a concia vegetale",
                "name": "Bottega Oscura del Cuoio",
                "payment:cash": "yes",
                "payment:credit_cards": "yes",
                "payment:debit_cards": "yes",
                "payment:lightning": "yes",
                "payment:lightning_contactless": "yes",
                "payment:onchain": "no",
                "shop": "leather",
                "survey:date": "2025-02-18"
            }
        },
        {
            "type": "node",
            "id": 12634087232,
            "lat": 40.4984062,
            "lon": 17.6435153,
            "timestamp": "2025-04-04T19:20:43Z",
            "version": 3,
            "changeset": 164525417,
            "user": "Christoph Lotz",
            "uid": 47978,
            "tags": {
                "addr:city": "Oria",
                "addr:country": "IT",
                "addr:postcode": "72024",
                "addr:street": "Via Roma",
                "amenity": "restaurant",
                "cuisine": "italian",
                "currency:XBT": "yes",
                "name": "Wine Shop \"La Saletta\"",
                "opening_hours": "We-Su 19:00-01:00",
                "operator": "SalentoBitcoin",
                "payment:lightning": "yes",
                "payment:onchain": "yes",
                "phone": "3802043937"
            }
        },
        {
            "type": "node",
            "id": 12988078535,
            "lat": 40.4972991,
            "lon": 17.6435577,
            "timestamp": "2025-07-09T08:22:00Z",
            "version": 2,
            "changeset": 168682670,
            "user": "Comino",
            "uid": 6794624,
            "tags": {
                "addr:city": "Oria",
                "addr:housenumber": "26",
                "addr:postcode": "72024",
                "addr:street": "Piazza Manfredi",
                "amenity": "bar",
                "check_date": "2025-07-09",
                "check_date:currency:XBT": "2025-07-09",
                "contact:facebook": "https://www.facebook.com/people/Caff%25C3%25A8-Sedile/100063838400364/",
                "currency:XBT": "yes",
                "email": "viscontealbino@libero.it",
                "name": "Caffe Sedile",
                "opening_hours": "Tu-Su 16:30-03:00",
                "operator": "Salento Bitcoin",
                "payment:lightning": "yes",
                "payment:lightning_contactless": "no",
                "payment:onchain": "no",
                "phone": "+39 831 848429"
            }
        },
        {
            "type": "node",
            "id": 12988115859,
            "lat": 40.4969253,
            "lon": 17.6434354,
            "timestamp": "2025-07-09T07:56:56Z",
            "version": 2,
            "changeset": 168681709,
            "user": "Comino",
            "uid": 6794624,
            "tags": {
                "addr:city": "Oria",
                "addr:housenumber": "7",
                "addr:postcode": "72024",
                "addr:street": "Piazza Manfredi",
                "amenity": "bar",
                "check_date": "2025-07-09",
                "check_date:currency:XBT": "2025-07-09",
                "contact:facebook": "caffemanfredioria",
                "contact:instagram": "vineriamanfredi",
                "currency:XBT": "yes",
                "email": "drinkeria_manfredi@hotmail.it",
                "name": "Vineria Manfredi & Retrobottega",
                "opening_hours": "Mo-Th 17:30-01:30; Tu off; Fr,Sa 17:30-02:00; Su 17:30-01:00",
                "operator": "Salento Bitcoin",
                "payment:lightning": "yes",
                "payment:lightning_contactless": "no",
                "payment:onchain": "no"
            }
        },
        {
            "type": "node",
            "id": 12994461420,
            "lat": 40.8424099,
            "lon": 17.4662375,
            "timestamp": "2025-07-16T18:37:31Z",
            "version": 2,
            "changeset": 169028088,
            "user": "btcitnet",
            "uid": 22525435,
            "tags": {
                "addr:city": "Fasano",
                "addr:housenumber": "33",
                "addr:postcode": "72015",
                "addr:street": "Via Ponza",
                "contact:website": "https://humusnature.it/",
                "currency:XBT": "yes",
                "email": "info@humusnature.it",
                "name": "Humus Nature",
                "organic": "unofficial",
                "phone": "+39 392 3700692",
                "product": "olive_oil",
                "ref:vatin": "IT02436290544",
                "shop": "farm"
            }
        },
        {
            "type": "relation",
            "id": 17864305,
            "timestamp": "2025-01-30T14:28:17Z",
            "version": 12,
            "changeset": 161939823,
            "user": "Francesco Graniglia",
            "uid": 558630,
            "members": [
                {
                    "type": "way",
                    "ref": 1303064323,
                    "role": "outer"
                },
                {
                    "type": "way",
                    "ref": 619551383,
                    "role": "outer"
                }
            ],
            "tags": {
                "addr:city": "Taranto",
                "addr:country": "IT",
                "addr:housenumber": "183",
                "addr:postcode": "74121",
                "addr:province": "TA",
                "addr:street": "Viale Magna Grecia",
                "amenity": "fuel",
                "brand": "Esso",
                "brand:wikidata": "Q867662",
                "check_date": "2025-01-30",
                "currency:XBT": "yes",
                "fuel:diesel": "yes",
                "fuel:electric": "yes",
                "fuel:electricity": "yes",
                "fuel:octane_95": "yes",
                "name": "Esso PV 368318",
                "operator": "G.G. Oil S.r.l.",
                "payment:american_express": "yes",
                "payment:apple_pay": "yes",
                "payment:bancomat": "yes",
                "payment:cards": "yes",
                "payment:cash": "yes",
                "payment:contactless": "yes",
                "payment:credit_cards": "yes",
                "payment:debit_cards": "yes",
                "payment:google_pay": "yes",
                "payment:maestro": "yes",
                "payment:mastercard": "yes",
                "payment:mastercard_contactless": "yes",
                "payment:nfc": "yes",
                "payment:nfc_mobile_payments": "yes",
                "payment:notes": "yes",
                "payment:satispay": "yes",
                "payment:unionpay": "yes",
                "payment:v_pay": "yes",
                "payment:visa": "yes",
                "payment:visa_debit": "yes",
                "payment:visa_electron": "yes",
                "phone": "+39099331803",
                "self_service": "yes",
                "type": "multipolygon",
                "website": "https://www.eseitalia.it"
            }
        }
    ],
    "telegram": []
}