{
    "id": "ss-umbria",
    "name": "Satoshi Spritz Umbria",
    "lng": 43.110717,
    "lat": 12.390828,
    "localita": "Umbria",
    "telegram_weburl": "https://web.telegram.org/a/#-1001984558936",
    "telegram_app": "https://t.me/satoshispritzumbria",
    "telegram_members": 50.0,
    "network": "satoshispritz",
    "poi": [
        {
            "type": "node",
            "id": 1650173308,
            "lat": 43.100778,
            "lon": 12.3674887,
            "timestamp": "2024-05-06T13:19:10Z",
            "version": 4,
            "changeset": 150965033,
            "user": "Griphon",
            "uid": 461682,
            "tags": {
                "amenity": "cafe",
                "check_date": "2023-09-27",
                "currency:XBT": "yes",
                "name": "Tux Caff\u00e9"
            }
        },
        {
            "type": "node",
            "id": 5321719711,
            "lat": 43.0709153,
            "lon": 12.3469302,
            "timestamp": "2023-07-18T18:14:39Z",
            "version": 7,
            "changeset": 138682327,
            "user": "mueschel",
            "uid": 616774,
            "tags": {
                "addr:city": "Perugia",
                "addr:housenumber": "43",
                "addr:postcode": "06129",
                "addr:street": "Via Alessandro Monteneri",
                "check_date:currency:XBT": "2023-07-14",
                "currency:XBT": "yes",
                "description": "Servizi avanzati di Cloud Computing",
                "email": "info@levita.cloud",
                "name": "Levita srl",
                "office": "it",
                "payment:credit_cards": "yes",
                "phone": "+39 075 5755592",
                "website": "https://www.levita.cloud/"
            }
        },
        {
            "type": "node",
            "id": 5321719712,
            "lat": 43.0708703,
            "lon": 12.3469436,
            "timestamp": "2023-11-07T05:06:04Z",
            "version": 6,
            "changeset": 143719058,
            "user": "b-jazz-bot",
            "uid": 9451067,
            "tags": {
                "addr:city": "Perugia",
                "addr:housenumber": "43",
                "addr:postcode": "06129",
                "addr:street": "Via Alessandro Monteneri",
                "check_date:currency:XBT": "2023-07-14",
                "currency:XBT": "yes",
                "email": "info@levita.cloud",
                "name": "PCSNet Umbria",
                "office": "educational_institution",
                "phone": "+39 075 5755592",
                "website": "https://www.pcsnetumbria.it/"
            }
        },
        {
            "type": "node",
            "id": 10788303705,
            "lat": 43.111352,
            "lon": 12.3885493,
            "timestamp": "2023-05-12T22:48:04Z",
            "version": 2,
            "changeset": 136036845,
            "user": "saunter",
            "uid": 10396321,
            "tags": {
                "addr:city": "Perugia",
                "addr:housenumber": "21/22",
                "addr:postcode": "06121",
                "addr:street": "Corso Vannucci",
                "check_date:currency:XBT": "2023-05-13",
                "currency:XBT": "yes",
                "name": "DOPPELG\u00c4NGER",
                "payment:lightning": "no",
                "payment:lightning_contactless": "no",
                "payment:onchain": "yes",
                "phone": "0753753365",
                "shop": "clothes"
            }
        },
        {
            "type": "node",
            "id": 10788307405,
            "lat": 43.0999656,
            "lon": 12.3098025,
            "timestamp": "2023-09-15T15:09:25Z",
            "version": 3,
            "changeset": 141307681,
            "user": "arcanma",
            "uid": 1211510,
            "tags": {
                "addr:city": "Corciano",
                "addr:housenumber": "8",
                "addr:postcode": "06073",
                "addr:street": "Via Aldo Capitini",
                "check_date:currency:XBT": "2023-05-13",
                "clothes": "men",
                "currency:XBT": "yes",
                "name": "DOPPELG\u00c4NGER",
                "payment:lightning": "no",
                "payment:lightning_contactless": "no",
                "payment:onchain": "yes",
                "phone": "0755173528",
                "shop": "clothes"
            }
        },
        {
            "type": "node",
            "id": 11050800499,
            "lat": 43.1119709,
            "lon": 12.389949,
            "timestamp": "2023-07-17T10:26:01Z",
            "version": 1,
            "changeset": 138615299,
            "user": "Chiarant",
            "uid": 18452174,
            "tags": {
                "addr:city": "Perugia",
                "addr:housenumber": "2",
                "addr:street": "Via Galeazzo Alessi",
                "addr:unit": "a",
                "check_date": "2023-07-17",
                "currency:XBT": "yes",
                "name": "Spaccia Marija Hemp Shop",
                "payment:lightning": "yes",
                "payment:onchain": "yes",
                "shop": "cannabis"
            }
        }
    ]
}