{
    "id": "ss-varese",
    "name": "Satoshi Spritz Varese",
    "lng": 45.8182,
    "lat": 8.82733,
    "localita": "Varese",
    "telegram_weburl": "https://web.telegram.org/a/#-1001656890617",
    "telegram_app": "https://t.me/satoshispritzVarese",
    "telegram_members": 111.0,
    "poi": [
        {
            "type": "node",
            "id": 1123505350,
            "lat": 45.778222,
            "lon": 9.0440403,
            "timestamp": "2023-07-31T14:23:33Z",
            "version": 3,
            "changeset": 139256906,
            "user": "BTC Map",
            "uid": 18545877,
            "tags": {
                "brand": "Mondo Convenienza",
                "brand:wikidata": "Q55830962",
                "check_date:currency:XBT": "2023-07-31",
                "currency:XBT": "yes",
                "name": "Mondo Convenienza",
                "shop": "furniture"
            }
        },
        {
            "type": "node",
            "id": 2241821236,
            "lat": 45.9572219,
            "lon": 8.9355435,
            "timestamp": "2023-06-17T16:40:00Z",
            "version": 2,
            "changeset": 137454196,
            "user": "saunter",
            "uid": 10396321,
            "tags": {
                "amenity": "restaurant",
                "check_date:currency:XBT": "2023-05-17",
                "currency:XBT": "yes",
                "name": "Posta",
                "payment:lightning": "yes",
                "payment:onchain": "no"
            }
        },
        {
            "type": "node",
            "id": 3266807168,
            "lat": 45.8436193,
            "lon": 9.0120844,
            "timestamp": "2024-01-16T17:51:55Z",
            "version": 4,
            "changeset": 146333051,
            "user": "saunter",
            "uid": 10396321,
            "tags": {
                "addr:city": "Balerna",
                "addr:country": "CH",
                "addr:housenumber": "42f",
                "addr:postcode": "6828",
                "addr:street": "Via Sotto Bisio",
                "check_date:currency:XBT": "2024-01-16",
                "currency:XBT": "yes",
                "name": "Animal Service",
                "opening_hours": "Mo-Sa 09:00-18:30",
                "payment:lightning": "yes",
                "payment:onchain": "no",
                "phone": "+41 91 682 04 49",
                "shop": "pet",
                "source": "website and survey",
                "website": "https://www.animalservicegroup.com/"
            }
        },
        {
            "type": "node",
            "id": 3296329914,
            "lat": 45.8431424,
            "lon": 9.0176885,
            "timestamp": "2023-12-01T20:02:00Z",
            "version": 7,
            "changeset": 144673508,
            "user": "konfiot",
            "uid": 660521,
            "tags": {
                "addr:city": "Morbio Inferiore",
                "addr:country": "CH",
                "addr:postcode": "6834",
                "addr:street": "Viale Serfontana",
                "amenity": "fast_food",
                "brand": "McDonald's",
                "brand:wikidata": "Q38076",
                "brand:wikipedia": "en:McDonald's",
                "check_date": "2023-01-31",
                "cuisine": "burger",
                "currency:XBT": "yes",
                "name": "McDonald's",
                "opening_hours": "Mo-Th 10:00-24:00; Fr-Sa 10:00-01:00; Su 10:00-24:00",
                "operator": "McDonald's",
                "outdoor_seating": "yes",
                "payment:lightning": "yes",
                "payment:lightning_contactless": "no",
                "payment:onchain": "no",
                "smoking": "outside",
                "takeaway": "yes"
            }
        },
        {
            "type": "node",
            "id": 3545129485,
            "lat": 45.9538647,
            "lon": 8.9057755,
            "timestamp": "2023-11-11T11:28:10Z",
            "version": 4,
            "changeset": 143895510,
            "user": "b-jazz-bot",
            "uid": 9451067,
            "tags": {
                "amenity": "restaurant",
                "check_date:currency:XBT": "2023-05-17",
                "currency:XBT": "yes",
                "name": "Osteria Degli Amici",
                "payment:lightning": "yes",
                "payment:onchain": "no",
                "phone": "+41919801072",
                "website": "https://osteriadegliamici.ch/"
            }
        },
        {
            "type": "node",
            "id": 5611537167,
            "lat": 45.8314524,
            "lon": 9.0357271,
            "timestamp": "2023-07-10T18:35:45Z",
            "version": 6,
            "changeset": 138349423,
            "user": "Chiarant",
            "uid": 18452174,
            "tags": {
                "addr:city": "Como",
                "addr:housenumber": "331",
                "addr:postcode": "22100",
                "addr:street": "Via Bellinzona",
                "amenity": "fast_food",
                "check_date": "2023-07-10",
                "cuisine": "piadina;romagnola",
                "currency:XBT": "yes",
                "name": "La Caveja",
                "payment:revolut": "yes",
                "phone": "+39 3738459173"
            }
        },
        {
            "type": "node",
            "id": 7551174343,
            "lat": 45.875802,
            "lon": 8.9869489,
            "timestamp": "2024-01-16T17:51:55Z",
            "version": 3,
            "changeset": 146333051,
            "user": "saunter",
            "uid": 10396321,
            "tags": {
                "addr:city": "Mendrisio",
                "addr:country": "CH",
                "addr:housenumber": "25",
                "addr:postcode": "6850",
                "addr:street": "Via Carlo Pasta",
                "check_date:currency:XBT": "2024-01-16",
                "currency:XBT": "yes",
                "name": "Z-BIKE",
                "operator": "Z-BIKE",
                "payment:lightning": "yes",
                "payment:onchain": "no",
                "service:bicycle:repair": "yes",
                "shop": "bicycle",
                "website": "https://z-bike.ch/"
            }
        },
        {
            "type": "node",
            "id": 10060273673,
            "lat": 45.8192931,
            "lon": 9.0613195,
            "timestamp": "2023-07-07T18:12:38Z",
            "version": 2,
            "changeset": 138239463,
            "user": "Chiarant",
            "uid": 18452174,
            "tags": {
                "addr:city": "Como",
                "addr:housenumber": "39",
                "addr:postcode": "22100",
                "addr:street": "Via Bellinzona",
                "check_date": "2023-07-07",
                "currency:XBT": "yes",
                "name": "Ecotaurus - Noleggio Bagni chimici",
                "shop": "trade",
                "website": "https://www.ecotaurus.it/"
            }
        },
        {
            "type": "node",
            "id": 10154541289,
            "lat": 45.8358611,
            "lon": 9.0288076,
            "timestamp": "2022-11-05T07:44:16Z",
            "version": 2,
            "changeset": 128510631,
            "user": "user_5359",
            "uid": 5359,
            "tags": {
                "currency:XBT": "yes",
                "name": "Natural Water",
                "payment:lightning": "yes",
                "payment:lightning_contactless": "yes",
                "payment:onchain": "yes",
                "shop": "water",
                "survey:date": "2022-11-03",
                "website": "https://naturalwater.ch/"
            }
        },
        {
            "type": "node",
            "id": 10247809015,
            "lat": 45.8100673,
            "lon": 9.0841767,
            "timestamp": "2023-02-09T10:57:50Z",
            "version": 2,
            "changeset": 132300790,
            "user": "BSN21M",
            "uid": 17441326,
            "tags": {
                "addr:city": "Como",
                "addr:postcode": "22100",
                "addr:street": "Via Indipendenza",
                "check_date:currency:XBT": "2023-02-09",
                "currency:XBT": "yes",
                "email": "laborsettacomo@gmail.com",
                "name": "La Borsetta",
                "opening_hours": "Mo-Sa 10:00-14:00, 15:00-19:00",
                "payment:lightning": "yes",
                "payment:lightning_contactless": "no",
                "payment:onchain": "yes",
                "phone": "+39031261567",
                "shop": "bag",
                "website": "https://laborsettacomo.it/"
            }
        },
        {
            "type": "node",
            "id": 10844424714,
            "lat": 45.949757,
            "lon": 8.8099801,
            "timestamp": "2023-04-27T10:06:38Z",
            "version": 2,
            "changeset": 135420361,
            "user": "Chiarant",
            "uid": 18452174,
            "tags": {
                "addr:city": "Fabiasco",
                "addr:housenumber": "11",
                "addr:postcode": "21030",
                "addr:street": "Via dei Fabi",
                "check_date": "2023-04-26",
                "craft": "caterer",
                "cuisine": "barbecue",
                "currency:XBT": "yes",
                "email": "info@bbqolympic.com",
                "name": "BBQ Olympic di Mandelli Giovanni",
                "phone": "340 88 74 148",
                "website": "https://www.bbqolympic.com"
            }
        },
        {
            "type": "node",
            "id": 10865041339,
            "lat": 45.776503,
            "lon": 8.823116,
            "timestamp": "2023-05-03T14:14:09Z",
            "version": 1,
            "changeset": 135662956,
            "user": "gianlock",
            "uid": 18347620,
            "tags": {
                "addr:city": "Gazzada Schianno",
                "addr:housenumber": "2",
                "addr:postcode": "21045",
                "addr:street": "Via Italo Cremona",
                "check_date:currency:XBT": "2023-05-03",
                "currency:XBT": "yes",
                "description": "Self made design plants",
                "name": "EF Creations",
                "payment:lightning": "yes",
                "payment:lightning_contactless": "no",
                "payment:onchain": "yes",
                "shop": "interior_decoration",
                "website": "https://instagram.com/ef_creations_?igshid=YmMyMTA2M2Y="
            }
        },
        {
            "type": "node",
            "id": 10982745111,
            "lat": 45.954991,
            "lon": 8.9299404,
            "timestamp": "2023-11-11T11:25:52Z",
            "version": 2,
            "changeset": 143895463,
            "user": "b-jazz-bot",
            "uid": 9451067,
            "tags": {
                "check_date:currency:XBT": "2023-05-17",
                "currency:XBT": "yes",
                "leisure": "pitch",
                "name": "Tennis Club Carona",
                "payment:lightning": "yes",
                "payment:onchain": "no",
                "phone": "+41916499464",
                "sport": "tennis",
                "website": "https://www.tccarona.ch/"
            }
        },
        {
            "type": "node",
            "id": 10982745112,
            "lat": 45.9548904,
            "lon": 8.9319722,
            "timestamp": "2023-06-17T16:40:00Z",
            "version": 1,
            "changeset": 137454196,
            "user": "saunter",
            "uid": 10396321,
            "tags": {
                "amenity": "restaurant",
                "check_date:currency:XBT": "2023-05-17",
                "currency:XBT": "yes",
                "name": "Ristorazione Piscina Carona",
                "payment:lightning": "yes",
                "payment:onchain": "no"
            }
        },
        {
            "type": "node",
            "id": 11127449980,
            "lat": 45.6786999,
            "lon": 8.7050913,
            "timestamp": "2024-01-06T09:55:39Z",
            "version": 6,
            "changeset": 145950160,
            "user": "Chiarant",
            "uid": 18452174,
            "tags": {
                "addr:city": "Somma Lombardo",
                "addr:housenumber": "17",
                "addr:postcode": "21019",
                "addr:street": "Via Rimembranze",
                "check_date": "2023-08-19",
                "currency:XBT": "yes",
                "email": "antoniof.gestione@gmail.com",
                "internet_access": "wlan",
                "internet_access:fee": "no",
                "name": "casa vacanza con giardino - comoda per malpensa e milano",
                "operator": "antonio",
                "payment:american_express": "yes",
                "payment:cards": "yes",
                "payment:cash": "yes",
                "payment:coins": "yes",
                "payment:contactless": "yes",
                "payment:credit_cards": "yes",
                "payment:cryptocurrencies": "yes",
                "payment:debit_cards": "yes",
                "payment:ethereum": "yes",
                "payment:lightning": "yes",
                "payment:maestro": "yes",
                "payment:mastercard": "yes",
                "payment:notes": "yes",
                "payment:onchain": "yes",
                "payment:paypal": "yes",
                "payment:visa": "yes",
                "phone": "+39 3420128164",
                "reservation": "required",
                "rooms": "2",
                "tourism": "apartment"
            }
        },
        {
            "type": "node",
            "id": 11522524476,
            "lat": 45.967432,
            "lon": 8.9241912,
            "timestamp": "2024-01-16T17:51:55Z",
            "version": 1,
            "changeset": 146333051,
            "user": "saunter",
            "uid": 10396321,
            "tags": {
                "check_date:currency:XBT": "2024-01-16",
                "currency:XBT": "yes",
                "name": "Customycar - Wrapping car, boat and interior",
                "payment:lightning": "yes",
                "payment:onchain": "no",
                "shop": "yes"
            }
        },
        {
            "type": "node",
            "id": 11522524477,
            "lat": 45.9702506,
            "lon": 8.9246326,
            "timestamp": "2024-01-16T17:51:55Z",
            "version": 1,
            "changeset": 146333051,
            "user": "saunter",
            "uid": 10396321,
            "tags": {
                "check_date:currency:XBT": "2024-01-16",
                "currency:XBT": "yes",
                "name": "Rugbytots Ticino",
                "payment:lightning": "yes",
                "payment:onchain": "no",
                "shop": "sports"
            }
        },
        {
            "type": "node",
            "id": 11524498290,
            "lat": 45.9720039,
            "lon": 8.8552454,
            "timestamp": "2024-01-17T10:49:40Z",
            "version": 1,
            "changeset": 146358330,
            "user": "saunter",
            "uid": 10396321,
            "tags": {
                "check_date": "2024-01-16",
                "currency:XBT": "yes",
                "name": "Promax Communication",
                "office": "advertising_agency",
                "payment:lightning": "yes",
                "payment:onchain": "no"
            }
        },
        {
            "type": "node",
            "id": 11909756737,
            "lat": 45.6862177,
            "lon": 8.7998766,
            "timestamp": "2024-05-16T12:48:11Z",
            "version": 2,
            "changeset": 151406878,
            "user": "Chiarant",
            "uid": 18452174,
            "tags": {
                "addr:city": "Gallarate",
                "addr:housenumber": "95",
                "addr:postcode": "21013",
                "addr:street": "Via Varese",
                "check_date": "2024-05-16",
                "currency:XBT": "yes",
                "name": "Civico 95 - Organizzazione Matrimoni",
                "office": "wedding_planner",
                "website": "https://www.civico95.it/"
            }
        }
    ]
}