{
    "id": "ss-vignola",
    "name": "Satoshi Spritz Vignola",
    "lng": 44.4836,
    "lat": 11.0131,
    "localita": "Vignola",
    "telegram_weburl": "https://web.telegram.org/a/#-1001509357282",
    "telegram_app": "https://t.me/SatoshiSpritzVignola",
    "telegram_members": 74.0,
    "network": "satoshispritz",
    "poi": [
        {
            "type": "node",
            "id": 4712453648,
            "lat": 44.6418557,
            "lon": 10.9188819,
            "timestamp": "2024-01-17T14:05:05Z",
            "version": 4,
            "changeset": 146366225,
            "user": "Chiarant",
            "uid": 18452174,
            "tags": {
                "addr:city": "Modena",
                "addr:country": "IT",
                "addr:housenumber": "50",
                "addr:postcode": "41124",
                "addr:street": "Via Carlo Sigonio",
                "addr:suburb": "San Faustino- Madonnina- Quattro Ville",
                "check_date": "2024-01-17",
                "craft": "painter",
                "currency:XBT": "yes",
                "description": "Decorativi e Resine",
                "email": "info@rullosutela.it",
                "mobile": "+39 327 6249899",
                "name": "Rullo su tela di Soccio Nicol\u00f2",
                "opening_hours": "Mo-Sa 09:00-20:00",
                "payment:lightning": "yes",
                "payment:onchain": "yes",
                "source": "dati.emilia-romagna.it",
                "website": "https://rullosutela.it/"
            }
        },
        {
            "type": "node",
            "id": 4712458289,
            "lat": 44.6357527,
            "lon": 10.9000216,
            "timestamp": "2022-12-20T13:26:31Z",
            "version": 4,
            "changeset": 130290756,
            "user": "saunter",
            "uid": 10396321,
            "tags": {
                "addr:city": "Modena",
                "addr:country": "IT",
                "addr:housenumber": "11",
                "addr:postcode": "41126",
                "addr:street": "Strada Scaglia Est",
                "addr:suburb": "San Faustino- Madonnina- Quattro Ville",
                "amenity": "restaurant",
                "check_date": "2022-12-20",
                "contact:facebook": "https://www.facebook.com/modenaduerestaurantbar/",
                "currency:XBT": "yes",
                "name": "Modena Due Restaurant & Lounge Bar",
                "payment:onchain": "yes",
                "phone": "+393534024359",
                "source": "dati.emilia-romagna.it"
            }
        },
        {
            "type": "node",
            "id": 4712478501,
            "lat": 44.6577681,
            "lon": 10.9609136,
            "timestamp": "2023-12-17T11:38:03Z",
            "version": 12,
            "changeset": 145211507,
            "user": "Enogard96",
            "uid": 20666881,
            "tags": {
                "addr:city": "Modena",
                "addr:country": "IT",
                "addr:housenumber": "3/A",
                "addr:postcode": "41122",
                "addr:street": "Via Papa Giovanni XXIII",
                "addr:suburb": "Crocetta-San Lazzaro-Modena Est",
                "check_date": "2023-12-01",
                "check_date:currency:XBT": "2023-12-11",
                "contact:facebook": "https://www.facebook.com/litopoppi",
                "currency:XBT": "yes",
                "email": "info@litopoppi.it",
                "name": "Litotipografia Poppi",
                "opening_hours": "Mo-Fr 08:00-18:30",
                "payment:lightning": "yes",
                "payment:lightning_contactless": "no",
                "payment:onchain": "no",
                "phone": "+39059251477",
                "shop": "copyshop",
                "survey:date": "2023-12-01",
                "website": "https://www.litopoppi.it"
            }
        },
        {
            "type": "node",
            "id": 4712517944,
            "lat": 44.6469689,
            "lon": 10.925682,
            "timestamp": "2023-04-16T09:06:39Z",
            "version": 8,
            "changeset": 134966167,
            "user": "Chiarant",
            "uid": 18452174,
            "tags": {
                "addr:city": "Modena",
                "addr:country": "IT",
                "addr:housenumber": "146",
                "addr:postcode": "41121",
                "addr:street": "Via Emilia Centro",
                "addr:suburb": "Centro Storico",
                "brand": "DOPPELG\u00c4NGER",
                "check_date": "2023-04-15",
                "clothes": "men",
                "currency:XBT": "yes",
                "name": "DOPPELG\u00c4NGER",
                "phone": "0598301476",
                "shop": "clothes"
            }
        },
        {
            "type": "node",
            "id": 4762538120,
            "lat": 44.4883207,
            "lon": 11.2490912,
            "timestamp": "2023-08-26T09:29:13Z",
            "version": 4,
            "changeset": 140403055,
            "user": "Chiarant",
            "uid": 18452174,
            "tags": {
                "addr:city": "Casalecchio di Reno",
                "addr:housenumber": "2/30",
                "addr:postcode": "40033",
                "addr:street": "Via Marilyn Monroe",
                "check_date": "2023-08-26",
                "clothes": "men",
                "currency:XBT": "yes",
                "name": "Nuvolari c.c. Gran Reno",
                "phone": "0514985032",
                "shop": "clothes"
            }
        },
        {
            "type": "node",
            "id": 4769655683,
            "lat": 44.4776013,
            "lon": 11.011228,
            "timestamp": "2023-11-25T10:50:17Z",
            "version": 5,
            "changeset": 144436836,
            "user": "Chiarant",
            "uid": 18452174,
            "tags": {
                "addr:city": "Vignola",
                "addr:country": "IT",
                "addr:housenumber": "73",
                "addr:postcode": "41058",
                "addr:street": "Corso Italia",
                "check_date": "2023-11-25",
                "currency:XBT": "yes",
                "description": "Parrucchiere con prodotti Vegetali Reali e Italiani (NATURALMENTE-ARTEC), Salone Ecosostenibile.",
                "name": "Bio - Relax Parrucchieri",
                "payment:lightning": "yes",
                "payment:lightning_contactless": "yes",
                "payment:onchain": "yes",
                "phone": "+393450702938",
                "shop": "hairdresser",
                "survey:date": "2023-06-25",
                "unisex": "yes"
            }
        },
        {
            "type": "node",
            "id": 4769656820,
            "lat": 44.4940189,
            "lon": 11.0197123,
            "timestamp": "2023-11-25T10:52:05Z",
            "version": 9,
            "changeset": 144436871,
            "user": "Chiarant",
            "uid": 18452174,
            "tags": {
                "addr:city": "Vignola",
                "addr:housenumber": "166",
                "addr:postcode": "41058",
                "addr:street": "Via Natale Bruni",
                "amenity": "ice_cream",
                "check_date:currency:XBT": "2023-11-25",
                "currency:XBT": "yes",
                "name": "Gelateria L'Artigiano",
                "opening_hours": "Tu-Su 14:30-21:00",
                "payment:lightning": "yes",
                "payment:lightning_contactless": "yes",
                "payment:onchain": "yes",
                "phone": "+39 3501509361",
                "website": "https://www.instagram.com/l.artigianodeisapori/?hl=it"
            }
        },
        {
            "type": "node",
            "id": 6475072552,
            "lat": 44.640859,
            "lon": 10.91307,
            "timestamp": "2023-11-09T15:25:38Z",
            "version": 4,
            "changeset": 143827529,
            "user": "b-jazz-bot",
            "uid": 9451067,
            "tags": {
                "addr:city": "Modena",
                "addr:housenumber": "219",
                "addr:postcode": "41124",
                "addr:street": "Via Pietro Giardini",
                "check_date:currency:XBT": "2023-02-17",
                "currency:XBT": "yes",
                "description": "Affitto uffici arredati, sale riunioni, spazi condivisi.",
                "email": "info@modenacoworking.it",
                "name": "Modena Coworking",
                "office": "coworking_space",
                "phone": "+39 3356674607",
                "website": "https://www.modenacoworking.it/"
            }
        },
        {
            "type": "node",
            "id": 11073966560,
            "lat": 44.5456299,
            "lon": 10.786363,
            "timestamp": "2023-12-18T03:19:08Z",
            "version": 2,
            "changeset": 145235179,
            "user": "Rockedf",
            "uid": 7522075,
            "tags": {
                "addr:city": "Sassuolo",
                "addr:housenumber": "19",
                "addr:postcode": "41049",
                "addr:street": "Via Tien An Men",
                "check_date": "2023-07-28",
                "check_date:currency:XBT": "2023-07-28",
                "contact:email": "blackmoodsrl@gmail.com",
                "currency:XBT": "yes",
                "name": "Black mood Parrucchieri",
                "payment:lightning": "yes",
                "payment:lightning_contactless": "no",
                "payment:onchain": "yes",
                "phone": "0536 1754485",
                "shop": "hairdresser",
                "website": "https://www.blackmoodparrucchieri.it/"
            }
        }
    ]
}