{
    "id": "ss-vicenza",
    "name": "Satoshi Spritz Vicenza",
    "lng": 45.54749699,
    "lat": 11.54597109,
    "localita": "Vicenza",
    "telegram_app": "https://t.me/SatoshiSpritzVicenza",
    "telegram_members": 128.0,
    "network": "satoshispritz",
    "poi": [
        {
            "type": "node",
            "id": 4526469787,
            "lat": 45.5572776,
            "lon": 11.5274867,
            "timestamp": "2023-11-21T18:26:49Z",
            "version": 2,
            "changeset": 144298563,
            "user": "Chiarant",
            "uid": 18452174,
            "tags": {
                "addr:city": "Vicenza",
                "addr:country": "IT",
                "addr:housenumber": "282",
                "addr:postcode": "36100",
                "addr:street": "Viale Trento",
                "check_date": "2023-11-21",
                "contact:facebook": "https://www.facebook.com/metodogommesnc/",
                "currency:XBT": "yes",
                "email": "metodogomme@gmail.com",
                "name": "Metodo Gomme",
                "phone": "+39 328 093 1955",
                "shop": "tyres"
            }
        },
        {
            "type": "node",
            "id": 5720390522,
            "lat": 45.5493197,
            "lon": 11.5335038,
            "timestamp": "2024-03-09T10:43:35Z",
            "version": 4,
            "changeset": 148416311,
            "user": "_Andrea_",
            "uid": 1462614,
            "tags": {
                "addr:city": "Vicenza",
                "addr:housenumber": "10",
                "addr:postcode": "36100",
                "addr:street": "Viale Battaglione Framarin",
                "amenity": "bar",
                "currency:XBT": "yes",
                "name": "Eclisse Bar",
                "payment:lightning": "yes",
                "payment:lightning_contactless": "no",
                "payment:onchain": "yes",
                "phone": "+39 0444 321896",
                "survey:date": "2023-06-08"
            }
        },
        {
            "type": "node",
            "id": 5779529274,
            "lat": 45.535792,
            "lon": 11.513533,
            "timestamp": "2023-11-10T02:39:34Z",
            "version": 3,
            "changeset": 143844917,
            "user": "b-jazz-bot",
            "uid": 9451067,
            "tags": {
                "addr:city": "Vicenza",
                "addr:housenumber": "12",
                "addr:postcode": "36100",
                "addr:street": "Via Benedetto Marcello",
                "check_date": "2023-05-15",
                "currency:XBT": "yes",
                "description": "Realizziamo internamente insegne, totem, decorazioni automezzi, marketing digitale e tanto altro ancora. Siamo sul territorio dal 1947 e aiutiamo i nostri clienti a sviluppare la loro immagine.",
                "email": "massimo@leodari.com",
                "name": "Leodari Pubblicit\u00e0 s.r.l.",
                "office": "advertising_agency",
                "phone": "+39 0444962233",
                "website": "https://leodari.com/"
            }
        },
        {
            "type": "node",
            "id": 10273203685,
            "lat": 45.6324007,
            "lon": 11.5671468,
            "timestamp": "2023-04-05T05:42:59Z",
            "version": 3,
            "changeset": 134522041,
            "user": "AndreaDFC",
            "uid": 172782,
            "tags": {
                "addr:housenumber": "35a",
                "addr:postcode": "36030",
                "addr:street": "Via Divisione Julia",
                "check_date": "2022-12-19",
                "craft": "electrician",
                "currency:XBT": "yes",
                "name": "Impianti Elettrici Parise",
                "payment:lightning": "yes",
                "payment:onchain": "yes",
                "phone": "+393391741073",
                "website": "https://www.impiantielettriciparise.com/impianti-elettrici-parise-passione-e-professionalita-a-vicenz/"
            }
        },
        {
            "type": "node",
            "id": 11532581746,
            "lat": 45.6632479,
            "lon": 11.4029481,
            "timestamp": "2024-05-13T22:10:25Z",
            "version": 3,
            "changeset": 151287561,
            "user": "Legalbitcoin",
            "uid": 21205303,
            "tags": {
                "addr:city": "Malo",
                "addr:housenumber": "9",
                "addr:postcode": "36034",
                "addr:street": "Via Mazzini",
                "check_date": "2024-01-20",
                "currency:XBT": "yes",
                "email": "info@legalbitcoin.it",
                "name": "Legalbitcoin",
                "note": "Consulenza e installazione pagamenti Bitcoin in bar, ristoranti e negozi.Consulenza successione ereditaria Bitcoin.",
                "office": "consulting",
                "payment:lightning": "yes",
                "payment:lightning_contactless": "yes",
                "payment:onchain": "yes",
                "phone": "04451716081",
                "website": "https://legalbitcoin.it/"
            }
        },
        {
            "type": "node",
            "id": 11739288103,
            "lat": 45.5749982,
            "lon": 11.5445911,
            "timestamp": "2024-03-17T23:30:55Z",
            "version": 2,
            "changeset": 148793917,
            "user": "Legalbitcoin",
            "uid": 21205303,
            "tags": {
                "addr:city": "Vicenza",
                "addr:housenumber": "129",
                "addr:postcode": "36100",
                "addr:street": "Via dei Laghi",
                "check_date": "2024-03-17",
                "currency:XBT": "yes",
                "description": "Vendita prodotti JUST. Contattami su WhatsApp, sarai ricontattato appena possibile.",
                "name": "Guoli Patrizia- Prodotti JUST",
                "payment:lightning": "yes",
                "payment:lightning_contactless": "yes",
                "payment:onchain": "yes",
                "phone": "+39 340 693 9814 (solo WhatsApp)",
                "shop": "cosmetics"
            }
        },
        {
            "type": "node",
            "id": 11749080606,
            "lat": 45.6402384,
            "lon": 11.3730009,
            "timestamp": "2024-03-20T22:24:08Z",
            "version": 1,
            "changeset": 148936397,
            "user": "Rockedf",
            "uid": 7522075,
            "tags": {
                "addr:city": "Monte di Malo (VI)",
                "addr:housenumber": "3",
                "addr:postcode": "36030",
                "addr:street": "Via San Giorgio",
                "check_date": "2024-03-20",
                "contact:facebook": "https://www.facebook.com/sabrina.crystalglassart",
                "contact:instagram": "https://www.instagram.com/golinsabrina/",
                "currency:XBT": "yes",
                "name": "Sabrina Golin Art",
                "opening_hours": "Mo-Fr 08:00-12:00,14:00-20:00",
                "payment:lightning": "yes",
                "payment:lightning_contactless": "yes",
                "payment:onchain": "yes",
                "tourism": "gallery",
                "website": "https://www.sabrinacrystal.it/"
            }
        },
        {
            "type": "node",
            "id": 11902287309,
            "lat": 45.6684186,
            "lon": 11.395146,
            "timestamp": "2024-05-14T13:17:41Z",
            "version": 5,
            "changeset": 151313270,
            "user": "Legalbitcoin",
            "uid": 21205303,
            "tags": {
                "addr:city": "Malo",
                "addr:housenumber": "26",
                "addr:postcode": "36034",
                "addr:street": "Via VIII Marzo",
                "contact:email": "info@saloneniko.it",
                "contact:facebook": "https://www.facebook.com/saloneniko.malo",
                "contact:instagram": "https://www.instagram.com/saloneniko/",
                "currency:XBT": "yes",
                "name": "SALONE NIKO",
                "note": "Taglio, Tecniche del colore, Permanente e stiratura, Asciugatura, Acconciatura, extension. E' gradito l'appuntamento",
                "payment:lightning": "yes",
                "payment:lightning_contactless": "yes",
                "payment:onchain": "no",
                "phone": "+39 0445 602518",
                "shop": "hairdresser",
                "survey:date": "2024-05-11",
                "website": "https://saloneniko.it/"
            }
        },
        {
            "type": "node",
            "id": 11975303381,
            "lat": 45.4030901,
            "lon": 11.691016,
            "timestamp": "2024-06-12T12:30:05Z",
            "version": 1,
            "changeset": 152585259,
            "user": "Chiarant",
            "uid": 18452174,
            "tags": {
                "addr:city": "Fossona",
                "addr:housenumber": "148",
                "addr:postcode": "35030",
                "addr:street": "Via Roma",
                "check_date": "2024-06-12",
                "currency:XBT": "yes",
                "email": "gioielli@lineagem.it",
                "name": "Lineagem S.p.A.",
                "shop": "jewelry",
                "website": "https://www.lineagem.it/"
            }
        }
    ]
}