{
    "id": "ss-verona",
    "name": "Satoshi Spritz Verona",
    "lng": 45.43839046,
    "lat": 10.99352685,
    "localita": "Verona",
    "idlocalita": "verona",
    "telegram_weburl": "https://web.telegram.org/a/#-1001646846497",
    "telegram_app": "https://t.me/SatoshiSpritzVerona",
    "telegram_members": 134.0,
    "network": "satoshispritz",
    "poi": [
        {
            "type": "node",
            "id": 249640918,
            "lat": 45.4474223,
            "lon": 10.8772871,
            "timestamp": "2024-12-31T17:18:14Z",
            "version": 13,
            "changeset": 160842111,
            "user": "mpbin",
            "uid": 21850090,
            "tags": {
                "addr:city": "Bussolengo",
                "addr:housenumber": "43",
                "addr:postcode": "37012",
                "addr:street": "Via del Lavoro",
                "brand": "Unieuro",
                "brand:wikidata": "Q4004687",
                "brand:wikipedia": "en:Unieuro",
                "check_date": "2024-11-24",
                "name": "Unieuro",
                "opening_hours": "Mo-Su 09:00-19:00",
                "operator": "Unieuro S.p.A.",
                "phone": "+39 045 6767026",
                "shop": "electronics"
            }
        },
        {
            "type": "node",
            "id": 417856704,
            "lat": 45.8751426,
            "lon": 11.0335673,
            "timestamp": "2024-07-10T19:39:42Z",
            "version": 5,
            "changeset": 153798421,
            "user": "mauropili",
            "uid": 1496865,
            "tags": {
                "addr:city": "Rovereto",
                "addr:housenumber": "76",
                "addr:postcode": "38068",
                "addr:street": "Corso Verona",
                "amenity": "restaurant",
                "check_date:currency:XBT": "2024-03-24",
                "contact:facebook": "https://www.facebook.com/profile.php?id=100063761882346",
                "cuisine": "pizza",
                "currency:XBT": "yes",
                "name": "Pizzeria Botti",
                "opening_hours": "Tu-Su 08:30-23:30",
                "payment:XBT:operator": "bitcoinpos.it",
                "payment:lightning": "yes",
                "phone": "0464 432521",
                "website": "https://www.pizzeriabotti.it/",
                "wheelchair": "yes"
            }
        },
        {
            "type": "node",
            "id": 1119292972,
            "lat": 45.7101621,
            "lon": 11.3701638,
            "timestamp": "2025-01-01T22:32:03Z",
            "version": 4,
            "changeset": 160887580,
            "user": "mpbin",
            "uid": 21850090,
            "tags": {
                "addr:city": "Schio",
                "addr:housenumber": "42",
                "addr:postcode": "36015",
                "addr:street": "Via Paraiso",
                "brand": "Trony",
                "brand:wikidata": "Q3999692",
                "email": "schio@trony.it",
                "fax": "+39 0445 670979",
                "name": "Trony",
                "opening_hours": "Mo 15:00-19:30; Tu-Sa 09:00-12:30,15:00-19:30",
                "operator": "Trony",
                "payment:cards": "yes",
                "payment:cash": "yes",
                "phone": "+39 0445 670963",
                "shop": "electronics",
                "website": "https://www.trony.it/online",
                "wheelchair": "yes"
            }
        },
        {
            "type": "node",
            "id": 1374813273,
            "lat": 45.884284,
            "lon": 11.0686961,
            "timestamp": "2024-02-04T12:00:18Z",
            "version": 3,
            "changeset": 147050888,
            "user": "mueschel",
            "uid": 616774,
            "tags": {
                "addr:city": "Rovereto",
                "addr:housenumber": "27",
                "addr:postcode": "38068",
                "addr:street": "Via Fontani",
                "alt_name": "Bar Circolo ENAL",
                "amenity": "bar",
                "check_date:currency:XBT": "2024-01-31",
                "currency:XBT": "yes",
                "currency:XBT:discount": "10%",
                "name": "Circolo ENAL",
                "payment:XBT:operator": "bitcoinpos.it",
                "payment:lightning": "yes",
                "payment:lightning_contactless": "no",
                "payment:onchain": "no"
            }
        },
        {
            "type": "node",
            "id": 1452300520,
            "lat": 45.5291826,
            "lon": 11.5952608,
            "timestamp": "2025-01-03T17:17:39Z",
            "version": 12,
            "changeset": 160958548,
            "user": "mpbin",
            "uid": 21850090,
            "tags": {
                "addr:housenumber": "60",
                "addr:street": "Strada Padana verso Padova",
                "name": "MediaWorld",
                "opening_hours": "Mo-Sa 09:00-21:00; Su 09:30-20:30",
                "operator": "MediaMarket S.p.A.",
                "phone": "+390444-9161",
                "shop": "electronics"
            }
        },
        {
            "type": "node",
            "id": 1452373305,
            "lat": 45.4394324,
            "lon": 11.0041704,
            "timestamp": "2024-06-28T22:19:44Z",
            "version": 12,
            "changeset": 153312411,
            "user": "Rockedf",
            "uid": 7522075,
            "tags": {
                "addr:city": "Verona",
                "addr:housenumber": "6a",
                "addr:postcode": "37129",
                "addr:street": "Via San Vitale",
                "amenity": "restaurant",
                "check_date:currency:XBT": "2024-06-28",
                "contact:facebook": "https://www.facebook.com/osteriascalin/",
                "currency:XBT": "yes",
                "email": "osteria@scalin.it",
                "name": "Osteria Scalin",
                "payment:lightning": "yes",
                "payment:onchain": "no",
                "phone": "+39 045 2376356",
                "website": "https://www.osteriascalin.it/"
            }
        },
        {
            "type": "node",
            "id": 1663470010,
            "lat": 45.4483983,
            "lon": 10.8791177,
            "timestamp": "2022-03-02T19:35:28Z",
            "version": 5,
            "changeset": 118031469,
            "user": "Patrick Bous",
            "uid": 223763,
            "tags": {
                "addr:city": "Bussolengo",
                "addr:housenumber": "11",
                "addr:postcode": "37012",
                "addr:street": "Localit\u00e0 Ferlina",
                "brand": "Conad",
                "brand:wikidata": "Q639075",
                "brand:wikipedia": "it:Conad",
                "name": "Conad",
                "opening_hours": "Mo-Sa 08:30-21:00; Su 08:30-20:00",
                "operator": "Conad",
                "payment:bancomat": "yes",
                "payment:cash": "yes",
                "payment:credit_cards": "yes",
                "phone": "+39 045 6715111",
                "shop": "supermarket",
                "website": "https://www.conad.it/ricerca-negozi/negozio.009945.html"
            }
        },
        {
            "type": "node",
            "id": 1814218229,
            "lat": 45.5116142,
            "lon": 10.4047716,
            "timestamp": "2025-01-02T21:11:02Z",
            "version": 14,
            "changeset": 160926344,
            "user": "demon_box",
            "uid": 350864,
            "tags": {
                "addr:city": "Bedizzole",
                "addr:housenumber": "17/b",
                "addr:postcode": "25081",
                "addr:street": "Via Giuseppe Garibaldi",
                "amenity": "fuel",
                "brand": "Eni",
                "brand:wikidata": "Q565594",
                "check_date": "2024-04-10",
                "contact:website": "https://www.facebook.com/distributorepasquato/",
                "currency:XBT": "yes",
                "name": "Distributore Carburanti AGIP",
                "operator": "Pasquato Faustino",
                "payment:bitcoin:operator": "inbitcoin.it",
                "ref:mise": "8064"
            }
        },
        {
            "type": "node",
            "id": 1856864115,
            "lat": 45.4407586,
            "lon": 10.9992299,
            "timestamp": "2024-12-31T18:03:19Z",
            "version": 12,
            "changeset": 160843650,
            "user": "mpbin",
            "uid": 21850090,
            "tags": {
                "addr:city": "Verona",
                "addr:housenumber": "34",
                "addr:postcode": "37121",
                "addr:street": "Via Cappello",
                "brand": "Unieuro",
                "brand:wikidata": "Q4004687",
                "check_date": "2024-09-09",
                "name": "Unieuro",
                "opening_hours": "Mo-Sa 09:30-19:30, Su 10:30-19:30",
                "operator": "Unieuro S.p.A.",
                "shop": "electronics",
                "wheelchair": "yes"
            }
        },
        {
            "type": "node",
            "id": 1938540695,
            "lat": 45.2275755,
            "lon": 11.5234776,
            "timestamp": "2024-12-31T18:05:18Z",
            "version": 6,
            "changeset": 160843704,
            "user": "mpbin",
            "uid": 21850090,
            "tags": {
                "addr:city": "Borgo Veneto",
                "addr:country": "IT",
                "addr:housename": "Centro Commerciale Megliadino",
                "addr:postcode": "35040",
                "addr:street": "Via Vallesella",
                "brand": "Unieuro",
                "brand:wikidata": "Q4004687",
                "brand:wikipedia": "en:Unieuro",
                "name": "Unieuro",
                "operator": "Unieuro S.p.A.",
                "shop": "electronics",
                "wheelchair": "yes"
            }
        },
        {
            "type": "node",
            "id": 2077262143,
            "lat": 45.6950503,
            "lon": 11.4973037,
            "timestamp": "2025-01-03T09:19:00Z",
            "version": 6,
            "changeset": 160939445,
            "user": "mpbin",
            "uid": 21850090,
            "tags": {
                "addr:city": "Thiene",
                "addr:country": "IT",
                "addr:postcode": "36016",
                "addr:street": "Via dei Quartieri",
                "brand": "Decathlon",
                "brand:wikidata": "Q509349",
                "name": "Decathlon",
                "opening_hours": "Mo-Su 09:00-20:00",
                "operator": "Decathlon",
                "phone": "+39 0445370730",
                "shop": "sports"
            }
        },
        {
            "type": "node",
            "id": 2110552737,
            "lat": 45.6907277,
            "lon": 11.4824478,
            "timestamp": "2024-12-31T18:11:08Z",
            "version": 3,
            "changeset": 160843872,
            "user": "mpbin",
            "uid": 21850090,
            "tags": {
                "addr:city": "Thiene",
                "addr:housenumber": "18",
                "addr:postcode": "36016",
                "addr:street": "Via Gombe",
                "brand": "Unieuro",
                "brand:wikidata": "Q4004687",
                "name": "Unieuro",
                "opening_hours": "Mo-Sa 09:30-12:30,15:00-19:30; Su 15:30-19:30",
                "operator": "Unieuro S.p.A.",
                "phone": "+39 0445 367611",
                "shop": "electronics"
            }
        },
        {
            "type": "node",
            "id": 2150998976,
            "lat": 45.8754508,
            "lon": 11.0332189,
            "timestamp": "2024-03-16T23:19:06Z",
            "version": 8,
            "changeset": 148753551,
            "user": "loop_btc",
            "uid": 20522504,
            "tags": {
                "addr:city": "Rovereto",
                "addr:country": "IT",
                "addr:housenumber": "17",
                "addr:postcode": "38068",
                "addr:street": "Piazza Sant'Antonio",
                "amenity": "pub",
                "brewery": "various",
                "check_date": "2024-03-17",
                "check_date:currency:XBT": "2024-03-17",
                "contact:phone": "+39 0464 437724",
                "currency:XBT": "yes",
                "currency:XBT:discount": "10%",
                "name": "Il Druido",
                "operator": "Angheben Ivan",
                "payment:XBT:operator": "bitcoinpos.it",
                "payment:lightning": "yes",
                "ref:vatin": "IT02433800220",
                "wheelchair": "yes",
                "wifi": "no"
            }
        },
        {
            "type": "node",
            "id": 2507632569,
            "lat": 45.7582135,
            "lon": 11.4185566,
            "timestamp": "2024-12-02T14:46:46Z",
            "version": 10,
            "changeset": 159846219,
            "user": "Chiarant",
            "uid": 18452174,
            "tags": {
                "addr:city": "Piovene Rocchette (VI)",
                "addr:postcode": "36013",
                "addr:street": "Via dell'Angelo, 105",
                "amenity": "restaurant",
                "contact:email": "info@trattoria-allangelo.it",
                "contact:instagram": "https://www.instagram.com/maurocanaglia/",
                "currency:XBT": "yes",
                "description": "Aperto dal Mercoled\u00ec al Sabato per cena; Domenica a pranzo. Orari aggiornati su google maps.",
                "diet:lactose_free": "yes",
                "diet:local": "yes",
                "diet:meat": "yes",
                "diet:natural_foods": "yes",
                "diet:vegan": "yes",
                "diet:vegetarian": "yes",
                "name": "Trattoria All'Angelo",
                "payment:lightning": "yes",
                "payment:lightning_contactless": "no",
                "payment:onchain": "no",
                "phone": "0445 651181",
                "survey:date": "2024-11-22",
                "website": "https://www.trattoria-allangelo.it"
            }
        },
        {
            "type": "node",
            "id": 2543253465,
            "lat": 45.5228475,
            "lon": 11.4843006,
            "timestamp": "2025-01-03T16:01:20Z",
            "version": 4,
            "changeset": 160955569,
            "user": "mpbin",
            "uid": 21850090,
            "tags": {
                "addr:city": "Olmo Di Creazzo",
                "addr:housenumber": "1",
                "addr:postcode": "36051",
                "addr:street": "Via Cristoforo Colombo",
                "brand": "OVS",
                "brand:wikidata": "Q2042514",
                "name": "OVS",
                "operator": "OVS",
                "shop": "clothes",
                "wheelchair": "limited"
            }
        },
        {
            "type": "node",
            "id": 2872848040,
            "lat": 45.8777732,
            "lon": 10.8908323,
            "timestamp": "2024-02-06T05:23:27Z",
            "version": 10,
            "changeset": 147118892,
            "user": "Igor Bubelov",
            "uid": 2104834,
            "tags": {
                "addr:city": "Nago-Torbole",
                "addr:housenumber": "82",
                "addr:postcode": "38069",
                "addr:street": "Via San Vigilio",
                "check_date:currency:XBT": "2023-08-08",
                "currency:EUR": "yes",
                "currency:XBT": "yes",
                "email": "conadnago@gmail.com",
                "name": "Margherita Conad",
                "opening_hours": "Mo-Sa 08:00-12:30,16:00-19:30; Su 08:00-12:30",
                "payment:bitcoin:operator": "inbitcoin.it",
                "payment:lightning": "yes",
                "payment:onchain": "yes",
                "phone": "+390464506218",
                "shop": "supermarket"
            }
        },
        {
            "type": "node",
            "id": 2953791022,
            "lat": 45.5471295,
            "lon": 11.5434047,
            "timestamp": "2024-12-11T19:17:04Z",
            "version": 5,
            "changeset": 160181693,
            "user": "Rockedf",
            "uid": 7522075,
            "tags": {
                "addr:city": "Vicenza",
                "addr:country": "IT",
                "addr:housenumber": "19",
                "addr:postcode": "36100",
                "addr:street": "Galleria del Pozzo Rosso",
                "amenity": "bar",
                "check_date": "2024-12-11",
                "contact:facebook": "https://www.facebook.com/BarItaliaVicenza?filter=1",
                "currency:XBT": "yes",
                "name": "Bar Italia",
                "payment:lightning": "yes",
                "payment:lightning_contactless": "yes",
                "payment:onchain": "no",
                "phone": "+39 04 4432 1985"
            }
        },
        {
            "type": "node",
            "id": 3426375455,
            "lat": 45.3513948,
            "lon": 10.8437159,
            "timestamp": "2025-01-03T16:11:36Z",
            "version": 4,
            "changeset": 160956016,
            "user": "mpbin",
            "uid": 21850090,
            "tags": {
                "addr:city": "Villafranca di Verona",
                "addr:housenumber": "139",
                "addr:postcode": "37069",
                "addr:street": "Corso Vittorio Emanuele II",
                "brand": "OVS",
                "brand:wikidata": "Q2042514",
                "name": "OVS",
                "operator": "OVS",
                "shop": "clothes"
            }
        },
        {
            "type": "node",
            "id": 3797820139,
            "lat": 45.2289045,
            "lon": 11.4748883,
            "timestamp": "2025-01-02T21:28:49Z",
            "version": 3,
            "changeset": 160926929,
            "user": "mpbin",
            "uid": 21850090,
            "tags": {
                "addr:city": "Montagnana",
                "addr:housenumber": "2",
                "addr:postcode": "35044",
                "addr:street": "Via San Zeno",
                "brand": "Trony",
                "brand:wikidata": "Q3999692",
                "name": "Trony",
                "operator": "Trony",
                "shop": "electronics"
            }
        },
        {
            "type": "node",
            "id": 4167605289,
            "lat": 45.293148,
            "lon": 10.4769651,
            "timestamp": "2016-05-07T15:05:00Z",
            "version": 3,
            "changeset": 39165713,
            "user": "Alecs01",
            "uid": 1476146,
            "tags": {
                "addr:city": "Castel Goffredo",
                "addr:housenumber": "66",
                "addr:street": "Via Guerzoni",
                "name": "Conad",
                "operator": "CONAD Soc. Coop.",
                "shop": "supermarket"
            }
        },
        {
            "type": "node",
            "id": 4174239094,
            "lat": 45.4628807,
            "lon": 10.5264444,
            "timestamp": "2025-01-02T21:54:16Z",
            "version": 3,
            "changeset": 160927634,
            "user": "demon_box",
            "uid": 350864,
            "tags": {
                "addr:city": "Desenzano del Garda",
                "addr:postcode": "25015",
                "addr:street": "Viale Guglielmo Marconi",
                "contact:phone": "+39 030 9121833",
                "name": "Trony",
                "operator": "Trony",
                "shop": "electronics"
            }
        },
        {
            "type": "node",
            "id": 4184398491,
            "lat": 45.5153935,
            "lon": 10.5213204,
            "timestamp": "2025-01-03T14:06:17Z",
            "version": 5,
            "changeset": 160950740,
            "user": "mpbin",
            "uid": 21850090,
            "tags": {
                "addr:city": "Padenghe",
                "addr:housenumber": "85",
                "addr:postcode": "25080",
                "addr:street": "Via Antonio Meucci",
                "brand": "OVS",
                "brand:wikidata": "Q2042514",
                "name": "OVS",
                "opening_hours": "Mo-Su 09:00-20:00",
                "operator": "OVS",
                "shop": "clothes"
            }
        },
        {
            "type": "node",
            "id": 4380707477,
            "lat": 45.3909793,
            "lon": 10.9033504,
            "timestamp": "2025-01-03T09:46:26Z",
            "version": 4,
            "changeset": 160940270,
            "user": "mpbin",
            "uid": 21850090,
            "tags": {
                "addr:city": "Dossobuono",
                "addr:country": "IT",
                "addr:postcode": "37062",
                "addr:street": "Via Borgo Bello",
                "brand": "Decathlon",
                "brand:wikidata": "Q509349",
                "brand:wikipedia": "en:Decathlon (retailer)",
                "name": "Decathlon",
                "opening_hours": "Mo-Su 09:00-20:00",
                "operator": "Decathlon",
                "phone": "+39 045 8601217",
                "shop": "sports",
                "wheelchair": "yes"
            }
        },
        {
            "type": "node",
            "id": 4526469787,
            "lat": 45.5572776,
            "lon": 11.5274867,
            "timestamp": "2023-11-21T18:26:49Z",
            "version": 2,
            "changeset": 144298563,
            "user": "Chiarant",
            "uid": 18452174,
            "tags": {
                "addr:city": "Vicenza",
                "addr:country": "IT",
                "addr:housenumber": "282",
                "addr:postcode": "36100",
                "addr:street": "Viale Trento",
                "check_date": "2023-11-21",
                "contact:facebook": "https://www.facebook.com/metodogommesnc/",
                "currency:XBT": "yes",
                "email": "metodogomme@gmail.com",
                "name": "Metodo Gomme",
                "phone": "+39 328 093 1955",
                "shop": "tyres"
            }
        },
        {
            "type": "node",
            "id": 4526474586,
            "lat": 45.537429,
            "lon": 11.5151857,
            "timestamp": "2024-12-06T19:20:17Z",
            "version": 5,
            "changeset": 160006493,
            "user": "PagoInBitcoin",
            "uid": 22211788,
            "tags": {
                "addr:city": "Vicenza",
                "addr:country": "IT",
                "addr:housenumber": "175",
                "addr:postcode": "36100",
                "addr:street": "Viale San Lazzaro",
                "check_date": "2024-11-20",
                "contact:facebook": "https://www.facebook.com/Speranza-Tatuaggi-1444361909122602/",
                "contact:instagram": "https://www.instagram.com/speranzatatuaggi/?hl=it",
                "contact:website": "https://speranzatatuaggi.it/",
                "currency:XBT": "yes",
                "description": "Tattoo and Piercing",
                "name": "Speranza Tatuaggi",
                "payment:lightning": "yes",
                "payment:lightning_contactless": "yes",
                "payment:onchain": "yes",
                "phone": "+39 34 0566 2904",
                "shop": "tattoo"
            }
        },
        {
            "type": "node",
            "id": 4526600463,
            "lat": 45.568995,
            "lon": 11.5710601,
            "timestamp": "2024-12-03T17:28:50Z",
            "version": 8,
            "changeset": 159890591,
            "user": "Rockedf",
            "uid": 7522075,
            "tags": {
                "addr:city": "VICENZA (VI)",
                "addr:postcode": "36100",
                "addr:street": "Viale Anconetta, 134",
                "check_date:currency:XBT": "2024-12-03",
                "contact:email": "info@acquatecnicasrl.it",
                "contact:facebook": "https://www.facebook.com/AcquaTecnicaSrl",
                "contact:instagram": "https://www.instagram.com/acquatecnica.srl",
                "contact:linkedin": "https://it.linkedin.com/company/acqua-tecnica-srl",
                "contact:whatsapp": "0445 651181",
                "currency:XBT": "yes",
                "description": "Il nostro intento \u00e8 il corretto ed etico trattamento dell\u2019acqua, per infondere tranquillit\u00e0 ed elevare lo stato di benessere delle persone.\n\nSiamo aperti al Mattino dal Lun al Ven 8.30 12.30 - il Pomeriggio 14.30 18.30 (Lun, Mer, e Ven)",
                "name": "ACQUA TECNICA",
                "payment:lightning": "yes",
                "payment:lightning_contactless": "yes",
                "payment:onchain": "yes",
                "phone": "0445 651181",
                "shop": "water_filter",
                "website": "https://www.acquatecnicasrl.it/"
            }
        },
        {
            "type": "node",
            "id": 4553697792,
            "lat": 45.4378688,
            "lon": 10.9958258,
            "timestamp": "2024-07-15T19:44:39Z",
            "version": 4,
            "changeset": 153987400,
            "user": "Rockedf",
            "uid": 7522075,
            "tags": {
                "addr:city": "Verona",
                "addr:country": "IT",
                "addr:housenumber": "7",
                "addr:postcode": "37121",
                "addr:street": "Via Orti Manara",
                "check_date:currency:XBT": "2024-07-15",
                "currency:XBT": "yes",
                "description": "Dottori Commercialisti & Revisori legali",
                "name": "Studio Marchiori STP",
                "office": "accountant",
                "website": "https://www.studiomarchiori.com/"
            }
        },
        {
            "type": "node",
            "id": 4553774993,
            "lat": 45.4417537,
            "lon": 10.9988003,
            "timestamp": "2023-11-08T18:03:05Z",
            "version": 4,
            "changeset": 143792303,
            "user": "mascalzone67",
            "uid": 1861652,
            "tags": {
                "addr:city": "Verona",
                "addr:country": "IT",
                "addr:housenumber": "8",
                "addr:street": "Via Stella",
                "brand": "Conad",
                "brand:wikidata": "Q639075",
                "description": "TuDay Conad, store senza casse a Verona. \u00c8 il primo supermercato con casse automatizzate e pagamenti digitali.",
                "name": "Conad",
                "opening_hours": "Mo-Su 07:30-22:00",
                "operator": "Conad",
                "payment:bancomat": "yes",
                "payment:credit_cards": "yes",
                "payment:smartphone": "yes",
                "shop": "supermarket",
                "source": "https://www.gdonews.it/2023/11/08/lai-rivoluziona-la-spesa-di-prossimita-a-verona-apre-il-primo-tuday-conad-prendivai/",
                "start_date": "2023-11-08",
                "website": "https://www.conad.it/ricerca-negozi/tuday-conad-via-stella-8-37131-verona--010521"
            }
        },
        {
            "type": "node",
            "id": 4708098609,
            "lat": 45.3905714,
            "lon": 10.9030042,
            "timestamp": "2024-04-06T04:35:19Z",
            "version": 2,
            "changeset": 149639323,
            "user": "dvdzero",
            "uid": 351361,
            "tags": {
                "amenity": "bicycle_repair_station",
                "brand": "Btwin",
                "check_date:service:bicycle:pump": "2024-04-06",
                "fee": "no",
                "name": "Self Repair Station",
                "opening_hours": "09:00-21:00",
                "operator": "Decathlon",
                "service:bicycle:pump": "yes",
                "service:bicycle:repair": "yes"
            }
        },
        {
            "type": "node",
            "id": 4855618125,
            "lat": 45.4604358,
            "lon": 10.5677196,
            "timestamp": "2025-01-02T16:46:35Z",
            "version": 8,
            "changeset": 160916701,
            "user": "demon_box",
            "uid": 350864,
            "tags": {
                "addr:city": "Desenzano del Garda",
                "addr:housenumber": "44",
                "addr:postcode": "25015",
                "addr:street": "Via Parrocchiale",
                "amenity": "restaurant",
                "check_date": "2023-12-29",
                "contact:email": "info@bruschetterianose.it",
                "contact:facebook": "https://www.facebook.com/bruschetterianose/",
                "contact:instagram": "https://www.instagram.com/bruschetterianose/",
                "contact:phone": "+393896946385",
                "contact:website": "https://www.bruschetterianose.it/",
                "currency:XBT": "yes",
                "description": "Nasce nel marzo 2015 con l\u2019obiettivo di rendere la bruschetta la vera e propria protagonista. Nel corso degli anni siamo cresciuti, imparando diverse tecniche e lavorazioni. Oggi utilizziamo il nostro pane a lievitazione naturale e prodotti ricercati.",
                "name": "Bruschetteria Nose",
                "toilets:wheelchair": "yes",
                "wheelchair": "yes",
                "wheelchair:description": "Es gibt Sitzpl\u00e4tze vor der Bruschetteria, in den Gastraum f\u00fchrt eine Edelstahlrampe. Tische und St\u00fchle sind teilweise eng gestellt. Zur einzigen ( Rollstuhlgerechten ) Toilette f\u00fchrt eine Schiebet\u00fcr."
            }
        },
        {
            "type": "node",
            "id": 5293931269,
            "lat": 45.4062408,
            "lon": 11.2465163,
            "timestamp": "2023-07-18T21:56:41Z",
            "version": 5,
            "changeset": 138689341,
            "user": "saunter",
            "uid": 10396321,
            "tags": {
                "addr:city": "San Bonifacio",
                "addr:housenumber": "18",
                "addr:postcode": "37047",
                "addr:street": "Via Villabella",
                "check_date:currency:XBT": "2023-07-18",
                "currency:XBT": "yes",
                "description": "I principali ambiti di intervento dello studio sono individuabili nell\u2019area delle materie aziendali, contrattuali, societarie e fiscali, con particolare specializzazione nella gestione ed amministrazione delle piccole e medie imprese.",
                "email": "info@studiopacepartners.it",
                "name": "Studio Pace & Partners",
                "note": "Dottori Commercialisti, Consulenti del Lavoro, Legale e Tributario, Revisori Legali",
                "office": "accountant",
                "payment:ethereum": "yes",
                "payment:litecoin": "yes",
                "phone": "+390456100619",
                "website": "https://www.studiopacepartners.it/"
            }
        },
        {
            "type": "node",
            "id": 5418461939,
            "lat": 45.2275701,
            "lon": 11.5236765,
            "timestamp": "2025-01-03T14:12:20Z",
            "version": 4,
            "changeset": 160951019,
            "user": "mpbin",
            "uid": 21850090,
            "tags": {
                "addr:city": "Borgo Veneto",
                "addr:country": "IT",
                "addr:housename": "Centro Commerciale Megliadino",
                "addr:postcode": "35040",
                "addr:street": "Via Vallesella",
                "brand": "OVS",
                "brand:wikidata": "Q2042514",
                "brand:wikipedia": "en:OVS (company)",
                "name": "OVS",
                "operator": "OVS",
                "shop": "clothes",
                "wheelchair": "yes"
            }
        },
        {
            "type": "node",
            "id": 5720390522,
            "lat": 45.5493197,
            "lon": 11.5335038,
            "timestamp": "2024-12-03T17:27:15Z",
            "version": 5,
            "changeset": 159890547,
            "user": "Rockedf",
            "uid": 7522075,
            "tags": {
                "addr:city": "Vicenza",
                "addr:housenumber": "10",
                "addr:postcode": "36100",
                "addr:street": "Viale Battaglione Framarin",
                "amenity": "bar",
                "check_date:currency:XBT": "2024-12-03",
                "currency:XBT": "yes",
                "name": "Eclisse Bar",
                "payment:lightning": "yes",
                "payment:lightning_contactless": "no",
                "payment:onchain": "yes",
                "phone": "+39 0444 321896",
                "survey:date": "2023-06-08"
            }
        },
        {
            "type": "node",
            "id": 5779529274,
            "lat": 45.535792,
            "lon": 11.513533,
            "timestamp": "2024-09-25T08:00:14Z",
            "version": 4,
            "changeset": 157069100,
            "user": "mpbin",
            "uid": 21850090,
            "tags": {
                "addr:city": "Vicenza",
                "addr:housenumber": "12",
                "addr:postcode": "36100",
                "addr:street": "Via Benedetto Marcello",
                "check_date": "2024-09-25",
                "check_date:currency:XBT": "2024-09-25",
                "currency:XBT": "yes",
                "description": "Realizziamo internamente insegne, totem, decorazioni automezzi, marketing digitale e tanto altro ancora. Siamo sul territorio dal 1947 e aiutiamo i nostri clienti a sviluppare la loro immagine.",
                "email": "massimo@leodari.com",
                "name": "Leodari Pubblicit\u00e0 s.r.l.",
                "office": "advertising_agency",
                "phone": "+39 0444962233",
                "website": "https://leodari.com/"
            }
        },
        {
            "type": "node",
            "id": 6091712990,
            "lat": 45.8782009,
            "lon": 11.0337639,
            "timestamp": "2020-12-01T16:32:51Z",
            "version": 2,
            "changeset": 95105374,
            "user": "scratera",
            "uid": 76312,
            "tags": {
                "addr:housenumber": "50",
                "addr:street": "Via Benacense",
                "amenity": "cafe",
                "door": "sliding",
                "entrance": "yes",
                "name": "Buonissimo",
                "operator": "Conad",
                "wheelchair": "yes"
            }
        },
        {
            "type": "node",
            "id": 6180386635,
            "lat": 45.3307492,
            "lon": 10.9512601,
            "timestamp": "2024-03-12T19:54:00Z",
            "version": 7,
            "changeset": 148565311,
            "user": "Chiarant",
            "uid": 18452174,
            "tags": {
                "addr:city": "Vigasio",
                "addr:housenumber": "92",
                "addr:postcode": "37068",
                "addr:street": "Via Verona",
                "check_date:currency:XBT": "2024-03-12",
                "currency:XBT": "yes",
                "description": "Nella tranquilla campagna Veronese, l'Hotel Montemezzi \u00e8 una moderna struttura 4 stelle, ideale sia per viaggi di piacere che per meeting di lavoro. Il ristorante offre piatti e vini tipici della gastronomia veneta anche con materie prime a km 0.",
                "email": "direzione@montemezzi.it",
                "name": "Hotel Montemezzi",
                "payment:bitcoin:operator": "inbitcoin.it",
                "phone": "+39 045 7363440",
                "tourism": "hotel",
                "website": "https://www.montemezzi.it/",
                "wikidata": "Q111412887"
            }
        },
        {
            "type": "node",
            "id": 6209967055,
            "lat": 45.8815431,
            "lon": 11.0394002,
            "timestamp": "2023-11-19T10:47:25Z",
            "version": 4,
            "changeset": 144202926,
            "user": "mueschel",
            "uid": 616774,
            "tags": {
                "addr:city": "Rovereto",
                "addr:housenumber": "2",
                "addr:postcode": "38068",
                "addr:street": "Via Fiume",
                "amenity": "bar",
                "check_date:currency:XBT": "2023-10-27",
                "currency:XBT": "yes",
                "currency:XBT:discount": "10%",
                "email": "gelateriariver@gmail.com",
                "name": "River Bar Gelateria",
                "outdoor_seating": "yes",
                "payment:XBT:operator": "bitcoinpos.it",
                "payment:lightning": "yes",
                "payment:onchain": "yes",
                "phone": "+390464400507"
            }
        },
        {
            "type": "node",
            "id": 6236567436,
            "lat": 45.4397258,
            "lon": 10.8643939,
            "timestamp": "2024-08-24T15:44:03Z",
            "version": 5,
            "changeset": 155702657,
            "user": "Jacopo",
            "uid": 21822,
            "tags": {
                "addr:city": "Sona",
                "addr:housenumber": "1",
                "addr:postcode": "37060",
                "addr:street": "Via Trentino",
                "amenity": "atm",
                "cash_in": "yes",
                "cash_out": "no",
                "cash_withdrawal": "no",
                "check_date": "2024-05-15",
                "check_date:currency:XBT": "2022-12-28",
                "currency:EUR": "yes",
                "currency:XBT": "yes",
                "description": "Bitcoin ATM di Chainblock, situato all'interno del centro commerciale La Grande Mela.",
                "email": "info@chainblock.it",
                "indoor": "yes",
                "level": "0",
                "manufacturer": "General Bytes",
                "name": "Chainblock ATM",
                "operator": "Chainblock",
                "payment:cash": "yes",
                "payment:lightning": "no",
                "payment:lightning_contactless": "no",
                "payment:onchain": "yes",
                "url": "https://coinatmradar.com/bitcoin_atm/5718/bitcoin-atm-general-bytes-sona-centro-commerciale-la-grande-mela/",
                "website": "https://chainblock.it/atm/"
            }
        },
        {
            "type": "node",
            "id": 6455942669,
            "lat": 45.0722016,
            "lon": 11.1334914,
            "timestamp": "2025-01-02T21:52:10Z",
            "version": 4,
            "changeset": 160927594,
            "user": "mpbin",
            "uid": 21850090,
            "tags": {
                "addr:city": "Ostiglia",
                "addr:housenumber": "2",
                "addr:postcode": "46035",
                "addr:street": "via Grazia Deledda",
                "brand": "Trony",
                "brand:wikidata": "Q3999692",
                "name": "Trony",
                "operator": "Trony",
                "shop": "electronics"
            }
        },
        {
            "type": "node",
            "id": 6835335762,
            "lat": 45.14667,
            "lon": 10.798655,
            "timestamp": "2023-11-17T18:12:37Z",
            "version": 5,
            "changeset": 144149923,
            "user": "toponomastica_comune_arenzano",
            "uid": 14257573,
            "tags": {
                "addr:city": "Mantova",
                "addr:housenumber": "5a",
                "addr:postcode": "46100",
                "addr:street": "Via Leopoldo Camillo Volta",
                "check_date:currency:XBT": "2023-07-18",
                "currency:XBT": "yes",
                "description": "Soluzioni blockchain e mining.",
                "name": "Bitviking",
                "telecom": "data_center",
                "website": "https://www.bitviking.it"
            }
        },
        {
            "type": "node",
            "id": 6867227781,
            "lat": 45.8871755,
            "lon": 11.0308428,
            "timestamp": "2023-12-26T10:53:56Z",
            "version": 5,
            "changeset": 145528273,
            "user": "mueschel",
            "uid": 616774,
            "tags": {
                "addr:city": "Rovereto",
                "addr:housenumber": "1",
                "addr:postcode": "38068",
                "addr:street": "Viale della Vittoria",
                "check_date:currency:XBT": "2023-12-06",
                "currency:XBT": "yes",
                "leisure": "fitness_centre",
                "name": "Life Rovereto A.S.D",
                "payment:XBT:operator": "bitcoinpos.it",
                "payment:lightning": "yes",
                "payment:onchain": "no",
                "phone": "+39 389 622 1837",
                "sport": "dance;fitness;pole_dance",
                "website": "https://www.liferovereto.com/"
            }
        },
        {
            "type": "node",
            "id": 7168646404,
            "lat": 45.3950184,
            "lon": 11.0158405,
            "timestamp": "2025-01-03T09:48:28Z",
            "version": 4,
            "changeset": 160940345,
            "user": "mpbin",
            "uid": 21850090,
            "tags": {
                "access": "customers",
                "addr:city": "San Giovanni Lupatoto",
                "addr:country": "IT",
                "addr:postcode": "37057",
                "addr:street": "Via Monte Cristallo",
                "defibrillator:location": "L'apparato \u00e8 installato in fondo vicino all'officina biciclette",
                "emergency": "defibrillator",
                "indoor": "yes",
                "name": "Decathlon",
                "opening_hours": "Mo-Sa 09:00-21:00; Su 09:30-20:00",
                "operator": "Decathlon",
                "wikimedia_commons": "File:DAE_presso_Decathlon_San_Giovanni_Lupatoto.jpg"
            }
        },
        {
            "type": "node",
            "id": 7274304327,
            "lat": 45.3907126,
            "lon": 10.9029168,
            "timestamp": "2025-01-03T09:48:50Z",
            "version": 4,
            "changeset": 160940359,
            "user": "mpbin",
            "uid": 21850090,
            "tags": {
                "access": "customers",
                "addr:city": "Dossobuono",
                "addr:country": "IT",
                "addr:postcode": "37062",
                "addr:street": "Via Borgo Bello",
                "defibrillator:location": "L'apparato \u00e8 installato nell'area ristoro vicino alle casse",
                "emergency": "defibrillator",
                "indoor": "yes",
                "name": "Decathlon",
                "opening_hours": "Mo-Su 09:00-20:30",
                "operator": "Decathlon",
                "wheelchair": "yes",
                "wikimedia_commons": "File:Defibrillatore Decathlon Dossobuono.jpg"
            }
        },
        {
            "type": "node",
            "id": 7486962077,
            "lat": 45.4484776,
            "lon": 10.8786033,
            "timestamp": "2020-05-05T19:01:10Z",
            "version": 1,
            "changeset": 84714027,
            "user": "mascalzone67",
            "uid": 1861652,
            "tags": {
                "addr:city": "Bussolengo",
                "addr:housenumber": "11",
                "addr:postcode": "37012",
                "addr:street": "Localit\u00e0 Ferlina",
                "amenity": "pharmacy",
                "dispensing": "no",
                "healthcare": "pharmacy",
                "name": "Parafarmacia Conad",
                "operator": "Conad"
            }
        },
        {
            "type": "node",
            "id": 8208980511,
            "lat": 45.120793,
            "lon": 10.909389,
            "timestamp": "2024-11-19T15:46:13Z",
            "version": 7,
            "changeset": 159330241,
            "user": "CR1PT0",
            "uid": 22197014,
            "tags": {
                "addr:city": "Roncoferraro",
                "addr:housenumber": "26",
                "addr:postcode": "46037",
                "addr:street": "Via Candido Fanti",
                "currency:EUR": "yes",
                "currency:XBT": "yes",
                "description": "Hacking, cyber security, sicurezza informatica, crittografia, hardware, software, Bitcoin, criptovalute, antivirus, firewall, open source, computer, Linux, Debian, VPN, analisi forensi, audit, vulnerable assestment, smartphone, Android, Graphene.",
                "name": "CR1PT0",
                "office": "it",
                "opening_hours": "24/7",
                "payment:cryptocurrencies": "yes",
                "ref:vatin": "02610840205",
                "start_date": "2015-01-01",
                "website": "https://cr1pt0.com"
            }
        },
        {
            "type": "node",
            "id": 8334378919,
            "lat": 45.4618162,
            "lon": 10.5271708,
            "timestamp": "2025-01-02T16:46:35Z",
            "version": 4,
            "changeset": 160916701,
            "user": "demon_box",
            "uid": 350864,
            "tags": {
                "addr:city": "Desenzano",
                "addr:housenumber": "1",
                "addr:postcode": "25015",
                "addr:street": "Via Adua",
                "amenity": "doctors",
                "contact:email": "bianchi.osteopata@gmail.com",
                "contact:phone": "3470483429",
                "contact:website": "https://bianchiosteopata.it/",
                "currency:XBT": "yes",
                "healthcare": "doctor",
                "internet_access": "wlan",
                "name": "NeoClinic",
                "name:en": "Osteopath - Bianchi Tommaso D.O. BSc Ost.",
                "name:it": "Osteopata - Bianchi Tommaso D.O. BSc Ost.",
                "opening_hours": "Mo-Sa 00:00-24:00",
                "payment:lightning": "yes",
                "payment:lightning_contactless": "yes",
                "payment:onchain": "yes",
                "survey:date": "2022-10-24"
            }
        },
        {
            "type": "node",
            "id": 8335906317,
            "lat": 45.4525524,
            "lon": 10.9987741,
            "timestamp": "2023-11-09T19:49:11Z",
            "version": 7,
            "changeset": 143837194,
            "user": "b-jazz-bot",
            "uid": 9451067,
            "tags": {
                "addr:city": "Verona",
                "addr:housenumber": "12d",
                "addr:postcode": "37128",
                "addr:street": "Via Mentana",
                "amenity": "doctors",
                "currency:XBT": "yes",
                "email": "bianchi.osteopata@gmail.com",
                "healthcare": "doctor",
                "healthcare:speciality": "osteopathy",
                "internet_access": "wlan",
                "name": "Tommaso Bianchi - Osteopata",
                "name:en": "Bianchi Tommaso D.O BSc Ost. - Osteopath Verona",
                "opening_hours": "Mo-Sa 08:00-20:30",
                "payment:lightning": "yes",
                "payment:lightning_contactless": "yes",
                "payment:onchain": "yes",
                "phone": "+39 3470483429",
                "survey:date": "2022-10-24",
                "website": "https://bianchiosteopata.it/verona"
            }
        },
        {
            "type": "node",
            "id": 9396944502,
            "lat": 45.4352067,
            "lon": 10.5164319,
            "timestamp": "2025-01-03T09:51:14Z",
            "version": 3,
            "changeset": 160940458,
            "user": "mpbin",
            "uid": 21850090,
            "tags": {
                "addr:city": "Lonato del Garda",
                "addr:housenumber": "15",
                "addr:postcode": "25017",
                "addr:street": "Via Tiracollo",
                "brand": "Decathlon",
                "brand:wikidata": "Q509349",
                "brand:wikipedia": "en:Decathlon (retailer)",
                "name": "Decathlon",
                "operator": "Decathlon",
                "shop": "sports"
            }
        },
        {
            "type": "node",
            "id": 9413489553,
            "lat": 45.3675481,
            "lon": 10.8677825,
            "timestamp": "2025-01-01T20:39:00Z",
            "version": 2,
            "changeset": 160884601,
            "user": "mpbin",
            "uid": 21850090,
            "tags": {
                "addr:city": "Villafranca di Verona",
                "addr:housenumber": "58",
                "addr:postcode": "37069",
                "addr:street": "Viale Postumia",
                "brand": "Unieuro",
                "brand:wikidata": "Q4004687",
                "brand:wikipedia": "en:Unieuro",
                "name": "Unieuro",
                "operator": "Unieuro S.p.A.",
                "shop": "electronics"
            }
        },
        {
            "type": "node",
            "id": 9550425130,
            "lat": 45.4484452,
            "lon": 10.8815127,
            "timestamp": "2025-01-03T17:28:53Z",
            "version": 4,
            "changeset": 160958972,
            "user": "mpbin",
            "uid": 21850090,
            "tags": {
                "brand": "MediaWorld",
                "brand:wikidata": "Q2381223",
                "name": "MediaWorld",
                "opening_hours": "Mo-Sa 09:00-21:00; Su 09:00-20:00",
                "operator": "MediaMarket S.p.A.",
                "shop": "electronics"
            }
        },
        {
            "type": "node",
            "id": 9933827401,
            "lat": 45.322813,
            "lon": 10.9494663,
            "timestamp": "2023-07-18T16:38:00Z",
            "version": 3,
            "changeset": 138678439,
            "user": "saunter",
            "uid": 10396321,
            "tags": {
                "addr:city": "Vigasio",
                "addr:housenumber": "14",
                "addr:postcode": "37068",
                "addr:street": "Via Alzeri",
                "check_date:currency:XBT": "2023-07-18",
                "craft": "electrician",
                "currency:XBT": "yes",
                "description": "Impianti elettrici e automazione cancelli.",
                "email": "info@zoccatelli.it",
                "name": "Z. M. Zoccatelli Impianti",
                "phone": "+39 3484447118",
                "website": "https://www.impiantizoccatelli.it"
            }
        },
        {
            "type": "node",
            "id": 10247809017,
            "lat": 45.38398,
            "lon": 10.492286,
            "timestamp": "2024-07-06T06:47:41Z",
            "version": 3,
            "changeset": 153612144,
            "user": "mauropili",
            "uid": 1496865,
            "tags": {
                "addr:city": "Castiglione delle Stiviere",
                "addr:housenumber": "55",
                "addr:postcode": "46043",
                "addr:street": "Via Giuseppe Mazzini",
                "addr:unit": "c",
                "check_date": "2022-12-09",
                "currency:XBT": "yes",
                "name": "FunPlanet",
                "opening_hours": "Mo-Sa 09:00-12:30, 14:30-19:00",
                "payment:lightning": "yes",
                "payment:onchain": "yes",
                "phone": "+390376670942",
                "shop": "mobile_phone",
                "website": "https://www.funplanet.it/"
            }
        },
        {
            "type": "node",
            "id": 10273203685,
            "lat": 45.6324007,
            "lon": 11.5671468,
            "timestamp": "2024-07-05T19:50:48Z",
            "version": 4,
            "changeset": 153602683,
            "user": "mauropili",
            "uid": 1496865,
            "tags": {
                "addr:city": "Povolaro di Dueville",
                "addr:housenumber": "35a",
                "addr:postcode": "36030",
                "addr:street": "Via Divisione Julia",
                "check_date": "2022-12-19",
                "craft": "electrician",
                "currency:XBT": "yes",
                "name": "Impianti Elettrici Parise",
                "payment:lightning": "yes",
                "payment:onchain": "yes",
                "phone": "+393391741073",
                "website": "https://www.impiantielettriciparise.com/impianti-elettrici-parise-passione-e-professionalita-a-vicenz/"
            }
        },
        {
            "type": "node",
            "id": 10743394069,
            "lat": 45.8643599,
            "lon": 11.028332,
            "timestamp": "2025-01-01T20:06:49Z",
            "version": 2,
            "changeset": 160883634,
            "user": "mpbin",
            "uid": 21850090,
            "tags": {
                "addr:city": "rovereto",
                "addr:housenumber": "18",
                "addr:postcode": "38068",
                "addr:street": "viale del lavoro",
                "brand": "Unieuro",
                "brand:wikidata": "Q4004687",
                "name": "Unieuro",
                "operator": "Unieuro S.p.A.",
                "phone": "+390464430176",
                "shop": "electronics"
            }
        },
        {
            "type": "node",
            "id": 10766227160,
            "lat": 45.1577683,
            "lon": 10.7918184,
            "timestamp": "2025-01-09T09:40:36Z",
            "version": 4,
            "changeset": 161162371,
            "user": "DnaX",
            "uid": 69259,
            "tags": {
                "addr:housenumber": "45",
                "addr:postcode": "46100",
                "addr:street": "Corso Umberto I\u00b0",
                "brand": "Doppelg\u00e4nger",
                "brand:wikidata": "Q117451227",
                "check_date": "2023-03-27",
                "clothes": "men",
                "currency:XBT": "yes",
                "name": "Doppelg\u00e4nger",
                "phone": "0376360615",
                "shop": "clothes",
                "website": "https://www.doppelganger.it/it/"
            }
        },
        {
            "type": "node",
            "id": 10884255574,
            "lat": 45.5515645,
            "lon": 10.5414466,
            "timestamp": "2025-01-02T16:46:35Z",
            "version": 3,
            "changeset": 160916701,
            "user": "demon_box",
            "uid": 350864,
            "tags": {
                "addr:city": "Manerba del Garda",
                "addr:housenumber": "4",
                "addr:postcode": "25080",
                "addr:street": "Vicolo del Poggio",
                "check_date": "2023-05-10",
                "contact:email": "bebanticoborgogarda@gmail.com",
                "contact:phone": "+39 348 821 0167",
                "contact:website": "https://www.anticoborgogarda.eu/",
                "currency:XBT": "yes",
                "guest_house": "bed_and_breakfast",
                "name": "Antico Borgo B&B",
                "payment:lightning": "yes",
                "tourism": "guest_house"
            }
        },
        {
            "type": "node",
            "id": 10979607312,
            "lat": 45.4565873,
            "lon": 10.5850851,
            "timestamp": "2025-01-02T16:46:35Z",
            "version": 3,
            "changeset": 160916701,
            "user": "demon_box",
            "uid": 350864,
            "tags": {
                "addr:city": "Desenzano del Garda",
                "addr:postcode": "25015",
                "addr:street": "Via Adriano",
                "amenity": "restaurant",
                "check_date": "2023-06-15",
                "contact:email": "gristoreen@gmail.com",
                "contact:phone": "+39 3402487689",
                "currency:XBT": "yes",
                "name": "RistoGreen",
                "payment:lightning": "yes",
                "payment:lightning_contactless": "no",
                "payment:onchain": "yes"
            }
        },
        {
            "type": "node",
            "id": 11019852717,
            "lat": 45.5536322,
            "lon": 10.7226305,
            "timestamp": "2023-07-02T11:59:52Z",
            "version": 2,
            "changeset": 138020615,
            "user": "Bea1812",
            "uid": 19744243,
            "tags": {
                "addr:city": "Bardolino",
                "addr:housenumber": "1",
                "addr:postcode": "37011",
                "addr:street": "Via dei Poggi",
                "currency:XBT": "yes",
                "email": "beatrice.p18@gmail.com",
                "internet_access": "yes",
                "internet_access:fee": "customers",
                "name": "Luminosa Casetta",
                "operator": "Privato",
                "phone": "+393886907700",
                "rooms": "2",
                "survey:date": "2023-07-02",
                "tourism": "apartment"
            }
        },
        {
            "type": "node",
            "id": 11125250762,
            "lat": 45.1834148,
            "lon": 11.2548832,
            "timestamp": "2025-01-01T21:14:48Z",
            "version": 2,
            "changeset": 160885668,
            "user": "mpbin",
            "uid": 21850090,
            "tags": {
                "addr:city": "San Pietro",
                "addr:postcode": "37045",
                "addr:street": "Via Luciano Lama",
                "brand": "Unieuro",
                "brand:wikidata": "Q4004687",
                "name": "Unieuro",
                "operator": "Unieuro S.p.A.",
                "shop": "electronics"
            }
        },
        {
            "type": "node",
            "id": 11125289165,
            "lat": 45.4079421,
            "lon": 11.2333224,
            "timestamp": "2025-01-01T21:16:07Z",
            "version": 2,
            "changeset": 160885709,
            "user": "mpbin",
            "uid": 21850090,
            "tags": {
                "addr:city": "Soave",
                "addr:housenumber": "24",
                "addr:postcode": "37038",
                "addr:street": "Via del Commercio",
                "brand": "Unieuro",
                "brand:wikidata": "Q4004687",
                "name": "Unieuro",
                "operator": "Unieuro S.p.A.",
                "shop": "electronics"
            }
        },
        {
            "type": "node",
            "id": 11494464513,
            "lat": 45.7244835,
            "lon": 11.3641751,
            "timestamp": "2024-12-19T21:10:39Z",
            "version": 8,
            "changeset": 160410887,
            "user": "saunter",
            "uid": 10396321,
            "tags": {
                "addr:city": "Schio",
                "addr:housenumber": "13",
                "addr:postcode": "36015",
                "addr:street": "Via Giarette",
                "amenity": "restaurant",
                "check_date": "2024-10-12",
                "check_date:currency:XBT": "2024-12-19",
                "contact:instagram": "https://www.instagram.com/ajiosteriagiapponese/",
                "cuisine": "japanese",
                "currency:XBT": "yes",
                "email": "osteriagiapponese@gmail.com",
                "name": "Aji Osteria Giapponese",
                "opening_hours": "Tu-Sa 19:00-22:00",
                "payment:lightning": "yes",
                "payment:lightning_contactless": "yes",
                "phone": "+39 351 911 5569",
                "website": "https://osteriagiapponese.wixsite.com/ajiosteriagiapponese"
            }
        },
        {
            "type": "node",
            "id": 11503445235,
            "lat": 45.7245094,
            "lon": 11.3640987,
            "timestamp": "2024-10-12T18:06:13Z",
            "version": 4,
            "changeset": 157807879,
            "user": "mpbin",
            "uid": 21850090,
            "tags": {
                "addr:city": "Schio",
                "addr:housenumber": "13",
                "addr:postcode": "36015",
                "addr:street": "Via Giarette",
                "check_date": "2024-10-12",
                "check_date:currency:XBT": "2024-10-12",
                "contact:email": "info@artigianatogiapponese.it",
                "contact:facebook": "https://www.facebook.com/www.artigianatogiapponese.it",
                "contact:instagram": "https://www.instagram.com/artigianatogiapponese/",
                "currency:XBT": "yes",
                "name": "Artigianato Giapponese",
                "payment:lightning": "yes",
                "payment:lightning_contactless": "yes",
                "payment:onchain": "yes",
                "phone": "+39 32 8376 1399",
                "shop": "yes",
                "website": "https://www.artigianatogiapponese.it/"
            }
        },
        {
            "type": "node",
            "id": 11739288103,
            "lat": 45.5749982,
            "lon": 11.5445911,
            "timestamp": "2024-03-17T23:30:55Z",
            "version": 2,
            "changeset": 148793917,
            "user": "Legalbitcoin",
            "uid": 21205303,
            "tags": {
                "addr:city": "Vicenza",
                "addr:housenumber": "129",
                "addr:postcode": "36100",
                "addr:street": "Via dei Laghi",
                "check_date": "2024-03-17",
                "currency:XBT": "yes",
                "description": "Vendita prodotti JUST. Contattami su WhatsApp, sarai ricontattato appena possibile.",
                "name": "Guoli Patrizia- Prodotti JUST",
                "payment:lightning": "yes",
                "payment:lightning_contactless": "yes",
                "payment:onchain": "yes",
                "phone": "+39 340 693 9814 (solo WhatsApp)",
                "shop": "cosmetics"
            }
        },
        {
            "type": "node",
            "id": 11749080606,
            "lat": 45.6402384,
            "lon": 11.3730009,
            "timestamp": "2024-03-20T22:24:08Z",
            "version": 1,
            "changeset": 148936397,
            "user": "Rockedf",
            "uid": 7522075,
            "tags": {
                "addr:city": "Monte di Malo (VI)",
                "addr:housenumber": "3",
                "addr:postcode": "36030",
                "addr:street": "Via San Giorgio",
                "check_date": "2024-03-20",
                "contact:facebook": "https://www.facebook.com/sabrina.crystalglassart",
                "contact:instagram": "https://www.instagram.com/golinsabrina/",
                "currency:XBT": "yes",
                "name": "Sabrina Golin Art",
                "opening_hours": "Mo-Fr 08:00-12:00,14:00-20:00",
                "payment:lightning": "yes",
                "payment:lightning_contactless": "yes",
                "payment:onchain": "yes",
                "tourism": "gallery",
                "website": "https://www.sabrinacrystal.it/"
            }
        },
        {
            "type": "node",
            "id": 11841224509,
            "lat": 45.8838122,
            "lon": 11.0202464,
            "timestamp": "2024-04-30T14:57:18Z",
            "version": 2,
            "changeset": 150712877,
            "user": "b-jazz-bot",
            "uid": 9451067,
            "tags": {
                "addr:city": "Rovereto",
                "addr:postcode": "38068",
                "addr:street": "Piazza della Manifattura",
                "check_date:currency:XBT": "2024-04-23",
                "currency:XBT": "yes",
                "name": "Floricoltura Alberta",
                "payment:lightning": "yes",
                "phone": "+390464437856",
                "shop": "florist",
                "website": "https://www.floricolturaalberta.it/"
            }
        },
        {
            "type": "node",
            "id": 11876751567,
            "lat": 45.7178276,
            "lon": 11.3883769,
            "timestamp": "2024-08-30T08:14:45Z",
            "version": 5,
            "changeset": 155961109,
            "user": "Ferrigato Srlu",
            "uid": 4774728,
            "tags": {
                "addr:city": "Schio (VI)",
                "addr:country": "IT",
                "addr:postcode": "36015",
                "addr:street": "Via Veneto 2/c",
                "currency:XBT": "yes",
                "healthcare": "yes",
                "name": "Ferrigato Srlu",
                "note": "Health and Safety Consultants",
                "payment:lightning": "yes",
                "payment:onchain": "yes",
                "survey:date": "2024-08-30"
            }
        },
        {
            "type": "node",
            "id": 11902287309,
            "lat": 45.6684186,
            "lon": 11.395146,
            "timestamp": "2024-10-11T21:00:49Z",
            "version": 6,
            "changeset": 157773469,
            "user": "mpbin",
            "uid": 21850090,
            "tags": {
                "addr:city": "Malo",
                "addr:housenumber": "26",
                "addr:postcode": "36034",
                "addr:street": "Via VIII Marzo",
                "contact:email": "info@saloneniko.it",
                "contact:facebook": "https://www.facebook.com/saloneniko.malo",
                "contact:instagram": "https://www.instagram.com/saloneniko/",
                "currency:XBT": "yes",
                "email": "info@saloneniko.it",
                "name": "SALONE NIKO",
                "note": "Taglio, Tecniche del colore, Permanente e stiratura, Asciugatura, Acconciatura, extension. E' gradito l'appuntamento",
                "payment:lightning": "yes",
                "payment:lightning_contactless": "yes",
                "payment:onchain": "no",
                "phone": "+39 0445 602518",
                "shop": "hairdresser",
                "survey:date": "2024-05-11",
                "website": "https://saloneniko.it/"
            }
        },
        {
            "type": "node",
            "id": 11926842500,
            "lat": 45.1661912,
            "lon": 10.8257885,
            "timestamp": "2025-01-03T17:33:56Z",
            "version": 3,
            "changeset": 160959152,
            "user": "mpbin",
            "uid": 21850090,
            "tags": {
                "brand": "MediaWorld",
                "brand:wikidata": "Q2381223",
                "name": "MediaWorld",
                "operator": "MediaMarket S.p.A.",
                "shop": "electronics",
                "wheelchair": "yes"
            }
        },
        {
            "type": "node",
            "id": 11928368360,
            "lat": 45.4395088,
            "lon": 11.0086218,
            "timestamp": "2024-06-13T02:35:57Z",
            "version": 3,
            "changeset": 152610740,
            "user": "Rockedf",
            "uid": 7522075,
            "tags": {
                "addr:city": "Verona",
                "addr:housenumber": "70",
                "addr:postcode": "37129",
                "addr:street": "Via Venti Settembre",
                "amenity": "atm",
                "cash_in": "yes",
                "cash_out": "yes",
                "cash_withdrawal": "yes",
                "check_date": "2024-05-23",
                "contact:email": "support@shitcoins.club",
                "contact:facebook": "https://www.facebook.com/shitcoins.club",
                "contact:instagram": "https://www.instagram.com/shitcoinsclub",
                "contact:telegram": "https://t.me/shitcoinsclub",
                "contact:twitter": "https://twitter.com/BitomatCom",
                "currency:CAD": "yes",
                "currency:CHF": "yes",
                "currency:DASH": "yes",
                "currency:ETH": "yes",
                "currency:EUR": "yes",
                "currency:HUF": "yes",
                "currency:LTC": "yes",
                "currency:RON": "yes",
                "currency:USD": "yes",
                "currency:USDC": "yes",
                "currency:USDT": "yes",
                "currency:XBT": "yes",
                "indoor": "yes",
                "name": "Bitcoin ATM - Shitcoins.club",
                "opening_hours": "24/7",
                "operator": "Shitcoins.club",
                "payment:cash": "yes",
                "payment:lightning": "no",
                "payment:lightning_contactless": "no",
                "payment:onchain": "yes",
                "phone": "+39 34 8048 7308",
                "website": "https://shitcoins.club/localizzazione-atm/atm-bitcoin-verona-via-venti-settembre"
            }
        },
        {
            "type": "node",
            "id": 12128566402,
            "lat": 45.3979849,
            "lon": 11.5793774,
            "timestamp": "2025-01-02T22:34:10Z",
            "version": 2,
            "changeset": 160928574,
            "user": "mpbin",
            "uid": 21850090,
            "tags": {
                "addr:city": "Ponte di Barbarano",
                "addr:housenumber": "8",
                "addr:postcode": "36048",
                "addr:street": "Via del Commercio",
                "brand": "Trony",
                "brand:wikidata": "Q3999692",
                "name": "Trony",
                "operator": "Trony",
                "shop": "electronics"
            }
        },
        {
            "type": "node",
            "id": 12351513547,
            "lat": 45.6890029,
            "lon": 11.3735438,
            "timestamp": "2024-11-23T22:35:57Z",
            "version": 6,
            "changeset": 159516485,
            "user": "PagoInBitcoin",
            "uid": 22211788,
            "tags": {
                "addr:city": "San Vito Di Leguzzano",
                "addr:postcode": "36030",
                "addr:street": "Via Schio, 58",
                "amenity": "driving_school",
                "contact:email": "autoscuolasanvito@gmail.com",
                "contact:whatsapp": "+393477628784",
                "currency:XBT": "yes",
                "description": "Puoi chiamarci per urgenze anche la domenica.",
                "name": "AUTOSCUOLA SAN VITO",
                "payment:lightning": "yes",
                "payment:lightning_contactless": "yes",
                "payment:onchain": "yes",
                "phone": "+390445510783",
                "survey:date": "2024-11-11"
            }
        },
        {
            "type": "node",
            "id": 12400751878,
            "lat": 45.5157714,
            "lon": 11.4612619,
            "timestamp": "2024-12-13T16:06:02Z",
            "version": 3,
            "changeset": 160252363,
            "user": "emmezetax",
            "uid": 22263114,
            "tags": {
                "addr:city": "Altavilla Vicentina (VI)",
                "addr:housenumber": "28",
                "addr:postcode": "36077",
                "addr:street": "Via Lago D'iseo, 28",
                "brand": "Yamaha",
                "brand:wikidata": "Q158888",
                "contact:email": "info@zanuso.com",
                "contact:facebook": "https://www.facebook.com/Zanusosrl",
                "contact:whatsapp": "+39 342 0771826",
                "currency:XBT": "yes",
                "description": "Vendita Moto Yamaha, Scooter e Bici elettriche. Noleggio a lungo e breve termine. Usato , tagliandi e assistenza.",
                "internet_access": "wlan",
                "name": "Zanuso srl Conc. Yamaha",
                "opening_hours": "Mo-Sa 09:00-12:30 14:30-19:00",
                "payment:lightning": "yes",
                "payment:lightning_contactless": "no",
                "payment:onchain": "yes",
                "phone": "+39 0444 349283",
                "second_hand": "yes",
                "shop": "motorcycle",
                "website": "https://www.zanuso.com/"
            }
        },
        {
            "type": "way",
            "id": 138810721,
            "timestamp": "2022-03-01T09:45:20Z",
            "version": 8,
            "changeset": 117972529,
            "user": "Tresho",
            "uid": 6178157,
            "nodes": [
                3964758269,
                1521962592,
                1521963163,
                1521963252,
                1521963768,
                1521962143,
                1521960205,
                1521958176,
                1521955895,
                1521954253,
                1521950247,
                1521949325,
                3964758269
            ],
            "tags": {
                "brand": "Conad",
                "brand:wikidata": "Q639075",
                "brand:wikipedia": "it:Conad",
                "building": "retail",
                "name": "Conad",
                "operator": "Conad",
                "phone": "+39 045 594403",
                "shop": "supermarket",
                "source": "Regione_del_Veneto_LR28_16.7.1976_Formazione_CTR_auth_39164-5700-1100_23.01.2009"
            }
        },
        {
            "type": "way",
            "id": 174768534,
            "timestamp": "2023-07-31T14:41:06Z",
            "version": 5,
            "changeset": 139257764,
            "user": "BTC Map",
            "uid": 18545877,
            "nodes": [
                1854349671,
                1854349674,
                1854349654,
                1854349657,
                1854349669,
                1862037448,
                1862037250,
                1862037702,
                1862037521,
                1854349671
            ],
            "tags": {
                "brand": "Mondo Convenienza",
                "brand:wikidata": "Q55830962",
                "building": "retail",
                "check_date:currency:XBT": "2023-07-31",
                "currency:XBT": "yes",
                "name": "Mondo Convenienza",
                "shop": "furniture"
            }
        },
        {
            "type": "way",
            "id": 683303509,
            "timestamp": "2025-01-06T15:33:40Z",
            "version": 4,
            "changeset": 161063305,
            "user": "branco-revert",
            "uid": 19497998,
            "nodes": [
                6400092038,
                6400092039,
                6400092050,
                6400092040,
                6400092041,
                6400092042,
                6400092043,
                6400092038
            ],
            "tags": {
                "access": "customers",
                "amenity": "parking",
                "operator": "Conad"
            }
        },
        {
            "type": "way",
            "id": 683303511,
            "timestamp": "2025-01-06T15:33:40Z",
            "version": 3,
            "changeset": 161063305,
            "user": "branco-revert",
            "uid": 19497998,
            "nodes": [
                1522184800,
                6400092046,
                1522180403,
                6400092044,
                6400092045,
                1522184800
            ],
            "tags": {
                "amenity": "parking",
                "level": "1",
                "operator": "Conad"
            }
        },
        {
            "type": "way",
            "id": 688209677,
            "timestamp": "2023-11-08T18:56:42Z",
            "version": 5,
            "changeset": 143794026,
            "user": "b-jazz-bot",
            "uid": 9451067,
            "nodes": [
                6452764234,
                6447123685,
                6447123384,
                6447123383,
                6447123382,
                298401535,
                752760002,
                752760000,
                6452764230,
                6459090495,
                6452817162,
                6452764235,
                6452764234
            ],
            "tags": {
                "indoor": "room",
                "level": "1",
                "name": "OVS",
                "opening_hours": "09:00-20:00",
                "operator": "OVS",
                "phone": "+39 0464 423029",
                "room": "shop",
                "shop": "clothes",
                "website": "https://www.ovs.it/",
                "wheelchair": "yes"
            }
        },
        {
            "type": "way",
            "id": 689738888,
            "timestamp": "2024-01-31T16:42:27Z",
            "version": 6,
            "changeset": 146912371,
            "user": "Puffi_fp",
            "uid": 12188124,
            "nodes": [
                6470820704,
                6470820691,
                6470820693,
                6470820690,
                6470820692,
                6470501624,
                298401537,
                6447118213,
                752760016,
                6440124970,
                6440124971,
                6440124972,
                6443877414,
                6452764254,
                752760018,
                6470501623,
                6470501622,
                6470820703,
                6470820704
            ],
            "tags": {
                "brand": "Trony",
                "brand:wikidata": "Q3999692",
                "brand:wikipedia": "it:Trony",
                "indoor": "room",
                "level": "1",
                "name": "Trony",
                "opening_hours": "09:00-20:00",
                "operator": "Trony",
                "phone": "+39 0464 480358",
                "room": "shop",
                "shop": "electronics",
                "website": "https://www.trony.it/"
            }
        },
        {
            "type": "way",
            "id": 1005681158,
            "timestamp": "2024-03-27T04:19:59Z",
            "version": 3,
            "changeset": 149203601,
            "user": "Igor Bubelov",
            "uid": 2104834,
            "nodes": [
                9278842677,
                812014952,
                812014922,
                9278842667,
                9278842674,
                9278842676,
                9278842673,
                9278842677
            ],
            "tags": {
                "amenity": "restaurant",
                "check_date:currency:XBT": "2024-03-22",
                "cuisine": "pizza",
                "currency:XBT": "yes",
                "indoor": "room",
                "level": "0",
                "name": "Pizzeria Fucine",
                "payment:XBT:operator": "bitcoinpos.it",
                "payment:lightning": "yes",
                "room": "amenity",
                "wheelchair": "yes"
            }
        },
        {
            "type": "way",
            "id": 1227411270,
            "timestamp": "2023-11-28T18:04:45Z",
            "version": 1,
            "changeset": 144559341,
            "user": "Tresho",
            "uid": 6178157,
            "nodes": [
                11382082886,
                11382082882,
                11382082881,
                11382082880,
                11382082885,
                11382082886
            ],
            "tags": {
                "check_date": "2023-04-05",
                "clothes": "men",
                "currency:XBT": "yes",
                "indoor": "room",
                "level": "1",
                "name": "Nuvolari",
                "payment:lightning": "no",
                "payment:lightning_contactless": "no",
                "payment:onchain": "yes",
                "phone": "+39 045 4571622",
                "shop": "clothes",
                "website": "https://www.nuvolari.biz/stores/verona-c-c-adigeo"
            }
        }
    ],
    "telegram": []
}