{
    "id": "albenga",
    "name": "Albenga",
    "lng": 44.049114,
    "lat": 8.213017,
    "poi": [
        {
            "type": "node",
            "id": 472443888,
            "lat": 43.8889285,
            "lon": 8.0409823,
            "timestamp": "2024-02-08T10:28:38Z",
            "version": 4,
            "changeset": 147211115,
            "user": "LucianoC63",
            "uid": 20673751,
            "tags": {
                "addr:city": "Imperia",
                "addr:housenumber": "7",
                "addr:postcode": "18100",
                "addr:street": "Via Giuseppe De Sonnaz",
                "brand": "Conad",
                "brand:wikidata": "Q639075",
                "brand:wikipedia": "it:Conad",
                "email": "SupermerVillaregiaIsnardi_L494286B@DI-NET.IT",
                "name": "Conad",
                "opening_hours": "Mo-Fr 08:30-19:45; Sa 08:00-19:45; Su 09:00-12:45",
                "operator": "Conad",
                "payment:bancomat": "yes",
                "payment:cash": "yes",
                "payment:credit_cards": "yes",
                "phone": "+39 0183 293462",
                "shop": "supermarket",
                "website": "https://www.conad.it/ricerca-negozi/negozio.004022.html"
            }
        },
        {
            "type": "node",
            "id": 503198205,
            "lat": 43.8140069,
            "lon": 7.752764,
            "timestamp": "2024-12-30T22:52:47Z",
            "version": 7,
            "changeset": 160813281,
            "user": "mpbin",
            "uid": 21850090,
            "tags": {
                "addr:city": "Sanremo",
                "addr:housenumber": "78",
                "addr:postcode": "18038",
                "addr:street": "Strada Solaro Levante",
                "branch": "Solaro",
                "brand": "Conad",
                "brand:wikidata": "Q639075",
                "name": "Conad",
                "operator": "Conad",
                "shop": "supermarket"
            }
        },
        {
            "type": "node",
            "id": 1440699648,
            "lat": 44.2663544,
            "lon": 8.4320694,
            "timestamp": "2025-01-03T09:17:04Z",
            "version": 12,
            "changeset": 160939380,
            "user": "mpbin",
            "uid": 21850090,
            "tags": {
                "addr:city": "Vado Ligure",
                "addr:country": "IT",
                "addr:housenumber": "1",
                "addr:postcode": "17047",
                "addr:street": "Via Montegrappa",
                "brand": "Decathlon",
                "brand:wikidata": "Q509349",
                "level": "0",
                "name": "Decathlon",
                "opening_hours": "Mo-Su 09:00-20:00",
                "operator": "Decathlon",
                "phone": "+39 019 4510930",
                "shop": "sports",
                "toilets:wheelchair": "yes",
                "wheelchair": "yes"
            }
        },
        {
            "type": "node",
            "id": 1567280796,
            "lat": 43.8785278,
            "lon": 8.00531,
            "timestamp": "2024-01-27T10:21:29Z",
            "version": 5,
            "changeset": 146738453,
            "user": "LucianoC63",
            "uid": 20673751,
            "tags": {
                "addr:city": "Imperia",
                "addr:housenumber": "5",
                "addr:postcode": "18100",
                "addr:street": "Via Giuseppe Airenti",
                "brand": "Conad",
                "brand:wikidata": "Q639075",
                "brand:wikipedia": "it:Conad",
                "email": "GestSDBViaAirenti_L492245A@DI-NET.IT",
                "name": "Conad",
                "opening_hours": "Mo-Sa 08:30-20:00; Su 09:00-13:00,16:00-20:00",
                "operator": "Conad",
                "payment:bancomat": "yes",
                "payment:cash": "yes",
                "payment:credit_cards": "yes",
                "phone": "+39 0183 660014",
                "shop": "supermarket",
                "website": "https://www.conad.it/ricerca-negozi/negozio.004014.html"
            }
        },
        {
            "type": "node",
            "id": 2190185256,
            "lat": 44.3002242,
            "lon": 8.4630921,
            "timestamp": "2021-07-09T05:37:32Z",
            "version": 13,
            "changeset": 107675276,
            "user": "bubix",
            "uid": 1967477,
            "tags": {
                "addr:city": "Savona",
                "addr:postcode": "17100",
                "addr:street": "Via Stalingrado",
                "brand": "Conad",
                "brand:wikidata": "Q639075",
                "brand:wikipedia": "it:Conad",
                "email": "AgoraGroupSrl_L490120A@di-net.it",
                "layer": "1",
                "level": "1",
                "name": "Conad",
                "opening_hours": "Mo-Su 08:30-20:30",
                "operator": "Conad",
                "payment:bancomat": "yes",
                "payment:cash": "yes",
                "payment:mastercard": "yes",
                "payment:visa": "yes",
                "phone": "+39 019 264800",
                "ref:vatin": "IT01615300090",
                "shop": "supermarket",
                "toilets:wheelchair": "yes",
                "website": "https://www.conad.it/ricerca-negozi/negozio.008482.html",
                "wheelchair": "yes"
            }
        },
        {
            "type": "node",
            "id": 2325378585,
            "lat": 43.8989297,
            "lon": 8.0301339,
            "timestamp": "2024-12-03T19:50:43Z",
            "version": 5,
            "changeset": 159894870,
            "user": "LucianoC63",
            "uid": 20673751,
            "tags": {
                "addr:city": "Imperia",
                "addr:housenumber": "347",
                "addr:postcode": "18100",
                "addr:street": "Argine Destro Ferdinando Scajola",
                "brand": "Conad",
                "brand:wikidata": "Q639075",
                "brand:wikipedia": "it:Conad",
                "email": "GestSDBArgineDestro_L492246B@DI-NET.IT",
                "name": "Conad",
                "opening_hours": "Mo-Sa 08:00-20:00; Su 09:00-13:30",
                "operator": "Conad",
                "payment:bancomat": "yes",
                "payment:cash": "yes",
                "payment:credit_cards": "yes",
                "phone": "+39 0183 274001",
                "shop": "supermarket",
                "website": "https://www.conad.it/ricerca-negozi/negozio.003555.html",
                "wheelchair": "yes"
            }
        },
        {
            "type": "node",
            "id": 2842909721,
            "lat": 43.9035776,
            "lon": 7.9468955,
            "timestamp": "2024-10-24T12:32:38Z",
            "version": 10,
            "changeset": 158294727,
            "user": "Rockedf",
            "uid": 7522075,
            "tags": {
                "addr:city": "Dolcedo",
                "addr:housenumber": "47",
                "addr:postcode": "18020",
                "addr:street": "Via Santa Brigida",
                "check_date": "2023-05-15",
                "check_date:currency:XBT": "2024-10-24",
                "contact:facebook": "https://www.facebook.com/magwm",
                "contact:linkedin": "https://it.linkedin.com/in/michelrenders",
                "contact:twitter": "https://x.com/magwm",
                "currency:XBT": "yes",
                "delivery": "yes",
                "email": "info@olijfolie.it",
                "mobile": "+39 339 466 4234",
                "name": "MagWm OlivOlio",
                "opening_hours": "Mo-Sa 09:00-19:00",
                "organic": "yes",
                "payment:cash": "yes",
                "payment:credit_cards": "yes",
                "payment:lightning": "yes",
                "payment:onchain": "yes",
                "phone": "+39 0183 280 281",
                "produce": "oil,oilve oil",
                "shop": "farm",
                "website": "http://www.olijfolie.it"
            }
        },
        {
            "type": "node",
            "id": 3082633381,
            "lat": 43.8177009,
            "lon": 7.7776225,
            "timestamp": "2025-01-03T16:08:50Z",
            "version": 6,
            "changeset": 160955884,
            "user": "mpbin",
            "uid": 21850090,
            "tags": {
                "addr:city": "Sanremo",
                "addr:housenumber": "222",
                "addr:postcode": "18038",
                "addr:street": "Via Giacomo Matteotti",
                "brand": "OVS",
                "brand:wikidata": "Q2042514",
                "clothes:children": "yes",
                "clothes:men": "yes",
                "clothes:women": "yes",
                "name": "OVS",
                "opening_hours": "Mo-Sa 09:00-19:30; Su 10:00-13:00, 15:00-19:30",
                "operator": "OVS",
                "payment:cash": "yes",
                "payment:credit_cards": "yes",
                "payment:debit_cards": "yes",
                "payment:satispay": "yes",
                "phone": "+39 0184 503290",
                "shop": "clothes",
                "website": "https://www.ovs.it/"
            }
        },
        {
            "type": "node",
            "id": 3265478461,
            "lat": 44.2662214,
            "lon": 8.4322836,
            "timestamp": "2025-01-01T22:36:17Z",
            "version": 9,
            "changeset": 160887676,
            "user": "mpbin",
            "uid": 21850090,
            "tags": {
                "addr:city": "Vado Ligure",
                "addr:country": "IT",
                "addr:housenumber": "1",
                "addr:postcode": "17047",
                "addr:street": "Via Montegrappa",
                "disused:shop": "electronics",
                "level": "1",
                "name": "Trony",
                "opening_hours": "Mo-Su 09:30-19:30; PH closed",
                "operator": "Trony",
                "website": "https://www.trony.it/"
            }
        },
        {
            "type": "node",
            "id": 3431855680,
            "lat": 44.3106397,
            "lon": 8.4778595,
            "timestamp": "2025-01-03T16:12:16Z",
            "version": 8,
            "changeset": 160956049,
            "user": "mpbin",
            "uid": 21850090,
            "tags": {
                "addr:city": "Savona",
                "addr:housenumber": "2r",
                "addr:postcode": "17100",
                "addr:street": "Via Paolo Boselli",
                "brand": "OVS",
                "brand:wikidata": "Q2042514",
                "brand:wikipedia": "en:OVS (company)",
                "name": "OVS",
                "opening_hours": "09:30-19:30",
                "operator": "OVS",
                "phone": "+39 019 8485473",
                "ref:vatin": "IT04240010274",
                "shop": "clothes",
                "toilets:wheelchair": "yes",
                "wheelchair": "yes"
            }
        },
        {
            "type": "node",
            "id": 3472684803,
            "lat": 44.3439635,
            "lon": 8.5441201,
            "timestamp": "2023-04-19T11:08:47Z",
            "version": 7,
            "changeset": 135097744,
            "user": "saunter",
            "uid": 10396321,
            "tags": {
                "addr:city": "Celle Ligure",
                "addr:housenumber": "48",
                "addr:postcode": "17015",
                "addr:street": "Via Federico Colla",
                "check_date:currency:XBT": "2023-04-19",
                "currency:XBT": "yes",
                "description": "Ferramenta e casalinghi.",
                "name": "Ferramenta Chiodo Scaccia Chiodo",
                "phone": "+39 019 990219",
                "shop": "hardware"
            }
        },
        {
            "type": "node",
            "id": 3744972929,
            "lat": 43.8899265,
            "lon": 8.0375826,
            "timestamp": "2025-01-03T16:16:32Z",
            "version": 4,
            "changeset": 160956209,
            "user": "mpbin",
            "uid": 21850090,
            "tags": {
                "addr:city": "Imperia",
                "addr:postcode": "18100",
                "addr:street": "Via della Repubblica",
                "brand": "OVS",
                "brand:wikidata": "Q2042514",
                "brand:wikipedia": "en:OVS (company)",
                "name": "OVS",
                "opening_hours": "Mo-Sa 09:00-19:30; Su 10:00-13:00,15:00-19:30",
                "operator": "OVS",
                "shop": "clothes"
            }
        },
        {
            "type": "node",
            "id": 3810175106,
            "lat": 44.4037712,
            "lon": 8.2849253,
            "timestamp": "2020-05-10T06:42:03Z",
            "version": 2,
            "changeset": 84960204,
            "user": "mascalzone67",
            "uid": 1861652,
            "tags": {
                "addr:city": "Cairo Montenotte",
                "addr:housenumber": "28b",
                "addr:postcode": "17014",
                "addr:street": "Via Brigate Partigiane",
                "brand": "Conad",
                "brand:wikidata": "Q639075",
                "brand:wikipedia": "it:Conad",
                "email": "ProVal_L493706A@DI-NET.IT",
                "name": "Conad",
                "opening_hours": "Mo-Sa 08:30-19:00; Su 09:00-13:00",
                "operator": "Conad",
                "payment:bancomat": "yes",
                "payment:cash": "yes",
                "payment:credit_cards": "yes",
                "phone": "+39 019 504049",
                "shop": "supermarket",
                "website": "https://www.conad.it/ricerca-negozi/negozio.004011.html"
            }
        },
        {
            "type": "node",
            "id": 5442597802,
            "lat": 44.3384181,
            "lon": 8.5107652,
            "timestamp": "2024-12-31T07:58:27Z",
            "version": 3,
            "changeset": 160822186,
            "user": "mpbin",
            "uid": 21850090,
            "tags": {
                "addr:city": "Albisola Superiore",
                "addr:housenumber": "47",
                "addr:postcode": "17011",
                "addr:street": "Via Vittorio Veneto",
                "name": "Supermercato Conad",
                "operator": "Conad",
                "phone": "+39 019 487610",
                "ref:vatin": "IT01385660095",
                "shop": "supermarket",
                "wheelchair": "no"
            }
        },
        {
            "type": "node",
            "id": 6283604849,
            "lat": 44.3059573,
            "lon": 8.482731,
            "timestamp": "2023-11-21T18:18:14Z",
            "version": 4,
            "changeset": 144298302,
            "user": "Chiarant",
            "uid": 18452174,
            "tags": {
                "addr:city": "Savona",
                "addr:housenumber": "32r",
                "addr:postcode": "17100",
                "addr:street": "Via Untoria",
                "amenity": "pub",
                "check_date": "2023-11-21",
                "contact:facebook": "https://www.facebook.com/RetrobottegaSV/",
                "currency:XBT": "yes",
                "description": "Locale specializzato nella preparazione di cocktails",
                "email": "retrobottega32@gmail.com",
                "name": "Retrobottega",
                "payment:lightning": "yes",
                "phone": "+39 375 782 8174",
                "website": "https://linktr.ee/retrobottega"
            }
        },
        {
            "type": "node",
            "id": 7191719704,
            "lat": 43.8149584,
            "lon": 7.7730069,
            "timestamp": "2024-12-30T18:56:55Z",
            "version": 6,
            "changeset": 160804719,
            "user": "DnaX",
            "uid": 69259,
            "tags": {
                "addr:city": "Sanremo",
                "addr:housenumber": "16",
                "addr:postcode": "18038",
                "addr:street": "Via Giacomo Matteotti",
                "brand": "Doppelg\u00e4nger",
                "brand:wikidata": "Q117451227",
                "check_date": "2023-08-26",
                "clothes": "men",
                "currency:XBT": "yes",
                "name": "Doppelg\u00e4nger",
                "phone": "+39 0184 637744",
                "shop": "clothes"
            }
        },
        {
            "type": "node",
            "id": 7501332254,
            "lat": 44.3377326,
            "lon": 8.5013439,
            "timestamp": "2023-10-09T10:50:46Z",
            "version": 3,
            "changeset": 142343841,
            "user": "bubix",
            "uid": 1967477,
            "tags": {
                "addr:city": "Albissola Marina",
                "addr:housenumber": "18",
                "addr:postcode": "17012",
                "addr:street": "Via Angelo Barile",
                "dispensing": "no",
                "disused:amenity": "pharmacy",
                "healthcare": "pharmacy",
                "name": "Parafarmacia Conad",
                "operator": "Conad"
            }
        },
        {
            "type": "node",
            "id": 7501673939,
            "lat": 43.8988215,
            "lon": 8.0301833,
            "timestamp": "2024-12-03T19:50:43Z",
            "version": 4,
            "changeset": 159894870,
            "user": "LucianoC63",
            "uid": 20673751,
            "tags": {
                "addr:city": "Imperia",
                "addr:housenumber": "347",
                "addr:postcode": "18100",
                "addr:street": "Argine Destro Ferdinando Scajola",
                "amenity": "pharmacy",
                "dispensing": "no",
                "healthcare": "pharmacy",
                "name": "Parafarmacia Conad",
                "operator": "Conad",
                "wheelchair": "yes"
            }
        },
        {
            "type": "node",
            "id": 7501700350,
            "lat": 43.8888545,
            "lon": 8.04078,
            "timestamp": "2024-02-17T17:50:38Z",
            "version": 3,
            "changeset": 147581937,
            "user": "LucianoC63",
            "uid": 20673751,
            "tags": {
                "addr:city": "Imperia",
                "addr:housenumber": "8",
                "addr:postcode": "18100",
                "addr:street": "Galleria Isnardi",
                "amenity": "pharmacy",
                "dispensing": "no",
                "drive_through": "no",
                "healthcare": "pharmacy",
                "name": "Parafarmacia Conad",
                "opening_hours": "Mo-Sa 08:30-19:30; Su 09:00-12:30",
                "operator": "Conad"
            }
        },
        {
            "type": "node",
            "id": 7501711285,
            "lat": 43.8787475,
            "lon": 8.0057617,
            "timestamp": "2020-05-09T18:29:49Z",
            "version": 1,
            "changeset": 84947673,
            "user": "mascalzone67",
            "uid": 1861652,
            "tags": {
                "addr:city": "Imperia",
                "addr:housenumber": "5",
                "addr:postcode": "18100",
                "addr:street": "Via Giuseppe Airenti",
                "amenity": "pharmacy",
                "dispensing": "no",
                "healthcare": "pharmacy",
                "name": "Parafarmacia Conad",
                "operator": "Conad"
            }
        },
        {
            "type": "node",
            "id": 7502552983,
            "lat": 44.4036968,
            "lon": 8.2847715,
            "timestamp": "2020-05-10T06:43:10Z",
            "version": 1,
            "changeset": 84960226,
            "user": "mascalzone67",
            "uid": 1861652,
            "tags": {
                "addr:city": "Cairo Montenotte",
                "addr:housenumber": "28b",
                "addr:postcode": "17014",
                "addr:street": "Via Brigate Partigiane",
                "amenity": "pharmacy",
                "dispensing": "no",
                "healthcare": "pharmacy",
                "name": "Parafarmacia Conad",
                "operator": "Conad"
            }
        },
        {
            "type": "node",
            "id": 7502569262,
            "lat": 44.3003167,
            "lon": 8.4632634,
            "timestamp": "2021-07-09T05:37:32Z",
            "version": 3,
            "changeset": 107675276,
            "user": "bubix",
            "uid": 1967477,
            "tags": {
                "addr:city": "Savona",
                "addr:postcode": "17100",
                "addr:street": "Via Stalingrado",
                "amenity": "pharmacy",
                "dispensing": "no",
                "healthcare": "pharmacy",
                "level": "1",
                "name": "Parafarmacia Conad",
                "operator": "Conad"
            }
        },
        {
            "type": "node",
            "id": 7502571415,
            "lat": 43.8376767,
            "lon": 7.8504387,
            "timestamp": "2020-05-10T06:32:42Z",
            "version": 1,
            "changeset": 84959978,
            "user": "mascalzone67",
            "uid": 1861652,
            "tags": {
                "addr:city": "Taggia",
                "addr:housenumber": "56",
                "addr:postcode": "18011",
                "addr:street": "Via Privata Roggeri",
                "brand": "Conad",
                "brand:wikidata": "Q639075",
                "brand:wikipedia": "it:Conad",
                "email": "boxtg@nordiconad.it",
                "name": "Conad",
                "opening_hours": "Mo-Sa 08:00-21:00; Su 09:00-20:00",
                "operator": "Conad",
                "payment:bancomat": "yes",
                "payment:cash": "yes",
                "payment:credit_cards": "yes",
                "phone": "+39 0184 459111",
                "shop": "supermarket",
                "website": "https://www.conad.it/ricerca-negozi/negozio.006885.html"
            }
        },
        {
            "type": "node",
            "id": 7502571416,
            "lat": 43.8377367,
            "lon": 7.8502617,
            "timestamp": "2024-02-23T17:13:07Z",
            "version": 3,
            "changeset": 147827255,
            "user": "nick1993",
            "uid": 3335735,
            "tags": {
                "addr:city": "Taggia",
                "addr:housenumber": "56",
                "addr:postcode": "18011",
                "addr:street": "Via Privata Roggeri",
                "amenity": "pharmacy",
                "brand": "Parafarmacia Conad",
                "dispensing": "no",
                "healthcare": "pharmacy",
                "name": "Parafarmacia Conad",
                "operator": "Conad",
                "ref:msal": "2594"
            }
        },
        {
            "type": "node",
            "id": 7502595965,
            "lat": 44.1209642,
            "lon": 8.2264007,
            "timestamp": "2024-03-19T23:03:33Z",
            "version": 3,
            "changeset": 148885692,
            "user": "brusss00",
            "uid": 11517394,
            "tags": {
                "addr:city": "Toirano",
                "addr:housenumber": "6",
                "addr:street": "Via dell'Innovazione",
                "amenity": "pharmacy",
                "dispensing": "no",
                "healthcare": "pharmacy",
                "name": "Parafarmacia Conad",
                "operator": "Conad"
            }
        },
        {
            "type": "node",
            "id": 8163666071,
            "lat": 44.3132609,
            "lon": 8.4717118,
            "timestamp": "2025-01-01T20:19:36Z",
            "version": 4,
            "changeset": 160884005,
            "user": "mpbin",
            "uid": 21850090,
            "tags": {
                "addr:city": "Savona",
                "addr:postcode": "17100",
                "addr:street": "Corso Agostino Ricci",
                "brand": "Unieuro",
                "brand:wikidata": "Q4004687",
                "name": "Unieuro",
                "operator": "Unieuro S.p.A.",
                "phone": "+39 019 815983",
                "ref:vatin": "IT00876320409",
                "shop": "electronics",
                "wheelchair": "yes"
            }
        },
        {
            "type": "node",
            "id": 9663613308,
            "lat": 44.120628,
            "lon": 8.2259756,
            "timestamp": "2022-04-13T15:26:08Z",
            "version": 1,
            "changeset": 119673864,
            "user": "jokien",
            "uid": 208052,
            "tags": {
                "addr:city": "Toirano",
                "addr:housenumber": "6",
                "addr:postcode": "17055",
                "addr:street": "Via dell'Innovazione",
                "brand": "Conad",
                "brand:wikidata": "Q639075",
                "brand:wikipedia": "it:Conad",
                "email": "GestisavToirano_L492132B@di-net.it",
                "name": "Conad",
                "opening_hours": "Mo-Sa 08:30-20:00; Su 09:00-13:00, 16:00-20:00",
                "operator": "Conad",
                "payment:bancomat": "yes",
                "payment:cash": "yes",
                "payment:credit_cards": "yes",
                "phone": "+39 0182 921992",
                "shop": "supermarket",
                "website": "https://www.conad.it/ricerca-negozi/negozio.009130.html"
            }
        },
        {
            "type": "node",
            "id": 10116556911,
            "lat": 43.9257718,
            "lon": 8.0199836,
            "timestamp": "2025-01-01T20:51:59Z",
            "version": 2,
            "changeset": 160884999,
            "user": "mpbin",
            "uid": 21850090,
            "tags": {
                "addr:city": "Imperia",
                "addr:housenumber": "373",
                "addr:postcode": "18100",
                "addr:street": "Via Nazionale",
                "brand": "Unieuro",
                "brand:wikidata": "Q4004687",
                "name": "Unieuro",
                "operator": "Unieuro S.p.A.",
                "shop": "electronics"
            }
        },
        {
            "type": "node",
            "id": 10748802636,
            "lat": 44.3638834,
            "lon": 8.2062393,
            "timestamp": "2024-12-19T10:02:33Z",
            "version": 6,
            "changeset": 160385917,
            "user": "LucianoC63",
            "uid": 20673751,
            "tags": {
                "addr:city": "Millesimo",
                "addr:housenumber": "52",
                "addr:postcode": "17017",
                "addr:street": "Piazza Italia",
                "amenity": "restaurant",
                "check_date": "2024-11-23",
                "check_date:currency:XBT": "2024-11-23",
                "contact:facebook": "https://www.facebook.com/pantareicucinamillesimo/",
                "cuisine": "italian",
                "currency:XBT": "yes",
                "email": "info@pantareicucina.it",
                "name": "Pantarei Cucina",
                "opening_hours": "Fr-We 12:00-14:30,19:30-22:00",
                "payment:lightning": "yes",
                "payment:lightning_contactless": "no",
                "payment:onchain": "yes",
                "phone": "+39 019 565968",
                "survey:date": "2024-11-23"
            }
        },
        {
            "type": "node",
            "id": 10758549586,
            "lat": 43.9503526,
            "lon": 8.1399516,
            "timestamp": "2023-08-01T11:53:55Z",
            "version": 4,
            "changeset": 139296647,
            "user": "Igor Bubelov",
            "uid": 2104834,
            "tags": {
                "addr:city": "Andora",
                "addr:housenumber": "54",
                "addr:postcode": "17051",
                "addr:street": "Via Carminati",
                "air_conditioning": "yes",
                "check_date": "2023-03-24",
                "consulting": "contabilit\u00e0;paghe;marketing;comunicazione;consulenza;bitcoin;digitalizzazione",
                "currency:XBT": "yes",
                "description": "Lo Studio Vanaude \u00e8 il centro elaborazione dati nato nel 1998 da Roberto Vandini e Cristina Vottero.\nLo Studio Vanaude offre servizi professionali di contabilit\u00e0, paghe, marketing, comunicazione, consulenza Bitcoin e digitalizzazione aziendale.",
                "email": "studiovanaude@gmail.com",
                "internet_access": "wlan",
                "name": "Studio Vanaude",
                "office": "accountant",
                "opening_hours": "Mo-Fr 09:00-19:00",
                "payment:lightning": "yes",
                "payment:lightning_contactless": "no",
                "payment:onchain": "yes",
                "phone": "+39 334 671 0703",
                "website": "https://twitter.com/studiovanaude"
            }
        },
        {
            "type": "node",
            "id": 11005606809,
            "lat": 44.4519155,
            "lon": 8.3824973,
            "timestamp": "2023-06-26T11:02:12Z",
            "version": 2,
            "changeset": 137787152,
            "user": "Chiarant",
            "uid": 18452174,
            "tags": {
                "addr:city": "Giusvalla",
                "addr:housenumber": "2",
                "addr:postcode": "17010",
                "addr:street": "Localit\u00e0 Vicari",
                "check_date": "2023-06-26",
                "currency:XBT": "yes",
                "description": "Vendita cosmetici artigianali",
                "email": "info@bagnisliguria.it",
                "name": "Azienda Agricola Daniela Bagnis",
                "note": "Presente e-commerce",
                "payment:lightning": "yes",
                "phone": "+39 333 2471926",
                "shop": "cosmetics",
                "website": "https://www.bagnisliguria.it/"
            }
        },
        {
            "type": "node",
            "id": 11137206877,
            "lat": 44.0544817,
            "lon": 8.1947679,
            "timestamp": "2024-12-19T10:02:33Z",
            "version": 4,
            "changeset": 160385917,
            "user": "LucianoC63",
            "uid": 20673751,
            "tags": {
                "addr:city": "Albenga",
                "addr:housenumber": "70",
                "addr:postcode": "17031",
                "addr:street": "Via Martiri della Foce",
                "amenity": "fast_food",
                "check_date": "2023-08-22",
                "contact:facebook": "https://www.facebook.com/caffetteriadasancio/",
                "contact:instagram": "https://www.instagram.com/sancio_official/",
                "cuisine": "hamburger;streetfood",
                "currency:XBT": "yes",
                "description": "Piccola ed accogliente caffetteria tavola fredda nella quale verrete accompagnati dalla prima colazione,al pranzo per arrivare ad un particolare aperitivo",
                "email": "ilariasangineto@gmail.com",
                "fast_food": "cafeteria",
                "name": "Caffetteria Da Sancio",
                "payment:lightning": "yes",
                "phone": "+39 329 8521111"
            }
        },
        {
            "type": "node",
            "id": 11293357224,
            "lat": 43.9821205,
            "lon": 8.1319208,
            "timestamp": "2023-10-27T14:57:54Z",
            "version": 1,
            "changeset": 143215884,
            "user": "Chiarant",
            "uid": 18452174,
            "tags": {
                "addr:city": "Andora",
                "addr:housenumber": "32",
                "addr:street": "Via Giovanni Molineri",
                "amenity": "studio",
                "check_date": "2023-10-27",
                "currency:XBT": "yes",
                "description": "Servizio DJ, intrattenimento e registrazione audio in studio.",
                "name": "GEGE DeeJay",
                "payment:lightning": "yes",
                "payment:onchain": "yes",
                "phone": "+39 334 378 8217",
                "studio": "audio"
            }
        },
        {
            "type": "node",
            "id": 11379308458,
            "lat": 43.9512429,
            "lon": 8.1516771,
            "timestamp": "2023-11-27T10:29:47Z",
            "version": 1,
            "changeset": 144502151,
            "user": "Chiarant",
            "uid": 18452174,
            "tags": {
                "addr:city": "Marina di Andora",
                "addr:postcode": "17051",
                "addr:street": "Passeggiata Quaglia",
                "check_date": "2023-11-27",
                "currency:XBT": "yes",
                "leisure": "beach_resort",
                "name": "Bagni Garden",
                "payment:lightning": "yes",
                "payment:onchain": "yes",
                "phone": "+39 331 415 1692"
            }
        },
        {
            "type": "node",
            "id": 11384652694,
            "lat": 43.9772622,
            "lon": 8.1277016,
            "timestamp": "2024-10-06T17:36:13Z",
            "version": 2,
            "changeset": 157551297,
            "user": "mpbin",
            "uid": 21850090,
            "tags": {
                "addr:city": "Andora",
                "addr:housenumber": "19",
                "addr:postcode": "17051",
                "addr:street": "Strada Comunale di Conna",
                "check_date": "2024-10-06",
                "check_date:currency:XBT": "2024-10-06",
                "currency:XBT": "yes",
                "description": "Interior Design and Home Couture.\nProgettazione di spazi residenziali e commerciali, prodotti per aziende e mobili su misura.",
                "email": "info@abretiodesign.it",
                "name": "Abretio Design",
                "office": "architect",
                "payment:lightning": "yes",
                "payment:onchain": "yes",
                "phone": "+39 333 766 2857",
                "website": "https://casainteriordesign.it/"
            }
        },
        {
            "type": "node",
            "id": 11425579746,
            "lat": 44.0031156,
            "lon": 8.070929,
            "timestamp": "2024-10-12T14:48:37Z",
            "version": 3,
            "changeset": 157799234,
            "user": "mpbin",
            "uid": 21850090,
            "tags": {
                "addr:city": "Stellanello",
                "addr:housenumber": "68",
                "addr:place": "Frazione Costa",
                "addr:postcode": "17020",
                "check_date": "2024-10-12",
                "check_date:currency:XBT": "2024-10-12",
                "contact:email": "ambiente.giardini@gmail.com",
                "contact:facebook": "https://www.facebook.com/ambientegiardini.sas/",
                "craft": "gardener",
                "currency:XBT": "yes",
                "name": "Ambiente & Giardini Srl",
                "opening_hours": "Mo-Sa 08:00-18:00",
                "payment:lightning": "yes",
                "payment:lightning_contactless": "yes",
                "payment:onchain": "yes",
                "phone": "+39 33 1909 5272",
                "website": "https://www.ambientegiardini.it/"
            }
        },
        {
            "type": "node",
            "id": 11561421743,
            "lat": 43.9509527,
            "lon": 8.1481815,
            "timestamp": "2024-01-28T22:21:12Z",
            "version": 1,
            "changeset": 146797065,
            "user": "Chiarant",
            "uid": 18452174,
            "tags": {
                "addr:city": "Andora",
                "addr:housenumber": "2",
                "addr:postcode": "17051",
                "addr:street": "Via Marco Polo",
                "addr:unit": "b",
                "amenity": "fast_food",
                "check_date": "2024-01-28",
                "cuisine": "pizza;kebab;farinata;focaccia",
                "currency:XBT": "yes",
                "description": "Asporto e consegne a domicilio",
                "name": "Pig\u00eea e P\u00f6rta A C\u00e1",
                "payment:lightning": "yes",
                "payment:onchain": "yes",
                "phone": "+39 334 251 7173",
                "website": "https://pigiaeportaaca.it/"
            }
        },
        {
            "type": "node",
            "id": 11564196741,
            "lat": 43.9573842,
            "lon": 8.1403823,
            "timestamp": "2024-01-29T13:11:05Z",
            "version": 1,
            "changeset": 146821426,
            "user": "Rockedf",
            "uid": 7522075,
            "tags": {
                "addr:city": "Marina di Andora SV",
                "addr:postcode": "17051",
                "addr:street": "Via Risorgimento",
                "check_date": "2024-01-29",
                "currency:XBT": "yes",
                "name": "Frutta e Verdura Nicoletta",
                "opening_hours": "We 08:30-12:00; Sa 08:30-12:00",
                "payment:lightning": "yes",
                "payment:lightning_contactless": "no",
                "payment:onchain": "yes",
                "phone": "+39 34 5415 4886",
                "shop": "greengrocer"
            }
        },
        {
            "type": "node",
            "id": 11967062960,
            "lat": 44.1475624,
            "lon": 8.2788506,
            "timestamp": "2024-06-09T16:52:25Z",
            "version": 1,
            "changeset": 152463713,
            "user": "Ale_Mj",
            "uid": 21640589,
            "tags": {
                "addr:city": "Pietra Ligure",
                "addr:housenumber": "24",
                "addr:postcode": "17027",
                "addr:street": "Via Suor Maria Giuseppa Rossello",
                "amenity": "dojo",
                "currency:XBT": "yes",
                "name": "Scuola Orientale Pietra Ligure",
                "opening_hours": "24/7",
                "payment:bancomat": "yes",
                "payment:credit_cards": "yes",
                "payment:lightning": "yes",
                "payment:lightning_contactless": "yes",
                "payment:mastercard": "yes",
                "payment:onchain": "yes",
                "payment:visa": "yes",
                "sport": "taijiquan;wing_chun;kung_fu;tai_chi",
                "survey:date": "2024-06-09"
            }
        },
        {
            "type": "node",
            "id": 11968251407,
            "lat": 44.1277711,
            "lon": 8.2501129,
            "timestamp": "2024-06-10T12:53:48Z",
            "version": 3,
            "changeset": 152496740,
            "user": "Ale_Mj",
            "uid": 21640589,
            "tags": {
                "addr:city": "Loano",
                "addr:housenumber": "23",
                "addr:postcode": "17025",
                "addr:street": "Via Dante Alighieri",
                "currency:XBT": "yes",
                "male": "yes",
                "name": "Parrucchiere Massimo",
                "payment:lightning": "yes",
                "payment:lightning_contactless": "yes",
                "payment:onchain": "yes",
                "shop": "hairdresser",
                "survey:date": "2024-06-10"
            }
        },
        {
            "type": "node",
            "id": 11969571995,
            "lat": 44.1220695,
            "lon": 8.252502,
            "timestamp": "2024-06-10T16:53:39Z",
            "version": 1,
            "changeset": 152506813,
            "user": "Ale_Mj",
            "uid": 21640589,
            "tags": {
                "addr:city": "Loano",
                "addr:housenumber": "19",
                "addr:postcode": "17025",
                "addr:street": "Via Genova",
                "currency:XBT": "yes",
                "name": "Kaos - L'Origine delle idee",
                "office": "advertising_agency",
                "payment:lightning": "yes",
                "payment:lightning_contactless": "yes",
                "payment:onchain": "yes",
                "survey:date": "2024-06-10",
                "website": "https://www.kaosgrafica.com"
            }
        },
        {
            "type": "node",
            "id": 12317643926,
            "lat": 44.0542349,
            "lon": 8.197932,
            "timestamp": "2025-01-03T11:00:35Z",
            "version": 4,
            "changeset": 160943102,
            "user": "mpbin",
            "uid": 21850090,
            "tags": {
                "addr:city": "Albenga",
                "addr:housenumber": "48",
                "addr:postcode": "17031",
                "addr:street": "Via Martiri della Foce",
                "brand": "Decathlon",
                "brand:wikidata": "Q509349",
                "brand:wikipedia": "en:Decathlon Group",
                "name": "Decathlon",
                "operator": "Decathlon",
                "shop": "sports",
                "website": "https://www.decathlon.it/",
                "wheelchair": "yes"
            }
        },
        {
            "type": "way",
            "id": 135435683,
            "timestamp": "2025-01-04T11:12:34Z",
            "version": 9,
            "changeset": 160981105,
            "user": "Red Zeppelin",
            "uid": 9473121,
            "nodes": [
                1487528737,
                1487528765,
                1487528741,
                1487528727,
                1733624383,
                1733624384,
                1487528737
            ],
            "tags": {
                "addr:city": "Albissola Marina",
                "addr:housenumber": "18",
                "addr:postcode": "17012",
                "addr:street": "Via Angelo Barile",
                "brand": "Conad",
                "brand:wikidata": "Q639075",
                "brand:wikipedia": "it:Conad",
                "building": "retail",
                "building:levels": "5",
                "check_date": "2025-01-04",
                "email": "FeniceAlbissolaMarinaViaBarile_L491865B@di-net.it",
                "name": "Conad",
                "operator": "Conad",
                "payment:bancomat": "yes",
                "payment:cash": "yes",
                "payment:credit_cards": "yes",
                "phone": "+39 019 4004345",
                "ref:vatin": "IT01385660095",
                "roof:levels": "0",
                "shop": "supermarket",
                "toilets:wheelchair": "yes",
                "website": "https://www.conad.it/ricerca-negozi/negozio.007127.html",
                "wheelchair": "yes"
            }
        },
        {
            "type": "way",
            "id": 800977865,
            "timestamp": "2022-03-26T14:59:41Z",
            "version": 3,
            "changeset": 118950870,
            "user": "Andrew Cabassa",
            "uid": 15286027,
            "nodes": [
                7491838364,
                7491838365,
                3809768137,
                7491838366,
                7491838367,
                7491838368,
                7491838369,
                7491838370,
                7491838371,
                7491838372,
                7491838364
            ],
            "tags": {
                "access": "yes",
                "amenity": "parking",
                "capacity": "30",
                "capacity:disabled": "1",
                "description": "Parcheggio riservato al supermercato Conad",
                "fee": "no",
                "operator": "Conad",
                "operator:type": "private",
                "parking": "surface",
                "surface": "asphalt"
            }
        },
        {
            "type": "way",
            "id": 1052269030,
            "timestamp": "2023-04-25T19:28:40Z",
            "version": 3,
            "changeset": 135357639,
            "user": "Godot",
            "uid": 29874,
            "nodes": [
                9670420275,
                10773724183,
                9670420276,
                9670420277,
                9670420278,
                9670420275
            ],
            "tags": {
                "access": "private",
                "amenity": "parking",
                "fee": "no",
                "operator": "Conad",
                "operator:type": "business",
                "parking": "surface",
                "surface": "asphalt"
            }
        }
    ],
    "telegram": [
        {
            "telegram": "ss-albenga"
        }
    ]
}