{
    "id": "belluno",
    "name": "Belluno",
    "lng": 46.13837528,
    "lat": 12.21704167,
    "poi": [
        {
            "type": "node",
            "id": 289485917,
            "lat": 46.537047,
            "lon": 12.1405035,
            "timestamp": "2024-06-10T14:18:44Z",
            "version": 11,
            "changeset": 152500371,
            "user": "toponomastica_comune_arenzano",
            "uid": 14257573,
            "tags": {
                "addr:city": "Cortina d'Ampezzo",
                "addr:housenumber": "1",
                "addr:postcode": "32043",
                "addr:street": "Via Carlo Franchetti",
                "brand": "Conad City",
                "brand:wikidata": "Q57543102",
                "name": "Conad city",
                "opening_hours": "Mo-Su 08:00-20:00",
                "operator": "Conad",
                "shop": "supermarket",
                "website": "https://www.conad.it/ricerca-negozi/conad-city-via-barone-franchetti-1-32043--cortina-dampezzo--010378"
            }
        },
        {
            "type": "node",
            "id": 1403161164,
            "lat": 45.8241234,
            "lon": 11.8825578,
            "timestamp": "2024-12-31T17:44:11Z",
            "version": 7,
            "changeset": 160842983,
            "user": "mpbin",
            "uid": 21850090,
            "tags": {
                "addr:city": "Castelcucco",
                "addr:housenumber": "52",
                "addr:postcode": "31030",
                "addr:street": "Via Guglielmo Marconi",
                "brand": "Unieuro",
                "brand:wikidata": "Q4004687",
                "name": "Unieuro",
                "operator": "Unieuro S.p.A.",
                "shop": "electronics"
            }
        },
        {
            "type": "node",
            "id": 1586852220,
            "lat": 45.9449136,
            "lon": 12.7263726,
            "timestamp": "2024-12-31T17:46:39Z",
            "version": 5,
            "changeset": 160843069,
            "user": "mpbin",
            "uid": 21850090,
            "tags": {
                "addr:city": "Fiume Veneto",
                "addr:postcode": "33080",
                "addr:street": "Via Maestri del Lavoro",
                "brand": "Unieuro",
                "brand:wikidata": "Q4004687",
                "brand:wikipedia": "en:Unieuro",
                "contact:email": "direzionefiumeveneto@unieuro.com",
                "contact:facebook": "https://m.facebook.com/UnieuroFiumeVeneto",
                "contact:phone": "+39 0434 560846",
                "contact:website": "www.unieuro.it",
                "name": "Unieuro",
                "opening_hours": "Mo-Fr 09:00-20:00",
                "operator": "Unieuro S.p.A.",
                "phone": "+39 0434 560846",
                "shop": "electronics",
                "wheelchair": "yes"
            }
        },
        {
            "type": "node",
            "id": 1748853004,
            "lat": 45.8788895,
            "lon": 12.3073428,
            "timestamp": "2024-12-31T17:49:16Z",
            "version": 5,
            "changeset": 160843146,
            "user": "mpbin",
            "uid": 21850090,
            "tags": {
                "addr:city": "Conegliano",
                "addr:housenumber": "207",
                "addr:postcode": "31015",
                "addr:street": "Viale Italia",
                "brand": "Unieuro",
                "brand:wikidata": "Q4004687",
                "brand:wikipedia": "en:Unieuro",
                "check_date": "2023-07-14",
                "name": "Unieuro",
                "operator": "Unieuro S.p.A.",
                "shop": "electronics",
                "wheelchair": "yes"
            }
        },
        {
            "type": "node",
            "id": 1801853005,
            "lat": 45.8693292,
            "lon": 11.9690372,
            "timestamp": "2024-12-31T17:50:37Z",
            "version": 5,
            "changeset": 160843188,
            "user": "mpbin",
            "uid": 21850090,
            "tags": {
                "addr:city": "Pederobba",
                "addr:housenumber": "45",
                "addr:postcode": "31040",
                "addr:street": "Via Feltrina",
                "brand": "Unieuro",
                "brand:wikidata": "Q4004687",
                "name": "Unieuro",
                "operator": "Unieuro S.p.A.",
                "shop": "electronics"
            }
        },
        {
            "type": "node",
            "id": 1818174095,
            "lat": 46.0435595,
            "lon": 11.7479118,
            "timestamp": "2024-07-24T16:52:40Z",
            "version": 5,
            "changeset": 154359693,
            "user": "RaelZero",
            "uid": 2701091,
            "tags": {
                "addr:city": "Lamon",
                "addr:housenumber": "132",
                "addr:postcode": "32033",
                "addr:street": "Via Roma",
                "check_date": "2024-07-24",
                "name": "Conad Margherita",
                "old_name": "CRAI da Gaio",
                "opening_hours": "Mo-Sa 07:30-12:30,15:30-19:30; Su 08:00-12:00",
                "operator": "Conad",
                "payment:bancomat": "yes",
                "payment:cash": "yes",
                "payment:maestro": "yes",
                "payment:mastercard": "yes",
                "payment:visa": "yes",
                "shop": "convenience"
            }
        },
        {
            "type": "node",
            "id": 2428697202,
            "lat": 46.1544314,
            "lon": 11.8042617,
            "timestamp": "2024-12-31T07:45:43Z",
            "version": 10,
            "changeset": 160821873,
            "user": "mpbin",
            "uid": 21850090,
            "tags": {
                "addr:city": "Mezzano",
                "addr:housenumber": "16",
                "addr:postcode": "38050",
                "addr:street": "Via Roma",
                "name": "Margherita Conad - Alimentari",
                "opening_hours": "Mo-Sa 07:00-12:30; Su 07:00-12:00; Mo, Tu, Th-Sa 16:15-19:15",
                "operator": "Conad",
                "shop": "convenience",
                "survey:date": "2022-07-05"
            }
        },
        {
            "type": "node",
            "id": 3765116375,
            "lat": 45.9582864,
            "lon": 12.6622506,
            "timestamp": "2024-07-20T20:53:38Z",
            "version": 7,
            "changeset": 154195679,
            "user": "mauropili",
            "uid": 1496865,
            "tags": {
                "addr:city": "Pordenone",
                "addr:housenumber": "5",
                "addr:postcode": "33170",
                "addr:street": "Piazzetta dei Domenicani",
                "check_date:currency:XBT": "2023-03-03",
                "contact:facebook": "https://www.facebook.com/FrancoPadovanZETA",
                "contact:linkedin": "https://www.linkedin.com/in/franco-padovan-0b232b107/",
                "currency:XBT": "yes",
                "name": "Zeta Gold Banco Metalli",
                "shop": "gold_buyer",
                "website": "https://www.francopadovan.com/"
            }
        },
        {
            "type": "node",
            "id": 3887586481,
            "lat": 46.1693851,
            "lon": 12.7043867,
            "timestamp": "2024-02-19T21:13:40Z",
            "version": 2,
            "changeset": 147668418,
            "user": "Chiarant",
            "uid": 18452174,
            "tags": {
                "addr:city": "Maniago",
                "addr:housenumber": "2",
                "addr:postcode": "33085",
                "addr:street": "Via Alessandro Manzoni",
                "check_date": "2024-02-19",
                "currency:XBT": "yes",
                "email": "info@valbershop.it",
                "name": "Valber Shop",
                "phone": "+39 0427 731290",
                "shop": "clothes",
                "website": "https://www.valbershop.it/"
            }
        },
        {
            "type": "node",
            "id": 5333027525,
            "lat": 45.780744,
            "lon": 11.889103,
            "timestamp": "2023-07-18T22:00:14Z",
            "version": 4,
            "changeset": 138689431,
            "user": "saunter",
            "uid": 10396321,
            "tags": {
                "addr:city": "Fonte",
                "addr:housenumber": "53",
                "addr:postcode": "31010",
                "addr:street": "Via delle Industrie",
                "check_date:currency:XBT": "2023-07-18",
                "craft": "carpenter",
                "currency:XBT": "yes",
                "description": "Produzione di mobili e arredamenti di alta gamma, anche personalizzati.",
                "email": "faber@fabermobili.com",
                "name": "Faber Mobili srl",
                "phone": "+39 0423410000",
                "website": "https://www.fabermobili.com/"
            }
        },
        {
            "type": "node",
            "id": 5414009056,
            "lat": 46.0696252,
            "lon": 11.8237276,
            "timestamp": "2024-10-05T07:23:30Z",
            "version": 6,
            "changeset": 157486996,
            "user": "mpbin",
            "uid": 21850090,
            "tags": {
                "addr:city": "Sovramonte",
                "addr:housenumber": "84",
                "addr:postcode": "32030",
                "addr:street": "Via Aune",
                "check_date:currency:XBT": "2023-07-19",
                "contact:facebook": "https://www.facebook.com/sosinformaticatech",
                "contact:instagram": "https://www.instagram.com/sosinformaticabl/",
                "contact:linkedin": "https://www.linkedin.com/company/sosinformatica",
                "contact:mobile": "+39 342 3944 263",
                "currency:XBT": "yes",
                "description": "Laboratorio specializzato nella riparazione di Pc, Notebook, Tablet e Smartphone.Recupero dati da qualsiasi dispositivo, laboratorio allestito con camera bianca.",
                "ele": "900",
                "email": "info@sosinformatica.tech",
                "name": "S.o.S. informatica di De Bortoli Antonio",
                "opening_hours": "Mo-Fr 09:30-12:30,15:00-17:30",
                "payment:coins": "yes",
                "payment:credit_cards": "yes",
                "payment:maestro": "yes",
                "payment:mastercard": "yes",
                "payment:visa": "yes",
                "payment:visa_electron": "yes",
                "phone": "+3904391990229",
                "shop": "computer",
                "website": "https://www.sosinformatica.tech/"
            }
        },
        {
            "type": "node",
            "id": 5770912521,
            "lat": 45.989237,
            "lon": 12.29552,
            "timestamp": "2023-07-19T13:50:49Z",
            "version": 5,
            "changeset": 138719050,
            "user": "saunter",
            "uid": 10396321,
            "tags": {
                "addr:city": "Vittorio Veneto",
                "addr:housenumber": "2",
                "addr:postcode": "31029",
                "addr:street": "Largo Felice Cavallotti",
                "check_date:currency:XBT": "2023-07-19",
                "currency:XBT": "yes",
                "description": "Rivendita sali e tabacchi, articoli da fumo e lotto.",
                "email": "sasakiperin@gmail.com",
                "name": "Tabaccheria al Quadrilatero",
                "shop": "tobacco",
                "website": "https://www.facebook.com/tabaccheriaquadrilatero"
            }
        },
        {
            "type": "node",
            "id": 6477573230,
            "lat": 46.0489313,
            "lon": 12.0524223,
            "timestamp": "2024-04-17T10:38:51Z",
            "version": 4,
            "changeset": 150122040,
            "user": "Igor Bubelov",
            "uid": 2104834,
            "tags": {
                "addr:city": "Mel",
                "addr:housenumber": "65",
                "addr:postcode": "32026",
                "addr:street": "Via Campo San Pietro",
                "check_date": "2024-04-17",
                "currency:XBT": "yes",
                "email": "info@ramcomputers.org",
                "name": "RAM Computers",
                "payment:bitcoin:operator": "inbitcoin.it",
                "phone": "+390437552344",
                "shop": "computer",
                "website": "https://ramcomputers.org"
            }
        },
        {
            "type": "node",
            "id": 7500992493,
            "lat": 45.9725403,
            "lon": 12.6144979,
            "timestamp": "2020-05-09T14:12:26Z",
            "version": 1,
            "changeset": 84939424,
            "user": "mascalzone67",
            "uid": 1861652,
            "tags": {
                "addr:city": "Porcia",
                "addr:housenumber": "52",
                "addr:postcode": "33080",
                "addr:street": "Via Roveredo",
                "amenity": "pharmacy",
                "dispensing": "no",
                "healthcare": "pharmacy",
                "name": "Parafarmacia Conad",
                "operator": "Conad"
            }
        },
        {
            "type": "node",
            "id": 10275916796,
            "lat": 46.4230476,
            "lon": 12.3589338,
            "timestamp": "2024-11-25T20:36:28Z",
            "version": 2,
            "changeset": 159588809,
            "user": "mpbin",
            "uid": 21850090,
            "tags": {
                "addr:city": "Belluno",
                "addr:postcode": "32044",
                "addr:street": "Tai di Cadore",
                "check_date": "2024-11-25",
                "check_date:currency:XBT": "2024-11-25",
                "contact:instagram": "https://www.instagram.com/larixstudio/",
                "contact:twitter": "@enricotabacchi",
                "craft": "photographer",
                "currency:XBT": "yes",
                "description": "Photographer",
                "email": "info@larixstudio.com",
                "name": "Larix Studio",
                "payment:lightning": "yes",
                "payment:lightning_contactless": "no",
                "payment:onchain": "yes",
                "phone": "+39 3407709693",
                "website": "https://larixstudio.com"
            }
        },
        {
            "type": "node",
            "id": 10718692223,
            "lat": 45.9584492,
            "lon": 12.6586746,
            "timestamp": "2024-02-19T21:10:46Z",
            "version": 2,
            "changeset": 147668334,
            "user": "Chiarant",
            "uid": 18452174,
            "tags": {
                "addr:city": "Pordenone",
                "addr:housenumber": "29",
                "addr:postcode": "33170",
                "addr:street": "Piazzale Venti Settembre",
                "check_date": "2024-02-19",
                "currency:XBT": "yes",
                "email": "info@valbershop.it",
                "name": "Valber Shop - Only Pordenone",
                "phone": "+39 0434 177 7825",
                "shop": "clothes",
                "website": "https://www.valbershop.it/"
            }
        },
        {
            "type": "node",
            "id": 11080635396,
            "lat": 45.9639713,
            "lon": 12.273031,
            "timestamp": "2024-12-20T13:16:03Z",
            "version": 4,
            "changeset": 160433148,
            "user": "Rockedf",
            "uid": 7522075,
            "tags": {
                "addr:city": "Cozzuolo, Vittorio Veneto",
                "addr:housenumber": "13",
                "addr:postcode": "31020",
                "addr:street": "Via San Mor",
                "amenity": "restaurant",
                "check_date:currency:XBT": "2024-12-20",
                "cuisine": "regional;italian",
                "currency:XBT": "yes",
                "diet:healthy": "yes",
                "diet:local": "yes",
                "diet:meat": "yes",
                "diet:vegetarian": "yes",
                "internet_access": "wlan",
                "name": "Agriturismo Le Colline",
                "payment:lightning": "yes",
                "payment:onchain": "yes",
                "phone": "0438560282",
                "website": "lecollinecozzuolo.it"
            }
        },
        {
            "type": "node",
            "id": 11866142243,
            "lat": 45.8231284,
            "lon": 12.2537163,
            "timestamp": "2024-11-11T12:15:44Z",
            "version": 2,
            "changeset": 159006130,
            "user": "Rockedf",
            "uid": 7522075,
            "tags": {
                "addr:city": "Ponte della Priula",
                "addr:housenumber": "79",
                "addr:postcode": "31010",
                "addr:street": "Via Quattro Novembre",
                "addr:unit": "b",
                "check_date": "2024-11-11",
                "currency:XBT": "yes",
                "name": "Il chicco di grano",
                "opening_hours": "Mo-Sa 06:30-12:30,15:30-19:00",
                "payment:lightning": "yes",
                "payment:lightning_contactless": "no",
                "payment:onchain": "yes",
                "shop": "bakery"
            }
        },
        {
            "type": "node",
            "id": 11980863518,
            "lat": 45.9058678,
            "lon": 12.3362754,
            "timestamp": "2024-06-14T13:29:12Z",
            "version": 1,
            "changeset": 152679049,
            "user": "Rockedf",
            "uid": 7522075,
            "tags": {
                "addr:city": "San Fior",
                "addr:housenumber": "86",
                "addr:postcode": "31020",
                "addr:street": "Via Nazionale",
                "amenity": "car_wash",
                "check_date": "2024-06-14",
                "currency:XBT": "yes",
                "name": "Ip San Fior Autolavaggio e Noleggio",
                "payment:lightning": "yes",
                "payment:lightning_contactless": "no",
                "payment:onchain": "yes",
                "phone": "+39 37 6176 3526"
            }
        },
        {
            "type": "node",
            "id": 11980916898,
            "lat": 46.0301992,
            "lon": 12.5164386,
            "timestamp": "2024-06-14T14:15:47Z",
            "version": 2,
            "changeset": 152681319,
            "user": "Maarmolada Art",
            "uid": 21657162,
            "tags": {
                "addr:city": "Polcenigo",
                "addr:housenumber": "17",
                "addr:postcode": "33070",
                "addr:street": "Via Pizzoch",
                "currency:XBT": "yes",
                "name": "Maarmolada Art",
                "opening_hours": "Mo-Su 10:00-22:00",
                "payment:contactless": "no",
                "payment:lightning": "yes",
                "payment:onchain": "no",
                "survey:date": "2024-01-01",
                "tourism": "gallery",
                "website": "https://linktr.ee/Ma.armoladaArt?fbclid=PAZXh0bgNhZW0CMTEAAab21UrFK8GPO9qQpBG1sLHqZAghQhylICmYogHy_rvxFkkjjHose8qtG74_aem_ZmFrZWR1bW15MTZieXRlcw"
            }
        }
    ],
    "telegram": [
        {
            "telegram": "b-veneto"
        },
        {
            "telegram": "ss-belluno"
        }
    ]
}