{
    "id": "brindisi",
    "name": "Brindisi",
    "lng": 40.635512,
    "lat": 17.942211,
    "poi": [
        {
            "type": "node",
            "id": 229122362,
            "lat": 40.7264311,
            "lon": 17.5792123,
            "timestamp": "2025-10-03T10:50:04Z",
            "version": 9,
            "changeset": 172784808,
            "user": "btcitnet",
            "uid": 22525435,
            "tags": {
                "addr:city": "Ostuni",
                "addr:postcode": "72017",
                "addr:street": "Via Luigi Mindelli",
                "amenity": "fuel",
                "brand": "Tamoil",
                "brand:wikidata": "Q706793",
                "name": "Tamoil",
                "operator": "Tamoil"
            }
        },
        {
            "type": "node",
            "id": 503101623,
            "lat": 40.2964548,
            "lon": 18.198158,
            "timestamp": "2025-01-03T09:16:42Z",
            "version": 10,
            "changeset": 160939367,
            "user": "mpbin",
            "uid": 21850090,
            "tags": {
                "addr:city": "Cavallino",
                "addr:postcode": "73020",
                "addr:street": "Strada Statale 16 Adriatica",
                "brand": "Decathlon",
                "brand:wikidata": "Q509349",
                "name": "Decathlon",
                "opening_hours": "Mo-Sa 09:30-20:30; Su 10:00-20:30",
                "operator": "Decathlon",
                "phone": "+39 0832 614211",
                "shop": "sports",
                "survey:date": "2023-11-30",
                "website": "https://www.decathlon.it/",
                "wheelchair": "yes"
            }
        },
        {
            "type": "node",
            "id": 1112463816,
            "lat": 40.3515936,
            "lon": 17.7327063,
            "timestamp": "2025-06-17T09:13:55Z",
            "version": 3,
            "changeset": 167728706,
            "user": "Onyxbob",
            "uid": 22295304,
            "tags": {
                "addr:city": "Avetrana",
                "addr:housenumber": "75/79",
                "addr:postcode": "74020",
                "addr:street": "Via Magenta",
                "brand": "Conad City",
                "brand:wikidata": "Q57543102",
                "name": "Conad City",
                "opening_hours": "Mo-Sa 07:30-13:15,16:45-20:30; Su 07:45-12:30",
                "shop": "supermarket",
                "website": "https://www.conad.it/ricerca-negozi/conad-city-via-emilia-ang-via-magenta-75-79-74020-avetrana--007825"
            }
        },
        {
            "type": "node",
            "id": 2046175256,
            "lat": 40.5368594,
            "lon": 17.6473501,
            "timestamp": "2025-09-30T09:58:42Z",
            "version": 4,
            "changeset": 172652396,
            "user": "btcitnet",
            "uid": 22525435,
            "tags": {
                "addr:city": "Francavilla Fontana",
                "addr:postcode": "72021",
                "addr:street": "Strada Statale 7 Appia",
                "amenity": "fuel",
                "brand": "Q8",
                "brand:wikidata": "Q1634762",
                "brand:wikipedia": "en:Kuwait Petroleum Corporation",
                "name": "Q8",
                "operator": "Servizi & Gestioni Italia S.R.L.",
                "ref:mise": "23081"
            }
        },
        {
            "type": "node",
            "id": 2522226694,
            "lat": 40.5316061,
            "lon": 17.4362472,
            "timestamp": "2025-10-04T17:35:25Z",
            "version": 5,
            "changeset": 172840466,
            "user": "btcitnet",
            "uid": 22525435,
            "tags": {
                "addr:city": "Grottaglie",
                "addr:housenumber": "85",
                "addr:postcode": "74023",
                "addr:street": "Via Guglielmo Marconi",
                "brand": "Kasanova",
                "brand:wikidata": "Q116214505",
                "clothes": "children",
                "name": "Kasanova",
                "operator": "Kasanova",
                "shop": "houseware"
            }
        },
        {
            "type": "node",
            "id": 2920303864,
            "lat": 40.3068577,
            "lon": 18.2156793,
            "timestamp": "2023-11-28T15:26:03Z",
            "version": 9,
            "changeset": 144553887,
            "user": "\u0110uro Ji\u0159\u00ed",
            "uid": 14617702,
            "tags": {
                "addr:city": "Lizzanello",
                "addr:housenumber": "149",
                "addr:postcode": "73023",
                "addr:street": "Via Martano",
                "amenity": "fuel",
                "brand": "Q8",
                "brand:wikidata": "Q1634762",
                "compressed_air": "yes",
                "fuel:diesel": "yes",
                "fuel:octane_95": "yes",
                "name": "Q8",
                "opening_hours": "24/7",
                "ref:mise": "40467",
                "self_service": "yes",
                "wheelchair": "yes"
            }
        },
        {
            "type": "node",
            "id": 3240819961,
            "lat": 40.4974969,
            "lon": 17.9944592,
            "timestamp": "2025-10-02T10:33:30Z",
            "version": 8,
            "changeset": 172742813,
            "user": "btcitnet",
            "uid": 22525435,
            "tags": {
                "addr:city": "San Pietro Vernotico",
                "addr:postcode": "72027",
                "addr:street": "Via Brindisi",
                "amenity": "fuel",
                "brand": "Tamoil",
                "brand:wikidata": "Q706793",
                "compressed_air": "yes",
                "name": "Tamoil",
                "opening_hours": "24/7",
                "operator": "T.D.M. S.R.L.",
                "ref:mise": "39054",
                "self_service": "yes",
                "wheelchair": "yes"
            }
        },
        {
            "type": "node",
            "id": 3272828331,
            "lat": 40.3539923,
            "lon": 18.1782566,
            "timestamp": "2025-04-21T08:38:35Z",
            "version": 5,
            "changeset": 165226341,
            "user": "btcitnet",
            "uid": 22525435,
            "tags": {
                "addr:city": "Lecce",
                "addr:housenumber": "16b",
                "addr:postcode": "73100",
                "addr:street": "Via Nazario Sauro",
                "brand": "Intimissimi",
                "brand:wikidata": "Q305404",
                "clothes": "underwear",
                "name": "Intimissimi",
                "operator": "Intimissimi",
                "phone": "+39 0832 332372",
                "ref:vatin": "IT06778980729",
                "shop": "clothes",
                "wheelchair": "yes"
            }
        },
        {
            "type": "node",
            "id": 3408904451,
            "lat": 40.475383,
            "lon": 17.9615883,
            "timestamp": "2025-03-14T10:58:03Z",
            "version": 4,
            "changeset": 163605058,
            "user": "evillz",
            "uid": 22552063,
            "tags": {
                "addr:city": "Cellino San Marco",
                "addr:housenumber": "45",
                "addr:postcode": "72020",
                "addr:street": "Via Bari",
                "branch": "City",
                "brand": "Unieuro",
                "brand:wikidata": "Q4004687",
                "name": "Unieuro",
                "operator": "Arsieni Elettrodomestici",
                "payment:cash": "yes",
                "payment:credit_cards": "yes",
                "payment:debit_cards": "yes",
                "shop": "electronics"
            }
        },
        {
            "type": "node",
            "id": 3413069721,
            "lat": 40.353623,
            "lon": 18.1729047,
            "timestamp": "2025-09-03T16:42:49Z",
            "version": 6,
            "changeset": 171414929,
            "user": "Superchilum",
            "uid": 4903102,
            "tags": {
                "addr:city": "Lecce",
                "addr:housenumber": "9",
                "addr:postcode": "73100",
                "addr:street": "Via Templari",
                "brand": "La Feltrinelli",
                "brand:wikidata": "Q96311190",
                "check_date": "2025-09-03",
                "name": "La Feltrinelli",
                "opening_hours": "Mo-Fr 09:00-21:00, Sa 09:00-24:00; Su 10:00-22:00",
                "shop": "books",
                "wheelchair": "yes"
            }
        },
        {
            "type": "node",
            "id": 3875327152,
            "lat": 40.2943683,
            "lon": 18.1972205,
            "timestamp": "2023-11-28T16:58:02Z",
            "version": 6,
            "changeset": 144557211,
            "user": "\u0110uro Ji\u0159\u00ed",
            "uid": 14617702,
            "tags": {
                "addr:city": "Cavallino",
                "addr:postcode": "73020",
                "addr:street": "Strada Statale 16 Adriatica",
                "brand": "Unieuro",
                "brand:wikidata": "Q4004687",
                "name": "Unieuro",
                "opening_hours": "Mo-Sa 09:00-21:00; Su 10:00-21:00",
                "operator": "SGM Distribuzione S.r.l.",
                "phone": "+39 0832 614644",
                "ref:vatin": "IT00876320409",
                "shop": "electronics",
                "wheelchair": "yes"
            }
        },
        {
            "type": "node",
            "id": 3911006558,
            "lat": 40.3536323,
            "lon": 18.1773158,
            "timestamp": "2025-03-18T18:44:55Z",
            "version": 6,
            "changeset": 163788050,
            "user": "corfede",
            "uid": 1960233,
            "tags": {
                "addr:city": "Lecce",
                "addr:housenumber": "27",
                "addr:postcode": "73100",
                "addr:street": "Via Salvatore Trinchese",
                "brand": "Tezenis",
                "brand:wikidata": "Q28056374",
                "clothes": "women;underwear;swimwear;men;children",
                "level": "0",
                "name": "Tezenis",
                "operator": "RCS Trading S.r.l.s.",
                "phone": "+39 0832 332615",
                "ref:vatin": "IT08066230726",
                "shop": "clothes",
                "wheelchair": "limited"
            }
        },
        {
            "type": "node",
            "id": 3932075366,
            "lat": 40.3628831,
            "lon": 18.1806404,
            "timestamp": "2025-10-06T12:48:56Z",
            "version": 2,
            "changeset": 172912669,
            "user": "angdev",
            "uid": 23366657,
            "tags": {
                "addr:city": "Lecce",
                "addr:housenumber": "8",
                "addr:postcode": "73100",
                "addr:street": "Via Vincenzo Monti",
                "brand": "Spar",
                "brand:wikidata": "Q610492",
                "name": "Despar",
                "shop": "supermarket"
            }
        },
        {
            "type": "node",
            "id": 3999199768,
            "lat": 40.3150262,
            "lon": 17.5694196,
            "timestamp": "2025-10-04T17:36:22Z",
            "version": 9,
            "changeset": 172840487,
            "user": "btcitnet",
            "uid": 22525435,
            "tags": {
                "addr:city": "Maruggio",
                "addr:postcode": "74020",
                "addr:street": "Viale Tornito",
                "amenity": "fuel",
                "brand": "Q8",
                "brand:wikidata": "Q1634762",
                "compressed_air": "yes",
                "fuel:diesel": "yes",
                "fuel:octane_95": "yes",
                "name": "Q8",
                "opening_hours": "24/7",
                "operator": "Area Service S.R.L.",
                "ref:mise": "27986",
                "self_service": "yes",
                "wheelchair": "yes"
            }
        },
        {
            "type": "node",
            "id": 3999199792,
            "lat": 40.3161108,
            "lon": 17.57552,
            "timestamp": "2025-10-05T16:01:20Z",
            "version": 4,
            "changeset": 172874889,
            "user": "btcitnet",
            "uid": 22525435,
            "tags": {
                "addr:city": "Maruggio",
                "addr:postcode": "74020",
                "addr:street": "Via Mirante",
                "amenity": "fuel",
                "brand": "Q8",
                "brand:wikidata": "Q1634762",
                "fuel:diesel": "yes",
                "fuel:octane_95": "yes",
                "name": "Q8",
                "operator": "S.S.S. S.R.L.",
                "ref:mise": "42499"
            }
        },
        {
            "type": "node",
            "id": 4157128389,
            "lat": 40.3428996,
            "lon": 18.173077,
            "timestamp": "2025-10-04T21:45:21Z",
            "version": 6,
            "changeset": 172847676,
            "user": "btcitnet",
            "uid": 22525435,
            "tags": {
                "addr:city": "Lecce",
                "addr:postcode": "73100",
                "brand": "Conad",
                "brand:wikidata": "Q639075",
                "name": "Conad",
                "shop": "supermarket",
                "wheelchair": "yes"
            }
        },
        {
            "type": "node",
            "id": 4159507489,
            "lat": 40.3538728,
            "lon": 18.1808171,
            "timestamp": "2025-10-02T10:35:38Z",
            "version": 4,
            "changeset": 172742885,
            "user": "btcitnet",
            "uid": 22525435,
            "tags": {
                "addr:city": "Lecce",
                "addr:housenumber": "73",
                "addr:postcode": "73100",
                "addr:street": "Via Salvatore Trinchese",
                "brand": "Foot Locker",
                "brand:wikidata": "Q63335",
                "name": "Foot Locker",
                "shop": "shoes",
                "wheelchair": "yes"
            }
        },
        {
            "type": "node",
            "id": 4242939306,
            "lat": 40.7221146,
            "lon": 17.5776397,
            "timestamp": "2025-01-01T17:59:01Z",
            "version": 5,
            "changeset": 160879074,
            "user": "mpbin",
            "uid": 21850090,
            "tags": {
                "addr:city": "Ostuni",
                "addr:housenumber": "103/105",
                "addr:postcode": "72017",
                "addr:street": "Via Papa Giovanni XXIII",
                "branch": "City",
                "brand": "Unieuro",
                "brand:wikidata": "Q4004687",
                "name": "Unieuro",
                "operator": "Unieuro S.p.A.",
                "shop": "electronics"
            }
        },
        {
            "type": "node",
            "id": 4248791722,
            "lat": 40.7279821,
            "lon": 17.5740732,
            "timestamp": "2025-10-06T11:08:10Z",
            "version": 3,
            "changeset": 172908031,
            "user": "btcitnet",
            "uid": 22525435,
            "tags": {
                "addr:city": "Ostuni",
                "addr:housenumber": "3",
                "addr:postcode": "72017",
                "addr:street": "Viale Pola",
                "brand": "Bottega Verde",
                "brand:wikidata": "Q894870",
                "name": "Bottega Verde",
                "shop": "cosmetics"
            }
        },
        {
            "type": "node",
            "id": 4250677310,
            "lat": 40.7271504,
            "lon": 17.5792281,
            "timestamp": "2025-10-05T16:02:15Z",
            "version": 3,
            "changeset": 172874922,
            "user": "btcitnet",
            "uid": 22525435,
            "tags": {
                "addr:city": "Ostuni",
                "addr:housenumber": "17",
                "addr:postcode": "72017",
                "addr:street": "Via Armando Diaz",
                "branch": "Cannillo Srl",
                "brand": "Spar",
                "brand:wikidata": "Q610492",
                "name": "Despar",
                "shop": "supermarket"
            }
        },
        {
            "type": "node",
            "id": 4254259856,
            "lat": 40.726958,
            "lon": 17.5763062,
            "timestamp": "2025-03-25T14:09:18Z",
            "version": 2,
            "changeset": 164079084,
            "user": "evillz",
            "uid": 22552063,
            "tags": {
                "brand": "Intimissimi",
                "brand:wikidata": "Q305404",
                "clothes": "underwear",
                "name": "Intimissimi",
                "shop": "clothes"
            }
        },
        {
            "type": "node",
            "id": 4254263957,
            "lat": 40.7272901,
            "lon": 17.5751594,
            "timestamp": "2025-03-25T14:09:18Z",
            "version": 2,
            "changeset": 164079084,
            "user": "evillz",
            "uid": 22552063,
            "tags": {
                "brand": "United Colors of Benetton",
                "brand:wikidata": "Q817139",
                "name": "United Colors of Benetton",
                "shop": "clothes",
                "short_name": "Benetton"
            }
        },
        {
            "type": "node",
            "id": 4392833125,
            "lat": 40.3581997,
            "lon": 18.1793325,
            "timestamp": "2024-10-21T19:28:58Z",
            "version": 4,
            "changeset": 158184830,
            "user": "mpbin",
            "uid": 21850090,
            "tags": {
                "addr:city": "Lecce",
                "addr:housenumber": "11",
                "addr:postcode": "73100",
                "addr:street": "Piazza Ludovico Ariosto",
                "check_date": "2024-10-21",
                "check_date:currency:XBT": "2024-10-21",
                "contact:facebook": "https://www.facebook.com/casadellachiavesnc/",
                "craft": "key_cutter",
                "currency:XBT": "yes",
                "email": "info@casadellachiavesnc.com",
                "entrance": "yes",
                "mobile": "+39 320 61 95 681",
                "name": "Casa della Chiave",
                "phone": "+39 0832 16 90 971",
                "website": "https://www.casadellachiavesnc.com/"
            }
        },
        {
            "type": "node",
            "id": 4393540219,
            "lat": 40.6358406,
            "lon": 17.9419743,
            "timestamp": "2022-07-02T20:00:03Z",
            "version": 2,
            "changeset": 123131838,
            "user": "Linfindel",
            "uid": 12507004,
            "tags": {
                "addr:city": "Brindisi",
                "addr:street": "Piazza Cairoli",
                "brand": "Conad City",
                "brand:wikidata": "Q57543102",
                "name": "Conad City",
                "shop": "supermarket"
            }
        },
        {
            "type": "node",
            "id": 4431323930,
            "lat": 40.354535,
            "lon": 18.179993,
            "timestamp": "2024-06-28T22:54:50Z",
            "version": 3,
            "changeset": 153312956,
            "user": "DnaX",
            "uid": 69259,
            "tags": {
                "addr:city": "Lecce",
                "addr:housenumber": "44c",
                "addr:postcode": "73100",
                "addr:street": "Via Cesare Battisti",
                "brand": "Chicco",
                "brand:wikidata": "Q27897515",
                "clothes": "children",
                "entrance": "yes",
                "name": "Chicco",
                "shop": "baby_goods"
            }
        },
        {
            "type": "node",
            "id": 4487303327,
            "lat": 40.6594793,
            "lon": 17.7123762,
            "timestamp": "2022-10-12T15:31:26Z",
            "version": 4,
            "changeset": 127423391,
            "user": "itzshoummo",
            "uid": 16800209,
            "tags": {
                "amenity": "fuel",
                "brand": "Q8",
                "brand:wikidata": "Q1634762",
                "name": "Q8",
                "operator": "D'Adamo Salvatore",
                "ref:mise": "41240"
            }
        },
        {
            "type": "node",
            "id": 5216221125,
            "lat": 40.7271146,
            "lon": 17.5763196,
            "timestamp": "2024-01-05T15:56:18Z",
            "version": 4,
            "changeset": 145927969,
            "user": "Chiarant",
            "uid": 18452174,
            "tags": {
                "addr:city": "Ostuni",
                "addr:housenumber": "67/b",
                "addr:postcode": "72017",
                "addr:street": "Via Pola",
                "check_date": "2024-01-05",
                "currency:XBT": "yes",
                "description": "Gioielleria e laboratorio di incastonatura pietre preziose.",
                "email": "clamagioielli@gmail.com",
                "name": "Clama Gioielli",
                "phone": "+39 3208818751",
                "shop": "jewelry",
                "website": "http://www.clamagioielli.com"
            }
        },
        {
            "type": "node",
            "id": 5300559246,
            "lat": 40.3762589,
            "lon": 18.1437096,
            "timestamp": "2025-10-02T10:37:21Z",
            "version": 6,
            "changeset": 172742972,
            "user": "btcitnet",
            "uid": 22525435,
            "tags": {
                "addr:city": "Lecce",
                "addr:postcode": "73010",
                "addr:street": "Strada Statale 613 Brindisi-Lecce",
                "brand": "Foot Locker",
                "brand:wikidata": "Q63335",
                "name": "Foot Locker",
                "opening_hours": "Mo-Sa 09:00-21:00; Su 10:00-21:00",
                "shop": "shoes",
                "wheelchair": "yes"
            }
        },
        {
            "type": "node",
            "id": 5300716135,
            "lat": 40.3755019,
            "lon": 18.1446202,
            "timestamp": "2025-10-04T21:48:13Z",
            "version": 8,
            "changeset": 172847728,
            "user": "btcitnet",
            "uid": 22525435,
            "tags": {
                "addr:city": "Surbo",
                "addr:postcode": "73010",
                "brand": "Kasanova",
                "brand:wikidata": "Q116214505",
                "name": "Kasanova",
                "opening_hours": "Mo-Sa 09:00-21:00; Su 10:00-21:00",
                "shop": "houseware",
                "wheelchair": "yes"
            }
        },
        {
            "type": "node",
            "id": 5300716140,
            "lat": 40.375742,
            "lon": 18.1446772,
            "timestamp": "2025-04-21T08:40:34Z",
            "version": 6,
            "changeset": 165226425,
            "user": "btcitnet",
            "uid": 22525435,
            "tags": {
                "addr:city": "Surbo",
                "addr:postcode": "73010",
                "addr:street": "Via Rosanna Benzi",
                "brand": "Intimissimi",
                "brand:wikidata": "Q305404",
                "clothes": "underwear",
                "name": "Intimissimi",
                "opening_hours": "Mo-Sa 09:00-21:00; Su 10:00-21:00",
                "operator": "Intimissimi",
                "phone": "+39 0832 244352",
                "shop": "clothes",
                "website": "https://it.intimissimi.com/",
                "wheelchair": "yes"
            }
        },
        {
            "type": "node",
            "id": 5300716147,
            "lat": 40.3758714,
            "lon": 18.1445892,
            "timestamp": "2025-10-06T11:16:13Z",
            "version": 6,
            "changeset": 172908378,
            "user": "btcitnet",
            "uid": 22525435,
            "tags": {
                "addr:city": "Surbo",
                "addr:housenumber": "1",
                "addr:postcode": "73010",
                "addr:street": "Via Brindisi",
                "brand": "Bottega Verde",
                "brand:wikidata": "Q894870",
                "name": "Bottega Verde",
                "opening_hours": "Mo-Sa 09:00-21:00; Su 10:00-21:00",
                "shop": "cosmetics",
                "website": "https://www.bottegaverde.it/",
                "wheelchair": "yes"
            }
        },
        {
            "type": "node",
            "id": 5300716154,
            "lat": 40.3762947,
            "lon": 18.1444964,
            "timestamp": "2025-10-04T21:49:29Z",
            "version": 6,
            "changeset": 172847752,
            "user": "btcitnet",
            "uid": 22525435,
            "tags": {
                "addr:city": "Surbo",
                "addr:housenumber": "KM 1.900",
                "addr:postcode": "73010",
                "addr:street": "Strada Statale 613 Brindisi-Lecce",
                "brand": "Calzedonia",
                "brand:wikidata": "Q1027874",
                "clothes": "underwear",
                "name": "Calzedonia",
                "opening_hours": "Mo-Sa 09:00-21:00; Su 10:00-21:00",
                "phone": "+39 0832 334088",
                "shop": "clothes",
                "website": "http://www.calzedonia.it",
                "wheelchair": "yes"
            }
        },
        {
            "type": "node",
            "id": 5300716164,
            "lat": 40.3764236,
            "lon": 18.144299,
            "timestamp": "2025-10-04T21:50:26Z",
            "version": 7,
            "changeset": 172847770,
            "user": "btcitnet",
            "uid": 22525435,
            "tags": {
                "addr:city": "Surbo",
                "addr:housenumber": "km 1900",
                "addr:postcode": "73010",
                "addr:street": "Strada Statale 613 Brindisi-Lecce",
                "brand": "H&M",
                "brand:wikidata": "Q188326",
                "name": "H&M",
                "opening_hours": "Mo-Sa 09:00-21:00; Su 10:00-21:00",
                "phone": "+39 06 32832447",
                "shop": "clothes",
                "website": "https://www.hm.com/",
                "wheelchair": "yes"
            }
        },
        {
            "type": "node",
            "id": 5311134812,
            "lat": 40.3594004,
            "lon": 18.1839147,
            "timestamp": "2025-09-28T17:50:51Z",
            "version": 4,
            "changeset": 172578378,
            "user": "btcitnet",
            "uid": 22525435,
            "tags": {
                "addr:city": "Lecce",
                "addr:housenumber": "5",
                "addr:postcode": "73024",
                "addr:street": "Viale Giovanni Paolo Secondo",
                "brand": "Unieuro",
                "brand:wikidata": "Q4004687",
                "brand:wikipedia": "en:Unieuro",
                "name": "Unieuro",
                "operator": "Unieuro S.p.A.",
                "shop": "electronics"
            }
        },
        {
            "type": "node",
            "id": 5440539622,
            "lat": 40.5392458,
            "lon": 17.4366529,
            "timestamp": "2019-11-05T15:16:32Z",
            "version": 3,
            "changeset": 76655729,
            "user": "LorC",
            "uid": 1545666,
            "tags": {
                "addr:city": "Grottaglie",
                "addr:housenumber": "5",
                "addr:postcode": "74023",
                "addr:street": "Via Vitantonio La Sorte",
                "brand": "Expert",
                "brand:wikidata": "Q680990",
                "brand:wikipedia": "en:Expert (company)",
                "name": "Expert",
                "shop": "electronics"
            }
        },
        {
            "type": "node",
            "id": 5468797260,
            "lat": 40.3957922,
            "lon": 17.5568204,
            "timestamp": "2025-07-31T12:07:16Z",
            "version": 2,
            "changeset": 169767114,
            "user": "Onyxbob",
            "uid": 22295304,
            "tags": {
                "addr:city": "Sava",
                "addr:housenumber": "67",
                "addr:postcode": "74028",
                "addr:street": "Corso Francia",
                "brand": "Spar",
                "brand:wikidata": "Q610492",
                "contact:facebook": "https://www.facebook.com/EurosparSava/",
                "name": "Eurospar",
                "opening_hours": "Mo-Sa 08:00-13:00,16:30-20:00; Su off",
                "phone": "+39 0999721641",
                "shop": "supermarket",
                "website": "https://www.mydespar.it/pdv/md-punto-tre-srl-corso-francia-67-sava-2906"
            }
        },
        {
            "type": "node",
            "id": 5660407521,
            "lat": 40.2950741,
            "lon": 17.8548774,
            "timestamp": "2025-09-29T09:24:41Z",
            "version": 3,
            "changeset": 172602406,
            "user": "btcitnet",
            "uid": 22525435,
            "tags": {
                "addr:city": "Porto Cesareo",
                "addr:housenumber": "SNC",
                "addr:postcode": "73010",
                "addr:street": "Via Giacomo Zanella",
                "brand": "Conad",
                "brand:wikidata": "Q639075",
                "brand:wikipedia": "it:Conad",
                "name": "Conad",
                "operator": "Conad",
                "shop": "supermarket"
            }
        },
        {
            "type": "node",
            "id": 5851833403,
            "lat": 40.545801,
            "lon": 17.953997,
            "timestamp": "2025-10-04T21:51:26Z",
            "version": 3,
            "changeset": 172847786,
            "user": "btcitnet",
            "uid": 22525435,
            "tags": {
                "addr:city": "Brindisi",
                "addr:housenumber": "164",
                "addr:postcode": "72100",
                "addr:street": "Via Stazione",
                "amenity": "fuel",
                "brand": "Tamoil",
                "brand:wikidata": "Q706793",
                "name": "Tamoil",
                "operator": "T.D.M. S.R.L.",
                "ref:mise": "39042"
            }
        },
        {
            "type": "node",
            "id": 5851833444,
            "lat": 40.7009184,
            "lon": 17.4929816,
            "timestamp": "2024-04-16T19:32:58Z",
            "version": 2,
            "changeset": 150100489,
            "user": "Flynn_",
            "uid": 21081459,
            "tags": {
                "amenity": "fuel",
                "brand": "Q8",
                "brand:wikidata": "Q1634762",
                "name": "Q8",
                "operator": "Emporium S.A.S. di Leo Maria & C.",
                "ref:mise": "38760"
            }
        },
        {
            "type": "node",
            "id": 5851836823,
            "lat": 40.7844324,
            "lon": 17.4760069,
            "timestamp": "2022-10-11T18:59:55Z",
            "version": 2,
            "changeset": 127376094,
            "user": "itzshoummo",
            "uid": 16800209,
            "tags": {
                "amenity": "fuel",
                "brand": "Q8",
                "brand:wikidata": "Q1634762",
                "name": "Q8",
                "operator": "Servizi & Gestioni Italia S.R.L.",
                "ref:mise": "34566"
            }
        },
        {
            "type": "node",
            "id": 5981675807,
            "lat": 40.353358,
            "lon": 18.1732565,
            "timestamp": "2023-04-02T19:02:14Z",
            "version": 3,
            "changeset": 134426452,
            "user": "DnaX",
            "uid": 69259,
            "tags": {
                "addr:city": "Lecce",
                "addr:housenumber": "5",
                "addr:postcode": "73100",
                "addr:street": "Via Salvatore Trinchese",
                "brand": "Kasanova",
                "brand:wikidata": "Q116214505",
                "entrance": "yes",
                "name": "Kasanova",
                "operator": "Kasanova S.p.a.",
                "ref:vatin": "IT00743020968",
                "shop": "houseware"
            }
        },
        {
            "type": "node",
            "id": 6088245385,
            "lat": 40.6351468,
            "lon": 17.9415745,
            "timestamp": "2022-07-02T20:00:03Z",
            "version": 2,
            "changeset": 123131838,
            "user": "Linfindel",
            "uid": 12507004,
            "tags": {
                "branch": "Point",
                "brand": "La Feltrinelli",
                "brand:wikidata": "Q96311190",
                "name": "La Feltrinelli",
                "shop": "books"
            }
        },
        {
            "type": "node",
            "id": 6341799788,
            "lat": 40.3756441,
            "lon": 18.1397546,
            "timestamp": "2025-10-04T21:52:34Z",
            "version": 3,
            "changeset": 172847806,
            "user": "btcitnet",
            "uid": 22525435,
            "tags": {
                "addr:city": "Lecce",
                "addr:housenumber": "Km 32",
                "addr:postcode": "73100",
                "addr:street": "Strada Statale 613 Brindisi-Lecce",
                "brand": "Expert",
                "brand:wikidata": "Q680990",
                "name": "Expert",
                "shop": "electronics"
            }
        },
        {
            "type": "node",
            "id": 6431140178,
            "lat": 40.6359212,
            "lon": 17.943354,
            "timestamp": "2025-10-04T21:53:14Z",
            "version": 4,
            "changeset": 172847820,
            "user": "btcitnet",
            "uid": 22525435,
            "tags": {
                "addr:city": "Brindisi",
                "addr:housenumber": "77",
                "addr:postcode": "72100",
                "addr:street": "Corso Umberto primo",
                "brand": "Foot Locker",
                "brand:wikidata": "Q63335",
                "name": "Foot Locker",
                "shop": "shoes"
            }
        },
        {
            "type": "node",
            "id": 6516189186,
            "lat": 40.4177791,
            "lon": 17.8324823,
            "timestamp": "2025-10-04T21:54:22Z",
            "version": 3,
            "changeset": 172847844,
            "user": "btcitnet",
            "uid": 22525435,
            "tags": {
                "addr:city": "San Pancrazio Salentino",
                "addr:postcode": "72026",
                "addr:street": "Via Taranto",
                "brand": "Spar",
                "brand:wikidata": "Q610492",
                "name": "Despar",
                "shop": "supermarket"
            }
        },
        {
            "type": "node",
            "id": 6867261335,
            "lat": 40.5366841,
            "lon": 17.4341804,
            "timestamp": "2025-08-07T15:17:29Z",
            "version": 3,
            "changeset": 170112618,
            "user": "OpenCode",
            "uid": 1196207,
            "tags": {
                "addr:city": "Grottaglie",
                "addr:postcode": "74023",
                "addr:street": "Viale Giacomo Matteotti",
                "brand": "OVS",
                "brand:wikidata": "Q2042514",
                "brand:wikipedia": "en:OVS (company)",
                "clothes": "children",
                "name": "OVS",
                "opening_hours": "Mo-Sa 08:00-13:00,17:00-20:30",
                "operator": "OVS",
                "shop": "clothes"
            }
        },
        {
            "type": "node",
            "id": 6974993145,
            "lat": 40.3537761,
            "lon": 18.1776215,
            "timestamp": "2023-02-23T09:06:32Z",
            "version": 2,
            "changeset": 132914899,
            "user": "DnaX",
            "uid": 69259,
            "tags": {
                "addr:housenumber": "44a",
                "addr:street": "Via Salvatore Trinchese",
                "brand": "Calzedonia",
                "brand:wikidata": "Q1027874",
                "clothes": "underwear",
                "name": "Calzedonia",
                "shop": "clothes"
            }
        },
        {
            "type": "node",
            "id": 6991022907,
            "lat": 40.4461236,
            "lon": 17.735207,
            "timestamp": "2025-06-10T09:58:50Z",
            "version": 2,
            "changeset": 167436339,
            "user": "Onyxbob",
            "uid": 22295304,
            "tags": {
                "addr:city": "Erchie",
                "addr:housenumber": "92",
                "addr:postcode": "72020",
                "addr:street": "Via Prov.le Erchie",
                "brand": "Conad",
                "brand:wikidata": "Q639075",
                "internet_access": "yes",
                "name": "Conad",
                "opening_hours": "Mo-Sa 08:00-13:00,17:00-21:00; Su 08:00-13:00; ",
                "phone": "0831 759102",
                "shop": "supermarket",
                "website": "https://www.conad.it/ricerca-negozi/conad-via-provle-erchie-torre-ss-92-snc-72020-erchie--007831"
            }
        },
        {
            "type": "node",
            "id": 7152286011,
            "lat": 40.6359791,
            "lon": 17.9430051,
            "timestamp": "2022-07-03T12:53:50Z",
            "version": 9,
            "changeset": 123150429,
            "user": "Ale_Zena_IT",
            "uid": 22290,
            "tags": {
                "brand": "Upim",
                "brand:wikidata": "Q1414836",
                "name": "Upim",
                "organic": "unknown",
                "second_hand": "no",
                "shop": "department_store",
                "start_date": "2020-11-26",
                "wheelchair": "yes"
            }
        },
        {
            "type": "node",
            "id": 7360112704,
            "lat": 40.6353257,
            "lon": 17.9427343,
            "timestamp": "2022-07-02T20:00:03Z",
            "version": 2,
            "changeset": 123131838,
            "user": "Linfindel",
            "uid": 12507004,
            "tags": {
                "brand": "United Colors of Benetton",
                "brand:wikidata": "Q817139",
                "name": "United Colors of Benetton",
                "shop": "clothes",
                "short_name": "Benetton"
            }
        },
        {
            "type": "node",
            "id": 7390235214,
            "lat": 40.6368993,
            "lon": 17.9451652,
            "timestamp": "2025-04-05T18:49:36Z",
            "version": 3,
            "changeset": 164564348,
            "user": "evillz",
            "uid": 22552063,
            "tags": {
                "addr:housenumber": "20",
                "addr:street": "Corso Umberto primo",
                "brand": "United Colors of Benetton",
                "brand:wikidata": "Q817139",
                "check_date": "2023-06-21",
                "name": "United Colors of Benetton",
                "shop": "clothes",
                "short_name": "Benetton",
                "wheelchair": "limited"
            }
        },
        {
            "type": "node",
            "id": 7522008332,
            "lat": 40.7042973,
            "lon": 17.6637988,
            "timestamp": "2020-05-15T09:47:45Z",
            "version": 1,
            "changeset": 85251808,
            "user": "Gerd Waldmann",
            "uid": 1729508,
            "tags": {
                "brand": "Spar",
                "brand:wikidata": "Q610492",
                "brand:wikipedia": "en:Spar (retailer)",
                "name": "Despar",
                "shop": "supermarket"
            }
        },
        {
            "type": "node",
            "id": 7522008339,
            "lat": 40.7107589,
            "lon": 17.6590781,
            "timestamp": "2020-05-15T09:47:45Z",
            "version": 1,
            "changeset": 85251808,
            "user": "Gerd Waldmann",
            "uid": 1729508,
            "tags": {
                "brand": "Conad City",
                "brand:wikidata": "Q57543102",
                "name": "Conad City",
                "shop": "supermarket"
            }
        },
        {
            "type": "node",
            "id": 7522774533,
            "lat": 40.2631647,
            "lon": 17.9004133,
            "timestamp": "2020-05-15T12:45:59Z",
            "version": 1,
            "changeset": 85262131,
            "user": "Gerd Waldmann",
            "uid": 1729508,
            "tags": {
                "brand": "Spar",
                "brand:wikidata": "Q610492",
                "brand:wikipedia": "en:Spar (retailer)",
                "name": "Despar",
                "shop": "supermarket"
            }
        },
        {
            "type": "node",
            "id": 7522774535,
            "lat": 40.2560565,
            "lon": 17.9051858,
            "timestamp": "2023-12-04T09:07:45Z",
            "version": 2,
            "changeset": 144744527,
            "user": "\u0110uro Ji\u0159\u00ed",
            "uid": 14617702,
            "tags": {
                "brand": "Conad City",
                "brand:wikidata": "Q57543102",
                "name": "Conad City",
                "shop": "supermarket",
                "wheelchair": "yes"
            }
        },
        {
            "type": "node",
            "id": 7960840686,
            "lat": 40.3367338,
            "lon": 18.1778628,
            "timestamp": "2025-03-17T13:13:17Z",
            "version": 2,
            "changeset": 163731690,
            "user": "evillz",
            "uid": 22552063,
            "tags": {
                "brand": "OVS",
                "brand:wikidata": "Q2042514",
                "name": "OVS",
                "shop": "clothes"
            }
        },
        {
            "type": "node",
            "id": 8365490751,
            "lat": 40.6227173,
            "lon": 17.9171374,
            "timestamp": "2023-11-26T06:58:15Z",
            "version": 3,
            "changeset": 144461296,
            "user": "\u0110uro Ji\u0159\u00ed",
            "uid": 14617702,
            "tags": {
                "brand": "OVS",
                "brand:wikidata": "Q2042514",
                "name": "OVS",
                "shop": "clothes",
                "wheelchair": "yes"
            }
        },
        {
            "type": "node",
            "id": 8493001139,
            "lat": 40.4875721,
            "lon": 18.0514102,
            "timestamp": "2025-01-13T16:21:37Z",
            "version": 2,
            "changeset": 161316348,
            "user": "damianeue",
            "uid": 10124288,
            "tags": {
                "brand": "Conad City",
                "brand:wikidata": "Q57543102",
                "name": "Conad City",
                "shop": "supermarket"
            }
        },
        {
            "type": "node",
            "id": 8733820356,
            "lat": 40.4893004,
            "lon": 17.9966958,
            "timestamp": "2023-11-27T12:26:29Z",
            "version": 2,
            "changeset": 144505403,
            "user": "\u0110uro Ji\u0159\u00ed",
            "uid": 14617702,
            "tags": {
                "brand": "United Colors of Benetton",
                "brand:wikidata": "Q817139",
                "name": "United Colors of Benetton",
                "shop": "clothes",
                "short_name": "Benetton"
            }
        },
        {
            "type": "node",
            "id": 8941577510,
            "lat": 40.3536111,
            "lon": 18.1771326,
            "timestamp": "2023-02-23T09:06:32Z",
            "version": 2,
            "changeset": 132914899,
            "user": "DnaX",
            "uid": 69259,
            "tags": {
                "brand": "United Colors of Benetton",
                "brand:wikidata": "Q817139",
                "name": "United Colors of Benetton",
                "shop": "clothes",
                "short_name": "Benetton"
            }
        },
        {
            "type": "node",
            "id": 9064279244,
            "lat": 40.5030826,
            "lon": 17.6466031,
            "timestamp": "2025-07-09T08:21:23Z",
            "version": 3,
            "changeset": 168682645,
            "user": "Caseificio Pipino - Oria",
            "uid": 22505064,
            "tags": {
                "addr:city": "Oria",
                "addr:housenumber": "2",
                "addr:postcode": "72024",
                "addr:street": "Via Latiano",
                "currency:EUR": "yes",
                "currency:XBT": "yes",
                "name": "Wine Shop",
                "opening_hours": "Mo-Sa 08:00-13:30 & 17:30-21:00",
                "payment:cash": "yes",
                "payment:contactless": "yes",
                "payment:credit_cards": "yes",
                "payment:debit_cards": "yes",
                "payment:lightning": "yes",
                "payment:lightning_contactless": "yes",
                "shop": "wine",
                "survey:date": "2025-05-15"
            }
        },
        {
            "type": "node",
            "id": 9183675806,
            "lat": 40.5016937,
            "lon": 17.6417262,
            "timestamp": "2025-03-05T11:12:41Z",
            "version": 5,
            "changeset": 163240176,
            "user": "mueschel",
            "uid": 616774,
            "tags": {
                "addr:city": "Oria",
                "addr:postcode": "72024",
                "addr:street": "Via Epitaffio, 41",
                "currency:XBT": "yes",
                "name": "Ottica R-Quadro",
                "payment:cash": "yes",
                "payment:credit_cards": "yes",
                "payment:lightning": "yes",
                "payment:lightning_contactless": "yes",
                "payment:onchain": "no",
                "phone": "+39 0831 601967",
                "shop": "optician"
            }
        },
        {
            "type": "node",
            "id": 9229593177,
            "lat": 40.6180171,
            "lon": 17.9015463,
            "timestamp": "2023-11-26T17:29:32Z",
            "version": 5,
            "changeset": 144479410,
            "user": "\u0110uro Ji\u0159\u00ed",
            "uid": 14617702,
            "tags": {
                "air_conditioning": "yes",
                "brand": "H&M",
                "brand:wikidata": "Q188326",
                "check_date": "2023-07-07",
                "clothes": "women;men;children",
                "currency:EUR": "yes",
                "internet_access": "wlan",
                "internet_access:fee": "no",
                "level": "0",
                "name": "H&M",
                "opening_hours": "Mo-Sa 09:00-21:00; Su 10:00-21:00",
                "payment:mastercard": "yes",
                "payment:visa": "yes",
                "shop": "clothes",
                "source": "survey",
                "wheelchair": "yes"
            }
        },
        {
            "type": "node",
            "id": 9312694973,
            "lat": 40.4904917,
            "lon": 17.6528245,
            "timestamp": "2025-05-19T14:35:07Z",
            "version": 2,
            "changeset": 166480345,
            "user": "Caseificio Pipino - Oria",
            "uid": 22505064,
            "tags": {
                "addr:city": "Oria",
                "addr:postcode": "72024",
                "addr:street": "Circonvallazione di Oria",
                "amenity": "cafe",
                "cuisine": "coffee_shop;sandwich;breakfast",
                "currency:XBT": "yes",
                "name": "Blue bar",
                "outdoor_seating": "yes",
                "payment:cash": "yes",
                "payment:lightning": "yes",
                "payment:onchain": "no",
                "survey:date": "2025-05-19"
            }
        },
        {
            "type": "node",
            "id": 9715977424,
            "lat": 40.3777448,
            "lon": 18.0532243,
            "timestamp": "2024-08-01T08:15:40Z",
            "version": 2,
            "changeset": 154681292,
            "user": "damianeue",
            "uid": 10124288,
            "tags": {
                "addr:housenumber": "2",
                "addr:street": "Via Luigi Cadorna",
                "brand": "Conad",
                "brand:wikidata": "Q639075",
                "name": "Conad",
                "opening_hours": "Mo-Sa 07:30-13:30,16:30-20:30; Su 08:30-12:30",
                "phone": "+39 0832 714078",
                "shop": "supermarket"
            }
        },
        {
            "type": "node",
            "id": 10796849636,
            "lat": 40.5542805,
            "lon": 17.7156627,
            "timestamp": "2023-07-11T14:45:56Z",
            "version": 2,
            "changeset": 138384102,
            "user": "DnaX",
            "uid": 69259,
            "tags": {
                "brand": "Conad City",
                "brand:wikidata": "Q57543102",
                "name": "Conad City",
                "shop": "supermarket"
            }
        },
        {
            "type": "node",
            "id": 10857652999,
            "lat": 40.6186802,
            "lon": 17.9022498,
            "timestamp": "2023-11-26T17:24:43Z",
            "version": 5,
            "changeset": 144479410,
            "user": "\u0110uro Ji\u0159\u00ed",
            "uid": 14617702,
            "tags": {
                "brand": "Guess",
                "brand:wikidata": "Q2470307",
                "name": "Guess",
                "opening_hours": "Mo-Sa 09:00-21:00; Su 10:00-21:00",
                "shop": "clothes",
                "wheelchair": "yes"
            }
        },
        {
            "type": "node",
            "id": 10879204658,
            "lat": 40.3525486,
            "lon": 18.1823121,
            "timestamp": "2025-03-17T11:53:26Z",
            "version": 2,
            "changeset": 163728385,
            "user": "evillz",
            "uid": 22552063,
            "tags": {
                "addr:housenumber": "15",
                "addr:street": "Via Giuseppe Zanardelli",
                "brand": "Conad City",
                "brand:wikidata": "Q57543102",
                "name": "Conad City",
                "shop": "supermarket"
            }
        },
        {
            "type": "node",
            "id": 10982416083,
            "lat": 40.3562655,
            "lon": 18.1847357,
            "timestamp": "2024-12-31T01:22:46Z",
            "version": 3,
            "changeset": 160816061,
            "user": "DnaX",
            "uid": 69259,
            "tags": {
                "addr:housenumber": "3a",
                "addr:street": "Viale Japigia",
                "brand": "Conad",
                "brand:wikidata": "Q639075",
                "name": "Conad",
                "opening_hours": "Mo-Sa 08:15-20:30",
                "phone": "0832 396916",
                "shop": "supermarket",
                "website": "https://www.conad.it/ricerca-negozi/conad-viale-japigia-3-a-73100-lecce--009564"
            }
        },
        {
            "type": "node",
            "id": 11033049430,
            "lat": 40.6191098,
            "lon": 17.9028594,
            "timestamp": "2023-11-26T17:36:51Z",
            "version": 4,
            "changeset": 144479410,
            "user": "\u0110uro Ji\u0159\u00ed",
            "uid": 14617702,
            "tags": {
                "brand": "Tezenis",
                "brand:wikidata": "Q28056374",
                "check_date": "2023-07-07",
                "level": "0",
                "name": "Tezenis",
                "opening_hours": "Mo-Sa 09:00-21:00; Su 10:00-21:00",
                "payment:mastercard": "yes",
                "payment:visa": "yes",
                "shop": "clothes",
                "wheelchair": "yes"
            }
        },
        {
            "type": "node",
            "id": 11131394236,
            "lat": 40.2987932,
            "lon": 17.5617862,
            "timestamp": "2024-08-31T17:20:11Z",
            "version": 6,
            "changeset": 156025357,
            "user": "mpbin",
            "uid": 21850090,
            "tags": {
                "addr:city": "Campomarino di Maruggio",
                "addr:postcode": "74020",
                "addr:street": "Via Giovanni Boccaccio",
                "amenity": "ice_cream",
                "check_date": "2023-08-20",
                "contact:facebook": "https://www.facebook.com/people/Gelateria-La-Meringa-Campomarino/100063479922816/",
                "currency:XBT": "yes",
                "indoor_seating": "yes",
                "name": "Gelateria La Meringa",
                "outdoor_seating": "yes",
                "payment:cash": "yes",
                "payment:credit_cards": "yes",
                "payment:debit_cards": "yes",
                "phone": "+393279937879"
            }
        },
        {
            "type": "node",
            "id": 11352633653,
            "lat": 40.6392398,
            "lon": 17.9473827,
            "timestamp": "2025-01-02T10:54:38Z",
            "version": 5,
            "changeset": 160901394,
            "user": "mpbin",
            "uid": 21850090,
            "tags": {
                "addr:city": "Brindisi",
                "addr:housenumber": "7b",
                "addr:postcode": "72100",
                "addr:street": "Vicolo Amena",
                "check_date": "2024-10-18",
                "check_date:currency:XBT": "2024-10-18",
                "contact:instagram": "https://www.instagram.com/cripta.tattoo/",
                "currency:XBT": "yes",
                "description": "Studio professionale di tatuaggi.",
                "email": "tattoo.cripta@gmail.com",
                "name": "Cripta Tattoo",
                "phone": "+393894958272",
                "shop": "tattoo"
            }
        },
        {
            "type": "node",
            "id": 11365056262,
            "lat": 40.482166,
            "lon": 18.0044272,
            "timestamp": "2025-03-17T17:08:08Z",
            "version": 3,
            "changeset": 163741809,
            "user": "evillz",
            "uid": 22552063,
            "tags": {
                "brand": "OVS",
                "brand:wikidata": "Q2042514",
                "name": "OVS",
                "shop": "clothes",
                "wheelchair": "limited"
            }
        },
        {
            "type": "node",
            "id": 11373953499,
            "lat": 40.5805332,
            "lon": 17.837017,
            "timestamp": "2025-04-02T11:10:03Z",
            "version": 4,
            "changeset": 164415956,
            "user": "evillz",
            "uid": 22552063,
            "tags": {
                "brand": "Upim",
                "brand:wikidata": "Q1414836",
                "name": "Upim",
                "opening_hours": "Mo-Su 09:00-21:00",
                "shop": "department_store",
                "wheelchair": "yes"
            }
        },
        {
            "type": "node",
            "id": 11373959499,
            "lat": 40.5806314,
            "lon": 17.8361556,
            "timestamp": "2025-04-02T11:09:11Z",
            "version": 4,
            "changeset": 164415914,
            "user": "evillz",
            "uid": 22552063,
            "tags": {
                "brand": "Calzedonia",
                "brand:wikidata": "Q1027874",
                "name": "Calzedonia",
                "opening_hours": "Mo-Su 09:00-21:00",
                "shop": "clothes",
                "wheelchair": "yes"
            }
        },
        {
            "type": "node",
            "id": 11378022897,
            "lat": 40.6185844,
            "lon": 17.9018201,
            "timestamp": "2024-10-28T18:35:03Z",
            "version": 4,
            "changeset": 158468713,
            "user": "DnaX",
            "uid": 69259,
            "tags": {
                "brand": "Bottega Verde",
                "brand:wikidata": "Q894870",
                "name": "Bottega Verde",
                "opening_hours": "Mo-Sa 09:00-21:00; Su 10:00-21:00",
                "shop": "cosmetics",
                "wheelchair": "yes"
            }
        },
        {
            "type": "node",
            "id": 11379501716,
            "lat": 40.490439,
            "lon": 17.9965347,
            "timestamp": "2023-11-27T12:23:50Z",
            "version": 1,
            "changeset": 144505559,
            "user": "\u0110uro Ji\u0159\u00ed",
            "uid": 14617702,
            "tags": {
                "brand": "United Colors of Benetton",
                "brand:wikidata": "Q817139",
                "name": "United Colors of Benetton",
                "shop": "clothes",
                "short_name": "Benetton"
            }
        },
        {
            "type": "node",
            "id": 11380217452,
            "lat": 40.3761615,
            "lon": 18.1451763,
            "timestamp": "2023-12-28T14:36:31Z",
            "version": 4,
            "changeset": 145622950,
            "user": "Italian Technology",
            "uid": 10622815,
            "tags": {
                "brand": "Upim",
                "brand:wikidata": "Q1414836",
                "name": "Upim",
                "opening_hours": "Mo-Sa 09:00-21:00; Su 10:00-21:00",
                "shop": "department_store",
                "wheelchair": "yes"
            }
        },
        {
            "type": "node",
            "id": 11381146117,
            "lat": 40.3373648,
            "lon": 18.1775675,
            "timestamp": "2023-11-28T10:17:43Z",
            "version": 1,
            "changeset": 144539475,
            "user": "\u0110uro Ji\u0159\u00ed",
            "uid": 14617702,
            "tags": {
                "brand": "OVS",
                "brand:wikidata": "Q2042514",
                "name": "OVS",
                "shop": "clothes"
            }
        },
        {
            "type": "node",
            "id": 11381297467,
            "lat": 40.2932304,
            "lon": 18.1976689,
            "timestamp": "2024-04-04T22:06:09Z",
            "version": 5,
            "changeset": 149589372,
            "user": "DnaX",
            "uid": 69259,
            "tags": {
                "brand": "PittaRosso",
                "brand:wikidata": "Q105643314",
                "name": "PittaRosso",
                "opening_hours": "Mo-Sa 09:00-21:00; Su 10:00-21:00",
                "shop": "shoes",
                "wheelchair": "yes"
            }
        },
        {
            "type": "node",
            "id": 11381297468,
            "lat": 40.2929525,
            "lon": 18.197792,
            "timestamp": "2025-10-06T13:20:11Z",
            "version": 6,
            "changeset": 172914129,
            "user": "btcitnet",
            "uid": 22525435,
            "tags": {
                "addr:city": "Cavallino",
                "addr:postcode": "73020",
                "addr:street": "Strada Statale 16 Adriatica",
                "brand": "Bottega Verde",
                "brand:wikidata": "Q894870",
                "name": "Bottega Verde",
                "opening_hours": "Mo-Sa 09:00-21:00; Su 10:00-21:00",
                "shop": "cosmetics",
                "wheelchair": "yes"
            }
        },
        {
            "type": "node",
            "id": 11381305670,
            "lat": 40.2927903,
            "lon": 18.1980014,
            "timestamp": "2024-04-04T22:06:09Z",
            "version": 4,
            "changeset": 149589372,
            "user": "DnaX",
            "uid": 69259,
            "tags": {
                "brand": "OVS",
                "brand:wikidata": "Q2042514",
                "name": "OVS",
                "opening_hours": "Mo-Sa 09:00-21:00; Su 10:00-21:00",
                "shop": "clothes",
                "wheelchair": "yes"
            }
        },
        {
            "type": "node",
            "id": 11381305680,
            "lat": 40.2942369,
            "lon": 18.1971976,
            "timestamp": "2024-04-04T22:06:09Z",
            "version": 5,
            "changeset": 149589372,
            "user": "DnaX",
            "uid": 69259,
            "tags": {
                "brand": "Kasanova",
                "brand:wikidata": "Q116214505",
                "name": "Kasanova",
                "opening_hours": "Mo-Sa 09:00-21:00; Su 10:00-21:00",
                "shop": "houseware",
                "wheelchair": "yes"
            }
        },
        {
            "type": "node",
            "id": 11381305690,
            "lat": 40.2927743,
            "lon": 18.1976293,
            "timestamp": "2024-12-09T10:19:56Z",
            "version": 4,
            "changeset": 160085916,
            "user": "DnaX",
            "uid": 69259,
            "tags": {
                "brand": "OVS Kids",
                "brand:wikidata": "Q2042514",
                "clothes": "children",
                "name": "OVS Kids",
                "opening_hours": "Mo-Sa 09:00-21:00; Su 10:00-21:00",
                "shop": "clothes",
                "wheelchair": "yes"
            }
        },
        {
            "type": "node",
            "id": 11412516681,
            "lat": 40.4955897,
            "lon": 17.6461029,
            "timestamp": "2025-07-09T09:22:30Z",
            "version": 5,
            "changeset": 168685306,
            "user": "Comino",
            "uid": 6794624,
            "tags": {
                "addr:city": "Oria",
                "addr:housenumber": "78",
                "addr:postcode": "72024",
                "addr:street": "Via De Marzo",
                "check_date": "2025-07-09",
                "check_date:currency:XBT": "2025-07-09",
                "currency:XBT": "yes",
                "name": "Caseificio Pipino",
                "opening_hours": "Mo-We 08:00-14:00,17:30-20:30; Th 08:00-14:30; Fr,Sa 08:00-14:30,17:30-20:30",
                "operator": "Caseifico Pipino di Pipino G. & C. SAS",
                "payment:cash": "yes",
                "payment:credit_cards": "yes",
                "payment:debit_cards": "yes",
                "payment:lightning": "yes",
                "payment:lightning_contactless": "yes",
                "payment:onchain": "no",
                "phone": "+39 831 845 550",
                "shop": "cheese",
                "survey:date": "2025-02-14",
                "website": "https://www.caseificiopipino.it/"
            }
        },
        {
            "type": "node",
            "id": 11775351701,
            "lat": 40.5281371,
            "lon": 17.5842733,
            "timestamp": "2024-03-31T13:13:59Z",
            "version": 1,
            "changeset": 149389955,
            "user": "Rockedf",
            "uid": 7522075,
            "tags": {
                "addr:city": "Francavilla Fontana",
                "addr:housenumber": "25",
                "addr:postcode": "72021",
                "addr:street": "Via Francesco Ribezzo",
                "check_date": "2024-03-31",
                "currency:XBT": "yes",
                "guest_house": "bed_and_breakfast",
                "name": "Laura Memmola",
                "opening_hours": "24/7",
                "payment:lightning": "yes",
                "payment:lightning_contactless": "yes",
                "payment:onchain": "yes",
                "phone": "+39 32 8151 6560",
                "tourism": "guest_house",
                "website": "https://www.vacation-bookings.com/d/54687750?locale=it_IT&utm_source=web_share&utm_term=CLIPBOARD"
            }
        },
        {
            "type": "node",
            "id": 11850848522,
            "lat": 40.6303044,
            "lon": 17.9339908,
            "timestamp": "2024-10-16T15:21:09Z",
            "version": 2,
            "changeset": 157970266,
            "user": "DnaX",
            "uid": 69259,
            "tags": {
                "brand": "Kasanova",
                "brand:wikidata": "Q116214505",
                "name": "Kasanova",
                "shop": "houseware"
            }
        },
        {
            "type": "node",
            "id": 11947130955,
            "lat": 40.7249319,
            "lon": 17.5821409,
            "timestamp": "2025-04-08T16:27:25Z",
            "version": 3,
            "changeset": 164687538,
            "user": "evillz",
            "uid": 22552063,
            "tags": {
                "brand": "Spar",
                "brand:wikidata": "Q610492",
                "name": "Despar",
                "opening_hours": "Mo-Sa 08:00-13:30, 17:00-21:00; Su 08:30-13:00",
                "shop": "supermarket"
            }
        },
        {
            "type": "node",
            "id": 12324609959,
            "lat": 40.4984508,
            "lon": 17.6433669,
            "timestamp": "2025-01-02T12:10:50Z",
            "version": 2,
            "changeset": 160904209,
            "user": "mpbin",
            "uid": 21850090,
            "tags": {
                "addr:city": "Oria",
                "addr:housenumber": "2",
                "addr:postcode": "72024",
                "addr:street": "Piazza Albanese",
                "amenity": "bar",
                "contact:facebook": "https://www.facebook.com/p/Caveau-ExperienceBar-Oria-61555244900593/",
                "contact:instagram": "https://www.instagram.com/caveau_oria/",
                "currency:XBT": "yes",
                "email": "info@caveaubar.it",
                "name": "Caveau Bar",
                "phone": "+39 350 126 5170"
            }
        },
        {
            "type": "node",
            "id": 12492983950,
            "lat": 40.4520745,
            "lon": 17.5082328,
            "timestamp": "2025-01-16T16:32:11Z",
            "version": 3,
            "changeset": 161425441,
            "user": "Onyxbob",
            "uid": 22295304,
            "tags": {
                "addr:city": "San Marzano di San Giuseppe",
                "addr:housenumber": "133",
                "addr:postcode": "74020",
                "addr:street": "Via Vittorio Emanuele",
                "brand": "Conad City",
                "brand:wikidata": "Q57543102",
                "name": "Conad City",
                "phone": "+39 0999571044",
                "shop": "supermarket",
                "website": "https://www.conad.it/ricerca-negozi/conad-city-via-vittorio-emanuele-133-74020-san-marzano-di-san-giuseppe--007603",
                "wheelchair": "yes"
            }
        },
        {
            "type": "node",
            "id": 12507298140,
            "lat": 40.4542975,
            "lon": 17.509635,
            "timestamp": "2025-01-16T16:32:11Z",
            "version": 1,
            "changeset": 161425441,
            "user": "Onyxbob",
            "uid": 22295304,
            "tags": {
                "addr:city": "San Marzano di San Giuseppe",
                "addr:housenumber": "18",
                "addr:postcode": "74020",
                "addr:street": "Via Archita",
                "brand": "Conad City",
                "brand:wikidata": "Q57543102",
                "name": "Conad City",
                "opening_hours": "Mo-Sa 7:30-20:30; Su 08:00-13:00",
                "payment:cash": "yes",
                "payment:contactless": "yes",
                "payment:credit_cards": "yes",
                "payment:debit_cards": "yes",
                "phone": "+39  099 9574231",
                "shop": "supermarket",
                "website": "https://www.conad.it/ricerca-negozi/conad-city-via-archita-18-74020-san-marzano-di-san-giuseppe--007814",
                "wheelchair": "yes"
            }
        },
        {
            "type": "node",
            "id": 12558788947,
            "lat": 40.5246097,
            "lon": 17.584131,
            "timestamp": "2025-02-05T12:34:16Z",
            "version": 1,
            "changeset": 162163610,
            "user": "Onyxbob",
            "uid": 22295304,
            "tags": {
                "addr:city": "Francavilla Fontana",
                "addr:housenumber": "54",
                "addr:postcode": "72021",
                "addr:street": "Viale V. Lilla",
                "brand": "Intimissimi",
                "brand:wikidata": "Q305404",
                "clothes": "underwear",
                "name": "Intimissimi",
                "opening_hours": "Mo-Sa 09:00-13:00,16:30-20:30; Su off; ",
                "phone": "+39 08311622919",
                "shop": "clothes",
                "website": "https://www.intimissimi.com/it/negozi/puglia/brindisi/francavilla_fontana_viale_vincenzo_lilla_54/8557.html"
            }
        },
        {
            "type": "node",
            "id": 12598623349,
            "lat": 40.498549,
            "lon": 17.6434156,
            "timestamp": "2025-03-01T17:47:03Z",
            "version": 5,
            "changeset": 163097163,
            "user": "btcitnet",
            "uid": 22525435,
            "tags": {
                "addr:city": "Oria",
                "addr:housenumber": "7",
                "addr:postcode": "72024",
                "addr:street": "Corso Umberto 1\u00b0",
                "check_date": "2025-02-18",
                "contact:facebook": "bottegaoscuradelcuoio",
                "contact:instagram": "bottegaoscuradelcuoio",
                "craft": "leather",
                "currency:XBT": "yes",
                "description": "Incisione, cesellatura e lavorazione del cuoio a concia vegetale",
                "name": "Bottega Oscura del Cuoio",
                "payment:cash": "yes",
                "payment:credit_cards": "yes",
                "payment:debit_cards": "yes",
                "payment:lightning": "yes",
                "payment:lightning_contactless": "yes",
                "payment:onchain": "no",
                "shop": "leather",
                "survey:date": "2025-02-18"
            }
        },
        {
            "type": "node",
            "id": 12634087232,
            "lat": 40.4984062,
            "lon": 17.6435153,
            "timestamp": "2025-04-04T19:20:43Z",
            "version": 3,
            "changeset": 164525417,
            "user": "Christoph Lotz",
            "uid": 47978,
            "tags": {
                "addr:city": "Oria",
                "addr:country": "IT",
                "addr:postcode": "72024",
                "addr:street": "Via Roma",
                "amenity": "restaurant",
                "cuisine": "italian",
                "currency:XBT": "yes",
                "name": "Wine Shop \"La Saletta\"",
                "opening_hours": "We-Su 19:00-01:00",
                "operator": "SalentoBitcoin",
                "payment:lightning": "yes",
                "payment:onchain": "yes",
                "phone": "3802043937"
            }
        },
        {
            "type": "node",
            "id": 12722928122,
            "lat": 40.5770097,
            "lon": 17.8321372,
            "timestamp": "2025-04-20T08:26:35Z",
            "version": 2,
            "changeset": 165181924,
            "user": "btcitnet",
            "uid": 22525435,
            "tags": {
                "addr:city": "Mesagne",
                "addr:street": "Via Antonio Montagna",
                "branch": "Distante",
                "brand": "Expert",
                "brand:wikidata": "Q680990",
                "name": "Expert",
                "operator": "Expert",
                "payment:cash": "yes",
                "payment:credit_cards": "yes",
                "payment:debit_cards": "yes",
                "phone": "+390831777754",
                "shop": "electronics",
                "wikipedia": "it:Expert"
            }
        },
        {
            "type": "node",
            "id": 12736827773,
            "lat": 40.635776,
            "lon": 17.9360182,
            "timestamp": "2025-04-07T15:28:57Z",
            "version": 1,
            "changeset": 164640620,
            "user": "evillz",
            "uid": 22552063,
            "tags": {
                "brand": "Conad",
                "brand:wikidata": "Q639075",
                "name": "Conad",
                "shop": "supermarket"
            }
        },
        {
            "type": "node",
            "id": 12748254096,
            "lat": 40.3410681,
            "lon": 18.1611092,
            "timestamp": "2025-04-13T10:04:58Z",
            "version": 2,
            "changeset": 164886942,
            "user": "SalentoBitcoin",
            "uid": 22583613,
            "tags": {
                "addr:city": "Lecce",
                "addr:housenumber": "3",
                "addr:postcode": "73100",
                "addr:street": "Via Vecchia San Pietro in Lama",
                "amenity": "restaurant",
                "cuisine": "pizza",
                "currency:XBT": "yes",
                "name": "Mozzar\u00e8 Pizzeria",
                "opening_hours": "venerd\u00ec\t17:30\u201300 sabato\t17:30\u201300 domenica\t17:30\u201300 luned\u00ec\t17:30\u201300 marted\u00ec\t17:30\u201300 mercoled\u00ec\t17:30\u201300 gioved\u00ec\t17:30\u201300",
                "operator": "Salento Bitcoin",
                "payment:lightning": "yes",
                "payment:onchain": "yes",
                "phone": "3270966653",
                "website:menu": "https://sites.google.com/view/mozzare-pizzeria-lecce/home/menu?authuser=0"
            }
        },
        {
            "type": "node",
            "id": 12861454515,
            "lat": 40.3618767,
            "lon": 18.1765364,
            "timestamp": "2025-05-27T09:44:39Z",
            "version": 2,
            "changeset": 166816407,
            "user": "btcitnet",
            "uid": 22525435,
            "tags": {
                "addr:city": "Lecce",
                "addr:housenumber": "17",
                "addr:postcode": "73100",
                "addr:street": "Via di Pettorano",
                "craft": "watchmaker",
                "currency:XBT": "yes",
                "name": "Il Tempio dell'orologeria"
            }
        },
        {
            "type": "node",
            "id": 12988078535,
            "lat": 40.4972991,
            "lon": 17.6435577,
            "timestamp": "2025-07-09T08:22:00Z",
            "version": 2,
            "changeset": 168682670,
            "user": "Comino",
            "uid": 6794624,
            "tags": {
                "addr:city": "Oria",
                "addr:housenumber": "26",
                "addr:postcode": "72024",
                "addr:street": "Piazza Manfredi",
                "amenity": "bar",
                "check_date": "2025-07-09",
                "check_date:currency:XBT": "2025-07-09",
                "contact:facebook": "https://www.facebook.com/people/Caff%25C3%25A8-Sedile/100063838400364/",
                "currency:XBT": "yes",
                "email": "viscontealbino@libero.it",
                "name": "Caffe Sedile",
                "opening_hours": "Tu-Su 16:30-03:00",
                "operator": "Salento Bitcoin",
                "payment:lightning": "yes",
                "payment:lightning_contactless": "no",
                "payment:onchain": "no",
                "phone": "+39 831 848429"
            }
        },
        {
            "type": "node",
            "id": 12988115859,
            "lat": 40.4969253,
            "lon": 17.6434354,
            "timestamp": "2025-07-09T07:56:56Z",
            "version": 2,
            "changeset": 168681709,
            "user": "Comino",
            "uid": 6794624,
            "tags": {
                "addr:city": "Oria",
                "addr:housenumber": "7",
                "addr:postcode": "72024",
                "addr:street": "Piazza Manfredi",
                "amenity": "bar",
                "check_date": "2025-07-09",
                "check_date:currency:XBT": "2025-07-09",
                "contact:facebook": "caffemanfredioria",
                "contact:instagram": "vineriamanfredi",
                "currency:XBT": "yes",
                "email": "drinkeria_manfredi@hotmail.it",
                "name": "Vineria Manfredi & Retrobottega",
                "opening_hours": "Mo-Th 17:30-01:30; Tu off; Fr,Sa 17:30-02:00; Su 17:30-01:00",
                "operator": "Salento Bitcoin",
                "payment:lightning": "yes",
                "payment:lightning_contactless": "no",
                "payment:onchain": "no"
            }
        },
        {
            "type": "node",
            "id": 12990060320,
            "lat": 40.3441844,
            "lon": 18.1834525,
            "timestamp": "2025-07-16T18:14:01Z",
            "version": 2,
            "changeset": 169027214,
            "user": "btcitnet",
            "uid": 22525435,
            "tags": {
                "addr:city": "Lecce",
                "addr:housenumber": "7",
                "addr:postcode": "73100",
                "addr:street": "Via Cicolella",
                "amenity": "bar",
                "contact:facebook": "https://www.facebook.com/iSetteGrammi/",
                "currency:XBT": "yes",
                "email": "isettegrammi@gmail.com",
                "name": "I Sette Grammi",
                "opening_hours": "mercoled\u00ec 07\u201319 \ue14d gioved\u00ec 07\u201319 \ue14d venerd\u00ec 07\u201319 \ue14d sabato Chiuso \ue14d domenica Chiuso \ue14d luned\u00ec 07\u201319 \ue14d marted\u00ec 07\u201319",
                "operator": "Salento Bitcoin",
                "payment:lightning": "yes",
                "phone": "08321690598"
            }
        },
        {
            "type": "node",
            "id": 12994461420,
            "lat": 40.8424099,
            "lon": 17.4662375,
            "timestamp": "2025-07-16T18:37:31Z",
            "version": 2,
            "changeset": 169028088,
            "user": "btcitnet",
            "uid": 22525435,
            "tags": {
                "addr:city": "Fasano",
                "addr:housenumber": "33",
                "addr:postcode": "72015",
                "addr:street": "Via Ponza",
                "contact:website": "https://humusnature.it/",
                "currency:XBT": "yes",
                "email": "info@humusnature.it",
                "name": "Humus Nature",
                "organic": "unofficial",
                "phone": "+39 392 3700692",
                "product": "olive_oil",
                "ref:vatin": "IT02436290544",
                "shop": "farm"
            }
        },
        {
            "type": "node",
            "id": 13033816288,
            "lat": 40.4044945,
            "lon": 17.5634116,
            "timestamp": "2025-09-23T10:31:59Z",
            "version": 2,
            "changeset": 172336291,
            "user": "OpenCode",
            "uid": 1196207,
            "tags": {
                "addr:city": "Sava",
                "addr:housenumber": "110",
                "addr:postcode": "74028",
                "addr:street": "Corso Umberto Primo",
                "brand": "Unieuro",
                "brand:wikidata": "Q4004687",
                "contact:facebook": "https://www.facebook.com/UnieuroSava/",
                "name": "Unieuro",
                "opening_hours": "Mo-Sa 09:00-13:00,16:30-20:30; Su off",
                "phone": "+39 0999721890",
                "shop": "electronics",
                "website": "https://www.unieuro.it/online/negozi/Unieuro-Sava"
            }
        },
        {
            "type": "node",
            "id": 13049983345,
            "lat": 40.4047786,
            "lon": 17.5588601,
            "timestamp": "2025-09-23T10:31:59Z",
            "version": 2,
            "changeset": 172336291,
            "user": "OpenCode",
            "uid": 1196207,
            "tags": {
                "addr:city": "Sava",
                "addr:housenumber": "8",
                "addr:postcode": "74028",
                "addr:street": "Corso Umberto Primo",
                "brand": "OVS Kids",
                "brand:wikidata": "Q2042514",
                "clothes": "children",
                "contact:facebook": "https://www.facebook.com/OvsKidsSAVA/",
                "name": "OVS Kids",
                "opening_hours": "Mo-Sa 09:00-13:00,16:30-20:00",
                "phone": "+39 0996611660",
                "shop": "clothes",
                "website": "https://www.ovs.it/it/it/stores/italia/puglia/taranto/sava"
            }
        },
        {
            "type": "node",
            "id": 13056531974,
            "lat": 40.5369996,
            "lon": 17.4323213,
            "timestamp": "2025-08-07T16:48:12Z",
            "version": 1,
            "changeset": 170112178,
            "user": "OpenCode",
            "uid": 1196207,
            "tags": {
                "brand": "Spar",
                "brand:wikidata": "Q610492",
                "name": "Despar",
                "shop": "convenience"
            }
        },
        {
            "type": "node",
            "id": 13147022302,
            "lat": 40.3265789,
            "lon": 18.181288,
            "timestamp": "2025-09-17T13:16:18Z",
            "version": 2,
            "changeset": 172064486,
            "user": "user_5359",
            "uid": 5359,
            "tags": {
                "addr:city": "Castromediano",
                "addr:housenumber": "22",
                "addr:postcode": "73020",
                "addr:street": "Via dei Bersaglieri",
                "currency:XBT": "yes",
                "email": "imperiumotus@gmail.com",
                "leisure": "sports_hall",
                "name": "Imperium Motus - Studio Calisthenics Lecce",
                "opening_hours": "Mo-Fr 08:00-21:00; Sa 09:00-12:30",
                "operator": "Salento Bitcoin",
                "payment:lightning": "yes",
                "payment:onchain": "yes",
                "phone": "+393663752677",
                "sport": "calisthenics"
            }
        },
        {
            "type": "node",
            "id": 13197851253,
            "lat": 40.3577332,
            "lon": 18.1622606,
            "timestamp": "2025-10-06T13:41:28Z",
            "version": 1,
            "changeset": 172915189,
            "user": "angdev",
            "uid": 23366657,
            "tags": {
                "addr:city": "Lecce",
                "addr:postcode": "73100",
                "addr:street": "Via Luigi Pappacoda angolo Via Salvemini",
                "brand": "Conad",
                "brand:wikidata": "Q639075",
                "name": "Conad",
                "phone": "0832269965",
                "shop": "supermarket"
            }
        },
        {
            "type": "node",
            "id": 13197886432,
            "lat": 40.3554051,
            "lon": 18.160567,
            "timestamp": "2025-10-06T13:51:02Z",
            "version": 1,
            "changeset": 172915638,
            "user": "angdev",
            "uid": 23366657,
            "tags": {
                "addr:city": "Lecce",
                "addr:housenumber": "1",
                "addr:postcode": "73100",
                "addr:street": "Via Francesco Saverio Casavola",
                "brand": "Conad",
                "brand:wikidata": "Q639075",
                "name": "Conad",
                "phone": "+3908321561167",
                "shop": "supermarket"
            }
        },
        {
            "type": "node",
            "id": 13197910775,
            "lat": 40.3666352,
            "lon": 18.1700183,
            "timestamp": "2025-10-06T13:59:04Z",
            "version": 1,
            "changeset": 172916047,
            "user": "angdev",
            "uid": 23366657,
            "tags": {
                "addr:city": "Lecce",
                "addr:housenumber": "7",
                "addr:postcode": "73100",
                "addr:street": "Via Vincenzo Cuoco",
                "brand": "Conad",
                "brand:wikidata": "Q639075",
                "name": "Conad",
                "phone": "+393917474723",
                "shop": "supermarket"
            }
        },
        {
            "type": "node",
            "id": 13197917141,
            "lat": 40.3502384,
            "lon": 18.1791999,
            "timestamp": "2025-10-06T14:51:52Z",
            "version": 1,
            "changeset": 172918945,
            "user": "angdev",
            "uid": 23366657,
            "tags": {
                "addr:city": "Lecce",
                "addr:housenumber": "3",
                "addr:postcode": "73100",
                "addr:street": "Via Salvatore Grande",
                "brand": "Conad",
                "brand:wikidata": "Q639075",
                "name": "Conad",
                "shop": "supermarket"
            }
        },
        {
            "type": "node",
            "id": 13197938875,
            "lat": 40.3914409,
            "lon": 18.2968717,
            "timestamp": "2025-10-07T10:05:01Z",
            "version": 2,
            "changeset": 172951316,
            "user": "angdev",
            "uid": 23366657,
            "tags": {
                "addr:city": "San Cataldo",
                "addr:housenumber": "139",
                "addr:postcode": "73100",
                "addr:street": "Via Pigafetta",
                "brand": "Conad",
                "brand:wikidata": "Q639075",
                "name": "Conad",
                "phone": "+390832650618",
                "shop": "supermarket"
            }
        },
        {
            "type": "node",
            "id": 13198005162,
            "lat": 40.35735,
            "lon": 18.1813931,
            "timestamp": "2025-10-06T15:27:17Z",
            "version": 1,
            "changeset": 172920707,
            "user": "angdev",
            "uid": 23366657,
            "tags": {
                "addr:city": "Lecce",
                "addr:postcode": "73100",
                "addr:street": "Via Don Luigi Sturzo",
                "brand": "Conad",
                "brand:wikidata": "Q639075",
                "name": "Conad",
                "phone": "+390832312342",
                "shop": "supermarket"
            }
        },
        {
            "type": "node",
            "id": 13198034603,
            "lat": 40.339627,
            "lon": 18.1767441,
            "timestamp": "2025-10-06T15:08:52Z",
            "version": 1,
            "changeset": 172919772,
            "user": "angdev",
            "uid": 23366657,
            "tags": {
                "addr:street": "Via di Leuca",
                "brand": "Conad",
                "brand:wikidata": "Q639075",
                "name": "Conad",
                "phone": "+390832344663",
                "shop": "supermarket"
            }
        },
        {
            "type": "node",
            "id": 13200394611,
            "lat": 40.3538454,
            "lon": 18.1729417,
            "timestamp": "2025-10-07T09:27:57Z",
            "version": 1,
            "changeset": 172949709,
            "user": "angdev",
            "uid": 23366657,
            "tags": {
                "addr:city": "Lecce",
                "addr:housenumber": "13",
                "addr:postcode": "73100",
                "addr:street": "Via Templari",
                "brand": "Upim",
                "brand:wikidata": "Q1414836",
                "name": "Upim",
                "opening_hours": "Mo-Sa 09:30-20:30 Su 10:00-20:30",
                "phone": "+3908321565060",
                "shop": "department_store"
            }
        },
        {
            "type": "way",
            "id": 140856099,
            "timestamp": "2023-11-27T17:26:07Z",
            "version": 8,
            "changeset": 144516769,
            "user": "\u0110uro Ji\u0159\u00ed",
            "uid": 14617702,
            "nodes": [
                1542278375,
                1542278379,
                1542278394,
                1542278387,
                1542278391,
                1542278383,
                1542278375
            ],
            "tags": {
                "addr:city": "Lecce",
                "addr:postcode": "73100",
                "addr:street": "Via Almirante Unit\u00e0 Italia",
                "brand": "Decathlon",
                "brand:wikidata": "Q509349",
                "building": "retail",
                "building:levels": "1",
                "name": "Decathlon",
                "opening_hours": "Mo-Su 09:30-20:30",
                "phone": "+39 0832 277986",
                "ref:vatin": "IT11005760159",
                "roof:levels": "0",
                "roof:shape": "flat",
                "shop": "sports",
                "wheelchair": "yes"
            }
        },
        {
            "type": "way",
            "id": 297196005,
            "timestamp": "2025-01-02T12:27:14Z",
            "version": 11,
            "changeset": 160904828,
            "user": "mpbin",
            "uid": 21850090,
            "nodes": [
                3010423122,
                3010423145,
                3010423176,
                3010423169,
                3010423110,
                3010423088,
                3010423013,
                3010423122
            ],
            "tags": {
                "addr:city": "Cavallino",
                "addr:postcode": "73020",
                "addr:street": "Strada Statale 16 Adriatica",
                "brand": "Mondo Convenienza",
                "brand:wikidata": "Q55830962",
                "building": "retail",
                "building:levels": "1",
                "check_date:currency:XBT": "2023-07-31",
                "currency:XBT": "yes",
                "name": "Mondo Convenienza",
                "opening_hours": "Mo-Su 09:30-21:00",
                "phone": "+39 0691515",
                "roof:levels": "0",
                "roof:shape": "flat",
                "shop": "furniture",
                "website": "https://www.mondoconv.it/",
                "wheelchair": "yes"
            }
        },
        {
            "type": "way",
            "id": 321120243,
            "timestamp": "2023-07-14T17:07:50Z",
            "version": 5,
            "changeset": 138516600,
            "user": "DnaX",
            "uid": 69259,
            "nodes": [
                3278374400,
                3278374401,
                3278374402,
                3278374403,
                3278374400
            ],
            "tags": {
                "amenity": "fuel",
                "brand": "Q8",
                "brand:wikidata": "Q1634762",
                "fuel:diesel": "yes",
                "fuel:lpg": "yes",
                "fuel:octane_95": "yes",
                "name": "Q8",
                "operator": "Natale Emilio",
                "ref:mise": "4967"
            }
        },
        {
            "type": "way",
            "id": 346893105,
            "timestamp": "2023-11-28T10:38:43Z",
            "version": 8,
            "changeset": 144542577,
            "user": "\u0110uro Ji\u0159\u00ed",
            "uid": 14617702,
            "nodes": [
                3533446241,
                3533446240,
                3533446237,
                3533446233,
                3533446235,
                3533446231,
                3533446232,
                3533446241
            ],
            "tags": {
                "addr:city": "Cavallino",
                "addr:postcode": "73020",
                "addr:street": "Via Maglie",
                "amenity": "fuel",
                "brand": "Q8",
                "brand:wikidata": "Q1634762",
                "compressed_air": "yes",
                "fuel:diesel": "yes",
                "fuel:lpg": "yes",
                "fuel:octane_95": "yes",
                "name": "Q8",
                "opening_hours": "24/7",
                "ref:mise": "11093",
                "self_service": "yes",
                "source:date": "2018-04-16",
                "wheelchair": "yes"
            }
        },
        {
            "type": "way",
            "id": 355830378,
            "timestamp": "2021-08-12T21:50:23Z",
            "version": 6,
            "changeset": 109595402,
            "user": "damianeue",
            "uid": 10124288,
            "nodes": [
                3613729132,
                3613729133,
                3613729134,
                3613729137,
                3613729138,
                3613729136,
                3613729135,
                3613729125,
                3613729122,
                3613729119,
                3613729113,
                3613729106,
                3613729111,
                3613729123,
                3613729132
            ],
            "tags": {
                "addr:city": "Lecce",
                "amenity": "fuel",
                "brand": "Q8",
                "brand:wikidata": "Q1634762",
                "brand:wikipedia": "en:Kuwait Petroleum Corporation",
                "fuel:diesel": "yes",
                "fuel:lpg": "yes",
                "fuel:octane_95": "yes",
                "name": "Q8",
                "operator": "Est Service S.r.l.",
                "ref:mise": "15192"
            }
        },
        {
            "type": "way",
            "id": 387706241,
            "timestamp": "2025-08-02T05:36:37Z",
            "version": 5,
            "changeset": 169845584,
            "user": "Josef73",
            "uid": 213831,
            "nodes": [
                3909500945,
                6255569383,
                12831649110,
                3909500946,
                3037523557,
                3037523251,
                3037523242,
                3037523002,
                3909500945
            ],
            "tags": {
                "addr:city": "Lecce",
                "addr:housenumber": "10",
                "addr:postcode": "73100",
                "addr:street": "Via Fabio Filzi",
                "amenity": "bar",
                "building": "yes",
                "building:levels": "2",
                "currency:XBT": "yes",
                "name": "Float",
                "opening_hours": "Mo-Fr 08:00-22:00; Sa 08:00-02:00, Su off",
                "operator": "Salento Bitcoin",
                "payment:lightning": "yes",
                "payment:onchain": "yes",
                "phone": "0832726892"
            }
        },
        {
            "type": "way",
            "id": 391009072,
            "timestamp": "2025-03-17T13:13:17Z",
            "version": 4,
            "changeset": 163731690,
            "user": "evillz",
            "uid": 22552063,
            "nodes": [
                3941657109,
                3037583098,
                3037583108,
                3898036262,
                3941657120,
                3037584058,
                3037583931,
                3941657119,
                3941657109
            ],
            "tags": {
                "amenity": "fuel",
                "brand": "Tamoil",
                "brand:wikidata": "Q706793",
                "fuel:diesel": "yes",
                "fuel:octane_95": "yes",
                "name": "Tamoil",
                "operator": "De Vitis Pietro Luigi",
                "ref:mise": "21316"
            }
        },
        {
            "type": "way",
            "id": 394916003,
            "timestamp": "2025-07-31T12:07:16Z",
            "version": 2,
            "changeset": 169767114,
            "user": "Onyxbob",
            "uid": 22295304,
            "nodes": [
                3978033811,
                3978033669,
                3978033689,
                3978033707,
                3978033659,
                13039208289,
                13039208290,
                3978033849,
                3978033830,
                3978033811
            ],
            "tags": {
                "addr:city": "Sava",
                "addr:housenumber": "67",
                "addr:postcode": "74028",
                "addr:street": "Corso Francia",
                "brand": "Spar",
                "brand:wikidata": "Q610492",
                "building": "yes",
                "name": "Eurospar",
                "shop": "supermarket"
            }
        },
        {
            "type": "way",
            "id": 420420626,
            "timestamp": "2025-06-10T09:58:50Z",
            "version": 2,
            "changeset": 167436339,
            "user": "Onyxbob",
            "uid": 22295304,
            "nodes": [
                4203521683,
                12901754141,
                4203521461,
                4203521439,
                4203521441,
                4203521464,
                4203521465,
                4203521501,
                4203521542,
                4203521536,
                4203521632,
                4203521683
            ],
            "tags": {
                "addr:city": "Erchie",
                "addr:housenumber": "92",
                "addr:postcode": "72020",
                "addr:street": "Via Prov.le Erchie",
                "brand": "Conad",
                "brand:wikidata": "Q639075",
                "building": "yes",
                "name": "Conad",
                "shop": "supermarket"
            }
        },
        {
            "type": "way",
            "id": 422357678,
            "timestamp": "2023-11-26T07:08:07Z",
            "version": 12,
            "changeset": 144461326,
            "user": "\u0110uro Ji\u0159\u00ed",
            "uid": 14617702,
            "nodes": [
                4220922258,
                4220921724,
                4220922594,
                4220923503,
                4220922258
            ],
            "tags": {
                "addr:city": "Brindisi",
                "addr:postcode": "72100",
                "addr:street": "Strada Statale 7 Appia",
                "brand": "Decathlon",
                "brand:wikidata": "Q509349",
                "building": "retail",
                "building:levels": "1",
                "check_date:opening_hours": "2023-11-26",
                "name": "Decathlon",
                "opening_hours": "Mo-Su 09:00-21:00",
                "phone": "0831 508255",
                "roof:levels": "0",
                "roof:shape": "flat",
                "shop": "sports",
                "sport": "multi",
                "survey:date": "2023-11-25",
                "website": "https://www.decathlon.it/",
                "wheelchair": "yes"
            }
        },
        {
            "type": "way",
            "id": 422908840,
            "timestamp": "2019-10-29T14:07:51Z",
            "version": 4,
            "changeset": 76348767,
            "user": "LorC",
            "uid": 1545666,
            "nodes": [
                4226348837,
                4226348730,
                4226348743,
                4226348844,
                4226348837
            ],
            "tags": {
                "amenity": "fuel",
                "brand": "Tamoil",
                "brand:wikidata": "Q706793",
                "brand:wikipedia": "en:Tamoil",
                "building": "roof",
                "fuel:diesel": "yes",
                "fuel:octane_95": "yes",
                "layer": "1",
                "name": "Tamoil",
                "operator": "San Ciro S.A.S. di Migiani Rita e C.",
                "ref:mise": "20540"
            }
        },
        {
            "type": "way",
            "id": 425576107,
            "timestamp": "2020-07-13T14:10:48Z",
            "version": 3,
            "changeset": 87928639,
            "user": "corfede",
            "uid": 1960233,
            "nodes": [
                4248606089,
                4248606341,
                4248607024,
                4248607451,
                7710921681,
                7710921680,
                4248608026,
                4248608141,
                7710921678,
                7710921679,
                4248606333,
                4248606089
            ],
            "tags": {
                "brand": "Conad City",
                "brand:wikidata": "Q57543102",
                "building": "retail",
                "name": "Conad City",
                "shop": "supermarket"
            }
        },
        {
            "type": "way",
            "id": 425642183,
            "timestamp": "2025-03-17T13:13:17Z",
            "version": 4,
            "changeset": 163731690,
            "user": "evillz",
            "uid": 22552063,
            "nodes": [
                4249323234,
                4249323236,
                4249323235,
                4249323233,
                4249323234
            ],
            "tags": {
                "brand": "Conad",
                "brand:wikidata": "Q639075",
                "building": "yes",
                "building:levels": "1",
                "name": "Conad",
                "shop": "supermarket"
            }
        },
        {
            "type": "way",
            "id": 489069732,
            "timestamp": "2023-07-14T17:07:50Z",
            "version": 4,
            "changeset": 138516600,
            "user": "DnaX",
            "uid": 69259,
            "nodes": [
                4813505877,
                4813505876,
                4234807053,
                4234807261,
                4234807502,
                4813505875,
                4813505877
            ],
            "tags": {
                "amenity": "fuel",
                "brand": "Tamoil",
                "brand:wikidata": "Q706793",
                "fuel:diesel": "yes",
                "fuel:octane_95": "yes",
                "name": "Tamoil",
                "operator": "Daversa Cosimo & Daversa Massimo Societ\u00e0 in Nome Collettivo",
                "ref:mise": "11313"
            }
        },
        {
            "type": "way",
            "id": 513538063,
            "timestamp": "2019-10-05T15:33:52Z",
            "version": 3,
            "changeset": 75321644,
            "user": "mascalzone67",
            "uid": 1861652,
            "nodes": [
                5019558639,
                5019558638,
                5019558637,
                5019558636,
                5019558639
            ],
            "tags": {
                "addr:city": "Monteroni di Lecce",
                "addr:postcode": "73047",
                "addr:street": "Dalla Lecce-Arnesano per Leverano",
                "amenity": "fuel",
                "brand": "Q8",
                "brand:wikidata": "Q1634762",
                "brand:wikipedia": "en:Kuwait Petroleum Corporation",
                "fuel:cng": "yes",
                "fuel:diesel": "yes",
                "fuel:lpg": "yes",
                "fuel:octane_95": "yes",
                "name": "Q8",
                "opening_hours": "Mo-Sa 07:00-21:00; Su, PH 07:00-12:00, 15:00-20:00",
                "operator": "Ma.Mi. S.R.L.",
                "phone": "+39 340 7655340",
                "ref:mise": "41297"
            }
        },
        {
            "type": "way",
            "id": 542260939,
            "timestamp": "2023-11-27T15:21:00Z",
            "version": 10,
            "changeset": 144512383,
            "user": "\u0110uro Ji\u0159\u00ed",
            "uid": 14617702,
            "nodes": [
                5242719786,
                5242719785,
                5242719784,
                5242719783,
                5242719782,
                5242719781,
                5242719786
            ],
            "tags": {
                "amenity": "fuel",
                "brand": "Q8",
                "brand:wikidata": "Q1634762",
                "compressed_air": "yes",
                "fuel:diesel": "yes",
                "fuel:lpg": "yes",
                "fuel:octane_95": "yes",
                "name": "Q8",
                "opening_hours": "24/7",
                "ref:mise": "33222",
                "self_service": "yes",
                "wheelchair": "yes"
            }
        },
        {
            "type": "way",
            "id": 648830366,
            "timestamp": "2025-06-03T13:47:40Z",
            "version": 3,
            "changeset": 167136597,
            "user": "Onyxbob",
            "uid": 22295304,
            "nodes": [
                6090647975,
                6090647974,
                6090647973,
                6090647972,
                6090647975
            ],
            "tags": {
                "addr:city": "Brindisi",
                "addr:housenumber": "46",
                "addr:postcode": "72100",
                "addr:street": "Via Dalmazia",
                "brand": "Conad",
                "brand:wikidata": "Q639075",
                "building": "retail",
                "name": "Conad",
                "opening_hours": "Mo-Sa 07:30-20:30; Su 08:30-13:00",
                "phone": "0831607885",
                "shop": "supermarket",
                "website": "https://www.conad.it/ricerca-negozi/conad-via-dalmazia-angolo-via-moro-46-72100-brindisi--009599"
            }
        },
        {
            "type": "way",
            "id": 1282641672,
            "timestamp": "2024-05-13T22:56:28Z",
            "version": 2,
            "changeset": 151288388,
            "user": "Piersoft",
            "uid": 1362028,
            "nodes": [
                11902406286,
                11902406287,
                11902406288,
                11902406289,
                11902406290,
                11902406291,
                11902406292,
                11902406293,
                11902406286
            ],
            "tags": {
                "brand": "Spar",
                "brand:wikidata": "Q610492",
                "building": "yes",
                "name": "Despar",
                "shop": "supermarket"
            }
        },
        {
            "type": "way",
            "id": 1376448386,
            "timestamp": "2025-04-13T10:04:58Z",
            "version": 2,
            "changeset": 164886942,
            "user": "SalentoBitcoin",
            "uid": 22583613,
            "nodes": [
                12744504184,
                12744504185,
                12744504186,
                12744504187,
                12744504188,
                12744504184
            ],
            "tags": {
                "addr:city": "Lecce",
                "addr:housenumber": "13",
                "addr:postcode": "73100",
                "addr:street": "Via Basento",
                "amenity": "restaurant",
                "building": "yes",
                "cuisine": "pizza",
                "currency:XBT": "yes",
                "delivery": "yes",
                "facebook": "https://www.facebook.com/pizzapoplecce/?locale=it_IT",
                "instagram": "https://www.instagram.com/_pizzapoplecce_/",
                "name": "Pizza Pop",
                "operator": "Salento Bitcoin",
                "payment:lightning": "yes",
                "phone": "3939988886",
                "service_times": "gioved\u00ec\t17:30\u201300 venerd\u00ec\t17:30\u201300 sabato\t17:30\u201300 domenica\t17:30\u201300 luned\u00ec\t17:30\u201300 marted\u00ec\t17:30\u201300 mercoled\u00ec\t19:30\u201323:30",
                "website:menu": "https://sites.google.com/view/pizzapoplecce/menu"
            }
        },
        {
            "type": "way",
            "id": 1376714131,
            "timestamp": "2025-04-11T11:52:27Z",
            "version": 1,
            "changeset": 164812263,
            "user": "SalentoBitcoin",
            "uid": 22583613,
            "nodes": [
                12747616543,
                12747616544,
                12747616545,
                12747616546,
                12747616547,
                12747616548,
                12747616543
            ],
            "tags": {
                "addr:city": "Lecce",
                "addr:housenumber": "7",
                "addr:postcode": "73100",
                "addr:street": "Via Attilio Biasco",
                "amenity": "restaurant",
                "building": "yes",
                "cuisine": "pizza",
                "currency:XBT": "yes",
                "name": "YAAM Pizzeria a domicilio",
                "opening_hours": "gioved\u00ec,17:30\u201300",
                "operator": "Salento Bitcoin",
                "payment:lightning": "yes",
                "payment:onchain": "yes",
                "phone": "3932224477",
                "website": "http://www.yaamlecce.it/"
            }
        },
        {
            "type": "way",
            "id": 1418320631,
            "timestamp": "2025-07-29T12:28:43Z",
            "version": 1,
            "changeset": 169670076,
            "user": "Onyxbob",
            "uid": 22295304,
            "nodes": [
                3975027919,
                13033816280,
                13033816281,
                13033816282,
                13033816283,
                13033816284,
                13033816285,
                13033816286,
                13033816287,
                3975027089,
                3975027586,
                13033816278,
                13033816279,
                3975027919
            ],
            "tags": {
                "addr:city": "Sava",
                "addr:housenumber": "110",
                "addr:postcode": "74028",
                "addr:street": "Corso Umberto I",
                "brand": "Unieuro",
                "brand:wikidata": "Q4004687",
                "building": "yes",
                "name": "Unieuro",
                "shop": "electronics"
            }
        }
    ],
    "telegram": [
        {
            "telegram": "salento-b"
        }
    ]
}