{
    "id": "cles",
    "name": "Cles",
    "lng": 46.365271,
    "lat": 11.033176,
    "poi": [
        {
            "type": "node",
            "id": 288938675,
            "lat": 46.0647594,
            "lon": 11.1504525,
            "timestamp": "2023-11-08T03:55:18Z",
            "version": 14,
            "changeset": 143761703,
            "user": "b-jazz-bot",
            "uid": 9451067,
            "tags": {
                "addr:city": "Trento",
                "addr:housenumber": "10",
                "addr:postcode": "38123",
                "addr:street": "Via Sommarive",
                "amenity": "restaurant",
                "check_date:currency:XBT": "2023-03-09",
                "cuisine": "pizza",
                "currency:XBT": "yes",
                "name": "Pizzeria OroStube",
                "opening_hours": "Mo-Fr 11:45-14:00, 18:30-22:00; Sa 18:30-22:00",
                "payment:bitcoin:operator": "inbitcoin.it",
                "website": "https://orostube.it/",
                "wheelchair": "yes"
            }
        },
        {
            "type": "node",
            "id": 768593714,
            "lat": 46.3859813,
            "lon": 11.2589603,
            "timestamp": "2024-09-01T20:09:37Z",
            "version": 11,
            "changeset": 156070825,
            "user": "MrTukan",
            "uid": 6449972,
            "tags": {
                "addr:city": "Kaltern an der Weinstra\u00dfe - Caldaro sulla Strada del Vino",
                "addr:city:de": "Kaltern an der Weinstra\u00dfe",
                "addr:housenumber": "12",
                "addr:postcode": "39052",
                "addr:street": "Localit\u00e0 San Giuseppe al Lago - St. Josef am See",
                "addr:street:de": "St. Josef am See",
                "air_conditioning": "yes",
                "amenity": "restaurant",
                "check_date": "2023-06-16",
                "cuisine": "noodle;pizza",
                "currency:XBT": "yes",
                "indoor_seating": "yes",
                "internet_access": "no",
                "name": "Geier",
                "name:de": "Geier",
                "opening_hours": "Jul 1-Sep 15 Mo,We-Su 10:00-23:00; Sep 16-Oct 27 Mo,Th-Su 10:00-23:00",
                "opening_hours:kitchen": "Mo,We-Su 12:00-14:30,17:00-23:00",
                "outdoor_seating": "yes",
                "payment:cash": "yes",
                "payment:coins": "yes",
                "payment:contactless": "yes",
                "payment:cryptocurrencies": "yes",
                "payment:notes": "yes",
                "payment:onchain": "yes",
                "phone": "0471 960156",
                "reservation": "recommended",
                "smoking": "outside",
                "takeaway": "yes",
                "toilets": "yes",
                "toilets:wheelchair": "yes",
                "website": "https://www.pizzeriageier.it/",
                "wheelchair": "yes"
            }
        },
        {
            "type": "node",
            "id": 853801236,
            "lat": 46.065984,
            "lon": 11.131204,
            "timestamp": "2024-07-10T19:44:42Z",
            "version": 12,
            "changeset": 153798550,
            "user": "mauropili",
            "uid": 1496865,
            "tags": {
                "addr:city": "Trento",
                "addr:country": "IT",
                "addr:housenumber": "104",
                "addr:postcode": "38122",
                "addr:street": "Via Giuseppe Grazioli",
                "beauty": "hair,_cosmerics",
                "check_date": "2024-03-06",
                "contact:facebook": "https://www.facebook.com/BellezzaStudioItalia",
                "contact:instagram": "https://www.instagram.com/bellezzastudio.official/",
                "currency:XBT": "yes",
                "description": "Parrucchiere e Studio Estetico",
                "name": "Bellezza Studio",
                "opening_hours": "08:00-19:00",
                "payment:bitcoin:operator": "inbitcoin.it",
                "shop": "beauty",
                "website": "https://www.bellezzastudio.eu/"
            }
        },
        {
            "type": "node",
            "id": 906968501,
            "lat": 46.0671884,
            "lon": 11.1222426,
            "timestamp": "2023-11-23T14:00:06Z",
            "version": 10,
            "changeset": 144370880,
            "user": "baprischka",
            "uid": 974272,
            "tags": {
                "addr:city": "Trento",
                "addr:country": "IT",
                "addr:housenumber": "25",
                "addr:postcode": "38122",
                "addr:street": "Via Giuseppe Garibaldi",
                "check_date": "2023-11-23",
                "currency:XBT": "yes",
                "name": "Meroni",
                "opening_hours": "Mo-Sa 15:15-19:15, Tu-Sa 09:15-12:15, Su 10:00-13:00,14:30-19:15",
                "payment:bitcoin:operator": "inbitcoin.it",
                "shop": "clothes",
                "wheelchair": "limited"
            }
        },
        {
            "type": "node",
            "id": 945430413,
            "lat": 46.36519,
            "lon": 11.0330302,
            "timestamp": "2024-03-21T13:42:54Z",
            "version": 6,
            "changeset": 148964454,
            "user": "Chiarant",
            "uid": 18452174,
            "tags": {
                "addr:city": "Cles",
                "addr:country": "IT",
                "addr:housenumber": "5",
                "addr:postcode": "38023",
                "addr:street": "Piazza Granda",
                "amenity": "bar",
                "check_date": "2024-03-21",
                "contact:instagram": "https://www.instagram.com/bar_nik5/",
                "currency:XBT": "yes",
                "name": "Bar Nik 5 - Enoteca Birreria",
                "payment:lightning": "yes",
                "payment:onchain": "no"
            }
        },
        {
            "type": "node",
            "id": 963712306,
            "lat": 46.0688508,
            "lon": 11.12012,
            "timestamp": "2024-04-10T08:47:00Z",
            "version": 13,
            "changeset": 149808574,
            "user": "Igor Bubelov",
            "uid": 2104834,
            "tags": {
                "addr:city": "Trento",
                "addr:country": "IT",
                "addr:housenumber": "23",
                "addr:postcode": "38122",
                "addr:street": "Via delle Orfane",
                "check_date": "2024-04-10",
                "contact:fax": "+39 0461 1920370",
                "contact:phone": "+39 0461 1920371",
                "contact:website": "https://www.cec.com/negozi-apple/trento",
                "currency:XBT": "yes",
                "name": "C&C Trento",
                "opening_hours": "Mo-Sa 09:30-13:00,14:30-19:00; Su off",
                "payment:bitcoin:operator": "inbitcoin.it",
                "shop": "computer"
            }
        },
        {
            "type": "node",
            "id": 983735426,
            "lat": 46.0698171,
            "lon": 11.1236723,
            "timestamp": "2023-05-12T22:47:37Z",
            "version": 14,
            "changeset": 136036834,
            "user": "saunter",
            "uid": 10396321,
            "tags": {
                "addr:city": "Trento",
                "addr:country": "IT",
                "addr:housenumber": "58",
                "addr:postcode": "38122",
                "addr:street": "Via Giannantonio Manci",
                "check_date:currency:XBT": "2023-05-13",
                "clothes": "men",
                "currency:XBT": "yes",
                "name": "Doppleg\u00e4nger",
                "opening_hours": "Mo-Fr 10:00-19:00; Sa 10:00-19:30; Su 10:00-13:00,15:00-19:00",
                "payment:lightning": "no",
                "payment:lightning_contactless": "no",
                "payment:onchain": "yes",
                "phone": "0461521650",
                "shop": "clothes",
                "wheelchair": "yes"
            }
        },
        {
            "type": "node",
            "id": 1318116512,
            "lat": 46.0384428,
            "lon": 11.1230431,
            "timestamp": "2024-01-20T03:20:03Z",
            "version": 15,
            "changeset": 146464250,
            "user": "Igor Bubelov",
            "uid": 2104834,
            "tags": {
                "addr:city": "Trento",
                "amenity": "fuel",
                "brand": "Agip Eni",
                "check_date": "2022-12-20",
                "currency:XBT": "yes",
                "email": "info@petrol-airport.it",
                "fuel:GTL_diesel": "yes",
                "fuel:cng": "yes",
                "fuel:diesel": "yes",
                "fuel:diesel:class2": "yes",
                "fuel:octane_100": "yes",
                "fuel:octane_95": "yes",
                "name": "Area di Servizio Petrol-Airport",
                "operator": "Petrol-Airport S.A.S. di Degasperi Diego, Tomasi Luca & C.",
                "payment:bitcoin:operator": "inbitcoin.it",
                "payment:onchain": "yes",
                "ref:mise": "8259",
                "source": "MISE - Ministero Sviluppo Economico",
                "website": "http://petrol-airport.it/"
            }
        },
        {
            "type": "node",
            "id": 1351488951,
            "lat": 46.0931109,
            "lon": 11.1121903,
            "timestamp": "2022-12-20T23:57:16Z",
            "version": 5,
            "changeset": 130309820,
            "user": "saunter",
            "uid": 10396321,
            "tags": {
                "addr:city": "Trento",
                "addr:country": "IT",
                "addr:housenumber": "26",
                "addr:postcode": "38121",
                "addr:street": "Via Giancarlo Maroni",
                "check_date:currency:XBT": "2022-12-20",
                "currency:XBT": "yes",
                "description": "e-commerce articoli equitazione e sportivi",
                "name": "La selleria on line",
                "payment:bitcoin:operator": "inbitcoin.it",
                "payment:onchain": "yes",
                "shop": "sports",
                "sport": "equestrian",
                "website": "https://www.laselleriaonline.it/"
            }
        },
        {
            "type": "node",
            "id": 1991003959,
            "lat": 46.5636952,
            "lon": 11.4135391,
            "timestamp": "2023-07-18T14:36:00Z",
            "version": 10,
            "changeset": 138673018,
            "user": "saunter",
            "uid": 10396321,
            "tags": {
                "addr:city": "Ritten - Renon",
                "addr:country": "IT",
                "addr:housenumber": "10",
                "addr:postcode": "39054",
                "addr:street": "Lahnweg - Via Lahn",
                "check_date:currency:XBT": "2023-07-18",
                "currency:XBT": "yes",
                "ele": "1380",
                "name": "Bergasthof Pl\u00f6rr",
                "operator": "Herbert Vigl",
                "tourism": "hotel",
                "website": "https://www.ploerr.com/"
            }
        },
        {
            "type": "node",
            "id": 2748239833,
            "lat": 46.0947719,
            "lon": 11.1096204,
            "timestamp": "2024-04-17T12:49:44Z",
            "version": 7,
            "changeset": 150128186,
            "user": "Igor Bubelov",
            "uid": 2104834,
            "tags": {
                "addr:city": "Trento",
                "addr:country": "IT",
                "addr:housenumber": "7",
                "addr:postcode": "38121",
                "addr:street": "Via Giambattista Unterveger",
                "check_date": "2024-04-17",
                "contact:website": "http://www.laselleriaonline.it/",
                "currency:XBT": "yes",
                "description": "Negozio specializzato in articolo per equitazione",
                "name": "La Selleria",
                "payment:bitcoin:operator": "inbitcoin.it",
                "shop": "sports",
                "sport": "equestrian"
            }
        },
        {
            "type": "node",
            "id": 2749772773,
            "lat": 46.4150124,
            "lon": 11.2490804,
            "timestamp": "2024-07-11T20:31:43Z",
            "version": 5,
            "changeset": 153828936,
            "user": "mauropili",
            "uid": 1496865,
            "tags": {
                "addr:city": "Kaltern an der Weinstra\u00dfe - Caldaro sulla Strada del Vino",
                "addr:city:de": "Kaltern an der Weinstra\u00dfe",
                "addr:city:it": "Caldaro sulla Strada del Vino",
                "addr:housenumber": "1",
                "addr:postcode": "39052",
                "addr:street": "Weinstra\u00dfe - Strada del Vino",
                "addr:street:de": "Weinstra\u00dfe",
                "addr:street:it": "Strada del Vino",
                "amenity": "restaurant",
                "check_date": "2024-01-05",
                "contact:facebook": "https://www.facebook.com/ritterhof.kaltern",
                "cuisine": "suedtirolerisch",
                "currency:XBT": "yes",
                "name": "Restaurant Ritterhof",
                "opening_hours": "11:30 - 15:30, 18:30 - 24:00",
                "payment:lightning": "yes",
                "payment:onchain": "yes",
                "phone": "+39 0471 96 33 30",
                "website": "https://www.restaurant-ritterhof.it"
            }
        },
        {
            "type": "node",
            "id": 2749773047,
            "lat": 46.4078349,
            "lon": 11.2384105,
            "timestamp": "2023-07-18T14:37:59Z",
            "version": 4,
            "changeset": 138673094,
            "user": "saunter",
            "uid": 10396321,
            "tags": {
                "addr:city": "Kaltern an der Weinstra\u00dfe - Caldaro sulla Strada del Vino",
                "addr:city:de": "Kaltern an der Weinstra\u00dfe",
                "addr:city:it": "Caldaro sulla Strada del Vino",
                "addr:housenumber": "13",
                "addr:postcode": "39052",
                "addr:street": "Europastra\u00dfe - Via Europa",
                "addr:street:de": "Europastra\u00dfe",
                "addr:street:it": "Via Europa",
                "check_date:currency:XBT": "2023-07-18",
                "currency:XBT": "yes",
                "description": "Cosmolife, nata nel 1994, offre ai propri clienti ed amici prodotti naturali, biologici ed energetici per prevenire malattie e rafforzare il proprio sistema immunitario.",
                "email": "info@cosmolife.it",
                "name": "Cosmo Life S.r.l.",
                "phone": "+39 0471964096",
                "shop": "nutrition_supplements",
                "website": "https://www.cosmolife.it/"
            }
        },
        {
            "type": "node",
            "id": 2749774355,
            "lat": 46.4116673,
            "lon": 11.243861,
            "timestamp": "2024-04-12T03:10:13Z",
            "version": 7,
            "changeset": 149888917,
            "user": "Igor Bubelov",
            "uid": 2104834,
            "tags": {
                "addr:city": "Kaltern an der Weinstra\u00dfe - Caldaro sulla Strada del Vino",
                "addr:city:de": "Kaltern an der Weinstra\u00dfe",
                "addr:city:it": "Caldaro sulla Strada del Vino",
                "addr:housenumber": "28",
                "addr:postcode": "39052",
                "addr:street": "Goldgasse - Via D'Oro",
                "addr:street:de": "Goldgasse",
                "addr:street:it": "Via D'Oro",
                "check_date": "2024-04-12",
                "currency:XBT": "yes",
                "email": "info@flaim.bz",
                "name": "Flaim Optic",
                "payment:bitcoin:operator": "inbitcoin.it",
                "phone": "+39 0471 963087",
                "shop": "optician"
            }
        },
        {
            "type": "node",
            "id": 2756052794,
            "lat": 46.5430995,
            "lon": 10.994541,
            "timestamp": "2023-11-17T21:48:09Z",
            "version": 9,
            "changeset": 144155940,
            "user": "toponomastica_comune_arenzano",
            "uid": 14257573,
            "tags": {
                "addr:city": "Ulten - Ultimo",
                "addr:city:de": "Ulten",
                "addr:city:it": "Ultimo",
                "addr:hamlet": "St. Walburg - Santa Valburga",
                "addr:hamlet:de": "St. Walburg",
                "addr:hamlet:it": "Santa Valburga",
                "addr:housenumber": "200a",
                "addr:postcode": "39016",
                "addr:street": "Handwerkerzone",
                "currency:XBT": "yes",
                "email": "info@landhandel-ulten.com",
                "name": "Landhandel Ulten",
                "opening_hours": "Mo-Sa 08:00-12:00, 15:30-17:30",
                "payment:lightning": "yes",
                "payment:onchain": "yes",
                "phone": "+39 0473 795371",
                "shop": "farm",
                "survey:date": "2023-05-15"
            }
        },
        {
            "type": "node",
            "id": 3328334271,
            "lat": 46.7480184,
            "lon": 11.2063186,
            "timestamp": "2024-07-05T19:22:16Z",
            "version": 21,
            "changeset": 153601739,
            "user": "mauropili",
            "uid": 1496865,
            "tags": {
                "addr:city": "St. Martin in Passeier - San Martino in Passiria",
                "breakfast": "buffet",
                "check_date:currency:XBT": "2018-01-24",
                "contact:email": "info@quellenhof.it",
                "contact:fax": "+39 0473 645499",
                "contact:phone": "+39 0473 645474",
                "currency:XBT": "yes",
                "elevator": "yes",
                "internet_access": "wlan",
                "name": "Quellenhof Guesthouse (V&P)",
                "opening_hours": "2024 Mar-2025 Jan",
                "operator": "Fam. Dorfer",
                "payment:bitcoin:operator": "inbitcoin.it",
                "rooms": "50",
                "sauna": "yes",
                "service:bicycle:rental": "yes",
                "source:date": "2024-02-15",
                "source:de": "Unterkunftsverzeichnis Passeiertal\u00a0 2024, S. 33, schriftliche Erlaubnis des Tourismusvereins Passeiertal vom 2016-08-16 f\u00fcr die Verwendung der Daten f\u00fcr OSM",
                "source:it": "Elenco degli alloggi della Val Passiria 2024, pagina 33, autorizzazione in forma scritta dell\u2019Associazione turistica Val Passiria del 2016-08-16, per utilizzare i dati su OSM",
                "stars": "5",
                "swimming_pool": "yes",
                "tourism": "hotel",
                "website": "https://www.quellenhof.it/",
                "wheelchair": "yes"
            }
        },
        {
            "type": "node",
            "id": 3328335982,
            "lat": 46.747058,
            "lon": 11.2067414,
            "timestamp": "2024-07-06T13:33:29Z",
            "version": 27,
            "changeset": 153624150,
            "user": "mauropili",
            "uid": 1496865,
            "tags": {
                "addr:city": "Quellenhof",
                "addr:postcode": "39010",
                "breakfast": "buffet",
                "contact:email": "info@quellenhof.it",
                "contact:fax": "+39 0473 645499",
                "contact:phone": "+39 0473 645474",
                "currency:XBT": "yes",
                "elevator": "yes",
                "internet_access": "wlan",
                "name": "Quellenhof Guesthouse Q",
                "opening_hours": "2024 Mar-2025 Jan",
                "operator": "Fam. Dorfer",
                "payment:bitcoin:operator": "inbitcoin.it",
                "rooms": "25",
                "sauna": "yes",
                "service:bicycle:rental": "yes",
                "source:date": "2024-02-15",
                "source:de": "Unterkunftsverzeichnis Passeiertal\u00a0 2024, S. 33, schriftliche Erlaubnis des Tourismusvereins Passeiertal vom 2016-08-16 f\u00fcr die Verwendung der Daten f\u00fcr OSM",
                "source:it": "Elenco degli alloggi della Val Passiria 2024, pagina 33, autorizzazione in forma scritta dell\u2019Associazione turistica Val Passiria del 2016-08-16, per utilizzare i dati su OSM",
                "stars": "5",
                "swimming_pool": "yes",
                "tourism": "hotel",
                "website": "https://www.quellenhof.it/",
                "wheelchair": "yes"
            }
        },
        {
            "type": "node",
            "id": 4650320954,
            "lat": 46.0068646,
            "lon": 11.1264895,
            "timestamp": "2024-03-12T09:32:06Z",
            "version": 12,
            "changeset": 148539973,
            "user": "Chiarant",
            "uid": 18452174,
            "tags": {
                "addr:city": "Mattarello",
                "addr:housenumber": "7",
                "addr:postcode": "38123",
                "addr:street": "Via della Stazione",
                "check_date": "2024-03-12",
                "currency:XBT": "yes",
                "email": "info@patiflex.it",
                "name": "Patiflex",
                "operator": "inbitcoin.it",
                "payment:bitcoin:operator": "inbitcoin.it",
                "payment:lightning": "yes",
                "payment:onchain": "yes",
                "phone": "+39 0461 945726",
                "shop": "bed",
                "website": "https://www.patiflex.it/"
            }
        },
        {
            "type": "node",
            "id": 8701286579,
            "lat": 45.9622358,
            "lon": 10.9116349,
            "timestamp": "2024-02-10T08:45:53Z",
            "version": 11,
            "changeset": 147284298,
            "user": "Igor Bubelov",
            "uid": 2104834,
            "tags": {
                "addr:city": "Dro",
                "addr:housenumber": "6",
                "addr:postcode": "38074",
                "addr:street": "Via Torre",
                "check_date": "2023-02-24",
                "cuisine": "italian;regional;international",
                "currency:XBT": "yes",
                "diet:gluten_free": "yes",
                "diet:vegan": "yes",
                "email": "info@untempoperte.it",
                "guest_house": "bed_and_breakfast",
                "internet_access": "wlan",
                "internet_access:fee": "no",
                "name": "Un tempo per Te",
                "opening_hours": "\"su prenotazione\"",
                "payment:cash": "yes",
                "payment:dash": "yes",
                "payment:ethereum": "yes",
                "payment:lightning": "yes",
                "phone": "+39 333 364 9554",
                "tourism": "guest_house",
                "website": "https://www.untempoperte.it"
            }
        },
        {
            "type": "node",
            "id": 10132156282,
            "lat": 46.6223309,
            "lon": 10.5815421,
            "timestamp": "2022-11-08T08:54:00Z",
            "version": 2,
            "changeset": 128629873,
            "user": "BSN21M",
            "uid": 17441326,
            "tags": {
                "addr:city": "Prad am Stilfser Joch - Prato allo Stelvio",
                "addr:postcode": "39026",
                "addr:street": "Agums - Agumes",
                "currency:XBT": "yes",
                "email": "info@arch-stecher.it",
                "name": "Architekten Stecher",
                "office": "architect",
                "payment:onchain": "yes",
                "survey:date": "2022-11-08",
                "website": "https://www.arch-stecher.it/"
            }
        },
        {
            "type": "node",
            "id": 10830054226,
            "lat": 46.3611734,
            "lon": 11.0295258,
            "timestamp": "2023-11-17T21:48:09Z",
            "version": 2,
            "changeset": 144155940,
            "user": "toponomastica_comune_arenzano",
            "uid": 14257573,
            "tags": {
                "addr:city": "Cles",
                "addr:housenumber": "6b",
                "addr:postcode": "38023",
                "addr:street": "Via Armando Diaz",
                "check_date:currency:XBT": "2023-04-21",
                "currency:XBT": "yes",
                "name": "Vivishare",
                "opening_hours": "\"on appointment\"",
                "payment:lightning": "yes",
                "payment:lightning_contactless": "no",
                "payment:onchain": "yes",
                "shop": "yes",
                "website": "https://vivishare.net/"
            }
        },
        {
            "type": "node",
            "id": 11573964908,
            "lat": 45.9157088,
            "lon": 11.0314209,
            "timestamp": "2024-01-31T18:40:58Z",
            "version": 1,
            "changeset": 146916753,
            "user": "inbitcoin",
            "uid": 4533749,
            "tags": {
                "addr:city": "Villa Lagarina",
                "addr:housenumber": "8",
                "addr:postcode": "38060",
                "addr:street": "Via Venticinque Aprile",
                "check_date:currency:XBT": "2024-01-31",
                "currency:XBT": "yes",
                "name": "Edicola - Riv. Tabacchi n. 9 - Ric. Lotto n. TN437",
                "payment:XBT:operator": "bitcoinpos.it",
                "payment:lightning": "yes",
                "payment:onchain": "no",
                "phone": "+390464412950",
                "shop": "newsagent"
            }
        },
        {
            "type": "node",
            "id": 11841224513,
            "lat": 45.9159607,
            "lon": 11.0271675,
            "timestamp": "2024-04-23T12:53:24Z",
            "version": 1,
            "changeset": 150394331,
            "user": "saunter",
            "uid": 10396321,
            "tags": {
                "addr:city": "Rovereto",
                "addr:postcode": "38060",
                "addr:street": "Viale dei Tigli",
                "check_date:currency:XBT": "2024-04-23",
                "currency:XBT": "yes",
                "name": "Energie Alternative",
                "office": "yes",
                "payment:onchain": "yes",
                "website": "https://energiealternativetn.it/"
            }
        }
    ],
    "telegram": [
        {
            "telegram": "ss-cles"
        }
    ]
}