{
    "id": "cuneo",
    "name": "Cuneo",
    "lng": 44.384477,
    "lat": 7.542671,
    "poi": [
        {
            "type": "node",
            "id": 228302011,
            "lat": 44.376298,
            "lon": 8.037529,
            "timestamp": "2023-09-04T21:33:21Z",
            "version": 7,
            "changeset": 140824137,
            "user": "nick1993",
            "uid": 3335735,
            "tags": {
                "addr:housenumber": "51",
                "addr:street": "Via San Bernardino",
                "amenity": "fuel",
                "brand": "Tamoil",
                "brand:wikidata": "Q706793",
                "fuel:diesel": "yes",
                "fuel:lpg": "yes",
                "fuel:octane_95": "yes",
                "name": "Tamoil",
                "operator": "Tamoil",
                "ref:mise": "4938",
                "source": "MISE - Ministero Sviluppo Economico"
            }
        },
        {
            "type": "node",
            "id": 1425019736,
            "lat": 44.3472624,
            "lon": 7.5092303,
            "timestamp": "2023-09-09T11:54:34Z",
            "version": 5,
            "changeset": 141020940,
            "user": "Mateusz Konieczny - bot account",
            "uid": 3199858,
            "tags": {
                "addr:city": "Borgo San Dalmazzo",
                "addr:housenumber": "84b",
                "addr:postcode": "12011",
                "addr:street": "Via Cuneo",
                "brand": "Unieuro",
                "brand:wikidata": "Q4004687",
                "brand:wikipedia": "en:Unieuro",
                "facebook": "https://www.facebook.com/UnieuroBorgoSanDalmazzoViaCuneo",
                "name": "Unieuro",
                "opening_hours": "Mo-Sa 09:00-13:00, 15:00-19:30; Su 10:00-13:00, 15:00-19:30",
                "operator": "Unieuro S.p.A.",
                "payment:american_express": "yes",
                "payment:cash": "yes",
                "payment:coins": "yes",
                "payment:credit_cards": "yes",
                "payment:maestro": "yes",
                "payment:mastercard": "yes",
                "payment:satispay": "yes",
                "payment:visa": "yes",
                "phone": "+39 0171 261190",
                "ref:vatin": "IT00876320409",
                "shop": "electronics"
            }
        },
        {
            "type": "node",
            "id": 3180506130,
            "lat": 44.5998988,
            "lon": 7.8701716,
            "timestamp": "2023-09-06T20:44:52Z",
            "version": 6,
            "changeset": 140912751,
            "user": "nick1993",
            "uid": 3335735,
            "tags": {
                "addr:street": "Via Cavour",
                "amenity": "fuel",
                "brand": "Tamoil",
                "brand:wikidata": "Q706793",
                "fuel:diesel": "yes",
                "fuel:octane_95": "yes",
                "name": "Tamoil",
                "nohousenumber": "yes",
                "operator": "Tamoil",
                "ref:mise": "8289",
                "source": "MISE - Ministero Sviluppo Economico"
            }
        },
        {
            "type": "node",
            "id": 3196747047,
            "lat": 44.558931,
            "lon": 7.7093794,
            "timestamp": "2025-01-26T17:19:10Z",
            "version": 6,
            "changeset": 161788722,
            "user": "Rockedf",
            "uid": 7522075,
            "tags": {
                "addr:city": "Fossano",
                "addr:housenumber": "51",
                "addr:postcode": "12045",
                "addr:street": "Via Torino",
                "addr:unit": "A",
                "check_date": "2023-03-16",
                "check_date:currency:XBT": "2025-01-26",
                "craft": "brewery",
                "currency:XBT": "yes",
                "name": "Birreria Moulin",
                "note": "Birre artigianali, televisioni per partite, ottima cucina",
                "opening_hours": "Tu-Sa 19:00-02:00; Su 19:00-01:00",
                "payment:lightning": "yes",
                "phone": "+39 0172 694327",
                "website": "https://www.birreriamoulin.it/"
            }
        },
        {
            "type": "node",
            "id": 3450446420,
            "lat": 44.4757521,
            "lon": 7.5079779,
            "timestamp": "2024-11-08T11:15:48Z",
            "version": 13,
            "changeset": 158891142,
            "user": "mircozorzo",
            "uid": 224342,
            "tags": {
                "addr:city": "San Chiaffredo Tarantasca",
                "addr:housenumber": "38",
                "addr:postcode": "12020",
                "addr:street": "Via Laghi di Avigliana",
                "amenity": "restaurant",
                "check_date": "2024-10-22",
                "check_date:currency:XBT": "2024-10-22",
                "cuisine": "italian;pizza",
                "currency:XBT": "yes",
                "email": "info@saloonristopizza.it",
                "name": "Saloon Risto Pizza Pub",
                "payment:lightning": "yes",
                "phone": "+39 339 819 5518",
                "survey:date": "2024-05-22",
                "website": "https://www.saloonristopizza.it/"
            }
        },
        {
            "type": "node",
            "id": 4343768039,
            "lat": 44.7093378,
            "lon": 7.8426932,
            "timestamp": "2025-01-03T14:07:48Z",
            "version": 5,
            "changeset": 160950817,
            "user": "mpbin",
            "uid": 21850090,
            "tags": {
                "addr:city": "Bra",
                "addr:housenumber": "1f",
                "addr:postcode": "12042",
                "addr:street": "Strada San Matteo",
                "brand": "OVS",
                "brand:wikidata": "Q2042514",
                "brand:wikipedia": "en:OVS (company)",
                "check_date": "2023-02-19",
                "name": "OVS",
                "operator": "OVS",
                "phone": "+39 0172 431984",
                "shop": "clothes"
            }
        },
        {
            "type": "node",
            "id": 4844602523,
            "lat": 44.5031343,
            "lon": 7.7253946,
            "timestamp": "2024-11-20T22:28:38Z",
            "version": 5,
            "changeset": 159387255,
            "user": "Botaler",
            "uid": 492756,
            "tags": {
                "addr:city": "Sant'Albano Stura",
                "addr:housenumber": "42",
                "addr:postcode": "12040",
                "addr:street": "Via Mondov\u00ec",
                "amenity": "pub",
                "currency:XBT": "yes",
                "name": "La Grotta degli Elfi",
                "payment:onchain": "yes"
            }
        },
        {
            "type": "node",
            "id": 5123200722,
            "lat": 44.41894,
            "lon": 7.8491273,
            "timestamp": "2025-01-01T18:31:46Z",
            "version": 3,
            "changeset": 160880052,
            "user": "mpbin",
            "uid": 21850090,
            "tags": {
                "addr:city": "Mondov\u00ec",
                "addr:housenumber": "13",
                "addr:postcode": "12084",
                "addr:street": "Corso Mondovicino",
                "brand": "Unieuro",
                "brand:wikidata": "Q4004687",
                "brand:wikipedia": "en:Unieuro",
                "name": "Unieuro",
                "operator": "Unieuro S.p.A.",
                "phone": "+39 0174 40423",
                "shop": "electronics"
            }
        },
        {
            "type": "node",
            "id": 6119714188,
            "lat": 44.6021685,
            "lon": 7.6611291,
            "timestamp": "2025-03-06T23:37:39Z",
            "version": 5,
            "changeset": 163305663,
            "user": "Marco_Fix",
            "uid": 3338651,
            "tags": {
                "addr:city": "Genola",
                "addr:housenumber": "24",
                "addr:postcode": "12040",
                "addr:street": "Via Frassinetto",
                "brand": "Unieuro",
                "brand:wikidata": "Q4004687",
                "name": "Unieuro",
                "operator": "Unieuro S.p.A.",
                "shop": "electronics"
            }
        },
        {
            "type": "node",
            "id": 7080106296,
            "lat": 44.3482263,
            "lon": 7.5086847,
            "timestamp": "2020-05-02T21:29:39Z",
            "version": 2,
            "changeset": 84537962,
            "user": "mascalzone67",
            "uid": 1861652,
            "tags": {
                "addr:city": "Borgo San Dalmazzo",
                "addr:housenumber": "84",
                "addr:postcode": "12011",
                "addr:street": "Via Cuneo",
                "brand": "Conad",
                "brand:wikidata": "Q639075",
                "brand:wikipedia": "it:Conad",
                "email": "Boxinfo.BSD@nordiconad.it",
                "name": "Conad",
                "opening_hours": "Mo-Su 08:30-21:00",
                "operator": "Conad",
                "payment:bancomat": "yes",
                "payment:cash": "yes",
                "payment:credit_cards": "yes",
                "phone": "+39 0171 268005",
                "shop": "supermarket",
                "website": "https://www.conad.it/ricerca-negozi/negozio.008648.html"
            }
        },
        {
            "type": "node",
            "id": 7089465128,
            "lat": 44.3908508,
            "lon": 7.5829884,
            "timestamp": "2025-01-03T09:48:08Z",
            "version": 4,
            "changeset": 160940336,
            "user": "mpbin",
            "uid": 21850090,
            "tags": {
                "addr:city": "Cuneo",
                "addr:housenumber": "8",
                "addr:postcode": "12100",
                "addr:street": "Via Margarita",
                "brand": "Decathlon",
                "brand:wikidata": "Q509349",
                "brand:wikipedia": "en:Decathlon Group",
                "name": "Decathlon",
                "opening_hours": "Mo-Su 09:00-20:00",
                "operator": "Decathlon",
                "phone": "+39 0171 346444",
                "ref:vatin": "IT11005760159",
                "shop": "sports",
                "website": "https://www.decathlon.it/store-view/sport-shop-cuneo-0070037000370"
            }
        },
        {
            "type": "node",
            "id": 7474524439,
            "lat": 44.3480727,
            "lon": 7.5085562,
            "timestamp": "2021-01-31T00:00:49Z",
            "version": 2,
            "changeset": 98433027,
            "user": "Botaler",
            "uid": 492756,
            "tags": {
                "addr:city": "Borgo San Dalmazzo",
                "addr:housenumber": "84",
                "addr:postcode": "12011",
                "addr:street": "Via Cuneo",
                "amenity": "pharmacy",
                "brand": "Parafarmacia Conad",
                "dispensing": "no",
                "healthcare": "pharmacy",
                "name": "Parafarmacia Conad",
                "operator": "Conad",
                "ref:msal": "008584",
                "ref:vatin": "IT05663761004",
                "source": "Ministero della Salute"
            }
        },
        {
            "type": "node",
            "id": 10792267135,
            "lat": 44.6029307,
            "lon": 7.4732968,
            "timestamp": "2023-08-04T07:22:38Z",
            "version": 2,
            "changeset": 139426733,
            "user": "yhic4uw",
            "uid": 2104834,
            "tags": {
                "addr:city": "Verzuolo",
                "addr:housenumber": "94",
                "addr:postcode": "12039",
                "addr:street": "Via al Castello",
                "check_date": "2023-07-09",
                "contact:facebook": "https://www.facebook.com/people/El-panat%C3%A8-dla-Vila/100054305930056/",
                "currency:XBT": "yes",
                "email": "elpanatedlavila@gmail.com",
                "name": "El Panat\u00e8 Dla Vila",
                "phone": "0175 85831",
                "ref:vatin": "03552540043",
                "shop": "bakery"
            }
        },
        {
            "type": "node",
            "id": 11267662527,
            "lat": 44.6895793,
            "lon": 7.8795567,
            "timestamp": "2023-10-16T19:58:58Z",
            "version": 1,
            "changeset": 142682144,
            "user": "Chiarant",
            "uid": 18452174,
            "tags": {
                "addr:city": "Bra",
                "addr:housenumber": "22",
                "addr:street": "Strada Orti",
                "addr:unit": "l",
                "check_date": "2023-10-16",
                "currency:XBT": "yes",
                "name": "Residenza da Luisa",
                "payment:lightning": "yes",
                "payment:onchain": "no",
                "phone": "+39 3668941251",
                "tourism": "apartment"
            }
        },
        {
            "type": "node",
            "id": 11936607674,
            "lat": 44.513275,
            "lon": 7.4719245,
            "timestamp": "2025-01-24T08:25:33Z",
            "version": 3,
            "changeset": 161702052,
            "user": "Botaler",
            "uid": 492756,
            "tags": {
                "addr:city": "Busca",
                "addr:housenumber": "7",
                "addr:postcode": "12022",
                "addr:street": "Strada Rossana",
                "amenity": "bar",
                "check_date": "2022-12-31",
                "contact:facebook": "https://www.facebook.com/belvederedabosio/",
                "currency:XBT": "yes",
                "description": "Bar Vineria Osteria Belvedere da Bosio. Sala giochi, disco",
                "name": "Bar Belvedere",
                "payment:onchain": "yes",
                "phone": "+39 0171 173 0003"
            }
        },
        {
            "type": "node",
            "id": 11955642309,
            "lat": 44.6458418,
            "lon": 7.4961578,
            "timestamp": "2024-07-05T20:03:29Z",
            "version": 4,
            "changeset": 153603115,
            "user": "mauropili",
            "uid": 1496865,
            "tags": {
                "addr:city": "Saluzzo",
                "addr:housenumber": "7",
                "addr:street": "Via Savigliano",
                "currency:XBT": "yes",
                "name": "Non solo tabacchi",
                "payment:onchain": "yes",
                "phone": "+39 0175 45337",
                "shop": "tobacco",
                "survey:date": "2024-05-31",
                "website": "https://www.nonsolotabacchi.com/"
            }
        },
        {
            "type": "node",
            "id": 12033521517,
            "lat": 44.3965499,
            "lon": 7.7444969,
            "timestamp": "2024-09-23T18:02:47Z",
            "version": 3,
            "changeset": 157007907,
            "user": "mpbin",
            "uid": 21850090,
            "tags": {
                "addr:city": "Villanova Mondov\u00ec",
                "addr:postcode": "12089",
                "addr:street": "Via Case Molino di Pogliola",
                "check_date": "2024-09-23",
                "check_date:currency:XBT": "2024-09-23",
                "contact:facebook": "https://www.facebook.com/molinobongiovanni/",
                "contact:twitter": "https://x.com/bongionatura",
                "currency:XBT": "yes",
                "email": "info@molinobongiovanni.com",
                "name": "Bongiovanni Srl",
                "nohousenumber": "yes",
                "payment:onchain": "yes",
                "phone": "+39 0324 848425",
                "shop": "food",
                "website": "https://www.molinobongiovanni.com/"
            }
        },
        {
            "type": "way",
            "id": 306364035,
            "timestamp": "2020-10-19T21:22:15Z",
            "version": 8,
            "changeset": 92729551,
            "user": "Botaler",
            "uid": 492756,
            "nodes": [
                3112504685,
                3258819038,
                3258819045,
                3258819044,
                3258819047,
                3112504686,
                3112509660,
                3258819051,
                3112504688,
                3258102385,
                3112504690,
                3112504685
            ],
            "tags": {
                "addr:city": "Savigliano",
                "addr:housenumber": "68",
                "addr:postcode": "12038",
                "addr:street": "Via Saluzzo",
                "building": "supermarket",
                "email": "Sav_L494061A@di-net.it",
                "name": "Conad",
                "opening_hours": "Mo-Sa 8:30-20:00; Su 08:30-13:00",
                "operator": "Conad",
                "payment:bancomat": "yes",
                "payment:cash": "yes",
                "payment:credit_cards": "yes",
                "phone": "+39 0172 241500",
                "shop": "mall",
                "website": "https://www.conad.it/ricerca-negozi/negozio.006550.html"
            }
        },
        {
            "type": "way",
            "id": 320715723,
            "timestamp": "2024-06-06T09:41:53Z",
            "version": 2,
            "changeset": 152322616,
            "user": "Mauro Lovato",
            "uid": 21592754,
            "nodes": [
                3273506615,
                3273506619,
                3273506618,
                3273506614,
                3273506615
            ],
            "tags": {
                "building": "yes",
                "currency:XBT": "yes",
                "name": "Ing. Ugo Pellegrino",
                "office": "engineer"
            }
        },
        {
            "type": "way",
            "id": 338400683,
            "timestamp": "2025-06-19T16:02:47Z",
            "version": 8,
            "changeset": 167833891,
            "user": "damianeue",
            "uid": 10124288,
            "nodes": [
                3454782535,
                3454782534,
                3454782533,
                3454782536,
                3454782535
            ],
            "tags": {
                "addr:city": "Caraglio",
                "addr:housenumber": "21",
                "addr:postcode": "12023",
                "addr:street": "Via Provinciale Busca",
                "building": "retail",
                "currency:XBT": "yes",
                "name": "Rosatello-Ramonda",
                "payment:cash": "yes",
                "payment:credit_cards": "yes",
                "payment:debit_cards": "yes",
                "payment:lightning": "yes",
                "phone": "+39 0171 619878",
                "shop": "fruit"
            }
        },
        {
            "type": "way",
            "id": 489492258,
            "timestamp": "2019-02-12T15:43:29Z",
            "version": 2,
            "changeset": 67135602,
            "user": "Marco_Fix",
            "uid": 3338651,
            "nodes": [
                4817286208,
                4817286207,
                4817288663,
                4817288662,
                4817286208
            ],
            "tags": {
                "amenity": "parking",
                "capacity": "20 trucks",
                "operator": "Q8",
                "parking": "surface"
            }
        }
    ],
    "telegram": [
        {
            "telegram": "ss-cuneo"
        }
    ]
}