{
    "id": "ferrara",
    "name": "Ferrara",
    "lng": 44.83599085,
    "lat": 11.61868934,
    "poi": [
        {
            "type": "node",
            "id": 257552971,
            "lat": 45.0680737,
            "lon": 11.7878289,
            "timestamp": "2025-06-12T09:59:06Z",
            "version": 10,
            "changeset": 167526058,
            "user": "Comino",
            "uid": 6794624,
            "tags": {
                "addr:city": "Rovigo",
                "addr:housenumber": "82",
                "addr:postcode": "45100",
                "addr:street": "Via Nicola Badaloni",
                "amenity": "pub",
                "check_date": "2025-06-11",
                "check_date:currency:XBT": "2025-06-11",
                "contact:facebook": "https://www.facebook.com/profile.php?id=100063755461627",
                "contact:instagram": "mobydick_beerpub",
                "currency:XBT": "yes",
                "name": "Moby Dick",
                "payment:lightning": "yes",
                "payment:lightning_contactless": "yes",
                "payment:onchain": "no",
                "phone": "+39 320 662 3687"
            }
        },
        {
            "type": "node",
            "id": 362497485,
            "lat": 44.6305606,
            "lon": 11.1926698,
            "timestamp": "2024-12-30T22:36:50Z",
            "version": 8,
            "changeset": 160812902,
            "user": "mpbin",
            "uid": 21850090,
            "tags": {
                "addr:city": "San Giovanni in Persiceto",
                "addr:housenumber": "110",
                "addr:postcode": "40017",
                "addr:street": "Via Bologna",
                "brand": "Conad",
                "brand:wikidata": "Q639075",
                "brand:wikipedia": "it:Conad",
                "contact:phone": "+39 051 825990",
                "name": "Conad",
                "operator": "Conad",
                "shop": "supermarket",
                "source": "ds4273",
                "wheelchair": "yes"
            }
        },
        {
            "type": "node",
            "id": 362497608,
            "lat": 44.6407127,
            "lon": 11.1885049,
            "timestamp": "2024-10-31T15:52:27Z",
            "version": 9,
            "changeset": 158587547,
            "user": "Zio Pino",
            "uid": 511708,
            "tags": {
                "addr:city": "San Giovanni in Persiceto",
                "addr:housenumber": "21",
                "addr:postcode": "40017",
                "addr:street": "Circonvallazione Dante Alighieri",
                "branch": "San Giovanni in Persiceto",
                "brand": "Conad City",
                "brand:wikidata": "Q57543102",
                "contact:phone": "+39 051 6871082",
                "name": "Conad City",
                "operator": "Conad",
                "shop": "supermarket",
                "source": "ds4273",
                "wheelchair": "yes"
            }
        },
        {
            "type": "node",
            "id": 412437085,
            "lat": 44.5885429,
            "lon": 11.3675284,
            "timestamp": "2020-05-12T18:48:21Z",
            "version": 5,
            "changeset": 85101770,
            "user": "mascalzone67",
            "uid": 1861652,
            "tags": {
                "addr:city": "Argelato",
                "addr:housenumber": "26",
                "addr:postcode": "40050",
                "addr:street": "Via Don Francesco Pasti",
                "brand": "Conad",
                "brand:wikidata": "Q639075",
                "brand:wikipedia": "it:Conad",
                "email": "SuperconadFuno_E000492B@DI-NET.IT",
                "name": "Conad",
                "opening_hours": "Mo-Sa 07:30-20:30; Su 08:30-13:00",
                "operator": "Conad",
                "payment:bancomat": "yes",
                "payment:cash": "yes",
                "payment:credit_cards": "yes",
                "phone": "+39 051 6646340",
                "shop": "supermarket",
                "website": "https://www.conad.it/ricerca-negozi/negozio.000297.html"
            }
        },
        {
            "type": "node",
            "id": 420776812,
            "lat": 44.4952195,
            "lon": 11.3246362,
            "timestamp": "2024-12-05T13:22:34Z",
            "version": 12,
            "changeset": 159957206,
            "user": "Loppi",
            "uid": 2457192,
            "tags": {
                "addr:city": "Bologna",
                "addr:housenumber": "47",
                "addr:postcode": "40134",
                "addr:street": "Via Andrea Costa",
                "amenity": "pharmacy",
                "check_date": "2019-03-08",
                "currency:XBT": "yes",
                "dispensing": "yes",
                "drive_through": "no",
                "email": "farmacialodi@yahoo.it",
                "healthcare": "pharmacy",
                "name": "Lodi",
                "name:it": "Lodi",
                "payment:cards": "yes",
                "payment:cash": "yes",
                "payment:coins": "yes",
                "payment:contactless": "yes",
                "payment:credit_cards": "yes",
                "payment:debit_cards": "yes",
                "payment:google_pay": "yes",
                "payment:maestro": "yes",
                "payment:mastercard": "yes",
                "payment:notes": "yes",
                "payment:visa": "yes",
                "phone": "+39 0516143978"
            }
        },
        {
            "type": "node",
            "id": 878621223,
            "lat": 44.5949687,
            "lon": 11.1012558,
            "timestamp": "2024-12-30T22:54:27Z",
            "version": 5,
            "changeset": 160813315,
            "user": "mpbin",
            "uid": 21850090,
            "tags": {
                "addr:city": "Castelfranco Emilia",
                "addr:housenumber": "3/5",
                "addr:postcode": "41013",
                "addr:street": "Via Nazario Sauro",
                "brand": "Conad",
                "brand:wikidata": "Q639075",
                "name": "Conad",
                "operator": "Conad",
                "shop": "supermarket"
            }
        },
        {
            "type": "node",
            "id": 1704256675,
            "lat": 44.4977004,
            "lon": 11.3481769,
            "timestamp": "2025-03-27T09:47:49Z",
            "version": 16,
            "changeset": 164155397,
            "user": "olecky",
            "uid": 20578352,
            "tags": {
                "addr:city": "Bologna",
                "addr:country": "IT",
                "addr:district": "San Vitale",
                "addr:housenumber": "2f",
                "addr:postcode": "40126",
                "addr:street": "Via delle Moline",
                "amenity": "restaurant",
                "check_date": "2025-03-27",
                "check_date:currency:XBT": "2025-02-10",
                "check_date:diet:vegetarian": "2025-03-27",
                "contact:facebook": "https://www.facebook.com/lemolinebologna/",
                "contact:instagram": "https://www.instagram.com/lemolinebologna/",
                "cuisine": "regional;italian;coffee_shop",
                "currency:XBT": "yes",
                "diet:vegetarian": "yes",
                "email": "BOOKING@LEMOLINE.IT",
                "name": "Le Moline - Osteria",
                "opening_hours": "Mo-Su 11:30-01:00",
                "payment:lightning": "yes",
                "payment:lightning_contactless": "no",
                "payment:onchain": "yes",
                "phone": "+390513169389",
                "website": "https://www.lemoline.it/"
            }
        },
        {
            "type": "node",
            "id": 1704363751,
            "lat": 44.4684069,
            "lon": 11.3734421,
            "timestamp": "2024-07-20T20:19:31Z",
            "version": 6,
            "changeset": 154194718,
            "user": "mauropili",
            "uid": 1496865,
            "tags": {
                "addr:city": "Bologna",
                "addr:country": "IT",
                "addr:district": "Savena",
                "addr:housenumber": "3/2",
                "addr:postcode": "40141",
                "addr:street": "Via della Foscherara",
                "check_date": "2022-12-12",
                "currency:XBT": "yes",
                "email": "info@nonsolofumo.it",
                "name": "Tabaccheria Non Solo Fumo Di Mutti Claudia",
                "opening_hours": "Mo-Fr 07:30-19:30, Sa 08:00-19:30",
                "payment:lightning": "yes",
                "payment:onchain": "yes",
                "phone": "+39051472843",
                "shop": "tobacco",
                "source": "Comune di Bologna",
                "website": "https://www.nonsolofumo242.it/"
            }
        },
        {
            "type": "node",
            "id": 1704680079,
            "lat": 44.4960606,
            "lon": 11.3380048,
            "timestamp": "2025-02-20T15:21:15Z",
            "version": 10,
            "changeset": 162746271,
            "user": "Liongrass",
            "uid": 1836965,
            "tags": {
                "addr:city": "Bologna",
                "addr:country": "IT",
                "addr:district": "Porto",
                "addr:housenumber": "23",
                "addr:postcode": "40121",
                "addr:street": "Via Ugo Bassi",
                "amenity": "fast_food",
                "check_date": "2025-02-20",
                "check_date:currency:XBT": "2025-02-20",
                "contact:instagram": "https://www.instagram.com/sfarinapiadina/",
                "cuisine": "regional;piadina",
                "currency:XBT": "yes",
                "name": "Sfarin\u00e0",
                "payment:lightning": "yes",
                "payment:lightning_contactless": "no",
                "payment:onchain": "no",
                "phone": "+39 051 269282",
                "source": "Comune di Bologna",
                "website": "https://sfarina.it/"
            }
        },
        {
            "type": "node",
            "id": 1938540695,
            "lat": 45.2275755,
            "lon": 11.5234776,
            "timestamp": "2024-12-31T18:05:18Z",
            "version": 6,
            "changeset": 160843704,
            "user": "mpbin",
            "uid": 21850090,
            "tags": {
                "addr:city": "Borgo Veneto",
                "addr:country": "IT",
                "addr:housename": "Centro Commerciale Megliadino",
                "addr:postcode": "35040",
                "addr:street": "Via Vallesella",
                "brand": "Unieuro",
                "brand:wikidata": "Q4004687",
                "brand:wikipedia": "en:Unieuro",
                "name": "Unieuro",
                "operator": "Unieuro S.p.A.",
                "shop": "electronics",
                "wheelchair": "yes"
            }
        },
        {
            "type": "node",
            "id": 2529770201,
            "lat": 44.4696435,
            "lon": 11.6333493,
            "timestamp": "2025-04-20T08:58:23Z",
            "version": 6,
            "changeset": 165183061,
            "user": "DavAlb",
            "uid": 65589,
            "tags": {
                "addr:city": "Medicina",
                "addr:housenumber": "594",
                "addr:postcode": "40059",
                "addr:street": "Via San Paolo",
                "brand": "Conad",
                "brand:wikidata": "Q639075",
                "brand:wikipedia": "it:Conad",
                "name": "Conad",
                "opening_hours": "Mo-Sa 08:00-20:00; Su 08:30-13:00",
                "operator": "Conad",
                "payment:cash": "yes",
                "payment:credit_cards": "yes",
                "payment:debit_cards": "yes",
                "shop": "supermarket"
            }
        },
        {
            "type": "node",
            "id": 2552989684,
            "lat": 44.4872842,
            "lon": 11.252044,
            "timestamp": "2025-01-06T14:35:28Z",
            "version": 10,
            "changeset": 161060790,
            "user": "mpbin",
            "uid": 21850090,
            "tags": {
                "addr:city": "Casalecchio di Reno",
                "addr:housenumber": "6",
                "addr:postcode": "40033",
                "addr:street": "Via John Lennon",
                "brand": "IKEA",
                "brand:wikidata": "Q54078",
                "brand:wikipedia": "en:IKEA",
                "currency:EUR": "yes",
                "name": "IKEA",
                "opening_hours": "Mo-Su 10:00-21:00",
                "operator": "Ikea Italia Retail S.r.l.",
                "payment:cash": "yes",
                "payment:credit_cards": "yes",
                "phone": "+39199114646",
                "shop": "furniture",
                "website": "https://www.ikea.it/",
                "wheelchair": "yes"
            }
        },
        {
            "type": "node",
            "id": 3181471853,
            "lat": 44.5004445,
            "lon": 11.3294849,
            "timestamp": "2025-04-22T13:50:43Z",
            "version": 8,
            "changeset": 165287249,
            "user": "Plaintelive",
            "uid": 11644547,
            "tags": {
                "addr:city": "Bologna",
                "addr:street": "Viale Antonio Silvani",
                "brand": "Conad",
                "brand:wikidata": "Q639075",
                "check_date": "2024-05-02",
                "contact:phone": "+39 051 6494577",
                "name": "Conad",
                "opening_hours": "Mo-Su",
                "operator": "Conad",
                "shop": "supermarket",
                "source": "ds4273"
            }
        },
        {
            "type": "node",
            "id": 3612422366,
            "lat": 44.5134234,
            "lon": 11.4019779,
            "timestamp": "2025-01-03T16:13:01Z",
            "version": 8,
            "changeset": 160956085,
            "user": "mpbin",
            "uid": 21850090,
            "tags": {
                "addr:city": "Bologna",
                "addr:housenumber": "33",
                "addr:postcode": "40127",
                "addr:street": "Viale Tito Carnacini",
                "brand": "OVS",
                "brand:wikidata": "Q2042514",
                "brand:wikipedia": "en:OVS (company)",
                "name": "OVS",
                "opening_hours": "Mo-Sa 09:00-21:00; Su 10:00-20:00",
                "operator": "OVS",
                "shop": "clothes"
            }
        },
        {
            "type": "node",
            "id": 3645734962,
            "lat": 44.4951519,
            "lon": 11.3400087,
            "timestamp": "2025-01-03T14:05:11Z",
            "version": 4,
            "changeset": 160950690,
            "user": "mpbin",
            "uid": 21850090,
            "tags": {
                "addr:city": "Bologna",
                "addr:housenumber": "6",
                "addr:postcode": "40121",
                "addr:street": "Via Ugo Bassi",
                "brand": "OVS",
                "brand:wikidata": "Q2042514",
                "check_date": "2024-05-03",
                "name": "OVS",
                "operator": "OVS",
                "shop": "clothes"
            }
        },
        {
            "type": "node",
            "id": 3645848575,
            "lat": 44.4930935,
            "lon": 11.3437421,
            "timestamp": "2025-02-20T15:21:15Z",
            "version": 9,
            "changeset": 162746271,
            "user": "Liongrass",
            "uid": 1836965,
            "tags": {
                "addr:city": "Bologna",
                "addr:housenumber": "2",
                "addr:postcode": "40124",
                "addr:street": "Via dell'Archiginnasio",
                "amenity": "pharmacy",
                "check_date": "2025-02-02",
                "currency:XBT": "yes",
                "currency:others": "yes",
                "dispensing": "yes",
                "email": "info@farmaciadelpavaglione.it",
                "healthcare": "pharmacy",
                "name": "Farmacia del Pavaglione",
                "name:it": "Farmacia del Pavaglione",
                "payment:lightning": "yes",
                "payment:lightning_contactless": "no",
                "payment:onchain": "yes",
                "phone": "+39 051 221640",
                "survey:date": "2025-02-14",
                "website": "https://farmaciadelpavaglione.it"
            }
        },
        {
            "type": "node",
            "id": 3645888439,
            "lat": 44.4936143,
            "lon": 11.3450924,
            "timestamp": "2025-06-16T10:57:19Z",
            "version": 2,
            "changeset": 167687857,
            "user": "btcitnet",
            "uid": 22525435,
            "tags": {
                "addr:city": "Bologna",
                "addr:housenumber": "5",
                "addr:postcode": "40124",
                "addr:street": "Via Drapperie",
                "contact:facebook": "https://www.facebook.com/AlbergoDelleDrapperie",
                "contact:instagram": "https://www.instagram.com/albergodrapperie/",
                "currency:XBT": "yes",
                "email": "info@albergodrapperie.com",
                "name": "Albergo delle Drapperie",
                "payment:lightning": "yes",
                "phone": "+39 051 223955",
                "tourism": "hotel",
                "website": "https://www.albergodrapperie.com/"
            }
        },
        {
            "type": "node",
            "id": 3646417556,
            "lat": 44.4941748,
            "lon": 11.3460064,
            "timestamp": "2025-01-03T09:45:23Z",
            "version": 8,
            "changeset": 160940241,
            "user": "mpbin",
            "uid": 21850090,
            "tags": {
                "addr:city": "Bologna",
                "addr:housenumber": "9",
                "addr:postcode": "40125",
                "addr:street": "Via Francesco Rizzoli",
                "brand": "Decathlon",
                "brand:wikidata": "Q509349",
                "check_date": "2024-06-18",
                "name": "Decathlon",
                "operator": "Decathlon",
                "shop": "sports",
                "sport": "hiking;cycling;swimming;basketball",
                "was:name": "Desigual",
                "was:shop": "clothes",
                "wheelchair": "yes"
            }
        },
        {
            "type": "node",
            "id": 3797820139,
            "lat": 45.2289045,
            "lon": 11.4748883,
            "timestamp": "2025-01-02T21:28:49Z",
            "version": 3,
            "changeset": 160926929,
            "user": "mpbin",
            "uid": 21850090,
            "tags": {
                "addr:city": "Montagnana",
                "addr:housenumber": "2",
                "addr:postcode": "35044",
                "addr:street": "Via San Zeno",
                "brand": "Trony",
                "brand:wikidata": "Q3999692",
                "name": "Trony",
                "operator": "Trony",
                "shop": "electronics"
            }
        },
        {
            "type": "node",
            "id": 4187490224,
            "lat": 44.5018469,
            "lon": 11.3501244,
            "timestamp": "2024-11-07T21:25:35Z",
            "version": 9,
            "changeset": 158872635,
            "user": "mircozorzo",
            "uid": 224342,
            "tags": {
                "addr:city": "Bologna",
                "addr:housenumber": "8",
                "addr:postcode": "40126",
                "addr:street": "Via Angelo Finelli",
                "brand": "Conad City",
                "brand:wikidata": "Q57543102",
                "check_date": "2024-03-09",
                "contact:phone": "+39 051 241518",
                "name": "Conad City",
                "opening_hours": "Mo-Sa 08:15-19:45",
                "operator": "Conad",
                "shop": "supermarket",
                "source": "ds4273",
                "wheelchair": "yes"
            }
        },
        {
            "type": "node",
            "id": 4460402552,
            "lat": 44.4842291,
            "lon": 11.2686901,
            "timestamp": "2025-01-01T18:09:58Z",
            "version": 7,
            "changeset": 160879401,
            "user": "mpbin",
            "uid": 21850090,
            "tags": {
                "addr:city": "Casalecchio di Reno",
                "addr:housenumber": "50",
                "addr:postcode": "40033",
                "addr:street": "Via Aldo Moro",
                "brand": "Unieuro",
                "brand:wikidata": "Q4004687",
                "layer": "0",
                "name": "Unieuro",
                "name:it": "Unieuro",
                "operator": "Unieuro S.p.A.",
                "shop": "electronics",
                "wheelchair": "yes"
            }
        },
        {
            "type": "node",
            "id": 4472691189,
            "lat": 44.4883672,
            "lon": 11.2496361,
            "timestamp": "2025-03-14T14:32:52Z",
            "version": 18,
            "changeset": 163612721,
            "user": "Stefano Manfredini",
            "uid": 5721717,
            "tags": {
                "addr:housenumber": "2/56",
                "addr:postcode": "40033",
                "addr:street": "Via Marilyn Monroe",
                "brand": "MediaWorld",
                "brand:wikidata": "Q2381223",
                "name": "MediaWorld",
                "name:it": "Mediaworld",
                "opening_hours": "Mo-Sa 09:00-21:00; Su 09:00-20:00",
                "operator": "MediaMarket S.p.A.",
                "phone": "+39 0514 581111",
                "shop": "electronics",
                "website": "https://www.mediaworld.it/"
            }
        },
        {
            "type": "node",
            "id": 4498852691,
            "lat": 44.5192256,
            "lon": 11.264168,
            "timestamp": "2025-06-09T21:26:54Z",
            "version": 7,
            "changeset": 167418813,
            "user": "Plaintelive",
            "uid": 11644547,
            "tags": {
                "addr:city": "Bologna",
                "addr:housenumber": "186",
                "addr:postcode": "40132",
                "addr:street": "Via Marco Emilio Lepido",
                "brand": "Unieuro",
                "brand:wikidata": "Q4004687",
                "name": "Unieuro",
                "name:it": "Unieuro",
                "opening_hours": "Mo-Sa 09:00-20:30; Su 10:00-20:00",
                "operator": "Unieuro S.p.A.",
                "shop": "electronics"
            }
        },
        {
            "type": "node",
            "id": 4523372992,
            "lat": 44.5674722,
            "lon": 11.3573297,
            "timestamp": "2025-01-01T18:12:30Z",
            "version": 8,
            "changeset": 160879465,
            "user": "mpbin",
            "uid": 21850090,
            "tags": {
                "addr:city": "Castel Maggiore",
                "addr:housenumber": "8",
                "addr:postcode": "40013",
                "addr:street": "Via Pio La Torre",
                "brand": "Unieuro",
                "brand:wikidata": "Q4004687",
                "brand:wikipedia": "en:Unieuro",
                "name": "Unieuro",
                "opening_hours": "Mo-Sa 09:00-20:00; Su 10:00-20:00",
                "operator": "Unieuro S.p.A.",
                "shop": "electronics"
            }
        },
        {
            "type": "node",
            "id": 4524470590,
            "lat": 44.5293564,
            "lon": 11.3369088,
            "timestamp": "2024-07-06T05:57:24Z",
            "version": 5,
            "changeset": 153611292,
            "user": "mauropili",
            "uid": 1496865,
            "tags": {
                "addr:city": "Bologna",
                "addr:housenumber": "7",
                "addr:postcode": "40131",
                "addr:street": "Via Cristoforo Colombo",
                "brand": "Mondo Convenienza",
                "brand:wikidata": "Q55830962",
                "check_date:currency:XBT": "2023-07-31",
                "currency:XBT": "yes",
                "name": "Mondo Convenienza",
                "name:it": "Mondo Convenienza",
                "shop": "furniture"
            }
        },
        {
            "type": "node",
            "id": 4524470789,
            "lat": 44.5301809,
            "lon": 11.3372746,
            "timestamp": "2025-01-01T18:13:21Z",
            "version": 6,
            "changeset": 160879494,
            "user": "mpbin",
            "uid": 21850090,
            "tags": {
                "addr:city": "Bologna",
                "addr:housenumber": "7",
                "addr:postcode": "40131",
                "addr:street": "Via Cristoforo Colombo",
                "brand": "Unieuro",
                "brand:wikidata": "Q4004687",
                "check_date": "2024-03-19",
                "name": "Unieuro",
                "operator": "Unieuro S.p.A.",
                "shop": "electronics",
                "wheelchair": "yes"
            }
        },
        {
            "type": "node",
            "id": 4524778590,
            "lat": 44.497533,
            "lon": 11.3924623,
            "timestamp": "2025-01-03T16:29:51Z",
            "version": 4,
            "changeset": 160956775,
            "user": "mpbin",
            "uid": 21850090,
            "tags": {
                "addr:city": "Bologna",
                "addr:housenumber": "10",
                "addr:postcode": "40138",
                "addr:street": "Via Larga",
                "brand": "OVS",
                "brand:wikidata": "Q2042514",
                "brand:wikipedia": "en:OVS (company)",
                "name": "OVS",
                "name:it": "OVS",
                "operator": "OVS",
                "shop": "clothes"
            }
        },
        {
            "type": "node",
            "id": 4535817693,
            "lat": 44.4919228,
            "lon": 11.4222657,
            "timestamp": "2025-01-01T18:16:32Z",
            "version": 5,
            "changeset": 160879564,
            "user": "mpbin",
            "uid": 21850090,
            "tags": {
                "addr:city": "Castenaso",
                "addr:housenumber": "29",
                "addr:postcode": "40055",
                "addr:street": "Via Villanova",
                "brand": "Unieuro",
                "brand:wikidata": "Q4004687",
                "brand:wikipedia": "en:Unieuro",
                "name": "Unieuro",
                "opening_hours": "Mo-Sa 08:00-20:00",
                "operator": "Unieuro S.p.A.",
                "shop": "electronics"
            }
        },
        {
            "type": "node",
            "id": 4762538120,
            "lat": 44.4883207,
            "lon": 11.2490912,
            "timestamp": "2025-01-10T09:57:48Z",
            "version": 5,
            "changeset": 161198340,
            "user": "DnaX",
            "uid": 69259,
            "tags": {
                "addr:city": "Casalecchio di Reno",
                "addr:housenumber": "2/30",
                "addr:postcode": "40033",
                "addr:street": "Via Marilyn Monroe",
                "branch": "c c  Gran Reno",
                "brand": "Nuvolari",
                "brand:wikidata": "Q130702590",
                "check_date": "2023-08-26",
                "clothes": "men",
                "currency:XBT": "yes",
                "name": "Nuvolari",
                "phone": "0514985032",
                "shop": "clothes"
            }
        },
        {
            "type": "node",
            "id": 4771084852,
            "lat": 44.6994619,
            "lon": 11.04406,
            "timestamp": "2024-09-27T13:22:09Z",
            "version": 7,
            "changeset": 157171166,
            "user": "mpbin",
            "uid": 21850090,
            "tags": {
                "addr:city": "Nonantola",
                "addr:hamlet": "Campazzo",
                "addr:housenumber": "50",
                "addr:postcode": "41015",
                "addr:street": "Via Selvatica",
                "check_date": "2024-09-27",
                "check_date:currency:XBT": "2024-09-27",
                "currency:XBT": "yes",
                "description": "Situato in una strada rurale, dista 3 km da Nonantola. Le camere rustiche eccentriche, alcune caratterizzate da murales originali, sono arredate con mobili d'epoca. Le sistemazioni godono di vista sulla campagna.",
                "email": "selvatica50@gmail.com",
                "guest_house": "bed_and_breakfast",
                "name": "La Selvatica 50 B&B",
                "payment:cash": "yes",
                "payment:satispay": "yes",
                "payment:wire_transfer": "yes",
                "tourism": "guest_house"
            }
        },
        {
            "type": "node",
            "id": 4771282665,
            "lat": 44.891258,
            "lon": 11.0514941,
            "timestamp": "2025-01-01T18:21:36Z",
            "version": 5,
            "changeset": 160879740,
            "user": "mpbin",
            "uid": 21850090,
            "tags": {
                "addr:city": "Mirandola",
                "addr:housenumber": "65",
                "addr:postcode": "41037",
                "addr:street": "Via Gregorio Agnini",
                "brand": "Unieuro",
                "brand:wikidata": "Q4004687",
                "contact:website": "https://www.unieuro.it/online/negozi/Unieuro-Mirandola",
                "name": "Unieuro",
                "operator": "Unieuro S.p.A.",
                "shop": "electronics",
                "wheelchair": "yes"
            }
        },
        {
            "type": "node",
            "id": 4777100274,
            "lat": 44.5036687,
            "lon": 11.3088075,
            "timestamp": "2024-08-13T18:07:44Z",
            "version": 4,
            "changeset": 155208574,
            "user": "mauropili",
            "uid": 1496865,
            "tags": {
                "addr:city": "Bologna",
                "addr:housenumber": "38g",
                "addr:postcode": "40133",
                "addr:street": "Via Bruno Monterumici",
                "amenity": "fast_food",
                "check_date": "2023-07-20",
                "contact:facebook": "https://www.facebook.com/futuracaffetteria/",
                "contact:instagram": "https://www.instagram.com/caffetteriafutura",
                "currency:XBT": "yes",
                "email": "futuracaffetteria@gmail.com",
                "fast_food": "cafeteria",
                "name": "Caffetteria Futura"
            }
        },
        {
            "type": "node",
            "id": 4782380198,
            "lat": 44.46688,
            "lon": 11.4088448,
            "timestamp": "2023-12-17T14:53:36Z",
            "version": 3,
            "changeset": 145217974,
            "user": "Rockedf",
            "uid": 7522075,
            "tags": {
                "addr:city": "San Lazzaro di Savena",
                "addr:housenumber": "34",
                "addr:postcode": "40068",
                "addr:street": "Via Carlo Iussi",
                "amenity": "restaurant",
                "check_date": "2023-11-21",
                "check_date:currency:XBT": "2023-12-17",
                "cuisine": "pizza;italian;bistro",
                "currency:XBT": "yes",
                "email": "info@40068pizzaemore.com",
                "name": "40068 Pizza & More",
                "opening_hours": "Mo-Su 18:00-01:00",
                "payment:lightning": "yes",
                "phone": "+39 051 2842005",
                "website": "https://40068pizzaemore.com/"
            }
        },
        {
            "type": "node",
            "id": 5301076558,
            "lat": 44.4913946,
            "lon": 11.5579672,
            "timestamp": "2023-10-30T03:53:55Z",
            "version": 4,
            "changeset": 143341615,
            "user": "b-jazz-bot",
            "uid": 9451067,
            "tags": {
                "addr:city": "Medicina",
                "addr:housenumber": "611",
                "addr:postcode": "40059",
                "addr:street": "Via Sabbionara",
                "check_date": "2023-04-26",
                "currency:XBT": "yes",
                "email": "commerciale@cnika.it",
                "name": "CNIKA",
                "office": "engineer",
                "phone": "051853172",
                "website": "https://www.cnika.it/"
            }
        },
        {
            "type": "node",
            "id": 5339460276,
            "lat": 44.4814654,
            "lon": 11.3900978,
            "timestamp": "2025-01-01T18:36:54Z",
            "version": 5,
            "changeset": 160880209,
            "user": "mpbin",
            "uid": 21850090,
            "tags": {
                "addr:city": "Bologna",
                "addr:housenumber": "5",
                "addr:postcode": "40139",
                "addr:street": "Viale Abramo Lincoln",
                "brand": "Unieuro",
                "brand:wikidata": "Q4004687",
                "brand:wikipedia": "en:Unieuro",
                "name": "Unieuro",
                "operator": "Unieuro S.p.A.",
                "phone": "+39 051493319",
                "shop": "electronics"
            }
        },
        {
            "type": "node",
            "id": 5339464860,
            "lat": 44.4801127,
            "lon": 11.6332881,
            "timestamp": "2025-01-01T18:37:31Z",
            "version": 5,
            "changeset": 160880243,
            "user": "mpbin",
            "uid": 21850090,
            "tags": {
                "addr:city": "Medicina",
                "addr:housenumber": "150a",
                "addr:postcode": "40059",
                "addr:street": "Via Licurgo Fava",
                "brand": "Unieuro",
                "brand:wikidata": "Q4004687",
                "brand:wikipedia": "en:Unieuro",
                "name": "Unieuro",
                "operator": "Unieuro S.p.A.",
                "phone": "+39 051850853",
                "shop": "electronics"
            }
        },
        {
            "type": "node",
            "id": 5343149682,
            "lat": 45.134421,
            "lon": 11.7561773,
            "timestamp": "2025-04-20T08:06:13Z",
            "version": 3,
            "changeset": 165181223,
            "user": "btcitnet",
            "uid": 22525435,
            "tags": {
                "addr:city": "Stanghella",
                "addr:postcode": "35048",
                "addr:street": "Piazza Renato Otello Pighin",
                "brand": "Spar",
                "brand:wikidata": "Q610492",
                "name": "Despar",
                "operator": "Despar",
                "shop": "supermarket"
            }
        },
        {
            "type": "node",
            "id": 5418461939,
            "lat": 45.2275701,
            "lon": 11.5236765,
            "timestamp": "2025-01-03T14:12:20Z",
            "version": 4,
            "changeset": 160951019,
            "user": "mpbin",
            "uid": 21850090,
            "tags": {
                "addr:city": "Borgo Veneto",
                "addr:country": "IT",
                "addr:housename": "Centro Commerciale Megliadino",
                "addr:postcode": "35040",
                "addr:street": "Via Vallesella",
                "brand": "OVS",
                "brand:wikidata": "Q2042514",
                "brand:wikipedia": "en:OVS (company)",
                "name": "OVS",
                "operator": "OVS",
                "shop": "clothes",
                "wheelchair": "yes"
            }
        },
        {
            "type": "node",
            "id": 5805243372,
            "lat": 44.8920806,
            "lon": 11.6166262,
            "timestamp": "2025-01-03T14:14:05Z",
            "version": 3,
            "changeset": 160951093,
            "user": "mpbin",
            "uid": 21850090,
            "tags": {
                "addr:city": "Santa Maria Maddalena",
                "addr:housenumber": "30",
                "addr:postcode": "45030",
                "addr:street": "Via Maestri del Lavoro",
                "name": "OVS",
                "opening_hours": "Mo-Fr 09:00-12:30, 15:30-19:30; Sa 09:30-13:00, 15:00-19:30",
                "operator": "OVS",
                "shop": "clothes",
                "wheelchair": "yes"
            }
        },
        {
            "type": "node",
            "id": 6455942669,
            "lat": 45.0722016,
            "lon": 11.1334914,
            "timestamp": "2025-01-02T21:52:10Z",
            "version": 4,
            "changeset": 160927594,
            "user": "mpbin",
            "uid": 21850090,
            "tags": {
                "addr:city": "Ostiglia",
                "addr:housenumber": "2",
                "addr:postcode": "46035",
                "addr:street": "via Grazia Deledda",
                "brand": "Trony",
                "brand:wikidata": "Q3999692",
                "name": "Trony",
                "operator": "Trony",
                "shop": "electronics"
            }
        },
        {
            "type": "node",
            "id": 7244465685,
            "lat": 44.5127809,
            "lon": 11.2868027,
            "timestamp": "2024-06-11T18:44:28Z",
            "version": 5,
            "changeset": 152557178,
            "user": "Rockedf",
            "uid": 7522075,
            "tags": {
                "addr:city": "Bologna",
                "addr:housenumber": "345",
                "addr:postcode": "40132",
                "addr:street": "Via Emilia Ponente",
                "addr:unit": "D",
                "amenity": "atm",
                "branch": "Bologna",
                "cash_in": "yes",
                "cash_out": "yes",
                "cash_withdrawal": "yes",
                "check_date": "2024-01-28",
                "contact:email": "support@shitcoins.club",
                "contact:facebook": "https://www.facebook.com/shitcoins.club",
                "contact:instagram": "https://www.instagram.com/shitcoinsclub",
                "contact:telegram": "https://t.me/shitcoinsclub",
                "contact:twitter": "https://twitter.com/BitomatCom",
                "currency:CAD": "yes",
                "currency:CHF": "yes",
                "currency:DASH": "yes",
                "currency:ETH": "yes",
                "currency:EUR": "yes",
                "currency:HUF": "yes",
                "currency:LTC": "yes",
                "currency:RON": "yes",
                "currency:USD": "yes",
                "currency:USDC": "yes",
                "currency:USDT": "yes",
                "currency:XBT": "yes",
                "indoor": "yes",
                "level": "0",
                "name": "Bitcoin ATM - Shitcoins.club",
                "network": "Bitcoin",
                "note": "L'ATM Bitcoin a Bologna si trova accanto a Borgoceramica Pavimenti e Arredo Bagno.",
                "opening_hours": "24/7",
                "operator": "Shitcoins.club",
                "payment:cash": "yes",
                "payment:onchain": "yes",
                "phone": "+39 34 8048 7308",
                "start_date": "2019-10-26",
                "url": "https://coinatmradar.com/bitcoin_atm/10059/bitcoin-atm-shitcoins-club-bologna-punto-atm-bitcoin/",
                "website": "https://shitcoins.club/localizzazione-atm/atm-bitcoin-bologna-via-emilia-ponente"
            }
        },
        {
            "type": "node",
            "id": 7507084208,
            "lat": 44.4976768,
            "lon": 11.3907944,
            "timestamp": "2025-03-28T10:39:17Z",
            "version": 4,
            "changeset": 164201215,
            "user": "Plaintelive",
            "uid": 11644547,
            "tags": {
                "addr:city": "Bologna",
                "addr:housenumber": "10",
                "addr:postcode": "40138",
                "addr:street": "Galleria Vialarga",
                "amenity": "pharmacy",
                "brand": "Parafarmacia Conad",
                "dispensing": "no",
                "healthcare": "pharmacy",
                "name": "Parafarmacia Conad",
                "operator": "Conad",
                "ref:msal": "002203"
            }
        },
        {
            "type": "node",
            "id": 7507133420,
            "lat": 44.4840967,
            "lon": 11.3739435,
            "timestamp": "2025-06-11T19:26:42Z",
            "version": 3,
            "changeset": 167506206,
            "user": "Cybermanx",
            "uid": 22604600,
            "tags": {
                "addr:city": "Bologna",
                "addr:housenumber": "6",
                "addr:postcode": "40139",
                "addr:street": "Via Emilia Levante",
                "amenity": "pharmacy",
                "check_date": "2025-06-11",
                "dispensing": "no",
                "healthcare": "pharmacy",
                "name": "Parafarmacia Conad",
                "operator": "Conad"
            }
        },
        {
            "type": "node",
            "id": 7507278566,
            "lat": 44.4924243,
            "lon": 11.3257006,
            "timestamp": "2023-11-17T18:41:45Z",
            "version": 4,
            "changeset": 144150734,
            "user": "toponomastica_comune_arenzano",
            "uid": 14257573,
            "tags": {
                "addr:city": "Bologna",
                "addr:housenumber": "40a",
                "addr:postcode": "40134",
                "addr:street": "Via Alessandro Guidotti",
                "amenity": "veterinary",
                "check_date": "2023-05-03",
                "currency:XBT": "yes",
                "description": "Ambulatorio Veterinario per animali da compagnia / pets. Clinica, chirurgia, consulenza, reperibilit\u00e0 h24, visite domiciliari.",
                "email": "ambvetguidotti@gmail.com",
                "name": "Ambulatorio Veterinario Guidotti",
                "phone": "+39 3491007581",
                "website": "https://www.facebook.com/Ambulatorio-Veterinario-Guidotti-101227044772600"
            }
        },
        {
            "type": "node",
            "id": 7512067632,
            "lat": 44.5885521,
            "lon": 11.3672303,
            "timestamp": "2020-05-12T18:46:06Z",
            "version": 1,
            "changeset": 85101684,
            "user": "mascalzone67",
            "uid": 1861652,
            "tags": {
                "addr:city": "Argelato",
                "addr:housenumber": "26",
                "addr:postcode": "40050",
                "addr:street": "Via Don Francesco Pasti",
                "amenity": "pharmacy",
                "dispensing": "no",
                "healthcare": "pharmacy",
                "name": "Parafarmacia Conad",
                "operator": "Conad"
            }
        },
        {
            "type": "node",
            "id": 8267271770,
            "lat": 45.0453701,
            "lon": 12.0581442,
            "timestamp": "2025-01-01T20:21:13Z",
            "version": 3,
            "changeset": 160884050,
            "user": "mpbin",
            "uid": 21850090,
            "tags": {
                "addr:city": "Adria",
                "addr:housenumber": "11324",
                "addr:postcode": "45100",
                "addr:street": "Piazzale Rovigno",
                "brand": "Unieuro",
                "brand:wikidata": "Q4004687",
                "name": "Unieuro",
                "operator": "Unieuro S.p.A.",
                "shop": "electronics"
            }
        },
        {
            "type": "node",
            "id": 8454768289,
            "lat": 44.4991838,
            "lon": 11.3337694,
            "timestamp": "2025-06-08T10:41:32Z",
            "version": 5,
            "changeset": 167344611,
            "user": "Plaintelive",
            "uid": 11644547,
            "tags": {
                "addr:city": "Bologna",
                "addr:housenumber": "6",
                "addr:postcode": "40122",
                "addr:street": "Via Padre Francesco Maria Grimaldi",
                "addr:unit": "e",
                "amenity": "dentist",
                "check_date": "2023-07-17",
                "check_date:currency:XBT": "2024-10-27",
                "currency:XBT": "yes",
                "description": "Ambulatorio odontoiatrico specializzato in odontoiatria digitale. Si effettuano sbiancamenti dentali, faccette, ortodonzia con le mascherine trasparenti, implantologia computer assistita.",
                "email": "info@centroodontoiatricogrimaldi.it",
                "healthcare": "dentist",
                "name": "Centro Odontoiatrico Grimaldi",
                "phone": "+39 0516494868",
                "website": "https://www.centroodontoiatricogrimaldi.it/"
            }
        },
        {
            "type": "node",
            "id": 8753097385,
            "lat": 45.0707688,
            "lon": 11.7867961,
            "timestamp": "2025-06-13T01:21:15Z",
            "version": 6,
            "changeset": 167555564,
            "user": "Rockedf",
            "uid": 7522075,
            "tags": {
                "addr:city": "Rovigo",
                "addr:housenumber": "8",
                "addr:postcode": "45100",
                "addr:street": "Via Marcello Grimani",
                "amenity": "atm",
                "brand": "CryptoLocalATM",
                "check_date": "2024-04-14",
                "check_date:currency:XBT": "2025-06-13",
                "currency:XBT": "yes",
                "description": "Bitcoin ATM che permette di acquistare Bitcoin, Ethereum, Litecoin, Dogecoin, Bitcoin Cash, Dash, Monero. L'ATM \u00e8 situato all'interno della TABACCHERIA ZIOSMOKE.",
                "email": "support@cryptolocalatm.com",
                "location": "indoor",
                "name": "CryptoLocalATM c/o TABACCHERIA ZIOSMOKE",
                "payment:onchain": "yes",
                "phone": "+447894438974",
                "website": "https://cryptolocalatm.com"
            }
        },
        {
            "type": "node",
            "id": 10019906287,
            "lat": 44.4991358,
            "lon": 11.3266877,
            "timestamp": "2024-10-11T19:59:26Z",
            "version": 3,
            "changeset": 157771698,
            "user": "mpbin",
            "uid": 21850090,
            "tags": {
                "addr:city": "Bologna",
                "addr:housenumber": "3",
                "addr:postcode": "40122",
                "addr:street": "Piazza di Porta San Felice",
                "amenity": "cafe",
                "check_date": "2023-07-09",
                "cuisine": "pizza;italian;burger",
                "currency:XBT": "yes",
                "email": "info@borgomameli.it",
                "name": "Borgo Mameli",
                "phone": "+393701512014",
                "survey:date": "2022-09-13",
                "website": "https://borgomameli.it/"
            }
        },
        {
            "type": "node",
            "id": 10019917907,
            "lat": 44.4963972,
            "lon": 11.3385377,
            "timestamp": "2025-02-20T15:21:15Z",
            "version": 6,
            "changeset": 162746271,
            "user": "Liongrass",
            "uid": 1836965,
            "tags": {
                "addr:city": "Bologna",
                "addr:housenumber": "7",
                "addr:postcode": "40121",
                "addr:street": "Via Belvedere",
                "addr:unit": "C",
                "amenity": "bar",
                "check_date": "2025-02-09",
                "contact:facebook": "https://www.facebook.com/PastisBologna",
                "currency:XBT": "yes",
                "email": "pastis.belvedere@gmail.com",
                "name": "Pastis",
                "payment:lightning": "yes",
                "payment:lightning_contactless": "no",
                "payment:onchain": "no",
                "phone": "+39 051 230650",
                "survey:date": "2025-02-09"
            }
        },
        {
            "type": "node",
            "id": 10044774234,
            "lat": 44.8506302,
            "lon": 11.6265662,
            "timestamp": "2024-10-11T20:21:19Z",
            "version": 4,
            "changeset": 157772368,
            "user": "mpbin",
            "uid": 21850090,
            "tags": {
                "addr:city": "Ferrara",
                "addr:housenumber": "103",
                "addr:postcode": "44121",
                "addr:street": "Via Riccardo Bacchelli",
                "amenity": "restaurant",
                "check_date": "2022-12-17",
                "currency:XBT": "yes",
                "email": "prenotazioni.bacchelli@gmail.com",
                "name": "Kaf\u00e8 Bacchelli",
                "website": "https://kafebacchelli.it/"
            }
        },
        {
            "type": "node",
            "id": 10221479372,
            "lat": 44.5014066,
            "lon": 11.3440584,
            "timestamp": "2024-12-17T18:50:10Z",
            "version": 5,
            "changeset": 160316175,
            "user": "Rockedf",
            "uid": 7522075,
            "tags": {
                "addr:city": "Bologna",
                "addr:housenumber": "3a",
                "addr:postcode": "40121",
                "addr:street": "Via dei Mille",
                "amenity": "ice_cream",
                "check_date": "2024-12-17",
                "contact:email": "sablegelato@gmail.com",
                "contact:instagram": "https://www.instagram.com/sable_gelato/",
                "currency:XBT": "yes",
                "name": "Sabl\u00e9 gelato",
                "opening_hours": "We-Su 11:30-19:00",
                "outdoor_seating": "yes",
                "payment:lightning": "yes",
                "payment:lightning_contactless": "yes",
                "payment:onchain": "yes",
                "website": "https://sablegelato.com/"
            }
        },
        {
            "type": "node",
            "id": 10253175451,
            "lat": 44.4003562,
            "lon": 11.5885832,
            "timestamp": "2024-01-17T00:26:52Z",
            "version": 3,
            "changeset": 146342972,
            "user": "yhic4uw",
            "uid": 2104834,
            "tags": {
                "addr:city": "Castel San Pietro Terme",
                "addr:housenumber": "4",
                "addr:postcode": "40024",
                "addr:street": "Via Fratelli Cervi",
                "check_date": "2023-04-26",
                "currency:XBT": "yes",
                "name": "Studio Gualandi Di Gualandi Alessandra",
                "office": "consulting",
                "phone": "+390516958704"
            }
        },
        {
            "type": "node",
            "id": 10255532989,
            "lat": 44.5279491,
            "lon": 11.320108,
            "timestamp": "2024-02-29T13:30:01Z",
            "version": 2,
            "changeset": 148052814,
            "user": "Chiarant",
            "uid": 18452174,
            "tags": {
                "addr:city": "Bologna",
                "addr:housenumber": "50",
                "addr:postcode": "40131",
                "addr:street": "Via della Selva Pescarola",
                "amenity": "restaurant",
                "check_date:currency:XBT": "2024-02-29",
                "currency:XBT": "yes",
                "description": "On-chain payments for groups or payments in advance",
                "name": "Il Mulino Bruciato",
                "opening_hours": "Mo-Sa 19:30-03:00",
                "payment:lightning": "yes",
                "payment:lightning_contactless": "no",
                "payment:onchain": "yes",
                "phone": "+39 051 634 3072",
                "website": "https://www.facebook.com/ilmulinobruciato/"
            }
        },
        {
            "type": "node",
            "id": 10262254025,
            "lat": 44.6947524,
            "lon": 12.2202155,
            "timestamp": "2025-04-05T10:42:03Z",
            "version": 4,
            "changeset": 164544919,
            "user": "sorcrosc",
            "uid": 160229,
            "tags": {
                "addr:city": "Comacchio",
                "addr:housenumber": "9",
                "addr:postcode": "44022",
                "addr:street": "Via Valle Isola",
                "brand": "Conad",
                "brand:wikidata": "Q639075",
                "name": "Spazio Conad",
                "opening_hours": "Mo-Sa 08:30-20:30, Su 08:30-20:00",
                "operator": "Conad",
                "payment:bancomat": "yes",
                "payment:cash": "yes",
                "payment:credit_cards": "yes",
                "phone": "+39 0533 329296",
                "shop": "supermarket",
                "start_date": "2024-03-02",
                "website": "https://www.conad.it/ricerca-negozi/spazio-conad-via-valle-isola-9-44022-comacchio--010562"
            }
        },
        {
            "type": "node",
            "id": 10576219949,
            "lat": 44.8938149,
            "lon": 11.610334,
            "timestamp": "2023-07-18T16:34:03Z",
            "version": 2,
            "changeset": 138678234,
            "user": "saunter",
            "uid": 10396321,
            "tags": {
                "addr:city": "Occhiobello",
                "addr:housenumber": "9",
                "addr:postcode": "45030",
                "addr:street": "Vicolo A. Fleming",
                "check_date:currency:XBT": "2023-07-18",
                "currency:XBT": "yes",
                "email": "mabiz66@gmail.com",
                "name": "Studio Ingegneria ing. Bizzi Marco",
                "payment:onchain": "yes",
                "phone": "+39 348 6902866",
                "shop": "yes"
            }
        },
        {
            "type": "node",
            "id": 10766444254,
            "lat": 44.4787868,
            "lon": 11.3815956,
            "timestamp": "2024-11-22T17:23:07Z",
            "version": 6,
            "changeset": 159468740,
            "user": "Rockedf",
            "uid": 7522075,
            "tags": {
                "addr:city": "Bologna",
                "addr:housenumber": "4a",
                "addr:postcode": "40139",
                "addr:street": "Via Friuli Venezia Giulia",
                "check_date": "2023-03-27",
                "check_date:currency:XBT": "2024-11-22",
                "contact:facebook": "https://www.facebook.com/kickboxingbologna/",
                "currency:XBT": "yes",
                "description": "Specialized in ring and cage sports",
                "email": "megathai@hotmail.com",
                "leisure": "sports_hall",
                "name": "Rainbow team Bologna - Boxe club",
                "payment:lightning": "no",
                "payment:lightning_contactless": "no",
                "payment:onchain": "yes",
                "sport": "boxing;kickboxing;muay_thai;thaibox"
            }
        },
        {
            "type": "node",
            "id": 11069655003,
            "lat": 44.4970313,
            "lon": 11.3394695,
            "timestamp": "2025-02-20T15:21:15Z",
            "version": 2,
            "changeset": 162746271,
            "user": "Liongrass",
            "uid": 1836965,
            "tags": {
                "addr:city": "Bologna",
                "addr:housenumber": "11",
                "addr:postcode": "40121",
                "addr:street": "Via Nazario Sauro",
                "addr:unit": "C",
                "check_date": "2025-02-20",
                "check_date:currency:XBT": "2025-02-20",
                "contact:email": "granadoro@outlook.it",
                "currency:XBT": "yes",
                "name": "Granaglie",
                "opening_hours": "Mo-Sa 08:30-13:00",
                "payment:lightning": "yes",
                "payment:lightning_contactless": "no",
                "payment:onchain": "no",
                "shop": "food",
                "website": "https://docs.google.com/document/d/1OBUmPdXPE2YZD2V9wxykeESBIyrOmsccoI2SNt41prM/edit?usp=drivesdk"
            }
        },
        {
            "type": "node",
            "id": 11125250762,
            "lat": 45.1834148,
            "lon": 11.2548832,
            "timestamp": "2025-01-01T21:14:48Z",
            "version": 2,
            "changeset": 160885668,
            "user": "mpbin",
            "uid": 21850090,
            "tags": {
                "addr:city": "San Pietro",
                "addr:postcode": "37045",
                "addr:street": "Via Luciano Lama",
                "brand": "Unieuro",
                "brand:wikidata": "Q4004687",
                "name": "Unieuro",
                "operator": "Unieuro S.p.A.",
                "shop": "electronics"
            }
        },
        {
            "type": "node",
            "id": 11200067892,
            "lat": 44.5041456,
            "lon": 11.3387609,
            "timestamp": "2023-10-30T03:52:28Z",
            "version": 4,
            "changeset": 143341565,
            "user": "b-jazz-bot",
            "uid": 9451067,
            "tags": {
                "addr:city": "Bologna",
                "addr:housenumber": "9",
                "addr:postcode": "40121",
                "addr:street": "Via Cairoli",
                "air_conditioning": "yes",
                "currency:EUR": "yes",
                "currency:XBT": "yes",
                "email": "info@casavacanzabologna.it",
                "guest_house": "apartment",
                "internet_access": "wlan",
                "internet_access:fee": "no",
                "name": "CVB :: Cairoli",
                "operator": "Casa Vacanza Bologna",
                "payment:bonifico_bancario": "yes",
                "payment:cryptocurrencies": "yes",
                "payment:lightning": "yes",
                "payment:lightning_contactless": "no",
                "payment:onchain": "yes",
                "payment:paypal": "yes",
                "payment:satispay": "yes",
                "rooms": "2",
                "survey:date": "2023-09-18",
                "tourism": "guest_house",
                "website": "https://www.airbnb.com/h/cairoli"
            }
        },
        {
            "type": "node",
            "id": 11200192363,
            "lat": 44.4933996,
            "lon": 11.3415021,
            "timestamp": "2023-10-30T03:58:11Z",
            "version": 3,
            "changeset": 143341751,
            "user": "b-jazz-bot",
            "uid": 9451067,
            "tags": {
                "addr:city": "Bologna",
                "addr:housenumber": "1",
                "addr:postcode": "40123",
                "addr:street": "Via Battibecco",
                "air_conditioning": "yes",
                "currency:EUR": "yes",
                "currency:XBT": "yes",
                "email": "info@casavacanzabologna.it",
                "guest_house": "apartment",
                "internet_access": "wlan",
                "internet_access:fee": "no",
                "name": "CVB :: Battibecco",
                "operator": "Casa Vacanza Bologna",
                "payment:bonifico": "yes",
                "payment:bonifico_bancario": "yes",
                "payment:cryptocurrencies": "yes",
                "payment:lightning": "yes",
                "payment:onchain": "yes",
                "payment:paypal": "yes",
                "payment:satispay": "yes",
                "rooms": "2",
                "survey:date": "2023-09-18",
                "tourism": "guest_house",
                "website": "https://www.airbnb.com/h/battibecco",
                "wheelchair": "no"
            }
        },
        {
            "type": "node",
            "id": 11303836956,
            "lat": 44.5307104,
            "lon": 11.3349132,
            "timestamp": "2024-12-31T09:43:02Z",
            "version": 2,
            "changeset": 160824887,
            "user": "mpbin",
            "uid": 21850090,
            "tags": {
                "addr:city": "Bologna",
                "addr:housenumber": "SNC",
                "addr:postcode": "40131",
                "addr:street": "Via Cristoforo Colombo",
                "amenity": "pharmacy",
                "dispensing": "no",
                "healthcare": "pharmacy",
                "name": "Parafarmacia Conad",
                "operator": "Conad",
                "source": "https://www.gdonews.it/2023/10/31/doppia-inaugurazione-conad-nel-parco-commerciale-navile-di-bologna/"
            }
        },
        {
            "type": "node",
            "id": 11303837006,
            "lat": 44.5307162,
            "lon": 11.3354148,
            "timestamp": "2023-11-01T06:41:28Z",
            "version": 2,
            "changeset": 143456972,
            "user": "mascalzone67",
            "uid": 1861652,
            "tags": {
                "addr:city": "Bologna",
                "addr:housenumber": "7/37",
                "addr:postcode": "40131",
                "addr:street": "Via Cristoforo Colombo",
                "brand": "Conad",
                "brand:wikidata": "Q639075",
                "name": "Conad",
                "opening_hours": "Mo-Sa 08:30-21:00, Su 09:00-20:30",
                "operator": "Conad",
                "payment:bancomat": "yes",
                "payment:cards": "yes",
                "payment:cash": "yes",
                "shop": "supermarket",
                "source": "https://www.gdonews.it/2023/10/31/doppia-inaugurazione-conad-nel-parco-commerciale-navile-di-bologna/",
                "start_date": "2023-10-31"
            }
        },
        {
            "type": "node",
            "id": 11462836650,
            "lat": 44.5065792,
            "lon": 11.471508,
            "timestamp": "2023-12-28T14:10:39Z",
            "version": 1,
            "changeset": 145621752,
            "user": "Rockedf",
            "uid": 7522075,
            "tags": {
                "addr:city": "Castenaso",
                "addr:housenumber": "46",
                "addr:postcode": "40055",
                "addr:street": "Via Publio Cornelio Scipione Nasica",
                "check_date": "2023-12-28",
                "currency:XBT": "yes",
                "name": "Architetto Giampaolo Bertuzzi",
                "office": "architect",
                "payment:lightning": "yes",
                "payment:lightning_contactless": "no",
                "payment:onchain": "yes",
                "phone": "+39 33 9183 7132",
                "website": "https://www.architettobertuzzi.com/"
            }
        },
        {
            "type": "node",
            "id": 11513434803,
            "lat": 44.4942573,
            "lon": 11.338926,
            "timestamp": "2024-07-06T07:07:11Z",
            "version": 4,
            "changeset": 153612478,
            "user": "mauropili",
            "uid": 1496865,
            "tags": {
                "addr:city": "Bologna",
                "addr:housenumber": "9",
                "addr:postcode": "40121",
                "addr:street": "Via Quattro Novembre",
                "check_date": "2024-01-13",
                "currency:XBT": "yes",
                "name": "Avvocato Lorenzo Reggianini",
                "office": "lawyer",
                "website": "https://tognireggianini.it/"
            }
        },
        {
            "type": "node",
            "id": 11549468353,
            "lat": 44.4929566,
            "lon": 11.3404575,
            "timestamp": "2024-10-28T20:53:00Z",
            "version": 3,
            "changeset": 158473913,
            "user": "mpbin",
            "uid": 21850090,
            "tags": {
                "addr:city": "Bologna",
                "addr:housenumber": "5",
                "addr:postcode": "40123",
                "addr:street": "Piazza Galileo Galilei",
                "check_date": "2024-10-28",
                "check_date:currency:XBT": "2024-10-28",
                "currency:XBT": "yes",
                "email": "santoroalessandro22@gmail.com",
                "name": "Studio Legale Santoro",
                "office": "lawyer",
                "opening_hours": "24/7",
                "payment:cash": "yes",
                "payment:cryptocurrencies": "yes",
                "payment:lightning": "yes",
                "payment:lightning_contactless": "yes",
                "phone": "+39 051 6215920",
                "survey:date": "2024-01-25"
            }
        },
        {
            "type": "node",
            "id": 11676656636,
            "lat": 44.4962899,
            "lon": 11.3388262,
            "timestamp": "2025-02-20T15:21:15Z",
            "version": 3,
            "changeset": 162746271,
            "user": "Liongrass",
            "uid": 1836965,
            "tags": {
                "addr:city": "Bologna",
                "addr:housenumber": "4",
                "addr:postcode": "40121",
                "addr:street": "Via Belvedere",
                "addr:unit": "a",
                "amenity": "bar",
                "check_date": "2025-02-14",
                "check_date:currency:XBT": "2025-02-14",
                "currency:XBT": "yes",
                "email": "pastis.belvedere@gmail.com",
                "name": "Pastis Cuv\u00e8e",
                "payment:lightning": "yes",
                "payment:lightning_contactless": "no",
                "payment:onchain": "no"
            }
        },
        {
            "type": "node",
            "id": 11817877407,
            "lat": 45.2289756,
            "lon": 11.7389913,
            "timestamp": "2025-01-01T21:34:45Z",
            "version": 4,
            "changeset": 160886258,
            "user": "mpbin",
            "uid": 21850090,
            "tags": {
                "addr:city": "Monselice",
                "addr:housenumber": "79",
                "addr:postcode": "35043",
                "addr:street": "Via Cristoforo Colombo",
                "brand": "Unieuro",
                "brand:wikidata": "Q4004687",
                "name": "Unieuro",
                "operator": "Unieuro S.p.A.",
                "shop": "electronics",
                "wheelchair": "yes"
            }
        },
        {
            "type": "node",
            "id": 11925847081,
            "lat": 44.8449059,
            "lon": 11.6482092,
            "timestamp": "2024-06-11T19:13:47Z",
            "version": 3,
            "changeset": 152558252,
            "user": "Rockedf",
            "uid": 7522075,
            "tags": {
                "addr:city": "Ferrara",
                "addr:housenumber": "132",
                "addr:postcode": "44123",
                "addr:street": "Via Copparo",
                "amenity": "atm",
                "cash_in": "yes",
                "cash_out": "yes",
                "cash_withdrawal": "yes",
                "check_date": "2024-05-22",
                "contact:email": "support@shitcoins.club",
                "contact:facebook": "https://www.facebook.com/shitcoins.club",
                "contact:instagram": "https://www.instagram.com/shitcoinsclub",
                "contact:telegram": "https://t.me/shitcoinsclub",
                "contact:twitter": "https://twitter.com/BitomatCom",
                "currency:CHF": "yes",
                "currency:DASH": "yes",
                "currency:ETH": "yes",
                "currency:EUR": "yes",
                "currency:GBP": "yes",
                "currency:HUF": "yes",
                "currency:LTC": "yes",
                "currency:RON": "yes",
                "currency:USD": "yes",
                "currency:USDC": "yes",
                "currency:USDT": "yes",
                "currency:XBT": "yes",
                "indoor": "yes",
                "name": "Bitcoin ATM - Shitcoins.club",
                "opening_hours": "Mo-Sa 08:30-21:00; Su 09:00-20:00",
                "operator": "Shitcoins.club",
                "payment:cash": "yes",
                "payment:lightning": "no",
                "payment:lightning_contactless": "no",
                "payment:onchain": "yes",
                "phone": "+39 34 8048 7308",
                "website": "https://shitcoins.club/localizzazione-atm/atm-bitcoin-ferrara-le-mura-centro-commerciale"
            }
        },
        {
            "type": "node",
            "id": 11946024691,
            "lat": 44.4913442,
            "lon": 11.3472116,
            "timestamp": "2024-05-30T21:03:13Z",
            "version": 1,
            "changeset": 152054781,
            "user": "Rockedf",
            "uid": 7522075,
            "tags": {
                "addr:city": "Bologna",
                "addr:housenumber": "25",
                "addr:postcode": "40124",
                "addr:street": "Via Luigi Carlo Farini",
                "check_date": "2024-05-30",
                "contact:email": "caterina.marmocchi@gmail.com",
                "currency:XBT": "yes",
                "name": "AVV CATERINA MARMOCCHI",
                "office": "lawyer",
                "payment:lightning": "yes",
                "payment:lightning_contactless": "no",
                "payment:onchain": "yes",
                "phone": "+39 34 9288 6313"
            }
        },
        {
            "type": "node",
            "id": 11947970330,
            "lat": 44.8900087,
            "lon": 11.0548275,
            "timestamp": "2024-06-19T02:36:16Z",
            "version": 2,
            "changeset": 152871589,
            "user": "Rockedf",
            "uid": 7522075,
            "tags": {
                "addr:city": "Mirandola",
                "addr:housenumber": "37-3",
                "addr:postcode": "41037",
                "addr:street": "Via G. Agnini",
                "amenity": "atm",
                "cash_in": "yes",
                "cash_out": "yes",
                "cash_withdrawal": "yes",
                "check_date": "2024-05-31",
                "contact:email": "support@shitcoins.club",
                "contact:facebook": "https://www.facebook.com/shitcoins.club",
                "contact:instagram": "https://www.instagram.com/shitcoinsclub",
                "contact:telegram": "https://t.me/shitcoinsclub",
                "contact:twitter": "https://twitter.com/BitomatCom",
                "currency:CHF": "yes",
                "currency:DASH": "yes",
                "currency:ETH": "yes",
                "currency:EUR": "yes",
                "currency:GBP": "yes",
                "currency:HUF": "yes",
                "currency:LTC": "yes",
                "currency:RON": "yes",
                "currency:USD": "yes",
                "currency:USDC": "yes",
                "currency:USDT": "yes",
                "currency:XBT": "yes",
                "indoor": "yes",
                "name": "Bitcoin ATM - Shitcoins.club",
                "opening_hours": "Mo-Sa 08:30-20:30; Su 09:00-20:00",
                "operator": "Shitcoins.club",
                "payment:cash": "yes",
                "payment:lightning": "no",
                "payment:lightning_contactless": "no",
                "payment:onchain": "yes",
                "phone": "+39 34 8048 7308",
                "website": "https://shitcoins.club/localizzazione-atm/bancomat-bitcoin-Mirandola"
            }
        },
        {
            "type": "node",
            "id": 12007335643,
            "lat": 44.5590504,
            "lon": 11.3229149,
            "timestamp": "2024-10-15T08:02:12Z",
            "version": 2,
            "changeset": 157908605,
            "user": "mpbin",
            "uid": 21850090,
            "tags": {
                "addr:city": "Castel Maggiore",
                "addr:housenumber": "215",
                "addr:postcode": "40013",
                "addr:street": "Via Lame",
                "amenity": "music_school",
                "check_date": "2024-10-15",
                "check_date:currency:XBT": "2024-10-15",
                "contact:email": "info@musicstation.top",
                "contact:facebook": "https://www.facebook.com/musicstation.top/",
                "currency:XBT": "yes",
                "name": "Music Station",
                "opening_hours": "Mo-Fr 09:30-00:00",
                "payment:lightning": "yes",
                "payment:lightning_contactless": "yes",
                "payment:onchain": "yes",
                "phone": "+39 05 1632 5826",
                "website": "https://www.musicstation.top/"
            }
        },
        {
            "type": "node",
            "id": 12409497843,
            "lat": 44.4973065,
            "lon": 11.4263143,
            "timestamp": "2024-12-10T14:22:05Z",
            "version": 1,
            "changeset": 160131507,
            "user": "quibitcoin",
            "uid": 2201521,
            "tags": {
                "addr:city": "Castenaso",
                "addr:housenumber": "197",
                "addr:postcode": "40055",
                "addr:street": "Via Bruno Tosarelli",
                "craft": "hvac",
                "currency:XBT": "yes",
                "description": "Installazione e riparazione sistemi tecnologici, impianti idrici, riscaldamento e raffrescamento.",
                "email": "idroclimatica@hotmail.com",
                "name": "IDROCLIMATICA di Arcangelo Ciottariello",
                "phone": "+39 3397882638"
            }
        },
        {
            "type": "node",
            "id": 12687606433,
            "lat": 44.5181428,
            "lon": 11.341917,
            "timestamp": "2025-04-02T13:32:34Z",
            "version": 2,
            "changeset": 164421795,
            "user": "quibitcoin",
            "uid": 2201521,
            "tags": {
                "addr:city": "Bologna",
                "addr:housenumber": "2",
                "addr:postcode": "40129",
                "addr:street": "Via dell'Arcoveggio",
                "currency:XBT": "yes",
                "name": "Fisioterapia a domicilio",
                "office": "therapist",
                "phone": "+39 3299699161"
            }
        },
        {
            "type": "way",
            "id": 146407505,
            "timestamp": "2025-01-05T17:18:16Z",
            "version": 4,
            "changeset": 161029545,
            "user": "Dasc3er",
            "uid": 18828247,
            "nodes": [
                1596789203,
                1596789097,
                1596789113,
                1596789225,
                1596789203
            ],
            "tags": {
                "amenity": "fuel",
                "brand": "Tamoil",
                "building": "roof",
                "check_date": "2025-01-05",
                "layer": "1",
                "name": "Tamoil",
                "opening_hours": "24/7",
                "operator": "Tamoil"
            }
        },
        {
            "type": "way",
            "id": 150412155,
            "timestamp": "2025-03-30T10:09:36Z",
            "version": 8,
            "changeset": 164280430,
            "user": "Cybermanx",
            "uid": 22604600,
            "nodes": [
                1633312354,
                1633312368,
                1633312410,
                1633312594,
                1633312657,
                1633312932,
                1633312870,
                1633312795,
                1633312764,
                1633312609,
                1633312638,
                1633312644,
                1633312628,
                1633312529,
                1633312535,
                1633312542,
                1633312592,
                1633312636,
                1633312575,
                1633312568,
                1633312328,
                1633312325,
                1633312297,
                1633312295,
                1633312316,
                1633312298,
                1633312429,
                1633312421,
                1633312330,
                1633312322,
                1633312256,
                1633312266,
                1633312258,
                1633312268,
                1633312270,
                1633312320,
                5951674935,
                1633312354
            ],
            "tags": {
                "brand": "Conad",
                "brand:wikidata": "Q639075",
                "brand:wikipedia": "it:Conad",
                "building": "retail",
                "building:part": "yes",
                "email": "BolognaEstPvViaEmiliaLevante_E211263B@di-net.it",
                "name": "Conad",
                "opening_hours": "Mo-Sa 08:00-21:00; Su 09:00-20:30",
                "operator": "Conad",
                "payment:bancomat": "yes",
                "payment:cash": "yes",
                "payment:credit_cards": "yes",
                "phone": "+39 051 540300",
                "shop": "supermarket",
                "website": "https://www.conad.it/ricerca-negozi/negozio.000313.html"
            }
        },
        {
            "type": "way",
            "id": 665882922,
            "timestamp": "2025-03-30T09:48:50Z",
            "version": 6,
            "changeset": 164279766,
            "user": "Cybermanx",
            "uid": 22604600,
            "nodes": [
                6233292703,
                6233292702,
                6233292709,
                6233292710,
                11053885587,
                6233292704,
                11053885579,
                6233292703
            ],
            "tags": {
                "brand": "Spar",
                "brand:wikidata": "Q610492",
                "brand:wikipedia": "en:Spar (retailer)",
                "building": "retail",
                "name": "Eurospar",
                "operator": "Despar",
                "payment:cash": "yes",
                "payment:credit_cards": "yes",
                "payment:debit_cards": "yes",
                "payment:mastercard": "yes",
                "payment:visa": "yes",
                "shop": "supermarket",
                "wheelchair": "yes"
            }
        },
        {
            "type": "way",
            "id": 813473387,
            "timestamp": "2024-12-03T20:27:07Z",
            "version": 3,
            "changeset": 159895867,
            "user": "mpbin",
            "uid": 21850090,
            "nodes": [
                7598692490,
                7598692491,
                7598692492,
                7598692493,
                7598692490
            ],
            "tags": {
                "brand": "Trony",
                "brand:wikidata": "Q3999692",
                "brand:wikipedia": "it:Trony",
                "building": "retail",
                "name": "Trony",
                "operator": "Trony",
                "shop": "electronics"
            }
        }
    ],
    "telegram": [
        {
            "telegram": "ss-ferrara"
        }
    ]
}