{
    "id": "firenze",
    "name": "Firenze",
    "lng": 43.7663802,
    "lat": 11.229556800000001,
    "poi": [
        {
            "type": "node",
            "id": 228082291,
            "lat": 43.723072,
            "lon": 10.669935,
            "timestamp": "2025-04-19T21:48:17Z",
            "version": 4,
            "changeset": 165172110,
            "user": "btcitnet",
            "uid": 22525435,
            "tags": {
                "addr:city": "Bientina",
                "addr:street": "Strada Provinciale Val di Nievole",
                "amenity": "fuel",
                "brand": "Q8",
                "name": "Q8",
                "operator": "Q8"
            }
        },
        {
            "type": "node",
            "id": 535340062,
            "lat": 43.7652441,
            "lon": 11.1965498,
            "timestamp": "2025-01-03T17:13:56Z",
            "version": 9,
            "changeset": 160958443,
            "user": "mpbin",
            "uid": 21850090,
            "tags": {
                "brand": "MediaWorld",
                "brand:wikidata": "Q76504823",
                "name": "MediaWorld",
                "operator": "MediaMarket S.p.A.",
                "shop": "electronics",
                "wheelchair": "yes"
            }
        },
        {
            "type": "node",
            "id": 613467795,
            "lat": 43.773942,
            "lon": 11.2162996,
            "timestamp": "2025-01-03T15:37:26Z",
            "version": 6,
            "changeset": 160954560,
            "user": "mpbin",
            "uid": 21850090,
            "tags": {
                "addr:city": "Firenze",
                "addr:postcode": "50142",
                "addr:street": "Viale Francesco Talenti",
                "name": "OVS",
                "operator": "OVS",
                "shop": "department_store"
            }
        },
        {
            "type": "node",
            "id": 623913279,
            "lat": 43.7941266,
            "lon": 11.1858298,
            "timestamp": "2024-07-13T01:55:37Z",
            "version": 4,
            "changeset": 153876850,
            "user": "Rockedf",
            "uid": 7522075,
            "tags": {
                "addr:city": "Firenze",
                "addr:country": "IT",
                "addr:housenumber": "154",
                "addr:postcode": "50145",
                "addr:street": "Via Pistoiese",
                "amenity": "restaurant",
                "check_date": "2024-07-12",
                "contact:instagram": "@trattoriadaburde",
                "cuisine": "italian",
                "currency:XBT": "yes",
                "description": "Trattoria dal 1901 pluri premiata , rinomata per cucina tipica toscana in particolare la bistecca",
                "name": "Trattoria da Burde",
                "payment:lightning": "yes",
                "payment:lightning_contactless": "no",
                "payment:onchain": "yes",
                "phone": "+39 055 317206",
                "website": "https://landing.vinodaburde.eu/"
            }
        },
        {
            "type": "node",
            "id": 625386035,
            "lat": 43.8596037,
            "lon": 11.1058985,
            "timestamp": "2024-12-31T17:20:33Z",
            "version": 6,
            "changeset": 160842192,
            "user": "mpbin",
            "uid": 21850090,
            "tags": {
                "addr:city": "Prato",
                "addr:housenumber": "195",
                "addr:postcode": "59100",
                "addr:street": "Via Enrico Berlinguer",
                "brand": "Unieuro",
                "brand:wikidata": "Q4004687",
                "name": "Unieuro",
                "operator": "Unieuro S.p.A.",
                "shop": "electronics"
            }
        },
        {
            "type": "node",
            "id": 625386070,
            "lat": 43.8914021,
            "lon": 11.1009353,
            "timestamp": "2024-12-31T17:35:23Z",
            "version": 7,
            "changeset": 160842691,
            "user": "mpbin",
            "uid": 21850090,
            "tags": {
                "addr:city": "Prato",
                "addr:housenumber": "14",
                "addr:postcode": "59100",
                "addr:street": "Via Ferdinando Targetti",
                "brand": "Unieuro",
                "brand:wikidata": "Q4004687",
                "brand:wikipedia": "en:Unieuro",
                "name": "Unieuro",
                "operator": "Unieuro S.p.A.",
                "phone": "+39 0574 691842",
                "shop": "electronics",
                "website": "https://www.unieuro.it/online/negozi/Unieuro-Prato---via-Targetti"
            }
        },
        {
            "type": "node",
            "id": 677693002,
            "lat": 43.8481744,
            "lon": 11.1444052,
            "timestamp": "2025-04-08T19:38:09Z",
            "version": 7,
            "changeset": 164695466,
            "user": "Emabarto",
            "uid": 10142223,
            "tags": {
                "addr:city": "Campi Bisenzio",
                "addr:housenumber": "165",
                "addr:postcode": "50013",
                "addr:street": "Via San Quirico",
                "brand": "MediaWorld",
                "brand:wikidata": "Q2381223",
                "name": "MediaWorld",
                "operator": "MediaMarket S.p.A.",
                "payment:apple_pay": "yes",
                "payment:bancomat": "yes",
                "payment:cash": "yes",
                "payment:coins": "yes",
                "payment:contactless": "yes",
                "payment:credit_cards": "yes",
                "payment:debit_cards": "yes",
                "payment:google_pay": "yes",
                "payment:mastercard": "yes",
                "payment:visa": "yes",
                "shop": "electronics",
                "source": "survey",
                "wheelchair": "yes"
            }
        },
        {
            "type": "node",
            "id": 715759085,
            "lat": 43.7962647,
            "lon": 11.239877,
            "timestamp": "2025-01-03T13:57:50Z",
            "version": 8,
            "changeset": 160950353,
            "user": "mpbin",
            "uid": 21850090,
            "tags": {
                "addr:city": "Firenze",
                "addr:housenumber": "12",
                "addr:street": "Piazza Dalmazia",
                "brand": "OVS",
                "brand:wikidata": "Q2042514",
                "brand:wikipedia": "it:OVS",
                "check_date": "2022-08-20",
                "name": "OVS",
                "operator": "OVS",
                "shop": "clothes"
            }
        },
        {
            "type": "node",
            "id": 1491161940,
            "lat": 43.4069495,
            "lon": 11.1658857,
            "timestamp": "2025-01-03T10:05:59Z",
            "version": 6,
            "changeset": 160941030,
            "user": "mpbin",
            "uid": 21850090,
            "tags": {
                "addr:city": "Colle di Val d'Elsa",
                "addr:housenumber": "5",
                "addr:postcode": "53034",
                "addr:street": "Strada Provinciale Colligiana",
                "brand": "Decathlon",
                "brand:wikidata": "Q509349",
                "name": "Decathlon",
                "operator": "Decathlon",
                "shop": "sports"
            }
        },
        {
            "type": "node",
            "id": 1864012829,
            "lat": 43.8728232,
            "lon": 11.0645025,
            "timestamp": "2025-04-14T18:36:03Z",
            "version": 8,
            "changeset": 164952698,
            "user": "Emabarto",
            "uid": 10142223,
            "tags": {
                "addr:city": "Prato",
                "addr:housenumber": "89",
                "addr:postcode": "59100",
                "addr:street": "Via delle Pleiadi",
                "brand": "Decathlon",
                "brand:wikidata": "Q509349",
                "brand:wikipedia": "en:Decathlon (retailer)",
                "name": "Decathlon",
                "opening_hours": "Mo-Sa 09:00-21:00; Su 09:00-20:00",
                "operator": "Decathlon",
                "payment:apple_pay": "yes",
                "payment:bancomat": "yes",
                "payment:cards": "yes",
                "payment:cash": "yes",
                "payment:coins": "yes",
                "payment:contactless": "yes",
                "payment:credit_cards": "yes",
                "payment:debit_cards": "yes",
                "payment:google_pay": "yes",
                "payment:maestro": "yes",
                "payment:mastercard": "yes",
                "payment:notes": "yes",
                "payment:visa": "yes",
                "payment:visa_debit": "yes",
                "payment:visa_electron": "yes",
                "shop": "sports",
                "wheelchair": "yes"
            }
        },
        {
            "type": "node",
            "id": 1977670183,
            "lat": 43.9086456,
            "lon": 10.9955687,
            "timestamp": "2025-04-20T19:32:13Z",
            "version": 9,
            "changeset": 165209764,
            "user": "Emabarto",
            "uid": 10142223,
            "tags": {
                "addr:city": "Agliana",
                "addr:postcode": "51031",
                "addr:street": "Via Enrico Berlinguer",
                "brand": "MediaWorld",
                "brand:wikidata": "Q2381223",
                "name": "MediaWorld",
                "opening_hours": "Mo-Sa 09:00-20:00; Su 09:00-13:30; PH off",
                "operator": "MediaMarket S.p.A.",
                "shop": "electronics",
                "website": "https://www.mediaworld.it/",
                "wheelchair": "yes"
            }
        },
        {
            "type": "node",
            "id": 2538783212,
            "lat": 43.8200192,
            "lon": 11.2099341,
            "timestamp": "2025-04-05T16:18:15Z",
            "version": 7,
            "changeset": 164558954,
            "user": "Emabarto",
            "uid": 10142223,
            "tags": {
                "addr:city": "Sesto Fiorentino",
                "addr:country": "IT",
                "addr:housenumber": "19",
                "addr:postcode": "50019",
                "addr:street": "Via Petrosa",
                "brand": "Decathlon",
                "brand:wikidata": "Q509349",
                "name": "Decathlon",
                "opening_hours": "Mo-Sa 09:00-20:30; Su 09:00-20:00",
                "operator": "Decathlon",
                "payment:apple_pay": "yes",
                "payment:cards": "yes",
                "payment:cash": "yes",
                "payment:coins": "yes",
                "payment:contactless": "yes",
                "payment:credit_cards": "yes",
                "payment:debit_cards": "yes",
                "payment:google_pay": "yes",
                "payment:v_pay": "yes",
                "payment:visa": "yes",
                "payment:visa_debit": "yes",
                "payment:visa_electron": "yes",
                "phone": "+39 055 3985266",
                "shop": "sports",
                "website": "https://www.decathlon.it/"
            }
        },
        {
            "type": "node",
            "id": 2575758955,
            "lat": 43.7910313,
            "lon": 10.709964,
            "timestamp": "2024-10-15T07:58:51Z",
            "version": 10,
            "changeset": 157908468,
            "user": "mpbin",
            "uid": 21850090,
            "tags": {
                "addr:city": "Altopascio",
                "addr:housenumber": "116/a",
                "addr:postcode": "55011",
                "addr:street": "Via del Maggino",
                "check_date": "2024-10-15",
                "check_date:currency:XBT": "2024-10-15",
                "contact:facebook": "https://www.facebook.com/imballoinlegno.it",
                "contact:instagram": "https://www.instagram.com/imballoinlegno.it/",
                "contact:linkedin": "https://www.linkedin.com/company/imballoinlegno/",
                "contact:pinterest": "https://it.pinterest.com/nardiebanti/",
                "contact:twitter": "https://x.com/Imballoinlegno",
                "craft": "carpenter",
                "currency:XBT": "yes",
                "description": "Produzione di imballaggi in legno per l'industria e per l'arredamento, anche a norma ISPM15 per esportazione all'estero.",
                "email": "info@imballoinlegno.it",
                "name": "Nardi e Banti imballaggi srl",
                "payment:litecoin": "yes",
                "phone": "+39 0583 289258",
                "website": "https://imballoinlegno.it"
            }
        },
        {
            "type": "node",
            "id": 2671167531,
            "lat": 43.7715336,
            "lon": 11.2599932,
            "timestamp": "2024-07-05T19:20:02Z",
            "version": 8,
            "changeset": 153601671,
            "user": "mauropili",
            "uid": 1496865,
            "tags": {
                "addr:city": "Firenze",
                "addr:housenumber": "16",
                "addr:postcode": "50122",
                "addr:street": "Borgo degli Albizi",
                "currency:XBT": "yes",
                "name": "Tuscan Smoking",
                "shop": "e-cigarette",
                "survey:date": "2022-08-24",
                "website": "https://aziende.virgilio.it/smokies-fumare-digitale_3"
            }
        },
        {
            "type": "node",
            "id": 2982900042,
            "lat": 43.9304681,
            "lon": 10.9151299,
            "timestamp": "2025-01-03T16:05:45Z",
            "version": 4,
            "changeset": 160955773,
            "user": "mpbin",
            "uid": 21850090,
            "tags": {
                "addr:city": "Pistoia",
                "addr:housenumber": "13",
                "addr:postcode": "51100",
                "addr:street": "Via Atto Vannucci",
                "brand": "OVS",
                "brand:wikidata": "Q2042514",
                "name": "OVS",
                "operator": "OVS",
                "shop": "clothes"
            }
        },
        {
            "type": "node",
            "id": 3118020509,
            "lat": 43.6276625,
            "lon": 11.462054,
            "timestamp": "2025-01-03T10:17:49Z",
            "version": 7,
            "changeset": 160941476,
            "user": "mpbin",
            "uid": 21850090,
            "tags": {
                "addr:city": "Figline Valdarno",
                "addr:housenumber": "6",
                "addr:postcode": "50063",
                "addr:street": "Via Comunit\u00e0 Europea",
                "branch": "Figline e Incisa Valdarno",
                "brand": "Decathlon",
                "brand:wikidata": "Q509349",
                "brand:wikipedia": "en:Decathlon (retailer)",
                "contact:phone": "+39 055 9154060",
                "name": "Decathlon",
                "opening_hours": "Mo-Su 09:00-20:00",
                "operator": "Decathlon",
                "shop": "sports",
                "wheelchair": "yes"
            }
        },
        {
            "type": "node",
            "id": 3209003514,
            "lat": 43.8334976,
            "lon": 10.7034311,
            "timestamp": "2025-01-02T21:09:05Z",
            "version": 5,
            "changeset": 160926295,
            "user": "mpbin",
            "uid": 21850090,
            "tags": {
                "addr:city": "Altopascio",
                "addr:housenumber": "10",
                "addr:postcode": "55011",
                "addr:street": "Via Ponte alla Ciliegia",
                "brand": "Trony",
                "brand:wikidata": "Q3999692",
                "brand:wikipedia": "it:Trony",
                "name": "Trony",
                "operator": "Trony",
                "shop": "electronics",
                "wheelchair": "yes"
            }
        },
        {
            "type": "node",
            "id": 3647648283,
            "lat": 43.8612043,
            "lon": 10.7640935,
            "timestamp": "2025-01-03T16:14:38Z",
            "version": 4,
            "changeset": 160956144,
            "user": "mpbin",
            "uid": 21850090,
            "tags": {
                "addr:city": "Montecatini Terme",
                "addr:housenumber": "48",
                "addr:postcode": "51016",
                "addr:street": "Via Biscolla",
                "brand": "OVS",
                "brand:wikidata": "Q2042514",
                "brand:wikipedia": "en:OVS (company)",
                "name": "OVS",
                "operator": "OVS",
                "shop": "clothes",
                "wheelchair": "yes"
            }
        },
        {
            "type": "node",
            "id": 3764922637,
            "lat": 43.7208534,
            "lon": 10.9488863,
            "timestamp": "2024-02-20T22:05:27Z",
            "version": 3,
            "changeset": 147709031,
            "user": "PaperJack",
            "uid": 12156681,
            "tags": {
                "addr:city": "Empoli",
                "addr:housenumber": "12",
                "addr:postcode": "50053",
                "addr:street": "Via Tinto Da Battifolle",
                "brand": "Conad City",
                "brand:wikidata": "Q57543102",
                "name": "Conad City",
                "opening_hours": "Mo-Sa 07:30-21:00, Su 08:30-20:00",
                "operator": "Conad",
                "payment:bancomat": "yes",
                "payment:cash": "yes",
                "payment:credit_cards": "yes",
                "shop": "supermarket",
                "start_date": "2020-11-14",
                "survey:date": "2024-02-20",
                "website": "https://www.conad.it/ricerca-negozi/negozio.010155.html"
            }
        },
        {
            "type": "node",
            "id": 3796135257,
            "lat": 43.7715247,
            "lon": 11.2599468,
            "timestamp": "2024-04-16T13:07:28Z",
            "version": 8,
            "changeset": 150084634,
            "user": "yhic4uw",
            "uid": 2104834,
            "tags": {
                "addr:city": "Firenze",
                "addr:housenumber": "72r",
                "addr:postcode": "50122",
                "addr:street": "Borgo degli Albizi",
                "amenity": "atm",
                "check_date": "2024-04-16",
                "currency:XBT": "yes",
                "description": "Bitcoin ATM di Chainblock, situato all'interno di Tuscan Smoking.",
                "email": "info@chainblock.it",
                "name": "Chainblock ATM",
                "website": "https://chainblock.it",
                "wheelchair": "yes"
            }
        },
        {
            "type": "node",
            "id": 4207953950,
            "lat": 43.793687,
            "lon": 11.1857952,
            "timestamp": "2019-08-24T12:46:50Z",
            "version": 2,
            "changeset": 73695628,
            "user": "trekker48",
            "uid": 961387,
            "tags": {
                "addr:city": "Firenze",
                "addr:housenumber": "209",
                "addr:postcode": "50145",
                "addr:street": "Via Pistoiese",
                "brand": "Conad",
                "brand:wikidata": "Q639075",
                "brand:wikipedia": "it:Conad",
                "name": "Conad",
                "operator": "Conad",
                "shop": "supermarket"
            }
        },
        {
            "type": "node",
            "id": 4377139792,
            "lat": 43.7910973,
            "lon": 11.2289703,
            "timestamp": "2025-04-04T16:45:01Z",
            "version": 9,
            "changeset": 164519290,
            "user": "Martin Ligabue",
            "uid": 8305310,
            "tags": {
                "addr:street": "Via Carlo Ludovico Ragghianti",
                "brand": "MediaWorld",
                "brand:wikidata": "Q2381223",
                "level": "0",
                "name": "MediaWorld",
                "opening_hours": "Mo-Sa 09:30-20:00; Su 10:00-20:00",
                "operator": "MediaMarket S.p.A.",
                "shop": "electronics"
            }
        },
        {
            "type": "node",
            "id": 5003769421,
            "lat": 43.7776046,
            "lon": 11.2525059,
            "timestamp": "2025-01-03T16:36:24Z",
            "version": 6,
            "changeset": 160956985,
            "user": "mpbin",
            "uid": 21850090,
            "tags": {
                "addr:city": "Firenze",
                "addr:housenumber": "29",
                "addr:postcode": "50123",
                "addr:street": "Via Nazionale",
                "brand": "OVS",
                "brand:wikidata": "Q2042514",
                "check_date": "2024-04-30",
                "name": "OVS",
                "opening_hours": "Mo-Sa 09:00-19:30; PH,Su 10:00-13:00,15:00-19:30",
                "operator": "OVS",
                "shop": "clothes",
                "wheelchair": "yes"
            }
        },
        {
            "type": "node",
            "id": 7513351699,
            "lat": 43.8987794,
            "lon": 11.0701282,
            "timestamp": "2020-05-13T06:20:26Z",
            "version": 1,
            "changeset": 85122544,
            "user": "mascalzone67",
            "uid": 1861652,
            "tags": {
                "addr:city": "Prato",
                "addr:housenumber": "3",
                "addr:postcode": "59100",
                "addr:street": "Via Anna Kuliscioff",
                "amenity": "pharmacy",
                "dispensing": "no",
                "healthcare": "pharmacy",
                "name": "Parafarmacia Conad",
                "operator": "Conad"
            }
        },
        {
            "type": "node",
            "id": 8889877950,
            "lat": 43.4099392,
            "lon": 11.134106,
            "timestamp": "2025-01-01T20:27:08Z",
            "version": 4,
            "changeset": 160884207,
            "user": "mpbin",
            "uid": 21850090,
            "tags": {
                "addr:city": "Colle di Val d'Elsa",
                "addr:housenumber": "46/D",
                "addr:postcode": "53034",
                "addr:street": "Viale dei Mille",
                "branch": "Pecchi",
                "brand": "Unieuro",
                "brand:wikidata": "Q4004687",
                "name": "Unieuro",
                "operator": "Unieuro S.p.A.",
                "shop": "electronics"
            }
        },
        {
            "type": "node",
            "id": 9631522101,
            "lat": 43.8412423,
            "lon": 10.6167649,
            "timestamp": "2025-04-01T06:45:23Z",
            "version": 7,
            "changeset": 164359203,
            "user": "GBAB",
            "uid": 3335899,
            "tags": {
                "addr:city": "Porcari",
                "addr:housenumber": "5",
                "addr:postcode": "55016",
                "addr:street": "Via Guglielmo Marconi",
                "amenity": "cafe",
                "check_date": "2022-12-20",
                "contact:mobile": "+39 345 807 9076",
                "contact:website": "http://www.pasticceriareginalucca.it/",
                "currency:XBT": "yes",
                "name": "Pasticceria Petit Regina",
                "opening_hours": "Tu-Su 08:00-20:00",
                "operator": "Pasticceria Regina s.r.l.",
                "payment:lightning": "yes",
                "payment:onchain": "yes",
                "ref:vatin": "IT02385600461"
            }
        },
        {
            "type": "node",
            "id": 9770542786,
            "lat": 43.7139722,
            "lon": 10.9238015,
            "timestamp": "2025-01-03T17:30:51Z",
            "version": 6,
            "changeset": 160959056,
            "user": "mpbin",
            "uid": 21850090,
            "tags": {
                "brand": "MediaWorld",
                "brand:wikidata": "Q2381223",
                "name": "MediaWorld",
                "operator": "MediaMarket S.p.A.",
                "phone": "+39 057120940111",
                "shop": "electronics",
                "website": "https://www.mediaworld.it/"
            }
        },
        {
            "type": "node",
            "id": 10111933427,
            "lat": 43.7644967,
            "lon": 11.1712714,
            "timestamp": "2025-01-02T22:04:29Z",
            "version": 2,
            "changeset": 160927860,
            "user": "mpbin",
            "uid": 21850090,
            "tags": {
                "addr:city": "Scandicci",
                "addr:housenumber": "13",
                "addr:postcode": "50018",
                "addr:street": "Largo Pierluigi da Palestrina",
                "brand": "Trony",
                "brand:wikidata": "Q3999692",
                "name": "Trony",
                "operator": "Trony",
                "shop": "electronics"
            }
        },
        {
            "type": "node",
            "id": 10119266824,
            "lat": 43.9308473,
            "lon": 10.9143641,
            "timestamp": "2022-10-21T17:10:49Z",
            "version": 1,
            "changeset": 127894894,
            "user": "mascalzone67",
            "uid": 1861652,
            "tags": {
                "addr:city": "Pistoia",
                "addr:housenumber": "17",
                "addr:postcode": "51100",
                "addr:street": "Corso Antonio Gramsci",
                "name": "TuDay Conad",
                "not:brand:wikidata": "Q639075",
                "opening_hours": "Mo-Sa 08:00-20:30, Su 8:30-13:00, 15:30-20:00",
                "operator": "Conad",
                "payment:bancomat": "yes",
                "payment:cash": "yes",
                "payment:credit_cards": "yes",
                "phone": "+39 0573 26706",
                "shop": "supermarket",
                "source": "https://www.gdonews.it/2022/10/20/la-nuova-insegna-tuday-conad-inaugura-a-pistoia/",
                "start_date": "2022-10-20"
            }
        },
        {
            "type": "node",
            "id": 10138673678,
            "lat": 43.7937509,
            "lon": 11.2199873,
            "timestamp": "2024-10-13T17:13:37Z",
            "version": 5,
            "changeset": 157844781,
            "user": "mpbin",
            "uid": 21850090,
            "tags": {
                "addr:city": "Firenze",
                "addr:housenumber": "42",
                "addr:postcode": "50127",
                "addr:street": "Via di Novoli",
                "check_date": "2024-10-13",
                "contact:facebook": "https://www.facebook.com/people/ferramenta-altilio/100057285505023/",
                "contact:pinterest": "https://it.pinterest.com/altilioferramenta/",
                "currency:XBT": "yes",
                "email": "webmail@altilioferramenta.it",
                "name": "Ferramenta Altilio",
                "payment:lightning": "yes",
                "payment:lightning_contactless": "2024-10-13",
                "payment:onchain": "yes",
                "phone": "+39 055 413 640",
                "shop": "hardware",
                "survey:date": "2022-10-30",
                "website": "https://www.altilioferramenta.it/"
            }
        },
        {
            "type": "node",
            "id": 10202296781,
            "lat": 43.7227816,
            "lon": 10.9739028,
            "timestamp": "2025-02-18T21:22:58Z",
            "version": 2,
            "changeset": 162677850,
            "user": "btcitnet",
            "uid": 22525435,
            "tags": {
                "addr:city": "Empoli",
                "addr:housenumber": "41",
                "addr:postcode": "50053",
                "addr:street": "Via Tosco-Romagnola",
                "brand": "Decathlon",
                "brand:wikidata": "Q509349",
                "name": "Decathlon",
                "operator": "Decathlon",
                "shop": "sports"
            }
        },
        {
            "type": "node",
            "id": 10275711661,
            "lat": 43.832708,
            "lon": 10.6158035,
            "timestamp": "2024-10-10T21:01:34Z",
            "version": 3,
            "changeset": 157733257,
            "user": "mpbin",
            "uid": 21850090,
            "tags": {
                "addr:city": "Porcari",
                "addr:housenumber": "7",
                "addr:postcode": "55016",
                "addr:street": "Via de' Casoni",
                "check_date": "2022-12-20",
                "currency:XBT": "yes",
                "email": "info@ecoprintlucchese.com",
                "name": "Ecoprint Lucchese",
                "office": "company",
                "payment:lightning": "yes",
                "payment:onchain": "yes",
                "phone": "+390583298474",
                "website": "http://www.ecoprintlucchese.com/home.php"
            }
        },
        {
            "type": "node",
            "id": 10721887873,
            "lat": 43.6298198,
            "lon": 11.4614133,
            "timestamp": "2025-01-03T17:32:23Z",
            "version": 4,
            "changeset": 160959094,
            "user": "mpbin",
            "uid": 21850090,
            "tags": {
                "addr:city": "Figline e Incisa Valdarno",
                "addr:housenumber": "40",
                "addr:postcode": "50063",
                "addr:street": "Via Romania",
                "air_conditioning": "yes",
                "brand": "MediaWorld",
                "brand:wikidata": "Q2381223",
                "name": "MediaWorld",
                "opening_hours": "Mo-Sa 09:30-20:00; Su 09:30-13:30,15:30-19:30",
                "operator": "MediaMarket S.p.A.",
                "payment:cash": "yes",
                "payment:credit_cards": "yes",
                "phone": "0559506111",
                "shop": "electronics",
                "wheelchair": "yes"
            }
        },
        {
            "type": "node",
            "id": 10721944833,
            "lat": 43.6296611,
            "lon": 11.4619065,
            "timestamp": "2023-03-08T18:14:27Z",
            "version": 1,
            "changeset": 133451143,
            "user": "gi_maf",
            "uid": 18559051,
            "tags": {
                "addr:city": "Figline e Incisa Valdarno",
                "addr:housenumber": "40",
                "addr:postcode": "50063",
                "addr:street": "Via Romania",
                "brand": "OVS",
                "brand:wikidata": "Q2042514",
                "clothes": "women;underwear;men;children;sports;workwear;suits;hats",
                "name": "OVS",
                "opening_hours": "Mo-Sa 09:00-20:00; Su 08:30-13:30",
                "operator": "OVS",
                "phone": "+39 055 9154196",
                "shop": "clothes",
                "website": "https://stores.ovs.it/it/italia/toscana/firenze/ovs-figline-valdarno",
                "wheelchair": "yes"
            }
        },
        {
            "type": "node",
            "id": 10788497657,
            "lat": 43.8469029,
            "lon": 11.1427246,
            "timestamp": "2023-08-04T10:32:40Z",
            "version": 3,
            "changeset": 139434864,
            "user": "yhic4uw",
            "uid": 2104834,
            "tags": {
                "addr:city": "Campi Bisenzio",
                "addr:housenumber": "125",
                "addr:postcode": "50013",
                "addr:street": "Via San Quirico",
                "check_date": "2023-04-05",
                "clothes": "men",
                "currency:XBT": "yes",
                "name": "Nuvolari c.c. I Gigli",
                "payment:lightning": "no",
                "payment:lightning_contactless": "no",
                "payment:onchain": "yes",
                "phone": "0550458188",
                "shop": "clothes",
                "website": "https://www.igigli.it/shop/nuvolari/"
            }
        },
        {
            "type": "node",
            "id": 10995234405,
            "lat": 43.8947309,
            "lon": 11.0857113,
            "timestamp": "2025-03-30T21:47:44Z",
            "version": 8,
            "changeset": 164306468,
            "user": "mendace",
            "uid": 20698316,
            "tags": {
                "addr:city": "Prato",
                "addr:housenumber": "58",
                "addr:postcode": "59100",
                "addr:street": "Via Garigliano",
                "check_date:currency:XBT": "2023-12-16",
                "currency:XBT": "yes",
                "email": "info@idigservizi.it",
                "image": "https://388300a95b.clvaw-cdnwnd.com/1e1148994372c28977cfa14dd615d9df/200000001-8da808da83/700/LOGO.webp?ph=388300a95b",
                "internet_access": "wlan",
                "name": "Identit\u00e0 Digitale Tommaso",
                "name:en": "Thomas Digital Identity",
                "opening_hours": "Mo-Su 09:00-13:30",
                "payment:lightning": "yes",
                "payment:onchain": "yes",
                "shop": "computer",
                "website": "https://www.idigservizi.it/"
            }
        },
        {
            "type": "node",
            "id": 11160213374,
            "lat": 43.7915888,
            "lon": 11.2294213,
            "timestamp": "2025-01-03T09:52:19Z",
            "version": 3,
            "changeset": 160940502,
            "user": "mpbin",
            "uid": 21850090,
            "tags": {
                "addr:city": "Firenze",
                "addr:housenumber": "10",
                "addr:postcode": "50127",
                "addr:street": "Via dei Rastrelli",
                "addr:unit": "a",
                "brand": "Decathlon",
                "brand:wikidata": "Q509349",
                "name": "Decathlon",
                "opening_hours": "Mo-Su 09:00-20:00",
                "operator": "Decathlon",
                "shop": "sports"
            }
        },
        {
            "type": "node",
            "id": 11375064371,
            "lat": 43.6488721,
            "lon": 11.3917506,
            "timestamp": "2023-11-25T10:44:33Z",
            "version": 1,
            "changeset": 144436664,
            "user": "Chiarant",
            "uid": 18452174,
            "tags": {
                "addr:city": "Poggio alla Croce",
                "addr:housenumber": "16",
                "addr:postcode": "50022",
                "addr:street": "Localit\u00e0 Musignana",
                "amenity": "animal_boarding",
                "check_date": "2023-11-25",
                "currency:XBT": "yes",
                "name": "Mayra e Sasha - Pensione Casalinga",
                "website": "https://www.dogsitterfiglinevaldarno.com/"
            }
        },
        {
            "type": "node",
            "id": 11418023292,
            "lat": 43.8835574,
            "lon": 11.0824179,
            "timestamp": "2024-10-06T17:49:29Z",
            "version": 3,
            "changeset": 157551772,
            "user": "mpbin",
            "uid": 21850090,
            "tags": {
                "addr:city": "Prato",
                "addr:postcode": "59100",
                "addr:street": "Via Giudo Monaco",
                "amenity": "arts_centre",
                "check_date": "2024-10-06",
                "check_date:currency:XBT": "2024-10-06",
                "contact:facebook": "https://www.facebook.com/LanarchicoPrato/",
                "contact:instagram": "https://www.instagram.com/lanarchico_prato/",
                "contact:twitter": "https://x.com/LanarchicoPrato",
                "currency:XBT": "yes",
                "email": "lanarchicoprato@gmail.com",
                "mobile": "+39 331 366 4642",
                "name": "Lanarchico",
                "payment:lightning": "yes",
                "payment:onchain": "yes",
                "website": "https://linktr.ee/lanarchico"
            }
        },
        {
            "type": "node",
            "id": 11540683992,
            "lat": 43.4781259,
            "lon": 11.1310074,
            "timestamp": "2025-01-02T22:17:36Z",
            "version": 2,
            "changeset": 160928164,
            "user": "mpbin",
            "uid": 21850090,
            "tags": {
                "addr:city": "Poggibonsi",
                "addr:postcode": "53036",
                "addr:street": "Strada Provinciale di San Gimignano",
                "brand": "Trony",
                "brand:wikidata": "Q3999692",
                "name": "Trony",
                "operator": "Trony",
                "shop": "electronics"
            }
        },
        {
            "type": "node",
            "id": 11643046794,
            "lat": 43.3310333,
            "lon": 11.3221213,
            "timestamp": "2025-01-01T21:26:55Z",
            "version": 3,
            "changeset": 160886030,
            "user": "mpbin",
            "uid": 21850090,
            "tags": {
                "addr:city": "Siena",
                "addr:housenumber": "25",
                "addr:place": "Piazzale Carlo Rosselli",
                "addr:postcode": "53100",
                "brand": "Unieuro",
                "brand:wikidata": "Q4004687",
                "name": "Unieuro",
                "operator": "Unieuro S.p.A.",
                "phone": "+39 0577 226912",
                "shop": "electronics",
                "website": "https://www.unieuro.it/online/negozi/Unieuro-Siena"
            }
        },
        {
            "type": "node",
            "id": 11778374552,
            "lat": 43.3347691,
            "lon": 11.3007112,
            "timestamp": "2024-09-25T06:14:45Z",
            "version": 12,
            "changeset": 157065366,
            "user": "mpbin",
            "uid": 21850090,
            "tags": {
                "addr:city": "Siena",
                "addr:housenumber": "9",
                "addr:postcode": "53100",
                "addr:street": "Via Bernardino Perfetti",
                "addr:unit": "14",
                "check_date": "2024-09-25",
                "check_date:currency:XBT": "2024-09-25",
                "contact:instagram": "https://www.instagram.com/bed_and_breakfast_siena",
                "currency:XBT": "yes",
                "email": "homelatartuca@gmail.com",
                "guest_house": "apartment",
                "image": "https://www.booking.com/hotel/it/la-tartuca.it.html",
                "internet_access": "yes",
                "internet_access:fee": "no",
                "internet_access:ssid": "La_Tartuca-5G-F789EE",
                "level": "4",
                "name": "B&B LA TARTARUGA",
                "not:name": "GIULIA",
                "opening_hours": "24/7",
                "payment:cash": "yes",
                "payment:lightning": "yes",
                "payment:notes": "yes",
                "payment:onchain": "yes",
                "phone": "+393384845333",
                "rooms": "5",
                "tourism": "guest_house"
            }
        },
        {
            "type": "node",
            "id": 11819774023,
            "lat": 43.8253425,
            "lon": 11.127688,
            "timestamp": "2024-04-15T18:39:04Z",
            "version": 1,
            "changeset": 150053590,
            "user": "Chiarant",
            "uid": 18452174,
            "tags": {
                "addr:city": "Campi Bisenzio",
                "addr:housenumber": "30",
                "addr:street": "Via Pier Paolo Pasolini",
                "amenity": "restaurant",
                "check_date": "2024-04-15",
                "cuisine": "regional",
                "currency:XBT": "yes",
                "description": "Braceria toscana solo carne rossa",
                "diet:meat": "yes",
                "email": "info@carnam.it",
                "name": "Carnam Ciccia Club",
                "phone": "+39 378 305 3350",
                "website": "https://www.carnam.it/"
            }
        },
        {
            "type": "node",
            "id": 11879303927,
            "lat": 43.8914565,
            "lon": 11.016168,
            "timestamp": "2025-04-14T18:36:03Z",
            "version": 5,
            "changeset": 164952698,
            "user": "Emabarto",
            "uid": 10142223,
            "tags": {
                "addr:city": "Agliana",
                "addr:housenumber": "85",
                "addr:postcode": "51031",
                "addr:street": "Via Panaro",
                "air_conditioning": "yes",
                "brand": "Unieuro",
                "brand:wikidata": "Q4004687",
                "brand:wikipedia": "en:Unieuro",
                "level": "1",
                "name": "Unieuro",
                "opening_hours": "Mo-Fr 09:00-13:00, 15:00-20:00; Sa 09:00-20:00; Su 10:00-13:00, 15:00-20:00",
                "operator": "Unieuro S.p.A.",
                "payment:apple_pay": "yes",
                "payment:cards": "yes",
                "payment:cash": "yes",
                "payment:contactless": "yes",
                "payment:credit_cards": "yes",
                "payment:debit_cards": "yes",
                "payment:google_pay": "yes",
                "phone": "+39 0574 712123",
                "shop": "electronics",
                "stroller": "limited",
                "toilets": "no",
                "wheelchair": "limited"
            }
        },
        {
            "type": "node",
            "id": 11925854975,
            "lat": 43.8113167,
            "lon": 11.2341989,
            "timestamp": "2024-06-11T19:39:16Z",
            "version": 3,
            "changeset": 152559157,
            "user": "Rockedf",
            "uid": 7522075,
            "tags": {
                "addr:city": "Florence",
                "addr:housenumber": "236",
                "addr:postcode": "50141",
                "addr:street": "Via delle Panche",
                "amenity": "atm",
                "cash_in": "yes",
                "cash_out": "yes",
                "cash_withdrawal": "yes",
                "check_date": "2024-05-22",
                "contact:email": "support@shitcoins.club",
                "contact:facebook": "https://www.facebook.com/shitcoins.club",
                "contact:instagram": "https://www.instagram.com/shitcoinsclub",
                "contact:telegram": "https://t.me/shitcoinsclub",
                "contact:twitter": "https://twitter.com/BitomatCom",
                "currency:CHF": "yes",
                "currency:DASH": "yes",
                "currency:ETH": "yes",
                "currency:EUR": "yes",
                "currency:GBP": "yes",
                "currency:HUF": "yes",
                "currency:LTC": "yes",
                "currency:RON": "yes",
                "currency:USD": "yes",
                "currency:USDC": "yes",
                "currency:USDT": "yes",
                "currency:XBT": "yes",
                "indoor": "yes",
                "name": "Bitcoin ATM - Shitcoins.club",
                "opening_hours": "24/7",
                "operator": "Shitcoins.club",
                "payment:cash": "yes",
                "payment:lightning": "no",
                "payment:lightning_contactless": "no",
                "payment:onchain": "yes",
                "phone": "+39 34 8048 7308",
                "website": "https://shitcoins.club/localizzazione-atm/atm-bitcoin-florence-via-delle-panche"
            }
        },
        {
            "type": "node",
            "id": 12696171957,
            "lat": 43.807059,
            "lon": 11.2367327,
            "timestamp": "2025-03-24T16:04:52Z",
            "version": 3,
            "changeset": 164040257,
            "user": "quibitcoin",
            "uid": 2201521,
            "tags": {
                "addr:city": "Firenze",
                "addr:housenumber": "18A",
                "addr:postcode": "50141",
                "addr:street": "Via Leopoldo Pellas",
                "currency:XBT": "yes",
                "description": "Pool di tecnici (dal geometra all\u2019ingegnere), specializzati in tutte le discipline e servizi inerenti il settore immobiliare e tecnico legale.",
                "email": "contact@studiopcg.com",
                "name": "StudioPCG - Pezzoli e Carniani",
                "office": "estate_agent",
                "phone": "+39 0553896387",
                "website": "https://www.studiopcg.com"
            }
        },
        {
            "type": "node",
            "id": 12844241897,
            "lat": 43.8264551,
            "lon": 11.489621,
            "timestamp": "2025-05-17T14:56:06Z",
            "version": 2,
            "changeset": 166395714,
            "user": "Naturopata Alessio Masini",
            "uid": 22909595,
            "tags": {
                "addr:city": "Rufina",
                "addr:housenumber": "42",
                "addr:postcode": "50068",
                "addr:street": "piazza Umberto I",
                "currency:XBT": "yes",
                "description": "Naturopata specializzato in disturbi del sonno e invecchiamento. Ricevo presso poliambulatori Misericordia Rufina.",
                "name": "Alessio Masini Naturopata",
                "payment:lightning": "yes",
                "payment:lightning_contactless": "yes",
                "payment:onchain": "no",
                "survey:date": "2025-05-17"
            }
        },
        {
            "type": "node",
            "id": 12871226822,
            "lat": 43.4674847,
            "lon": 11.0433855,
            "timestamp": "2025-05-28T14:48:02Z",
            "version": 1,
            "changeset": 166879724,
            "user": "btcitnet",
            "uid": 22525435,
            "tags": {
                "addr:city": "San Gimignano",
                "addr:housenumber": "6",
                "addr:place": "Piazza della Cisterna",
                "addr:postcode": "53037",
                "amenity": "fast_food",
                "cuisine": "sandwich",
                "currency:XBT": "yes",
                "name": "Vinaino Fiorenza",
                "phone": "+39 05771794432",
                "website": "https://www.vinainofiorenza.it/"
            }
        },
        {
            "type": "way",
            "id": 109770103,
            "timestamp": "2025-02-19T18:31:38Z",
            "version": 15,
            "changeset": 162712895,
            "user": "Emabarto",
            "uid": 10142223,
            "nodes": [
                1255701487,
                1255701491,
                1255701504,
                6837554599,
                2003731806,
                4305663143,
                1255701663,
                1255701493,
                1255701555,
                1255701616,
                1255701644,
                1255701513,
                7046642309,
                1255701511,
                1255701487
            ],
            "tags": {
                "addr:city": "Sesto Fiorentino",
                "addr:housenumber": "1",
                "addr:postcode": "50019",
                "addr:street": "Via Francesco Redi",
                "air_conditioning": "yes",
                "brand": "IKEA",
                "brand:wikidata": "Q54078",
                "brand:wikipedia": "en:IKEA",
                "building": "yes",
                "changing_table": "yes",
                "internet_access": "wlan",
                "internet_access:fee": "no",
                "name": "IKEA",
                "opening_hours": "Mo-Fr 09:00-20:00; Sa,Su 09:00-21:00",
                "operator": "Ikea Italia Retail S.r.l.",
                "payment:apple_pay": "yes",
                "payment:bancomat": "yes",
                "payment:cards": "yes",
                "payment:cash": "yes",
                "payment:coins": "yes",
                "payment:contactless": "yes",
                "payment:google_pay": "yes",
                "payment:notes": "yes",
                "phone:IT": "199 11 46 46",
                "ref:vatin": "IT02992760963",
                "second_hand": "yes",
                "shop": "furniture",
                "stroller": "yes",
                "toilets": "yes",
                "toilets:wheelchair": "yes",
                "website": "https://www.ikea.com/it/it/",
                "wheelchair": "yes"
            }
        },
        {
            "type": "way",
            "id": 161023267,
            "timestamp": "2023-09-20T08:05:39Z",
            "version": 9,
            "changeset": 141500103,
            "user": "Gioele2704",
            "uid": 18940820,
            "nodes": [
                1730294576,
                1730294577,
                1730294578,
                1730294579,
                1730294581,
                7276593794,
                1730294583,
                7276593787,
                1730294591,
                3904140529,
                11037121742,
                1730294589,
                3904140523,
                1730294587,
                2338644953,
                1730294576
            ],
            "tags": {
                "area": "yes",
                "highway": "services",
                "name": "Area di servizio Lastra a Signa",
                "operator": "Q8"
            }
        },
        {
            "type": "way",
            "id": 331723429,
            "timestamp": "2015-03-07T20:47:55Z",
            "version": 1,
            "changeset": 29316877,
            "user": "Federico Silvio",
            "uid": 412293,
            "nodes": [
                3388224114,
                3388224115,
                3388224116,
                3388224117,
                3388224114
            ],
            "tags": {
                "amenity": "fuel",
                "operator": "Q8"
            }
        },
        {
            "type": "way",
            "id": 351835557,
            "timestamp": "2024-09-16T07:57:59Z",
            "version": 4,
            "changeset": 156675794,
            "user": "kr\u00e4ckel",
            "uid": 1092114,
            "nodes": [
                3576327126,
                3576327127,
                3576327128,
                3576327129,
                3576327130,
                3576327131,
                3576327126
            ],
            "tags": {
                "addr:city": "Prato",
                "addr:housenumber": "176",
                "addr:postcode": "59100",
                "addr:street": "Viale Borgo Valsugana",
                "amenity": "fuel",
                "brand": "Q8",
                "brand:wikidata": "Q4119207",
                "brand:wikipedia": "en:Kuwait Petroleum Corporation",
                "name": "Q8",
                "operator": "Q8"
            }
        },
        {
            "type": "way",
            "id": 458843592,
            "timestamp": "2019-02-10T18:57:50Z",
            "version": 2,
            "changeset": 67079826,
            "user": "fgouget",
            "uid": 2678738,
            "nodes": [
                3814209413,
                3814209414,
                3814209415,
                4547834385,
                4547834153,
                3814209411,
                4547834281,
                4547834387,
                4547834251,
                4547834285,
                4547834386,
                3814209413
            ],
            "tags": {
                "addr:city": "Firenze",
                "addr:housenumber": "49",
                "addr:postcode": "50136",
                "addr:street": "Via di Rocca Tedalda",
                "building": "yes",
                "name": "Conad City MAJA srl",
                "opening_hours": "Mo-Sa 08:00-20:30; Su 09:00-13:30,15:30-19:30",
                "operator": "Conad",
                "phone": "+39055 690804",
                "shop": "department_store",
                "wheelchair": "yes"
            }
        },
        {
            "type": "way",
            "id": 463899810,
            "timestamp": "2024-12-03T19:55:34Z",
            "version": 3,
            "changeset": 159894978,
            "user": "mpbin",
            "uid": 21850090,
            "nodes": [
                4591038773,
                4591038900,
                4591038754,
                4591039166,
                4591038773
            ],
            "tags": {
                "brand": "Trony",
                "brand:wikidata": "Q3999692",
                "building": "yes",
                "name": "Trony",
                "operator": "Trony",
                "shop": "electronics"
            }
        },
        {
            "type": "way",
            "id": 464802122,
            "timestamp": "2023-10-09T10:07:21Z",
            "version": 5,
            "changeset": 142342379,
            "user": "mau59",
            "uid": 257767,
            "nodes": [
                4598743948,
                4598744138,
                4598744149,
                4598743893,
                4598743904,
                4598744085,
                4598744096,
                9275689810,
                4598744044,
                4598744059,
                4598743792,
                4598743784,
                4598743879,
                9275732928,
                9275732917,
                4598743948
            ],
            "tags": {
                "addr:city": "Firenze",
                "addr:housenumber": "111",
                "addr:postcode": "50126",
                "addr:street": "Via Erbosa",
                "brand": "Trony",
                "brand:wikidata": "Q3999692",
                "brand:wikipedia": "it:Trony",
                "building": "retail",
                "name": "Trony",
                "operator": "Trony",
                "shop": "electronics"
            }
        },
        {
            "type": "way",
            "id": 476927487,
            "timestamp": "2024-12-08T15:33:43Z",
            "version": 3,
            "changeset": 160061031,
            "user": "b-jazz-bot",
            "uid": 9451067,
            "nodes": [
                4703473954,
                4703473535,
                4703473540,
                4703474032,
                4703473954
            ],
            "tags": {
                "building": "yes",
                "craft": "handicraft",
                "currency:XBT": "yes",
                "name": "Stenopeika Large Format Cameras",
                "payment:lightning": "yes",
                "payment:lightning_contactless": "yes",
                "payment:onchain": "yes",
                "phone": "+3905731716127",
                "website": "https://www.stenopeika.com/"
            }
        },
        {
            "type": "way",
            "id": 540037084,
            "timestamp": "2025-03-06T12:23:32Z",
            "version": 5,
            "changeset": 163283315,
            "user": "Emabarto",
            "uid": 10142223,
            "nodes": [
                5225047799,
                5225047477,
                5225046990,
                5225047500,
                5225047860,
                5225047795,
                5225047828,
                10199159228,
                5225047823,
                5225047847,
                5225047871,
                5225047929,
                5225047373,
                5225047358,
                10199159229,
                5225047954,
                5225047964,
                5225047799
            ],
            "tags": {
                "brand": "Mondo Convenienza",
                "brand:wikidata": "Q55830962",
                "building": "commercial",
                "check_date:currency:XBT": "2023-07-31",
                "currency:XBT": "yes",
                "name": "Mondo Convenienza",
                "operator": "Mondo Convenienza",
                "payment:cash": "yes",
                "payment:credit_cards": "yes",
                "payment:debit_cards": "yes",
                "shop": "furniture"
            }
        },
        {
            "type": "way",
            "id": 599250609,
            "timestamp": "2025-01-06T15:33:40Z",
            "version": 4,
            "changeset": 161063305,
            "user": "branco-revert",
            "uid": 19497998,
            "nodes": [
                5701762798,
                5701762799,
                5701762800,
                5701762801,
                5701762802,
                5701762803,
                5701762804,
                5701762805,
                5701762806,
                5701762807,
                5701762808,
                5701762809,
                5701762810,
                5701762811,
                5701762812,
                4591038762,
                3734577211,
                5701762813,
                5701762798
            ],
            "tags": {
                "access": "permissive",
                "amenity": "parking",
                "operator": "Conad",
                "parking": "surface",
                "supervised": "no"
            }
        },
        {
            "type": "way",
            "id": 850278650,
            "timestamp": "2025-01-06T15:33:40Z",
            "version": 5,
            "changeset": 161063305,
            "user": "branco-revert",
            "uid": 19497998,
            "nodes": [
                7932566911,
                9275689813,
                9275732921,
                9275732943,
                4592448874,
                4592448935,
                9275732937,
                4598744021,
                9275732940,
                9275732928,
                4598743879,
                4598743784,
                4598743792,
                4598744059,
                4598744044,
                9275689810,
                9275689808,
                4598744055,
                7932566919,
                9275732918,
                9275732931,
                7932566920,
                7932566911
            ],
            "tags": {
                "access": "customers",
                "amenity": "parking",
                "operator": "Trony",
                "operator:type": "private",
                "parking": "surface",
                "surface": "asphalt"
            }
        },
        {
            "type": "way",
            "id": 1355159994,
            "timestamp": "2025-04-16T15:41:32Z",
            "version": 2,
            "changeset": 165034919,
            "user": "Emabarto",
            "uid": 10142223,
            "nodes": [
                12541589781,
                12541589782,
                12541589783,
                12541589784,
                12541589781
            ],
            "tags": {
                "addr:city": "Sesto Fiorentino",
                "addr:country": "IT",
                "addr:housenumber": "36",
                "addr:postcode": "50019",
                "addr:street": "Via del Cantone",
                "air_conditioning": "yes",
                "brand": "Trony",
                "brand:wikidata": "Q3999692",
                "building": "store",
                "contact:instagram": "trony_firenzeosmannoro",
                "email": "osmannoro@trony.it",
                "fax": "+39 055 311858",
                "name": "Trony",
                "opening_hours": "Mo-Fr 15:00-20:00; Tu-Fr 09:30-13:00; Sa-Su 09:30-20:00; PH off",
                "operator": "Trony",
                "payment:american_express": "yes",
                "payment:apple_pay": "yes",
                "payment:bancomat": "yes",
                "payment:cards": "yes",
                "payment:cash": "yes",
                "payment:coins": "yes",
                "payment:contactless": "yes",
                "payment:credit_cards": "yes",
                "payment:debit_cards": "yes",
                "payment:google_pay": "yes",
                "payment:maestro": "yes",
                "payment:mastercard": "yes",
                "payment:notes": "yes",
                "payment:visa": "yes",
                "payment:visa_debit": "yes",
                "payment:visa_electron": "yes",
                "phone": "+39 055 301245",
                "shop": "electronics"
            }
        }
    ],
    "telegram": [
        {
            "telegram": "bb-prato"
        },
        {
            "telegram": "bitcoin-firenze-toscana"
        },
        {
            "telegram": "ss-firenze"
        }
    ]
}