{
    "id": "gargano",
    "name": "Gargano",
    "lng": 41.8399626,
    "lat": 15.5605492,
    "poi": [
        {
            "type": "node",
            "id": 339580872,
            "lat": 41.8292169,
            "lon": 15.7730783,
            "timestamp": "2025-04-20T06:37:02Z",
            "version": 4,
            "changeset": 165178844,
            "user": "btcitnet",
            "uid": 22525435,
            "tags": {
                "addr:city": "Cagnano Varano",
                "addr:postcode": "71010",
                "addr:street": "Via Dante Alighieri",
                "amenity": "fuel",
                "brand": "Q8",
                "brand:wikidata": "Q1634762",
                "brand:wikipedia": "en:Kuwait Petroleum Corporation",
                "fixme": "This object might have been dismantled, please check",
                "name": "Q8",
                "operator": "Q8"
            }
        },
        {
            "type": "node",
            "id": 530850169,
            "lat": 41.7048614,
            "lon": 15.9677783,
            "timestamp": "2020-07-06T22:00:49Z",
            "version": 3,
            "changeset": 87620758,
            "user": "Gerd Waldmann",
            "uid": 1729508,
            "tags": {
                "brand": "Conad",
                "brand:wikidata": "Q639075",
                "brand:wikipedia": "it:Conad",
                "name": "Conad",
                "shop": "supermarket"
            }
        },
        {
            "type": "node",
            "id": 534609449,
            "lat": 41.9335357,
            "lon": 16.0148798,
            "timestamp": "2024-06-05T12:58:48Z",
            "version": 6,
            "changeset": 152287147,
            "user": "Flynn_",
            "uid": 21081459,
            "tags": {
                "amenity": "fuel",
                "brand": "Tamoil",
                "brand:wikidata": "Q706793",
                "fuel:diesel": "yes",
                "fuel:lpg": "yes",
                "fuel:octane_95": "yes",
                "fuel:octane_98": "yes",
                "name": "Tamoil",
                "operator": "Carusel S.A.S. di Ranieri Alessandro",
                "ref:mise": "25175",
                "shop": "kiosk"
            }
        },
        {
            "type": "node",
            "id": 656133461,
            "lat": 41.4933322,
            "lon": 15.3293827,
            "timestamp": "2025-09-30T22:27:01Z",
            "version": 7,
            "changeset": 172681599,
            "user": "btcitnet",
            "uid": 22525435,
            "tags": {
                "addr:city": "Lucera",
                "addr:postcode": "71036",
                "addr:street": "Strada Statale 17 dell'Appennino Abruzzese e Appulo Sannitico",
                "amenity": "fuel",
                "brand": "Tamoil",
                "brand:wikidata": "Q706793",
                "fuel:diesel": "yes",
                "fuel:octane_95": "yes",
                "name": "Tamoil",
                "opening_hours": "24/7",
                "operator": "T.D.M. S.R.L.",
                "phone": "+39800113330",
                "ref:mise": "35143",
                "shop": "kiosk",
                "website": "https://www.tamoil.it/"
            }
        },
        {
            "type": "node",
            "id": 918819305,
            "lat": 41.9858494,
            "lon": 15.003098,
            "timestamp": "2023-11-20T10:00:52Z",
            "version": 3,
            "changeset": 144238194,
            "user": "\u0110uro Ji\u0159\u00ed",
            "uid": 14617702,
            "tags": {
                "brand": "OVS",
                "brand:wikidata": "Q2042514",
                "brand:wikipedia": "en:OVS (company)",
                "name": "OVS",
                "shop": "clothes",
                "wheelchair": "yes"
            }
        },
        {
            "type": "node",
            "id": 1508647393,
            "lat": 41.457559,
            "lon": 15.555777,
            "timestamp": "2025-04-14T11:06:47Z",
            "version": 5,
            "changeset": 164933630,
            "user": "kr\u00e4ckel",
            "uid": 1092114,
            "tags": {
                "amenity": "fuel",
                "brand": "Tamoil",
                "brand:wikidata": "Q706793",
                "fuel:diesel": "yes",
                "fuel:octane_95": "yes",
                "name": "Tamoil",
                "operator": "Eredi Cirelli di Orazio Antonio e Marco Cirelli - S.N.C.",
                "ref:mise": "16997"
            }
        },
        {
            "type": "node",
            "id": 2555526984,
            "lat": 41.4503832,
            "lon": 15.5454524,
            "timestamp": "2022-09-28T12:18:49Z",
            "version": 4,
            "changeset": 126738414,
            "user": "DnaX",
            "uid": 69259,
            "tags": {
                "amenity": "fuel",
                "brand": "Q8",
                "brand:wikidata": "Q1634762",
                "fuel:diesel": "yes",
                "fuel:octane_95": "yes",
                "name": "Q8",
                "operator": "Iannuario Felice",
                "ref:mise": "13682"
            }
        },
        {
            "type": "node",
            "id": 3686470498,
            "lat": 41.4547787,
            "lon": 15.5584037,
            "timestamp": "2024-12-05T08:40:04Z",
            "version": 2,
            "changeset": 159947711,
            "user": "damianeue",
            "uid": 10124288,
            "tags": {
                "brand": "Spar",
                "brand:wikidata": "Q610492",
                "name": "Despar",
                "shop": "supermarket"
            }
        },
        {
            "type": "node",
            "id": 3686909505,
            "lat": 41.4611862,
            "lon": 15.5527184,
            "timestamp": "2023-04-17T20:21:49Z",
            "version": 4,
            "changeset": 135031478,
            "user": "Robot8A",
            "uid": 393359,
            "tags": {
                "brand": "PittaRosso",
                "brand:wikidata": "Q105643314",
                "name": "PittaRosso",
                "shop": "shoes"
            }
        },
        {
            "type": "node",
            "id": 3687476319,
            "lat": 41.4623511,
            "lon": 15.5474796,
            "timestamp": "2023-04-17T20:21:49Z",
            "version": 3,
            "changeset": 135031478,
            "user": "Robot8A",
            "uid": 393359,
            "tags": {
                "brand": "Foot Locker",
                "brand:wikidata": "Q63335",
                "check_date": "2022-07-07",
                "name": "Foot Locker",
                "shop": "shoes"
            }
        },
        {
            "type": "node",
            "id": 4070661292,
            "lat": 41.5039046,
            "lon": 15.3480654,
            "timestamp": "2021-08-17T10:25:24Z",
            "version": 2,
            "changeset": 109802194,
            "user": "damianeue",
            "uid": 10124288,
            "tags": {
                "brand": "Conad",
                "brand:wikidata": "Q639075",
                "brand:wikipedia": "it:Conad",
                "name": "Conad",
                "shop": "supermarket"
            }
        },
        {
            "type": "node",
            "id": 4202824510,
            "lat": 41.9380805,
            "lon": 16.0211327,
            "timestamp": "2024-06-05T12:58:48Z",
            "version": 3,
            "changeset": 152287147,
            "user": "Flynn_",
            "uid": 21081459,
            "tags": {
                "brand": "Spar",
                "brand:wikidata": "Q610492",
                "name": "Despar",
                "shop": "supermarket"
            }
        },
        {
            "type": "node",
            "id": 4345722095,
            "lat": 41.9850637,
            "lon": 15.0022017,
            "timestamp": "2025-01-02T21:32:50Z",
            "version": 3,
            "changeset": 160927048,
            "user": "mpbin",
            "uid": 21850090,
            "tags": {
                "addr:city": "Termoli",
                "addr:housenumber": "4",
                "addr:postcode": "86039",
                "addr:street": "Via Egadi",
                "brand": "Trony",
                "brand:wikidata": "Q3999692",
                "name": "Trony",
                "operator": "Trony",
                "shop": "electronics"
            }
        },
        {
            "type": "node",
            "id": 4995227881,
            "lat": 41.7050168,
            "lon": 15.715989,
            "timestamp": "2024-11-06T11:05:52Z",
            "version": 2,
            "changeset": 158813051,
            "user": "DnaX",
            "uid": 69259,
            "tags": {
                "brand": "OVS Kids",
                "brand:wikidata": "Q2042514",
                "clothes": "children",
                "name": "OVS Kids",
                "shop": "clothes"
            }
        },
        {
            "type": "node",
            "id": 5333520261,
            "lat": 41.4627266,
            "lon": 15.5465098,
            "timestamp": "2023-04-17T20:21:49Z",
            "version": 4,
            "changeset": 135031478,
            "user": "Robot8A",
            "uid": 393359,
            "tags": {
                "addr:housenumber": "49",
                "brand": "Tezenis",
                "brand:wikidata": "Q28056374",
                "check_date": "2022-07-05",
                "clothes": "underwear",
                "name": "Tezenis",
                "second_hand": "no",
                "shop": "clothes"
            }
        },
        {
            "type": "node",
            "id": 5398729992,
            "lat": 41.6858367,
            "lon": 15.3848008,
            "timestamp": "2020-07-06T20:59:11Z",
            "version": 2,
            "changeset": 87619289,
            "user": "Gerd Waldmann",
            "uid": 1729508,
            "tags": {
                "brand": "Calzedonia",
                "brand:wikidata": "Q1027874",
                "brand:wikipedia": "en:Calzedonia",
                "name": "Calzedonia",
                "shop": "clothes"
            }
        },
        {
            "type": "node",
            "id": 5410276434,
            "lat": 41.9365479,
            "lon": 15.9505981,
            "timestamp": "2021-09-15T10:24:32Z",
            "version": 2,
            "changeset": 111237103,
            "user": "damianeue",
            "uid": 10124288,
            "tags": {
                "brand": "Spar",
                "brand:wikidata": "Q610492",
                "brand:wikipedia": "en:SPAR (retailer)",
                "name": "Despar",
                "shop": "supermarket"
            }
        },
        {
            "type": "node",
            "id": 5851840953,
            "lat": 41.8608827,
            "lon": 15.3547923,
            "timestamp": "2024-04-18T17:33:24Z",
            "version": 3,
            "changeset": 150187245,
            "user": "Flynn_",
            "uid": 21081459,
            "tags": {
                "amenity": "fuel",
                "brand": "Tamoil",
                "brand:wikidata": "Q706793",
                "fixme": "This object might have been dismantled, please check",
                "name": "Tamoil",
                "operator": "Tamoil di Orlando Nazario",
                "ref:mise": "26277"
            }
        },
        {
            "type": "node",
            "id": 6241867843,
            "lat": 41.6988618,
            "lon": 15.7193354,
            "timestamp": "2024-09-06T14:33:49Z",
            "version": 6,
            "changeset": 156278342,
            "user": "damianeue",
            "uid": 10124288,
            "tags": {
                "brand": "Conad",
                "brand:wikidata": "Q639075",
                "name": "Conad",
                "opening_hours": "Mo-Sa 09:00-20:30; Su 10:00-20:30",
                "phone": "+39 0882 457817",
                "shop": "supermarket",
                "website": "https://www.conad.it/"
            }
        },
        {
            "type": "node",
            "id": 7525522751,
            "lat": 41.8288713,
            "lon": 15.775103,
            "timestamp": "2020-05-16T08:48:28Z",
            "version": 1,
            "changeset": 85295216,
            "user": "Gerd Waldmann",
            "uid": 1729508,
            "tags": {
                "brand": "Spar",
                "brand:wikidata": "Q610492",
                "brand:wikipedia": "en:Spar (retailer)",
                "name": "Despar",
                "shop": "supermarket"
            }
        },
        {
            "type": "node",
            "id": 9964363643,
            "lat": 41.6445511,
            "lon": 15.937933,
            "timestamp": "2023-10-28T06:30:15Z",
            "version": 3,
            "changeset": 143243910,
            "user": "b-jazz-bot",
            "uid": 9451067,
            "tags": {
                "brand": "Tezenis",
                "brand:wikidata": "Q28056374",
                "name": "Tezenis",
                "opening_hours": "Mo-Sa 09:00-21:00; Su 10:00-21:00",
                "phone": "+39 0884 511410",
                "shop": "clothes",
                "website": "https://www.tezenis.com/"
            }
        },
        {
            "type": "node",
            "id": 9964363667,
            "lat": 41.6451973,
            "lon": 15.938268,
            "timestamp": "2023-03-07T09:33:45Z",
            "version": 2,
            "changeset": 133395305,
            "user": "DnaX",
            "uid": 69259,
            "tags": {
                "brand": "OVS",
                "brand:wikidata": "Q2042514",
                "email": "manfredonia@ovs.it",
                "name": "OVS",
                "opening_hours": "Mo-Sa 09:00-21:00; Su 10:00-21:00",
                "phone": "+39 0884 588271",
                "shop": "clothes",
                "website": "https://www.ovs.it/"
            }
        },
        {
            "type": "node",
            "id": 10997159521,
            "lat": 41.447893,
            "lon": 15.5431152,
            "timestamp": "2023-07-31T14:23:33Z",
            "version": 2,
            "changeset": 139256906,
            "user": "BTC Map",
            "uid": 18545877,
            "tags": {
                "brand": "Mondo Convenienza",
                "brand:wikidata": "Q55830962",
                "check_date:currency:XBT": "2023-07-31",
                "currency:XBT": "yes",
                "name": "Mondo Convenienza",
                "shop": "furniture"
            }
        },
        {
            "type": "node",
            "id": 10997159540,
            "lat": 41.4446714,
            "lon": 15.5434167,
            "timestamp": "2023-06-22T11:39:24Z",
            "version": 1,
            "changeset": 137644070,
            "user": "DnaX",
            "uid": 69259,
            "tags": {
                "brand": "OVS",
                "brand:wikidata": "Q2042514",
                "name": "OVS",
                "shop": "clothes"
            }
        },
        {
            "type": "node",
            "id": 11066901582,
            "lat": 41.946704,
            "lon": 16.0128753,
            "timestamp": "2025-08-08T15:23:49Z",
            "version": 3,
            "changeset": 170161848,
            "user": "Chiarant",
            "uid": 18452174,
            "tags": {
                "addr:city": "Peschici",
                "addr:housenumber": "29",
                "addr:postcode": "71010",
                "addr:street": "Viale Kennedy",
                "amenity": "restaurant",
                "check_date": "2025-08-08",
                "currency:XBT": "yes",
                "name": "Piccolo Paradiso da Mario\u2019s",
                "payment:lightning": "no",
                "payment:onchain": "yes",
                "phone": "+39 0884 964122\u202c",
                "website": "https://www.piccoloparadisomarios.com/"
            }
        },
        {
            "type": "node",
            "id": 11364283839,
            "lat": 41.6913148,
            "lon": 15.391736,
            "timestamp": "2023-11-20T14:21:42Z",
            "version": 2,
            "changeset": 144247259,
            "user": "\u0110uro Ji\u0159\u00ed",
            "uid": 14617702,
            "tags": {
                "brand": "Upim",
                "brand:wikidata": "Q1414836",
                "name": "Upim",
                "shop": "department_store",
                "wheelchair": "yes"
            }
        },
        {
            "type": "node",
            "id": 11925850601,
            "lat": 41.4466976,
            "lon": 15.5430989,
            "timestamp": "2024-06-11T19:40:23Z",
            "version": 3,
            "changeset": 152559201,
            "user": "Rockedf",
            "uid": 7522075,
            "tags": {
                "addr:city": "Foggia",
                "addr:housenumber": "126",
                "addr:postcode": "71122",
                "addr:street": "Viale degli Aviatori",
                "amenity": "atm",
                "cash_in": "yes",
                "cash_out": "yes",
                "cash_withdrawal": "yes",
                "check_date": "2024-05-22",
                "contact:email": "support@shitcoins.club",
                "contact:facebook": "https://www.facebook.com/shitcoins.club",
                "contact:instagram": "https://www.instagram.com/shitcoinsclub",
                "contact:telegram": "https://t.me/shitcoinsclub",
                "contact:twitter": "https://twitter.com/BitomatCom",
                "currency:DASH": "yes",
                "currency:ETH": "yes",
                "currency:EUR": "yes",
                "currency:GBP": "yes",
                "currency:LTC": "yes",
                "currency:USD": "yes",
                "currency:USDC": "yes",
                "currency:USDT": "yes",
                "currency:XBT": "yes",
                "name": "Bitcoin ATM - Shitcoins.club",
                "opening_hours": "Mo-Sa 09:00-21:00; Su 10:00-21:00",
                "operator": "Shitcoins.club",
                "payment:cash": "yes",
                "payment:lightning": "no",
                "payment:lightning_contactless": "no",
                "payment:onchain": "yes",
                "phone": "+39 34 8048 7308",
                "website": "https://shitcoins.club/localizzazione-atm/atm-bitcoin-foggia-centro-commerciale-mongolfiera-viale-degli-aviatori"
            }
        },
        {
            "type": "node",
            "id": 12201863562,
            "lat": 41.6185191,
            "lon": 15.1036099,
            "timestamp": "2024-09-26T13:40:38Z",
            "version": 1,
            "changeset": 157129646,
            "user": "DnaX",
            "uid": 69259,
            "tags": {
                "brand": "Conad",
                "brand:wikidata": "Q639075",
                "name": "Conad",
                "shop": "supermarket"
            }
        },
        {
            "type": "node",
            "id": 12294251649,
            "lat": 41.416416,
            "lon": 15.6494155,
            "timestamp": "2024-10-28T16:40:54Z",
            "version": 3,
            "changeset": 158461698,
            "user": "George Sears",
            "uid": 19558353,
            "tags": {
                "brand": "H&M",
                "brand:wikidata": "Q188326",
                "check_date": "2024-10-28",
                "level": "0",
                "name": "H&M",
                "shop": "clothes"
            }
        },
        {
            "type": "node",
            "id": 12294251654,
            "lat": 41.4156757,
            "lon": 15.6526449,
            "timestamp": "2025-01-03T17:34:57Z",
            "version": 4,
            "changeset": 160959176,
            "user": "mpbin",
            "uid": 21850090,
            "tags": {
                "brand": "MediaWorld",
                "brand:wikidata": "Q2381223",
                "check_date": "2024-10-28",
                "level": "0",
                "name": "MediaWorld",
                "operator": "MediaMarket S.p.A.",
                "shop": "electronics"
            }
        },
        {
            "type": "node",
            "id": 12945403141,
            "lat": 41.8448999,
            "lon": 15.8540471,
            "timestamp": "2025-06-22T21:08:46Z",
            "version": 1,
            "changeset": 167976220,
            "user": "g_im",
            "uid": 23028425,
            "tags": {
                "brand": "Spar",
                "brand:wikidata": "Q610492",
                "name": "Despar",
                "shop": "supermarket"
            }
        },
        {
            "type": "node",
            "id": 12945403165,
            "lat": 41.8445161,
            "lon": 15.8563199,
            "timestamp": "2025-06-22T21:08:46Z",
            "version": 1,
            "changeset": 167976220,
            "user": "g_im",
            "uid": 23028425,
            "tags": {
                "brand": "Spar",
                "brand:wikidata": "Q610492",
                "name": "Despar",
                "shop": "convenience"
            }
        },
        {
            "type": "node",
            "id": 12982535708,
            "lat": 42.004706,
            "lon": 14.9978431,
            "timestamp": "2025-08-27T20:51:15Z",
            "version": 2,
            "changeset": 171104219,
            "user": "Comino",
            "uid": 6794624,
            "tags": {
                "addr:city": "Termoli",
                "addr:housenumber": "16",
                "addr:postcode": "86039",
                "addr:street": "Via de Gregorio",
                "check_date:currency:XBT": "2025-07-06",
                "contact:email": "ledimorenelborgo@gmail.com",
                "currency:XBT": "yes",
                "name": "Lodging",
                "payment:lightning": "yes",
                "payment:lightning_contactless": "no",
                "payment:onchain": "yes",
                "tourism": "apartment"
            }
        },
        {
            "type": "node",
            "id": 13030586121,
            "lat": 41.4161739,
            "lon": 15.650448,
            "timestamp": "2025-07-27T23:05:50Z",
            "version": 1,
            "changeset": 169583974,
            "user": "Jakopt5",
            "uid": 14183817,
            "tags": {
                "addr:floor": "0",
                "brand": "OVS",
                "brand:wikidata": "Q2042514",
                "check_date": "2025-07-28",
                "level": "0",
                "name": "OVS",
                "opening_hours": "10:00-21:00",
                "payment:cash": "yes",
                "payment:credit_cards": "yes",
                "payment:debit_cards": "yes",
                "phone": "+39 0881 044279",
                "shop": "clothes",
                "website": "https://www.ovs.it/it/it/stores/italia/puglia/foggia/ovs-foggia-cc-grandapulia",
                "wheelchair": "yes"
            }
        },
        {
            "type": "node",
            "id": 13030586124,
            "lat": 41.4160234,
            "lon": 15.6492465,
            "timestamp": "2025-07-27T23:05:50Z",
            "version": 1,
            "changeset": 169583974,
            "user": "Jakopt5",
            "uid": 14183817,
            "tags": {
                "addr:floor": "0",
                "brand": "Tezenis",
                "brand:wikidata": "Q28056374",
                "check_date": "2025-07-28",
                "clothes": "women;underwear;swimwear;men;children",
                "level": "0",
                "name": "Tezenis",
                "opening_hours": "10:00-21:00",
                "phone": "+39 0881 633124",
                "shop": "clothes",
                "website": "https://www.tezenis.com/it/negozi/puglia/foggia/foggia_zona_asi_-_borgo_incoronata_-_sp_76_-_km_2/T884.html",
                "wheelchair": "yes"
            }
        },
        {
            "type": "node",
            "id": 13058169768,
            "lat": 41.9467433,
            "lon": 16.0129413,
            "timestamp": "2025-08-08T15:09:12Z",
            "version": 1,
            "changeset": 170161081,
            "user": "Chiarant",
            "uid": 18452174,
            "tags": {
                "addr:city": "Peschici",
                "addr:housenumber": "21",
                "addr:postcode": "71010",
                "addr:street": "Viale Kennedy",
                "check_date": "2025-08-08",
                "currency:XBT": "yes",
                "email": "info@thestunningpeschici.com",
                "guest_house": "bed_and_breakfast",
                "name": "The Stunning B&B",
                "payment:lightning": "no",
                "payment:onchain": "yes",
                "phone": "+39 340 8555925\u202c",
                "tourism": "guest_house",
                "website": "https://www.thestunningpeschici.com/"
            }
        },
        {
            "type": "node",
            "id": 13058209908,
            "lat": 41.9469761,
            "lon": 16.0127326,
            "timestamp": "2025-08-08T15:23:49Z",
            "version": 1,
            "changeset": 170161848,
            "user": "Chiarant",
            "uid": 18452174,
            "tags": {
                "addr:city": "Peschici",
                "addr:housenumber": "27",
                "addr:postcode": "71010",
                "addr:street": "Viale Kennedy",
                "bicycle:rental": "yes",
                "car:rental": "yes",
                "check_date": "2025-08-08",
                "currency:XBT": "yes",
                "email": "info@noleggiopeschici.com",
                "motorcycle:rental": "yes",
                "name": "The Stunning Garage",
                "payment:lightning": "no",
                "payment:onchain": "yes",
                "phone": "+39 366 365 7283",
                "shop": "rental",
                "website": "https://www.noleggiopeschici.com/"
            }
        },
        {
            "type": "way",
            "id": 327333946,
            "timestamp": "2023-07-02T10:46:44Z",
            "version": 2,
            "changeset": 138018373,
            "user": "Italian Technology",
            "uid": 10622815,
            "nodes": [
                3340756605,
                3340756608,
                3340756480,
                3340756496,
                3340756514,
                3340756533,
                3340756546,
                3340756551,
                3340756605
            ],
            "tags": {
                "brand": "Conad",
                "brand:wikidata": "Q639075",
                "name": "Conad",
                "shop": "supermarket"
            }
        },
        {
            "type": "way",
            "id": 404733403,
            "timestamp": "2022-04-05T14:54:20Z",
            "version": 2,
            "changeset": 119348207,
            "user": "ElDavo",
            "uid": 14330447,
            "nodes": [
                4070040507,
                4070038251,
                4070040298,
                4070036885,
                4070040354,
                4070038278,
                4070040566,
                4070040570,
                4070040578,
                4070040705,
                4070040507
            ],
            "tags": {
                "brand": "Conad",
                "brand:wikidata": "Q639075",
                "brand:wikipedia": "it:Conad",
                "building": "yes",
                "name": "Conad",
                "shop": "supermarket"
            }
        },
        {
            "type": "way",
            "id": 404766854,
            "timestamp": "2020-07-06T20:59:11Z",
            "version": 3,
            "changeset": 87619289,
            "user": "Gerd Waldmann",
            "uid": 1729508,
            "nodes": [
                4070236878,
                4070236868,
                4070237093,
                4070233952,
                4070237977,
                4070237984,
                4070236878
            ],
            "tags": {
                "brand": "Spar",
                "brand:wikidata": "Q610492",
                "brand:wikipedia": "en:Spar (retailer)",
                "building": "yes",
                "name": "Spar",
                "shop": "supermarket"
            }
        },
        {
            "type": "way",
            "id": 404838339,
            "timestamp": "2022-12-19T17:30:26Z",
            "version": 3,
            "changeset": 130258020,
            "user": "DnaX",
            "uid": 69259,
            "nodes": [
                4070891214,
                4070891202,
                4070891200,
                4070892014,
                4070892023,
                4070891214
            ],
            "tags": {
                "brand": "Conad",
                "brand:wikidata": "Q639075",
                "building": "yes",
                "name": "Conad",
                "shop": "supermarket"
            }
        },
        {
            "type": "way",
            "id": 425383356,
            "timestamp": "2025-06-06T09:39:18Z",
            "version": 2,
            "changeset": 167257732,
            "user": "kr\u00e4ckel",
            "uid": 1092114,
            "nodes": [
                4070888267,
                4247135323,
                4247135324,
                4247135325,
                4070888267
            ],
            "tags": {
                "brand": "Unieuro",
                "brand:wikidata": "Q4004687",
                "building": "yes",
                "name": "Unieuro",
                "shop": "electronics"
            }
        },
        {
            "type": "way",
            "id": 560311757,
            "timestamp": "2023-11-21T07:02:12Z",
            "version": 8,
            "changeset": 144273599,
            "user": "\u0110uro Ji\u0159\u00ed",
            "uid": 14617702,
            "nodes": [
                5403435186,
                5403435187,
                5403435188,
                5403435189,
                5403435186
            ],
            "tags": {
                "amenity": "fuel",
                "brand": "Tamoil",
                "brand:wikidata": "Q706793",
                "brand:wikipedia": "en:Tamoil",
                "compressed_air": "yes",
                "fuel:diesel": "yes",
                "fuel:octane_95": "yes",
                "name": "Tamoil",
                "opening_hours": "24/7",
                "operator": "T.D.M. S.R.L.",
                "ref:mise": "41646",
                "self_service": "yes",
                "wheelchair": "yes"
            }
        }
    ],
    "telegram": [
        {
            "telegram": "bb-gargano"
        }
    ]
}