{
    "id": "genova",
    "name": "Genova",
    "lng": 44.4046185,
    "lat": 8.9484919,
    "poi": [
        {
            "type": "node",
            "id": 256569202,
            "lat": 44.4138257,
            "lon": 8.9544035,
            "timestamp": "2020-05-09T18:54:20Z",
            "version": 6,
            "changeset": 84948310,
            "user": "mascalzone67",
            "uid": 1861652,
            "tags": {
                "addr:city": "Genova",
                "addr:housenumber": "6",
                "addr:postcode": "16142",
                "addr:street": "Piazza Carloforte",
                "brand": "Conad",
                "brand:wikidata": "Q639075",
                "brand:wikipedia": "it:Conad",
                "email": "GMC_L400240B@di-net.it",
                "name": "Conad",
                "opening_hours": "Mo-Sa 08:00-23:59; Su 08:00-13:00, 16:30-23:59",
                "operator": "Conad",
                "payment:bancomat": "yes",
                "payment:cash": "yes",
                "payment:credit_cards": "yes",
                "phone": "+39 010 885912",
                "shop": "supermarket",
                "website": "https://www.conad.it/ricerca-negozi/negozio.004018.html"
            }
        },
        {
            "type": "node",
            "id": 610543489,
            "lat": 44.4081634,
            "lon": 8.930681,
            "timestamp": "2024-07-05T18:27:30Z",
            "version": 6,
            "changeset": 153600027,
            "user": "mauropili",
            "uid": 1496865,
            "tags": {
                "addr:city": "Genova",
                "addr:housenumber": "16",
                "addr:postcode": "16123",
                "addr:street": "Piazza di San Lorenzo",
                "check_date": "2023-10-14",
                "contact:email": "gabriele.minoggio@gmail.com",
                "currency:XBT": "yes",
                "name": "Locanda di Palazzo Cicala",
                "opening_hours": "24/7",
                "payment:lightning": "yes",
                "payment:lightning_contactless": "no",
                "payment:onchain": "yes",
                "phone": "+39 34 8584 8481",
                "stars": "4",
                "tourism": "hotel",
                "website": "https://www.palazzocicala.it/"
            }
        },
        {
            "type": "node",
            "id": 1151821652,
            "lat": 44.4218894,
            "lon": 8.8840948,
            "timestamp": "2025-01-03T10:02:07Z",
            "version": 5,
            "changeset": 160940881,
            "user": "mpbin",
            "uid": 21850090,
            "tags": {
                "addr:city": "Genova",
                "addr:housenumber": "125",
                "addr:postcode": "16151",
                "addr:street": "Via Renata Bianchi",
                "brand": "Decathlon",
                "brand:wikidata": "Q509349",
                "brand:wikipedia": "it:Decathlon (azienda)",
                "entrance": "main",
                "name": "Decathlon",
                "opening_hours": "Mo-Su 09:00-20:00",
                "operator": "Decathlon",
                "phone": "+39 010 6001195",
                "shop": "sports",
                "wheelchair": "yes"
            }
        },
        {
            "type": "node",
            "id": 1440699648,
            "lat": 44.2663544,
            "lon": 8.4320694,
            "timestamp": "2025-01-03T09:17:04Z",
            "version": 12,
            "changeset": 160939380,
            "user": "mpbin",
            "uid": 21850090,
            "tags": {
                "addr:city": "Vado Ligure",
                "addr:country": "IT",
                "addr:housenumber": "1",
                "addr:postcode": "17047",
                "addr:street": "Via Montegrappa",
                "brand": "Decathlon",
                "brand:wikidata": "Q509349",
                "level": "0",
                "name": "Decathlon",
                "opening_hours": "Mo-Su 09:00-20:00",
                "operator": "Decathlon",
                "phone": "+39 019 4510930",
                "shop": "sports",
                "toilets:wheelchair": "yes",
                "wheelchair": "yes"
            }
        },
        {
            "type": "node",
            "id": 1478811763,
            "lat": 44.401552,
            "lon": 8.9454627,
            "timestamp": "2024-12-31T17:46:04Z",
            "version": 5,
            "changeset": 160843041,
            "user": "mpbin",
            "uid": 21850090,
            "tags": {
                "addr:city": "Genova",
                "addr:housenumber": "146 rosso",
                "addr:postcode": "16121",
                "addr:street": "Piazza della Vittoria",
                "brand": "Unieuro",
                "brand:wikidata": "Q4004687",
                "brand:wikipedia": "en:Unieuro",
                "name": "Unieuro",
                "operator": "Unieuro S.p.A.",
                "phone": "+39 010 589241",
                "ref:vatin": "IT00876320409",
                "shop": "electronics"
            }
        },
        {
            "type": "node",
            "id": 1974526219,
            "lat": 44.4124275,
            "lon": 8.8816451,
            "timestamp": "2025-01-03T17:19:15Z",
            "version": 8,
            "changeset": 160958602,
            "user": "mpbin",
            "uid": 21850090,
            "tags": {
                "brand": "MediaWorld",
                "brand:wikidata": "Q76504823",
                "level": "0",
                "name": "MediaWorld",
                "operator": "MediaMarket S.p.A.",
                "ref:vatin": "IT02630120166",
                "shop": "electronics",
                "wheelchair": "yes"
            }
        },
        {
            "type": "node",
            "id": 2190185256,
            "lat": 44.3002242,
            "lon": 8.4630921,
            "timestamp": "2021-07-09T05:37:32Z",
            "version": 13,
            "changeset": 107675276,
            "user": "bubix",
            "uid": 1967477,
            "tags": {
                "addr:city": "Savona",
                "addr:postcode": "17100",
                "addr:street": "Via Stalingrado",
                "brand": "Conad",
                "brand:wikidata": "Q639075",
                "brand:wikipedia": "it:Conad",
                "email": "AgoraGroupSrl_L490120A@di-net.it",
                "layer": "1",
                "level": "1",
                "name": "Conad",
                "opening_hours": "Mo-Su 08:30-20:30",
                "operator": "Conad",
                "payment:bancomat": "yes",
                "payment:cash": "yes",
                "payment:mastercard": "yes",
                "payment:visa": "yes",
                "phone": "+39 019 264800",
                "ref:vatin": "IT01615300090",
                "shop": "supermarket",
                "toilets:wheelchair": "yes",
                "website": "https://www.conad.it/ricerca-negozi/negozio.008482.html",
                "wheelchair": "yes"
            }
        },
        {
            "type": "node",
            "id": 2647760668,
            "lat": 44.4214321,
            "lon": 8.8546192,
            "timestamp": "2024-12-31T18:21:34Z",
            "version": 8,
            "changeset": 160844149,
            "user": "mpbin",
            "uid": 21850090,
            "tags": {
                "addr:city": "Genova",
                "addr:housenumber": "27",
                "addr:street": "Via Enrico Albareto",
                "brand": "Unieuro",
                "brand:wikidata": "Q4004687",
                "brand:wikipedia": "en:Unieuro",
                "contact:phone": "+39 0109813011",
                "name": "Unieuro",
                "operator": "Unieuro S.p.A.",
                "ref:vatin": "IT03327030965",
                "shop": "electronics",
                "wheelchair": "yes"
            }
        },
        {
            "type": "node",
            "id": 2821829321,
            "lat": 44.4128787,
            "lon": 8.8820119,
            "timestamp": "2020-05-09T18:25:34Z",
            "version": 6,
            "changeset": 84947546,
            "user": "mascalzone67",
            "uid": 1861652,
            "tags": {
                "addr:city": "Genova",
                "addr:housenumber": "15r",
                "addr:postcode": "16149",
                "addr:street": "Via Fiumara",
                "brand": "Conad",
                "brand:wikidata": "Q639075",
                "brand:wikipedia": "it:Conad",
                "email": "ProgettoGenovaFiumara_L493723B@di-net.it",
                "level": "0",
                "name": "Conad",
                "opening_hours": "Mo-Sa 09:00-14:00; Su off",
                "operator": "Conad",
                "payment:bancomat": "yes",
                "payment:cash": "yes",
                "payment:credit_cards": "yes",
                "phone": "+39 010 4699520",
                "ref:vatin": "IT01677790998",
                "shop": "supermarket",
                "website": "https://www.conad.it/ricerca-negozi/negozio.006345.html",
                "wheelchair": "yes"
            }
        },
        {
            "type": "node",
            "id": 2834100271,
            "lat": 44.406984,
            "lon": 8.9622326,
            "timestamp": "2025-01-04T12:09:27Z",
            "version": 4,
            "changeset": 160982817,
            "user": "Som",
            "uid": 80203,
            "tags": {
                "addr:city": "Genova",
                "addr:housenumber": "79/B",
                "addr:postcode": "16143",
                "addr:street": "Via Giovanni Torti",
                "branch": "OVS Kids",
                "brand": "OVS",
                "brand:wikidata": "Q2042514",
                "brand:wikipedia": "en:OVS (company)",
                "name": "OVS",
                "opening_hours": "Mo-Sa 09:00-12:30,15:00-19:00",
                "operator": "OVS",
                "shop": "clothes"
            }
        },
        {
            "type": "node",
            "id": 3265478461,
            "lat": 44.2662214,
            "lon": 8.4322836,
            "timestamp": "2025-01-01T22:36:17Z",
            "version": 9,
            "changeset": 160887676,
            "user": "mpbin",
            "uid": 21850090,
            "tags": {
                "addr:city": "Vado Ligure",
                "addr:country": "IT",
                "addr:housenumber": "1",
                "addr:postcode": "17047",
                "addr:street": "Via Montegrappa",
                "disused:shop": "electronics",
                "level": "1",
                "name": "Trony",
                "opening_hours": "Mo-Su 09:30-19:30; PH closed",
                "operator": "Trony",
                "website": "https://www.trony.it/"
            }
        },
        {
            "type": "node",
            "id": 3431855680,
            "lat": 44.3106397,
            "lon": 8.4778595,
            "timestamp": "2025-01-03T16:12:16Z",
            "version": 8,
            "changeset": 160956049,
            "user": "mpbin",
            "uid": 21850090,
            "tags": {
                "addr:city": "Savona",
                "addr:housenumber": "2r",
                "addr:postcode": "17100",
                "addr:street": "Via Paolo Boselli",
                "brand": "OVS",
                "brand:wikidata": "Q2042514",
                "brand:wikipedia": "en:OVS (company)",
                "name": "OVS",
                "opening_hours": "09:30-19:30",
                "operator": "OVS",
                "phone": "+39 019 8485473",
                "ref:vatin": "IT04240010274",
                "shop": "clothes",
                "toilets:wheelchair": "yes",
                "wheelchair": "yes"
            }
        },
        {
            "type": "node",
            "id": 3472684803,
            "lat": 44.3439635,
            "lon": 8.5441201,
            "timestamp": "2023-04-19T11:08:47Z",
            "version": 7,
            "changeset": 135097744,
            "user": "saunter",
            "uid": 10396321,
            "tags": {
                "addr:city": "Celle Ligure",
                "addr:housenumber": "48",
                "addr:postcode": "17015",
                "addr:street": "Via Federico Colla",
                "check_date:currency:XBT": "2023-04-19",
                "currency:XBT": "yes",
                "description": "Ferramenta e casalinghi.",
                "name": "Ferramenta Chiodo Scaccia Chiodo",
                "phone": "+39 019 990219",
                "shop": "hardware"
            }
        },
        {
            "type": "node",
            "id": 3762474775,
            "lat": 44.4255422,
            "lon": 8.8466219,
            "timestamp": "2025-01-03T16:17:35Z",
            "version": 6,
            "changeset": 160956256,
            "user": "mpbin",
            "uid": 21850090,
            "tags": {
                "addr:city": "Genova",
                "addr:postcode": "16154",
                "addr:street": "Via Sestri",
                "name": "OVS",
                "operator": "OVS",
                "shop": "supermarket",
                "wheelchair": "limited"
            }
        },
        {
            "type": "node",
            "id": 3815388473,
            "lat": 44.4040373,
            "lon": 8.9437572,
            "timestamp": "2025-01-03T16:18:24Z",
            "version": 5,
            "changeset": 160956289,
            "user": "mpbin",
            "uid": 21850090,
            "tags": {
                "addr:city": "Genova",
                "addr:housenumber": "17 rosso",
                "addr:postcode": "16121",
                "addr:street": "Via Brigata Liguria",
                "brand": "OVS",
                "brand:wikidata": "Q2042514",
                "brand:wikipedia": "en:OVS (company)",
                "name": "OVS",
                "operator": "OVS",
                "phone": "+39 010 542020",
                "ref:vatin": "IT04240010274",
                "shop": "clothes",
                "wheelchair": "yes"
            }
        },
        {
            "type": "node",
            "id": 4601201616,
            "lat": 44.4228744,
            "lon": 8.8838284,
            "timestamp": "2025-01-06T14:36:06Z",
            "version": 2,
            "changeset": 161060820,
            "user": "mpbin",
            "uid": 21850090,
            "tags": {
                "emergency": "assembly_point",
                "name": "IKEA",
                "operator": "Ikea Italia Retail S.r.l."
            }
        },
        {
            "type": "node",
            "id": 4896638037,
            "lat": 44.4120262,
            "lon": 8.8828539,
            "timestamp": "2025-01-03T16:34:29Z",
            "version": 5,
            "changeset": 160956929,
            "user": "mpbin",
            "uid": 21850090,
            "tags": {
                "addr:city": "Genova",
                "addr:housenumber": "15",
                "addr:postcode": "16149",
                "addr:street": "Via Fiumara",
                "brand": "OVS",
                "brand:wikidata": "Q2042514",
                "brand:wikipedia": "en:OVS (company)",
                "level": "0",
                "name": "OVS",
                "operator": "OVS",
                "phone": "+39 010 6465036",
                "ref:vatin": "IT04240010274",
                "shop": "clothes",
                "wheelchair": "yes"
            }
        },
        {
            "type": "node",
            "id": 5003847304,
            "lat": 44.4989327,
            "lon": 8.9030766,
            "timestamp": "2023-11-04T21:27:26Z",
            "version": 4,
            "changeset": 143630454,
            "user": "toponomastica_comune_arenzano",
            "uid": 14257573,
            "tags": {
                "addr:city": "Genova",
                "addr:housenumber": "252b rosso",
                "addr:postcode": "16164",
                "addr:street": "Via Paolo Anfossi",
                "brand": "Conad City",
                "brand:wikidata": "Q57543102",
                "indoor": "yes",
                "name": "Conad City",
                "opening_hours": "Mo-Sa 08:00-20:00, Su 08:00-13:00, 16:00-20:00",
                "operator": "Conad",
                "shop": "supermarket",
                "start_date": "2021-01-28",
                "website": "https://www.conad.it/ricerca-negozi/negozio.010196.html"
            }
        },
        {
            "type": "node",
            "id": 5049821326,
            "lat": 44.3622173,
            "lon": 9.1425751,
            "timestamp": "2025-01-03T16:38:08Z",
            "version": 4,
            "changeset": 160957058,
            "user": "mpbin",
            "uid": 21850090,
            "tags": {
                "addr:city": "Recco",
                "addr:housenumber": "42",
                "addr:postcode": "16036",
                "addr:street": "Via Quattro Novembre",
                "branch": "Kids",
                "brand": "OVS",
                "brand:wikidata": "Q2042514",
                "name": "OVS",
                "operator": "OVS",
                "shop": "clothes"
            }
        },
        {
            "type": "node",
            "id": 5154055109,
            "lat": 44.4017669,
            "lon": 8.9450927,
            "timestamp": "2025-01-01T18:34:08Z",
            "version": 3,
            "changeset": 160880115,
            "user": "mpbin",
            "uid": 21850090,
            "tags": {
                "addr:city": "Genova",
                "addr:housenumber": "146/150",
                "addr:postcode": "16121",
                "addr:street": "Piazza della Vittoria",
                "brand": "Unieuro",
                "brand:wikidata": "Q4004687",
                "name": "Unieuro",
                "operator": "Unieuro S.p.A.",
                "shop": "electronics"
            }
        },
        {
            "type": "node",
            "id": 5154055110,
            "lat": 44.4180569,
            "lon": 8.9497979,
            "timestamp": "2025-01-01T18:35:20Z",
            "version": 6,
            "changeset": 160880150,
            "user": "mpbin",
            "uid": 21850090,
            "tags": {
                "addr:city": "Genova",
                "addr:housenumber": "3",
                "addr:postcode": "16139",
                "addr:street": "Piazzale Marassi",
                "brand": "Unieuro",
                "brand:wikidata": "Q4004687",
                "brand:wikipedia": "en:Unieuro",
                "contact:phone": "+39 010 8393819",
                "name": "Unieuro",
                "opening_hours": "Mo-Sa 09:00-20:00; Su 10:00-20:00",
                "operator": "Unieuro S.p.A.",
                "shop": "electronics",
                "start_date": "2017-10-06",
                "wheelchair": "yes"
            }
        },
        {
            "type": "node",
            "id": 5256602087,
            "lat": 44.4766016,
            "lon": 8.9182544,
            "timestamp": "2023-07-21T12:49:04Z",
            "version": 6,
            "changeset": 138811977,
            "user": "Chiarant",
            "uid": 18452174,
            "tags": {
                "addr:city": "Sant'Olcese",
                "addr:housenumber": "3",
                "addr:postcode": "16010",
                "addr:street": "Via Giacomo Poir\u00e8",
                "check_date": "2023-07-21",
                "contact:facebook": "https://www.facebook.com/agogo.manesseno/",
                "contact:twitter": "@AgogoOttica",
                "currency:XBT": "yes",
                "email": "agogo.manesseno@gmail.com",
                "name": "Ottica Agogo Manesseno",
                "payment:lightning": "yes",
                "payment:onchain": "yes",
                "phone": "+39 010714790;+39 3770831389",
                "shop": "optician"
            }
        },
        {
            "type": "node",
            "id": 5297758822,
            "lat": 44.3348656,
            "lon": 9.2116713,
            "timestamp": "2024-10-14T09:21:04Z",
            "version": 5,
            "changeset": 157867129,
            "user": "DasM\u00e4uschenUnterwegs",
            "uid": 22061596,
            "tags": {
                "addr:city": "Santa Margherita Ligure",
                "addr:housenumber": "25",
                "addr:postcode": "16038",
                "addr:street": "Via Palestro",
                "check_date": "2024-10-13",
                "currency:XBT": "yes",
                "description": "Lenti a contatto, occhiali da sole e occhiali da vista.",
                "email": "info@occhialiotticaprisma.it",
                "name": "Ottica Prisma di L. Costa & C.",
                "payment:dogecoin": "yes",
                "payment:ethereum": "yes",
                "payment:tether": "yes",
                "phone": "+39 0185284027",
                "shop": "optician"
            }
        },
        {
            "type": "node",
            "id": 5314922391,
            "lat": 44.3150974,
            "lon": 9.3278726,
            "timestamp": "2025-01-07T20:05:01Z",
            "version": 5,
            "changeset": 161109385,
            "user": "LucianoC63",
            "uid": 20673751,
            "tags": {
                "addr:city": "Chiavari",
                "addr:housenumber": "52",
                "addr:postcode": "16043",
                "addr:street": "Via Giuseppe Bont\u00e0",
                "check_date": "2023-06-27",
                "contact:facebook": "https://www.facebook.com/RissoCornici/",
                "contact:instagram": "https://www.instagram.com/rissocornici/",
                "currency:XBT": "yes",
                "description": "Corniciaio produzione artigianale, vendita grafica d'autore.",
                "email": "info@rissocornici.it",
                "name": "Risso Cornici",
                "payment:cash": "yes",
                "payment:credit_cards": "yes",
                "phone": "+39 0185 300786",
                "shop": "frame",
                "shop_1": "art",
                "website": "www.rissocornici.it"
            }
        },
        {
            "type": "node",
            "id": 5347077322,
            "lat": 44.6759598,
            "lon": 8.4694221,
            "timestamp": "2024-06-06T10:30:01Z",
            "version": 5,
            "changeset": 152324704,
            "user": "Mauro Lovato",
            "uid": 21592754,
            "tags": {
                "addr:city": "Acqui Terme",
                "addr:housenumber": "19",
                "addr:postcode": "15011",
                "addr:street": "Via Giacomo Bove",
                "contact:facebook": "https://m.facebook.com/GastronomiaMiraggio/",
                "currency:XBT": "yes",
                "description": "Vasta selezione di piatti pronti d'asporto, specialit\u00e0 nazionali ed internazionali.",
                "email": "info@gastronomiamiraggio.it",
                "name": "Gastronomia Miraggio",
                "opening_hours": "Mo,Tu,Th-Sa 09:00-13:00,16:30-19:30; Su 09:30-13:00; We off",
                "payment:onchain": "yes",
                "phone": "+39 0144 470629",
                "shop": "deli",
                "website": "http://www.gastronomiamiraggio.it"
            }
        },
        {
            "type": "node",
            "id": 5429215821,
            "lat": 44.424849,
            "lon": 8.814021,
            "timestamp": "2023-11-04T21:20:43Z",
            "version": 4,
            "changeset": 143630277,
            "user": "toponomastica_comune_arenzano",
            "uid": 14257573,
            "tags": {
                "addr:city": "Genova",
                "addr:housenumber": "235r",
                "addr:postcode": "16156",
                "addr:street": "Lungomare di Pegli",
                "check_date": "2023-06-27",
                "currency:XBT": "yes",
                "description": "Negozio di occhiali e lenti a contatto con visita.",
                "email": "fabio.rattaro@gmail.com",
                "name": "Ottico Rattaro Camillo",
                "phone": "+39 010 697 5004",
                "shop": "optician",
                "website": "https://www.otticorattaro.it/"
            }
        },
        {
            "type": "node",
            "id": 5442597802,
            "lat": 44.3384181,
            "lon": 8.5107652,
            "timestamp": "2024-12-31T07:58:27Z",
            "version": 3,
            "changeset": 160822186,
            "user": "mpbin",
            "uid": 21850090,
            "tags": {
                "addr:city": "Albisola Superiore",
                "addr:housenumber": "47",
                "addr:postcode": "17011",
                "addr:street": "Via Vittorio Veneto",
                "name": "Supermercato Conad",
                "operator": "Conad",
                "phone": "+39 019 487610",
                "ref:vatin": "IT01385660095",
                "shop": "supermarket",
                "wheelchair": "no"
            }
        },
        {
            "type": "node",
            "id": 5497527769,
            "lat": 44.4139119,
            "lon": 8.9543321,
            "timestamp": "2020-05-09T18:51:38Z",
            "version": 3,
            "changeset": 84948239,
            "user": "mascalzone67",
            "uid": 1861652,
            "tags": {
                "addr:city": "Genova",
                "addr:housenumber": "6",
                "addr:postcode": "16142",
                "addr:street": "Piazza Carloforte",
                "amenity": "pharmacy",
                "dispensing": "no",
                "healthcare": "pharmacy",
                "name": "Parafarmacia Conad",
                "operator": "Conad"
            }
        },
        {
            "type": "node",
            "id": 5590275070,
            "lat": 44.3142775,
            "lon": 9.3323232,
            "timestamp": "2023-09-18T16:53:02Z",
            "version": 3,
            "changeset": 141433851,
            "user": "EBSerKartler",
            "uid": 13231221,
            "tags": {
                "addr:city": "Chiavari",
                "addr:housenumber": "90",
                "addr:street": "Corso Dante",
                "brand": "Conad",
                "brand:wikidata": "Q639075",
                "name": "Conad",
                "operator": "Conad",
                "shop": "supermarket"
            }
        },
        {
            "type": "node",
            "id": 6166782210,
            "lat": 44.7672405,
            "lon": 8.7725428,
            "timestamp": "2025-01-02T21:48:03Z",
            "version": 3,
            "changeset": 160927490,
            "user": "mpbin",
            "uid": 21850090,
            "tags": {
                "addr:city": "Novi Ligure",
                "addr:housenumber": "1",
                "addr:postcode": "15067",
                "addr:street": "Via delle Vetrerie",
                "brand": "Trony",
                "brand:wikidata": "Q3999692",
                "name": "Trony",
                "operator": "Trony",
                "shop": "electronics"
            }
        },
        {
            "type": "node",
            "id": 6183773044,
            "lat": 44.7354747,
            "lon": 8.8286334,
            "timestamp": "2025-01-01T18:48:19Z",
            "version": 4,
            "changeset": 160880635,
            "user": "mpbin",
            "uid": 21850090,
            "tags": {
                "addr:city": "Novi Ligure",
                "addr:housenumber": "177",
                "addr:postcode": "15067",
                "addr:street": "Strada Serravalle",
                "brand": "Unieuro",
                "brand:wikidata": "Q4004687",
                "name": "Unieuro",
                "operator": "Unieuro S.p.A.",
                "shop": "electronics"
            }
        },
        {
            "type": "node",
            "id": 6283604849,
            "lat": 44.3059573,
            "lon": 8.482731,
            "timestamp": "2023-11-21T18:18:14Z",
            "version": 4,
            "changeset": 144298302,
            "user": "Chiarant",
            "uid": 18452174,
            "tags": {
                "addr:city": "Savona",
                "addr:housenumber": "32r",
                "addr:postcode": "17100",
                "addr:street": "Via Untoria",
                "amenity": "pub",
                "check_date": "2023-11-21",
                "contact:facebook": "https://www.facebook.com/RetrobottegaSV/",
                "currency:XBT": "yes",
                "description": "Locale specializzato nella preparazione di cocktails",
                "email": "retrobottega32@gmail.com",
                "name": "Retrobottega",
                "payment:lightning": "yes",
                "phone": "+39 375 782 8174",
                "website": "https://linktr.ee/retrobottega"
            }
        },
        {
            "type": "node",
            "id": 6832770546,
            "lat": 44.4097027,
            "lon": 8.9375801,
            "timestamp": "2025-01-09T09:40:58Z",
            "version": 5,
            "changeset": 161162379,
            "user": "DnaX",
            "uid": 69259,
            "tags": {
                "addr:city": "Genova",
                "addr:housenumber": "87 rosso",
                "addr:postcode": "16121",
                "addr:street": "Via Roma",
                "brand": "Doppelg\u00e4nger",
                "brand:wikidata": "Q117451227",
                "check_date": "2023-08-26",
                "clothes": "men",
                "currency:XBT": "yes",
                "name": "Doppelg\u00e4nger",
                "phone": "+39 0102925215",
                "shop": "clothes"
            }
        },
        {
            "type": "node",
            "id": 7041809206,
            "lat": 44.6844961,
            "lon": 8.5882942,
            "timestamp": "2024-09-23T09:54:06Z",
            "version": 5,
            "changeset": 156986847,
            "user": "mpbin",
            "uid": 21850090,
            "tags": {
                "addr:city": "Montaldo Bormida",
                "addr:housenumber": "27",
                "addr:postcode": "15010",
                "addr:street": "Via Guglielmo Marconi",
                "check_date": "2024-09-23",
                "check_date:currency:XBT": "2024-09-23",
                "craft": "photographer",
                "currency:XBT": "yes",
                "description": "Studio di produzioni fotografiche e video riprese. Pilota certificato Enac per l'utilizzo di droni. Consulenze e realizzazioni web,",
                "email": "progettoimmagine@gmail.com",
                "name": "Andrea Chiesa \u00e8 Progetto Immagine",
                "opening_hours": "su appuntamento telefonico",
                "operator": "Andrea Chiesa",
                "payment:lightning": "yes",
                "payment:onchain": "yes",
                "phone": "+39 360460306",
                "product": "fotografia;video_riprese;siti_web;consulenza_web;web_design;web_marketing;video_marketing",
                "website": "https://www.andreachiesa.it/"
            }
        },
        {
            "type": "node",
            "id": 7475341140,
            "lat": 44.6677708,
            "lon": 8.4702826,
            "timestamp": "2024-12-30T23:08:19Z",
            "version": 7,
            "changeset": 160813630,
            "user": "mpbin",
            "uid": 21850090,
            "tags": {
                "addr:city": "Acqui Terme",
                "addr:housenumber": "90",
                "addr:postcode": "15011",
                "addr:street": "Via Giuseppe Romita",
                "amenity": "pharmacy",
                "brand": "Parafarmacia Conad",
                "dispensing": "no",
                "healthcare": "pharmacy",
                "name": "Parafarmacia Conad",
                "opening_hours": "Mo-Sa 08:00-20:00; Su 09:00-13:00,16:00-20:00",
                "operator": "Conad",
                "wheelchair": "yes"
            }
        },
        {
            "type": "node",
            "id": 7501332254,
            "lat": 44.3377326,
            "lon": 8.5013439,
            "timestamp": "2023-10-09T10:50:46Z",
            "version": 3,
            "changeset": 142343841,
            "user": "bubix",
            "uid": 1967477,
            "tags": {
                "addr:city": "Albissola Marina",
                "addr:housenumber": "18",
                "addr:postcode": "17012",
                "addr:street": "Via Angelo Barile",
                "dispensing": "no",
                "disused:amenity": "pharmacy",
                "healthcare": "pharmacy",
                "name": "Parafarmacia Conad",
                "operator": "Conad"
            }
        },
        {
            "type": "node",
            "id": 7501626351,
            "lat": 44.4127715,
            "lon": 8.8818708,
            "timestamp": "2020-05-09T18:22:11Z",
            "version": 1,
            "changeset": 84947447,
            "user": "mascalzone67",
            "uid": 1861652,
            "tags": {
                "addr:city": "Genova",
                "addr:housenumber": "15r",
                "addr:postcode": "16149",
                "addr:street": "Via Fiumara",
                "amenity": "pharmacy",
                "dispensing": "no",
                "healthcare": "pharmacy",
                "name": "Parafarmacia Conad",
                "operator": "Conad"
            }
        },
        {
            "type": "node",
            "id": 7502569262,
            "lat": 44.3003167,
            "lon": 8.4632634,
            "timestamp": "2021-07-09T05:37:32Z",
            "version": 3,
            "changeset": 107675276,
            "user": "bubix",
            "uid": 1967477,
            "tags": {
                "addr:city": "Savona",
                "addr:postcode": "17100",
                "addr:street": "Via Stalingrado",
                "amenity": "pharmacy",
                "dispensing": "no",
                "healthcare": "pharmacy",
                "level": "1",
                "name": "Parafarmacia Conad",
                "operator": "Conad"
            }
        },
        {
            "type": "node",
            "id": 7889635660,
            "lat": 44.424844,
            "lon": 8.814064,
            "timestamp": "2024-04-14T08:09:44Z",
            "version": 5,
            "changeset": 149980582,
            "user": "Chiarant",
            "uid": 18452174,
            "tags": {
                "addr:city": "Genova",
                "addr:housenumber": "235r",
                "addr:postcode": "16156",
                "addr:street": "Lungomare di Pegli",
                "amenity": "atm",
                "check_date": "2024-04-14",
                "currency:XBT": "yes",
                "description": "Bitcoin ATM che permette di acquistare Bitcoin, Ethereum, Litecoin, Dogecoin, Bitcoin Cash, Dash, Monero. L'ATM \u00e8 situato all'interno del negozio Ottico Rattaro.",
                "email": "support@cryptolocalatm.com",
                "name": "CryptoLocalATM C/o Ottico Rattaro",
                "website": "https://cryptolocalatm.com"
            }
        },
        {
            "type": "node",
            "id": 8163666071,
            "lat": 44.3132609,
            "lon": 8.4717118,
            "timestamp": "2025-01-01T20:19:36Z",
            "version": 4,
            "changeset": 160884005,
            "user": "mpbin",
            "uid": 21850090,
            "tags": {
                "addr:city": "Savona",
                "addr:postcode": "17100",
                "addr:street": "Corso Agostino Ricci",
                "brand": "Unieuro",
                "brand:wikidata": "Q4004687",
                "name": "Unieuro",
                "operator": "Unieuro S.p.A.",
                "phone": "+39 019 815983",
                "ref:vatin": "IT00876320409",
                "shop": "electronics",
                "wheelchair": "yes"
            }
        },
        {
            "type": "node",
            "id": 8482436005,
            "lat": 44.4274761,
            "lon": 8.7785353,
            "timestamp": "2025-02-22T17:49:44Z",
            "version": 6,
            "changeset": 162825916,
            "user": "LucianoC63",
            "uid": 20673751,
            "tags": {
                "addr:city": "Genova",
                "addr:housenumber": "1",
                "addr:postcode": "16100",
                "addr:street": "Via Taggia",
                "check_date": "2023-06-25",
                "consulting": "marketing",
                "currency:XBT": "yes",
                "description": "Digital marketing e comunicazione, web design, grafica, social media, SEO e SEM.",
                "email": "info@managerads.it",
                "name": "Manager Ads",
                "office": "advertising_agency",
                "phone": "+39 010 8480295",
                "website": "https://managerads.it"
            }
        },
        {
            "type": "node",
            "id": 9757907692,
            "lat": 44.4090541,
            "lon": 8.9557045,
            "timestamp": "2025-03-08T16:45:22Z",
            "version": 5,
            "changeset": 163370728,
            "user": "Som",
            "uid": 80203,
            "tags": {
                "addr:city": "Genova",
                "addr:housenumber": "165",
                "addr:postcode": "16142",
                "addr:street": "Corso Sardegna",
                "amenity": "fast_food",
                "check_date": "2025-03-08",
                "check_date:opening_hours": "2025-03-08",
                "cuisine": "kebab",
                "currency:XBT": "yes",
                "diet:vegan": "yes",
                "diet:vegetarian": "yes",
                "name": "Kebhouze",
                "opening_hours": "Mo-Su 11:30-23:00",
                "payment:lightning": "yes",
                "payment:lightning_contactless": "yes",
                "payment:onchain": "yes",
                "website": "https://kebhouze.com/"
            }
        },
        {
            "type": "node",
            "id": 9757907698,
            "lat": 44.4094568,
            "lon": 8.9545155,
            "timestamp": "2025-01-19T18:55:26Z",
            "version": 5,
            "changeset": 161536514,
            "user": "DnaX",
            "uid": 69259,
            "tags": {
                "branch": "Smart",
                "brand": "MediaWorld",
                "brand:wikidata": "Q2381223",
                "name": "MediaWorld",
                "opening_hours": "Mo-Su 09:00-20:00",
                "operator": "MediaMarket S.p.A.",
                "shop": "electronics"
            }
        },
        {
            "type": "node",
            "id": 9865436785,
            "lat": 44.3742199,
            "lon": 9.2999934,
            "timestamp": "2024-10-17T09:24:59Z",
            "version": 4,
            "changeset": 157998781,
            "user": "Ema Was Right",
            "uid": 22077733,
            "tags": {
                "addr:city": "San Colombano Certenoli",
                "addr:housenumber": "46",
                "addr:postcode": "16040",
                "addr:street": "Via Domenico Cuneo",
                "check_date": "2023-06-26",
                "currency:XBT": "yes",
                "description": "Vendita bombole GPL Eni e Butangas. Servizio a domicilio. Fornitura, montaggio e installazione di bombole, regolatori e tubi del gas.",
                "email": "emalago@libero.it",
                "name": "Lagomarsino Bombole GPL",
                "payment:lightning": "yes",
                "payment:onchain": "yes",
                "phone": "+39 3403189152",
                "shop": "gas"
            }
        },
        {
            "type": "node",
            "id": 9894601960,
            "lat": 44.3681321,
            "lon": 9.1480622,
            "timestamp": "2025-01-01T20:47:33Z",
            "version": 3,
            "changeset": 160884851,
            "user": "mpbin",
            "uid": 21850090,
            "tags": {
                "addr:city": "Recco",
                "addr:housenumber": "212",
                "addr:postcode": "16036",
                "addr:street": "Via Roma",
                "branch": "City",
                "brand": "Unieuro",
                "brand:wikidata": "Q4004687",
                "name": "Unieuro",
                "operator": "Unieuro S.p.A.",
                "shop": "electronics"
            }
        },
        {
            "type": "node",
            "id": 10116684680,
            "lat": 44.4097991,
            "lon": 8.9400911,
            "timestamp": "2024-02-17T10:54:53Z",
            "version": 4,
            "changeset": 147565309,
            "user": "yhic4uw",
            "uid": 2104834,
            "tags": {
                "addr:city": "Genova",
                "addr:housenumber": "20r",
                "addr:postcode": "16121",
                "addr:street": "Via dei Santi Giacomo e Filippo",
                "check_date": "2022-10-20",
                "currency:XBT": "yes",
                "description": "Negozio per animali a Genova, in centro. Mangimi e accessori per cani e gatti.",
                "email": "lacucciadileo@libero.it",
                "name": "La cuccia di Leo",
                "phone": "+39 010581970",
                "shop": "pet"
            }
        },
        {
            "type": "node",
            "id": 10183513148,
            "lat": 44.667981,
            "lon": 8.4704172,
            "timestamp": "2024-11-04T16:55:51Z",
            "version": 2,
            "changeset": 158748988,
            "user": "\u0110uro Ji\u0159\u00ed",
            "uid": 14617702,
            "tags": {
                "amenity": "vending_machine",
                "check_date": "2024-11-04",
                "operator": "Conad",
                "vending": "water"
            }
        },
        {
            "type": "node",
            "id": 10247809016,
            "lat": 44.3140031,
            "lon": 9.3334225,
            "timestamp": "2025-01-07T20:05:01Z",
            "version": 4,
            "changeset": 161109385,
            "user": "LucianoC63",
            "uid": 20673751,
            "tags": {
                "addr:city": "Chiavari",
                "addr:housenumber": "127",
                "addr:postcode": "16043",
                "addr:street": "Corso Dante",
                "check_date": "2024-10-08",
                "check_date:currency:XBT": "2024-10-08",
                "contact:facebook": "https://www.facebook.com/StudioSciandra/",
                "contact:twitter": "https://x.com/studiosciandra",
                "currency:XBT": "yes",
                "email": "info@studiosciandra.com",
                "name": "Studio Sciandra & Associati",
                "office": "accountant",
                "opening_hours": "Mo-Fr 08:00-19:00",
                "payment:lightning": "yes",
                "payment:onchain": "yes",
                "phone": "+39 0185 307689",
                "website": "https://www.studiosciandra.com/"
            }
        },
        {
            "type": "node",
            "id": 10263599344,
            "lat": 44.2706902,
            "lon": 9.3935978,
            "timestamp": "2025-01-07T20:05:01Z",
            "version": 5,
            "changeset": 161109385,
            "user": "LucianoC63",
            "uid": 20673751,
            "tags": {
                "addr:city": "Sestri Levante",
                "addr:housenumber": "48",
                "addr:postcode": "16039",
                "addr:street": "Via Garibaldi",
                "amenity": "bar",
                "check_date": "2023-03-14",
                "contact:facebook": "https://www.facebook.com/people/Basquiat-lounge-bar/100036361730497/",
                "currency:XBT": "yes",
                "name": "Basquiat Lounge Bar",
                "opening_hours": "Mo-Su 16:30-26:00",
                "payment:lightning": "yes",
                "payment:onchain": "yes",
                "phone": "+39 0185 458492"
            }
        },
        {
            "type": "node",
            "id": 10766224644,
            "lat": 44.4125762,
            "lon": 8.8831936,
            "timestamp": "2025-01-09T09:41:36Z",
            "version": 5,
            "changeset": 161162398,
            "user": "DnaX",
            "uid": 69259,
            "tags": {
                "addr:city": "Genova",
                "addr:housenumber": "15",
                "addr:postcode": "16149",
                "addr:street": "Via Fiumara",
                "brand": "Doppelg\u00e4nger",
                "brand:wikidata": "Q117451227",
                "check_date": "2023-03-27",
                "clothes": "men",
                "currency:XBT": "yes",
                "name": "Doppelg\u00e4nger",
                "phone": "+39 010 6454980",
                "shop": "clothes",
                "website": "https://www.doppelganger.it/it/"
            }
        },
        {
            "type": "node",
            "id": 10788363560,
            "lat": 44.4125457,
            "lon": 8.8822408,
            "timestamp": "2024-12-11T20:04:03Z",
            "version": 4,
            "changeset": 160183471,
            "user": "LucianoC63",
            "uid": 20673751,
            "tags": {
                "addr:city": "Genova",
                "addr:housenumber": "15/16",
                "addr:postcode": "16149",
                "addr:street": "Via Fiumara",
                "branch": "c c  Fiumara",
                "brand": "Nuvolari",
                "brand:wikidata": "Q130702590",
                "check_date": "2023-04-05",
                "clothes": "men",
                "currency:XBT": "yes",
                "name": "Nuvolari",
                "phone": "+39 010 7980042",
                "shop": "clothes"
            }
        },
        {
            "type": "node",
            "id": 10844335675,
            "lat": 44.4119347,
            "lon": 8.9395141,
            "timestamp": "2024-12-11T20:04:03Z",
            "version": 4,
            "changeset": 160183471,
            "user": "LucianoC63",
            "uid": 20673751,
            "tags": {
                "addr:city": "Genova",
                "addr:housenumber": "10",
                "addr:postcode": "16122",
                "addr:street": "Via Palestro",
                "check_date": "2024-10-08",
                "check_date:currency:XBT": "2024-10-08",
                "contact:facebook": "https://www.facebook.com/StudioSciandra/",
                "contact:twitter": "https://x.com/studiosciandra",
                "currency:XBT": "yes",
                "email": "info@studiosciandra.com",
                "name": "Studio Sciandra & Associati - Genova",
                "office": "accountant",
                "phone": "+39 010 8568243",
                "website": "https://www.studiosciandra.com"
            }
        },
        {
            "type": "node",
            "id": 11005606809,
            "lat": 44.4519155,
            "lon": 8.3824973,
            "timestamp": "2023-06-26T11:02:12Z",
            "version": 2,
            "changeset": 137787152,
            "user": "Chiarant",
            "uid": 18452174,
            "tags": {
                "addr:city": "Giusvalla",
                "addr:housenumber": "2",
                "addr:postcode": "17010",
                "addr:street": "Localit\u00e0 Vicari",
                "check_date": "2023-06-26",
                "currency:XBT": "yes",
                "description": "Vendita cosmetici artigianali",
                "email": "info@bagnisliguria.it",
                "name": "Azienda Agricola Daniela Bagnis",
                "note": "Presente e-commerce",
                "payment:lightning": "yes",
                "phone": "+39 333 2471926",
                "shop": "cosmetics",
                "website": "https://www.bagnisliguria.it/"
            }
        },
        {
            "type": "node",
            "id": 11010116583,
            "lat": 44.3136031,
            "lon": 9.3232704,
            "timestamp": "2025-01-07T20:05:01Z",
            "version": 4,
            "changeset": 161109385,
            "user": "LucianoC63",
            "uid": 20673751,
            "tags": {
                "addr:city": "Chiavari",
                "addr:postcode": "16121",
                "addr:street": "Corso Cristoforo Colombo",
                "amenity": "boat_rental",
                "check_date": "2024-09-22",
                "check_date:currency:XBT": "2024-09-22",
                "currency:XBT": "yes",
                "description": "Noleggio Yacht e barche lungo la costa ligure",
                "email": "info@welcomecharter.it",
                "name": "Welcome Charter S.r.l.",
                "phone": "+39 348 7150626",
                "website": "https://www.welcomecharter.it/"
            }
        },
        {
            "type": "node",
            "id": 11037816659,
            "lat": 44.4043076,
            "lon": 8.9480556,
            "timestamp": "2024-02-17T05:55:55Z",
            "version": 3,
            "changeset": 147557614,
            "user": "yhic4uw",
            "uid": 2104834,
            "tags": {
                "addr:city": "Genova",
                "addr:housenumber": "40",
                "addr:postcode": "16129",
                "addr:street": "Piazza Borgo Pila",
                "check_date": "2023-07-10",
                "currency:XBT": "yes",
                "name": "ABIRK ITALIA",
                "office": "it",
                "website": "https://www.abirk.com/"
            }
        },
        {
            "type": "node",
            "id": 11132862246,
            "lat": 44.8073277,
            "lon": 8.824177,
            "timestamp": "2023-12-29T12:10:29Z",
            "version": 2,
            "changeset": 145658727,
            "user": "Chiarant",
            "uid": 18452174,
            "tags": {
                "addr:city": "Pozzolo Formigaro",
                "addr:postcode": "15068",
                "addr:street": "Via Bettole",
                "amenity": "restaurant",
                "check_date": "2023-12-29",
                "currency:XBT": "yes",
                "description": "Ristorante, produzione artigianale.",
                "email": "lalocandadeinarcisi@yahoo.it",
                "name": "La locanda dei Narcisi",
                "phone": "+39 3485116638",
                "website": "https://locandadeinarcisi.com"
            }
        },
        {
            "type": "node",
            "id": 11925827361,
            "lat": 44.4051032,
            "lon": 8.9492792,
            "timestamp": "2024-08-18T21:25:16Z",
            "version": 5,
            "changeset": 155435113,
            "user": "Som",
            "uid": 80203,
            "tags": {
                "amenity": "atm",
                "cash_in": "yes",
                "cash_out": "yes",
                "cash_withdrawal": "yes",
                "check_date": "2024-05-22",
                "contact:email": "support@shitcoins.club",
                "contact:facebook": "https://www.facebook.com/shitcoins.club",
                "contact:instagram": "https://www.instagram.com/shitcoinsclub",
                "contact:telegram": "https://t.me/shitcoinsclub",
                "contact:twitter": "https://twitter.com/BitomatCom",
                "currency:CHF": "yes",
                "currency:DASH": "yes",
                "currency:ETH": "yes",
                "currency:EUR": "yes",
                "currency:GBP": "yes",
                "currency:HUF": "yes",
                "currency:LTC": "yes",
                "currency:RON": "yes",
                "currency:USD": "yes",
                "currency:USDC": "yes",
                "currency:USDT": "yes",
                "currency:XBT": "yes",
                "indoor": "yes",
                "name": "Bitcoin ATM - Shitcoins.club",
                "opening_hours": "24/7",
                "operator": "Shitcoins.club",
                "payment:cash": "yes",
                "payment:lightning": "no",
                "payment:lightning_contactless": "no",
                "payment:onchain": "yes",
                "phone": "+39 34 8048 7308",
                "website": "https://shitcoins.club/localizzazione-atm/atm-bitcoin-genova-via-giovanni-tommaso-invrea"
            }
        },
        {
            "type": "node",
            "id": 12468020286,
            "lat": 44.4102056,
            "lon": 8.9358385,
            "timestamp": "2025-01-02T10:43:23Z",
            "version": 9,
            "changeset": 160901008,
            "user": "mueschel",
            "uid": 616774,
            "tags": {
                "addr:city": "Genova",
                "addr:housenumber": "4",
                "addr:postcode": "16123",
                "addr:street": "Salita di Santa Caterina",
                "check_date": "2025-01-01",
                "currency:EUR": "yes",
                "currency:XBT": "yes",
                "name": "Sartoria BATISTA",
                "opening_hours": "Su appuntamento.",
                "payment:lightning": "yes",
                "payment:lightning_contactless": "no",
                "payment:onchain": "yes",
                "phone": "+39 3284959922",
                "shop": "tailor",
                "survey:date": "2024-01-02"
            }
        },
        {
            "type": "node",
            "id": 12603968096,
            "lat": 44.4249557,
            "lon": 8.8511054,
            "timestamp": "2025-02-20T14:17:43Z",
            "version": 1,
            "changeset": 162743513,
            "user": "Rockedf",
            "uid": 7522075,
            "tags": {
                "addr:city": "Genova",
                "addr:housenumber": "65",
                "addr:postcode": "16128",
                "addr:street": "Via Raimondo Amedeo Vigna",
                "check_date": "2025-02-20",
                "currency:XBT": "yes",
                "female": "yes",
                "name": "Danilo Canale hairstudio",
                "opening_hours": "We-Sa 09:30-17:30",
                "payment:lightning": "yes",
                "payment:lightning_contactless": "yes",
                "payment:onchain": "no",
                "phone": "+39 339 191 9621",
                "shop": "hairdresser",
                "wheelchair": "yes"
            }
        },
        {
            "type": "node",
            "id": 12687588876,
            "lat": 44.266681,
            "lon": 9.4188787,
            "timestamp": "2025-03-21T14:38:16Z",
            "version": 1,
            "changeset": 163909425,
            "user": "quibitcoin",
            "uid": 2201521,
            "tags": {
                "addr:city": "Sestri Levante",
                "addr:housenumber": "73",
                "addr:postcode": "16039",
                "addr:street": "Via Monsignor Salvatore Vattuone",
                "currency:XBT": "yes",
                "description": "Studio fisioterapico.",
                "email": "fiosterapiaconti@nap.simplelogin.com",
                "name": "Fisioterapista Dott. Fabio Conti",
                "office": "therapist",
                "phone": "+39 3337905747"
            }
        },
        {
            "type": "way",
            "id": 24025851,
            "timestamp": "2025-01-06T14:38:23Z",
            "version": 13,
            "changeset": 161060929,
            "user": "mpbin",
            "uid": 21850090,
            "nodes": [
                260554687,
                260554688,
                2239979205,
                2239979215,
                260554689,
                260554690,
                260554691,
                260554692,
                260554693,
                260554694,
                260554687
            ],
            "tags": {
                "brand": "IKEA",
                "brand:wikidata": "Q54078",
                "brand:wikipedia": "it:IKEA",
                "building": "supermarket",
                "name": "IKEA",
                "opening_hours": "Mo-Su 09:00-20:00",
                "operator": "Ikea Italia Retail S.r.l.",
                "ref:vatin": "IT02992760963",
                "shop": "furniture",
                "wheelchair": "yes"
            }
        },
        {
            "type": "way",
            "id": 135435683,
            "timestamp": "2025-01-04T11:12:34Z",
            "version": 9,
            "changeset": 160981105,
            "user": "Red Zeppelin",
            "uid": 9473121,
            "nodes": [
                1487528737,
                1487528765,
                1487528741,
                1487528727,
                1733624383,
                1733624384,
                1487528737
            ],
            "tags": {
                "addr:city": "Albissola Marina",
                "addr:housenumber": "18",
                "addr:postcode": "17012",
                "addr:street": "Via Angelo Barile",
                "brand": "Conad",
                "brand:wikidata": "Q639075",
                "brand:wikipedia": "it:Conad",
                "building": "retail",
                "building:levels": "5",
                "check_date": "2025-01-04",
                "email": "FeniceAlbissolaMarinaViaBarile_L491865B@di-net.it",
                "name": "Conad",
                "operator": "Conad",
                "payment:bancomat": "yes",
                "payment:cash": "yes",
                "payment:credit_cards": "yes",
                "phone": "+39 019 4004345",
                "ref:vatin": "IT01385660095",
                "roof:levels": "0",
                "shop": "supermarket",
                "toilets:wheelchair": "yes",
                "website": "https://www.conad.it/ricerca-negozi/negozio.007127.html",
                "wheelchair": "yes"
            }
        },
        {
            "type": "way",
            "id": 167196925,
            "timestamp": "2023-07-31T14:23:33Z",
            "version": 5,
            "changeset": 139256906,
            "user": "BTC Map",
            "uid": 18545877,
            "nodes": [
                1786099643,
                1786099610,
                1786099601,
                1786099537,
                1786099502,
                1786099539,
                1786099619,
                1786099629,
                1786099643
            ],
            "tags": {
                "brand": "Mondo Convenienza",
                "brand:wikidata": "Q55830962",
                "building": "yes",
                "check_date:currency:XBT": "2023-07-31",
                "currency:XBT": "yes",
                "name": "Mondo Convenienza",
                "shop": "furniture"
            }
        },
        {
            "type": "way",
            "id": 291337674,
            "timestamp": "2025-01-06T15:33:40Z",
            "version": 5,
            "changeset": 161063305,
            "user": "branco-revert",
            "uid": 19497998,
            "nodes": [
                2947956373,
                2947956366,
                2947956361,
                2947956364,
                2947956363,
                2947956369,
                3163153367,
                3163153375,
                3163153378,
                3163153374,
                2947956371,
                2947956372,
                2947956373
            ],
            "tags": {
                "access": "destination",
                "amenity": "parking",
                "layer": "2",
                "operator": "Decathlon",
                "parking": "multi-storey"
            }
        },
        {
            "type": "way",
            "id": 372459478,
            "timestamp": "2024-11-04T16:56:08Z",
            "version": 8,
            "changeset": 158748992,
            "user": "\u0110uro Ji\u0159\u00ed",
            "uid": 14617702,
            "nodes": [
                3760148515,
                3760148514,
                8066577144,
                8066577145,
                3760148512,
                3760148513,
                3760148515
            ],
            "tags": {
                "addr:city": "Acqui Terme",
                "addr:housenumber": "90",
                "addr:postcode": "15011",
                "addr:street": "Via Giuseppe Romita",
                "brand": "Conad",
                "brand:wikidata": "Q639075",
                "brand:wikipedia": "it:Conad",
                "building": "supermarket",
                "email": "DiapasonSrl_L492943A@di-net.it",
                "name": "Conad",
                "opening_hours": "Mo-Sa 08:00-20:00; Su 09:00-13:00,16:00-20:00",
                "operator": "Conad",
                "payment:bancomat": "yes",
                "payment:cash": "yes",
                "payment:credit_cards": "yes",
                "phone": "+39 0144 55730",
                "shop": "supermarket",
                "website": "https://www.conad.it/ricerca-negozi/negozio.009131.html",
                "wheelchair": "limited"
            }
        },
        {
            "type": "way",
            "id": 437386406,
            "timestamp": "2022-12-12T20:33:36Z",
            "version": 4,
            "changeset": 130011905,
            "user": "saunter",
            "uid": 10396321,
            "nodes": [
                4351918265,
                4351918267,
                4351918268,
                4351918271,
                4351918272,
                4351918273,
                4351918274,
                4351918269,
                4351918270,
                4351918266,
                4351918265
            ],
            "tags": {
                "addr:city": "Cogoleto",
                "addr:housenumber": "16",
                "addr:postcode": "16016",
                "addr:street": "Via della Madonnina inferiore",
                "amenity": "restaurant",
                "capacity": "60",
                "check_date:currency:XBT": "2022-12-12",
                "currency:XBT": "yes",
                "delivery": "no",
                "name": "Pizzeria La vecchia stalla",
                "opening_hours": "Mo-Su 12:00-14:00,19:00-22:00; We off",
                "outdoor_seating": "yes",
                "payment:lightning": "yes",
                "payment:onchain": "yes",
                "phone": "+39 010 9184704",
                "smoking": "outside"
            }
        },
        {
            "type": "way",
            "id": 800977865,
            "timestamp": "2025-01-06T15:33:40Z",
            "version": 5,
            "changeset": 161063305,
            "user": "branco-revert",
            "uid": 19497998,
            "nodes": [
                7491838364,
                7491838365,
                3809768137,
                7491838366,
                7491838367,
                7491838368,
                7491838369,
                7491838370,
                7491838371,
                7491838372,
                7491838364
            ],
            "tags": {
                "access": "yes",
                "amenity": "parking",
                "capacity": "30",
                "capacity:disabled": "1",
                "description": "Parcheggio riservato al supermercato Conad",
                "fee": "no",
                "operator": "Conad",
                "operator:type": "private",
                "parking": "surface",
                "surface": "asphalt"
            }
        }
    ],
    "telegram": [
        {
            "telegram": "bitcoin-genova"
        },
        {
            "telegram": "ss-genova"
        }
    ]
}