{
    "id": "genzano_di_roma",
    "name": "Genzano di Roma",
    "lng": 41.673,
    "lat": 12.704,
    "poi": [
        {
            "type": "node",
            "id": 442497854,
            "lat": 41.4628777,
            "lon": 12.6286179,
            "timestamp": "2021-01-01T21:37:03Z",
            "version": 3,
            "changeset": 96788081,
            "user": "Cristoffs",
            "uid": 6765127,
            "tags": {
                "addr:city": "Anzio",
                "addr:housenumber": "4",
                "addr:postcode": "00042",
                "addr:street": "Viale Antium",
                "amenity": "pharmacy",
                "brand": "Parafarmacia Conad",
                "dispensing": "no",
                "healthcare": "pharmacy",
                "name": "Parafarmacia Conad",
                "operator": "Conad"
            }
        },
        {
            "type": "node",
            "id": 579435359,
            "lat": 41.4625642,
            "lon": 12.6286168,
            "timestamp": "2023-05-16T12:22:45Z",
            "version": 6,
            "changeset": 136166791,
            "user": "DnaX",
            "uid": 69259,
            "tags": {
                "addr:city": "Anzio",
                "addr:housenumber": "4",
                "addr:postcode": "00042",
                "addr:street": "Viale Antium",
                "brand": "Spazio Conad",
                "brand:wikidata": "Q118130063",
                "brand:wikipedia": "it:Conad",
                "name": "Spazio Conad",
                "opening_hours": "Mo-Su 08:00-21:00",
                "operator": "Conad",
                "payment:bancomat": "yes",
                "payment:cash": "yes",
                "payment:credit_cards": "yes",
                "phone": "+39 06 9867361",
                "shop": "supermarket",
                "website": "https://www.conad.it/ricerca-negozi/negozio.008625.html"
            }
        },
        {
            "type": "node",
            "id": 590051754,
            "lat": 41.9419568,
            "lon": 12.4713016,
            "timestamp": "2024-12-30T22:15:47Z",
            "version": 8,
            "changeset": 160812338,
            "user": "mpbin",
            "uid": 21850090,
            "tags": {
                "addr:city": "Roma",
                "addr:housenumber": "124",
                "addr:street": "Corso di Francia",
                "brand": "Conad",
                "brand:wikidata": "Q639075",
                "name": "Conad",
                "operator": "CONAD Soc. Coop.",
                "shop": "supermarket"
            }
        },
        {
            "type": "node",
            "id": 590053691,
            "lat": 41.9419468,
            "lon": 12.4710629,
            "timestamp": "2025-01-03T13:57:24Z",
            "version": 6,
            "changeset": 160950337,
            "user": "mpbin",
            "uid": 21850090,
            "tags": {
                "addr:city": "Roma",
                "addr:housenumber": "124",
                "addr:street": "Corso di Francia",
                "brand": "OVS",
                "brand:wikidata": "Q2042514",
                "name": "OVS",
                "operator": "OVS",
                "shop": "clothes",
                "wheelchair": "yes"
            }
        },
        {
            "type": "node",
            "id": 740890085,
            "lat": 41.922674,
            "lon": 12.4234199,
            "timestamp": "2024-12-30T22:13:28Z",
            "version": 4,
            "changeset": 160812280,
            "user": "mpbin",
            "uid": 21850090,
            "tags": {
                "addr:city": "Roma",
                "addr:housenumber": "10",
                "addr:postcode": "00167",
                "addr:street": "Via di San Cleto Papa",
                "air_conditioning": "yes",
                "brand": "Conad",
                "brand:wikidata": "Q639075",
                "brand:wikipedia": "it:Conad",
                "name": "Conad",
                "opening_hours": "Mo-Su 08:00-21:00",
                "operator": "CONAD Soc. Coop.",
                "phone": "+39 06 3505 9904",
                "shop": "supermarket",
                "website": "https://www.conad.it/ricerca-negozi/negozio.009507.html"
            }
        },
        {
            "type": "node",
            "id": 763241210,
            "lat": 41.8438469,
            "lon": 12.552652,
            "timestamp": "2020-05-09T07:30:36Z",
            "version": 5,
            "changeset": 84928067,
            "user": "mascalzone67",
            "uid": 1861652,
            "tags": {
                "addr:city": "Roma",
                "addr:housenumber": "889",
                "addr:postcode": "00178",
                "addr:street": "Via Appia Nuova",
                "brand": "Conad",
                "brand:wikidata": "Q639075",
                "brand:wikipedia": "it:Conad",
                "name": "Conad",
                "opening_hours": "Mo-Su 08:30-20:00",
                "operator": "Conad",
                "payment:bancomat": "yes",
                "payment:cash": "yes",
                "payment:credit_cards": "yes",
                "phone": "+39 06 71280048",
                "shop": "supermarket",
                "website": "https://www.conad.it/ricerca-negozi/negozio.005521.html"
            }
        },
        {
            "type": "node",
            "id": 919091481,
            "lat": 41.9732944,
            "lon": 12.4420678,
            "timestamp": "2024-12-30T22:20:02Z",
            "version": 5,
            "changeset": 160812458,
            "user": "mpbin",
            "uid": 21850090,
            "tags": {
                "addr:city": "Roma",
                "addr:housenumber": "169",
                "addr:street": "Via di Grottarossa",
                "name": "Conad",
                "operator": "CONAD Soc. Coop.",
                "phone": "+39 06 33260170",
                "shop": "supermarket",
                "wheelchair": "yes"
            }
        },
        {
            "type": "node",
            "id": 922384469,
            "lat": 41.4461549,
            "lon": 12.6299264,
            "timestamp": "2024-07-11T20:57:52Z",
            "version": 4,
            "changeset": 153829704,
            "user": "mauropili",
            "uid": 1496865,
            "tags": {
                "addr:city": "Anzio",
                "addr:housenumber": "1",
                "addr:postcode": "00042",
                "addr:street": "Via Porto Innocenziano",
                "check_date": "2024-05-16",
                "contact:facebook": "https://www.facebook.com/liguori.gioielli",
                "contact:pinterest": "https://it.pinterest.com/liguorigioielli/",
                "currency:XBT": "yes",
                "name": "Liguori",
                "shop": "jewelry",
                "website": "https://www.liguorigioielli.it/"
            }
        },
        {
            "type": "node",
            "id": 1007620602,
            "lat": 41.6928406,
            "lon": 12.701442,
            "timestamp": "2022-07-07T20:41:08Z",
            "version": 5,
            "changeset": 123335679,
            "user": "Genio2003",
            "uid": 15172358,
            "tags": {
                "addr:city": "Genzano di Roma",
                "addr:postcode": "00045",
                "addr:street": "Via Appia Vecchia",
                "branch": "Superstore",
                "brand": "Conad",
                "brand:wikidata": "Q639075",
                "brand:wikipedia": "it:Conad",
                "name": "Conad",
                "opening_hours": "Mo-Su 08:00-21:00",
                "operator": "Conad",
                "payment:bancomat": "yes",
                "payment:cash": "yes",
                "payment:credit_cards": "yes",
                "phone": "+39 06 9363200",
                "shop": "supermarket",
                "website": "https://www.conad.it/ricerca-negozi/negozio.008293.html"
            }
        },
        {
            "type": "node",
            "id": 1227315761,
            "lat": 41.7385788,
            "lon": 12.2678231,
            "timestamp": "2024-12-30T22:09:39Z",
            "version": 5,
            "changeset": 160812167,
            "user": "mpbin",
            "uid": 21850090,
            "tags": {
                "addr:city": "Roma",
                "addr:housenumber": "60",
                "addr:postcode": "00121",
                "addr:street": "Via Antonio Zotti",
                "brand": "Conad",
                "brand:wikidata": "Q639075",
                "brand:wikipedia": "it:Conad",
                "name": "Conad",
                "operator": "CONAD Soc. Coop.",
                "shop": "supermarket"
            }
        },
        {
            "type": "node",
            "id": 1229274543,
            "lat": 41.7333801,
            "lon": 12.2769225,
            "timestamp": "2025-01-03T13:58:10Z",
            "version": 7,
            "changeset": 160950366,
            "user": "mpbin",
            "uid": 21850090,
            "tags": {
                "addr:city": "Roma",
                "addr:country": "IT",
                "addr:housenumber": "34/c",
                "addr:postcode": "00121",
                "addr:street": "Via Orazio dello Sbirro",
                "brand": "OVS",
                "brand:wikidata": "Q2042514",
                "level": "0",
                "name": "OVS",
                "operator": "OVS",
                "shop": "clothes",
                "wheelchair": "yes"
            }
        },
        {
            "type": "node",
            "id": 1239234894,
            "lat": 41.9473213,
            "lon": 12.4659285,
            "timestamp": "2024-12-03T19:54:23Z",
            "version": 6,
            "changeset": 159894956,
            "user": "mpbin",
            "uid": 21850090,
            "tags": {
                "addr:city": "Roma",
                "addr:housenumber": "14",
                "addr:postcode": "00191",
                "addr:street": "Largo di Vigna Stelluti",
                "name": "Trony",
                "operator": "Trony",
                "shop": "hifi"
            }
        },
        {
            "type": "node",
            "id": 1269961959,
            "lat": 41.874949,
            "lon": 12.5221156,
            "timestamp": "2024-12-30T16:55:55Z",
            "version": 5,
            "changeset": 160800723,
            "user": "mpbin",
            "uid": 21850090,
            "tags": {
                "addr:city": "Roma",
                "addr:housenumber": "450",
                "addr:postcode": "00181",
                "addr:street": "Via Appia Nuova",
                "brand": "Trony",
                "brand:wikidata": "Q3999692",
                "brand:wikipedia": "it:Trony",
                "name": "Trony",
                "operator": "Trony",
                "shop": "electronics"
            }
        },
        {
            "type": "node",
            "id": 1300346677,
            "lat": 41.9196167,
            "lon": 12.522375,
            "timestamp": "2024-12-30T22:18:01Z",
            "version": 6,
            "changeset": 160812400,
            "user": "mpbin",
            "uid": 21850090,
            "tags": {
                "addr:housenumber": "53/a",
                "addr:street": "Via Ignazio Giorgi",
                "brand": "Conad",
                "brand:wikidata": "Q639075",
                "name": "Conad",
                "operator": "CONAD Soc. Coop.",
                "phone": "+39 06 86207082",
                "shop": "supermarket"
            }
        },
        {
            "type": "node",
            "id": 1395881964,
            "lat": 41.8184987,
            "lon": 12.5860001,
            "timestamp": "2024-12-31T11:12:39Z",
            "version": 6,
            "changeset": 160827809,
            "user": "mpbin",
            "uid": 21850090,
            "tags": {
                "addr:city": "Ciampino",
                "addr:housenumber": "88",
                "addr:postcode": "00043",
                "addr:street": "Viale John Fitzgerald Kennedy",
                "brand": "Unieuro",
                "brand:wikidata": "Q4004687",
                "name": "Unieuro",
                "operator": "Unieuro S.p.A.",
                "shop": "electronics"
            }
        },
        {
            "type": "node",
            "id": 1514398062,
            "lat": 41.9973036,
            "lon": 12.3904351,
            "timestamp": "2024-12-30T22:14:35Z",
            "version": 5,
            "changeset": 160812312,
            "user": "mpbin",
            "uid": 21850090,
            "tags": {
                "addr:city": "Roma",
                "addr:housenumber": "12",
                "addr:street": "Via Domenico Falcioni",
                "brand": "Conad",
                "brand:wikidata": "Q639075",
                "name": "Conad",
                "operator": "CONAD Soc. Coop.",
                "phone": "+39 06 30891033",
                "shop": "supermarket"
            }
        },
        {
            "type": "node",
            "id": 1641666409,
            "lat": 41.923276,
            "lon": 12.514936,
            "timestamp": "2025-01-03T15:45:37Z",
            "version": 5,
            "changeset": 160954911,
            "user": "mpbin",
            "uid": 21850090,
            "tags": {
                "addr:city": "Roma",
                "addr:housenumber": "200/222",
                "addr:postcode": "00198",
                "addr:street": "Corso Trieste",
                "name": "OVS",
                "opening_hours": "Mo-Sa 09:00-20:00; Su 09:00-13:30, 16:00-20:00",
                "operator": "OVS",
                "phone": "+39 06 8639 9077",
                "shop": "department_store",
                "website": "https://www.ovs.it/"
            }
        },
        {
            "type": "node",
            "id": 1701632370,
            "lat": 41.8660132,
            "lon": 12.5926133,
            "timestamp": "2024-12-30T22:18:19Z",
            "version": 6,
            "changeset": 160812409,
            "user": "mpbin",
            "uid": 21850090,
            "tags": {
                "addr:city": "Roma",
                "addr:housenumber": "32",
                "addr:postcode": "00169",
                "addr:street": "Via delle Rondini",
                "brand": "Conad",
                "brand:wikidata": "Q639075",
                "brand:wikipedia": "it:Conad",
                "name": "Conad",
                "operator": "CONAD Soc. Coop.",
                "phone": "+39 06 260152",
                "shop": "supermarket"
            }
        },
        {
            "type": "node",
            "id": 1935725634,
            "lat": 41.8939176,
            "lon": 12.5036912,
            "timestamp": "2025-01-03T14:00:53Z",
            "version": 9,
            "changeset": 160950494,
            "user": "mpbin",
            "uid": 21850090,
            "tags": {
                "addr:city": "Roma",
                "addr:housenumber": "110",
                "addr:postcode": "00185",
                "addr:street": "Piazza Vittorio Emanuele Secondo",
                "alt_name": "Oviesse",
                "brand": "OVS",
                "brand:wikidata": "Q2042514",
                "brand:wikipedia": "en:OVS (company)",
                "name": "OVS",
                "opening_hours": "Mo-Sa 09:00-20:00; Su 10:00-13:30,16:00-20:00",
                "operator": "OVS",
                "phone": "+39 06 4467232",
                "shop": "clothes"
            }
        },
        {
            "type": "node",
            "id": 2109265210,
            "lat": 41.8563361,
            "lon": 12.4802863,
            "timestamp": "2025-01-03T15:52:12Z",
            "version": 7,
            "changeset": 160955173,
            "user": "mpbin",
            "uid": 21850090,
            "tags": {
                "addr:city": "Roma",
                "addr:postcode": "00145",
                "addr:street": "Largo Leonardo da Vinci",
                "check_date": "2024-05-26",
                "fax": "+39 06 54602097",
                "name": "OVS",
                "opening_hours": "Mo-Sa 09:00-20:00; Su 10:00-13:00,16:00-20:00",
                "operator": "OVS",
                "phone": "+39 06 5417515",
                "ref:vatin": "IT04240010274",
                "shop": "clothes"
            }
        },
        {
            "type": "node",
            "id": 2586411930,
            "lat": 41.9247563,
            "lon": 12.4580664,
            "timestamp": "2024-11-23T15:40:16Z",
            "version": 12,
            "changeset": 159505024,
            "user": "mpbin",
            "uid": 21850090,
            "tags": {
                "addr:city": "Roma",
                "addr:country": "IT",
                "addr:housenumber": "2",
                "addr:postcode": "00135",
                "addr:street": "Vicolo di Prato Falcone",
                "check_date": "2024-11-23",
                "check_date:currency:XBT": "2024-11-23",
                "currency:XBT": "yes",
                "email": "vale.deleonardis@gmail.com",
                "internet_access": "wlan",
                "internet_access:fee": "no",
                "name": "The Bitcoin house",
                "phone": "+39 339 7153027",
                "smoking": "yes",
                "stars": "3",
                "tourism": "guest_house",
                "website": "https://www.tripadvisor.it/VacationRentalReview-g187791-d6014218-Bitcoin_house_friendly-Rome_Lazio.html",
                "wheelchair": "no"
            }
        },
        {
            "type": "node",
            "id": 2621463018,
            "lat": 41.8330147,
            "lon": 12.5632506,
            "timestamp": "2023-07-31T14:23:33Z",
            "version": 3,
            "changeset": 139256906,
            "user": "BTC Map",
            "uid": 18545877,
            "tags": {
                "addr:city": "Roma",
                "addr:housenumber": "47 / 49",
                "addr:postcode": "00178",
                "addr:street": "Via del Calice",
                "check_date:currency:XBT": "2023-07-31",
                "currency:XBT": "yes",
                "name": "Mondo Convenienza",
                "operator": "Jin Shaoqin",
                "phone": "+39 327 0976551",
                "shop": "furniture"
            }
        },
        {
            "type": "node",
            "id": 2623137793,
            "lat": 41.7464531,
            "lon": 12.6503522,
            "timestamp": "2024-03-09T20:38:52Z",
            "version": 5,
            "changeset": 148439365,
            "user": "Rockedf",
            "uid": 7522075,
            "tags": {
                "addr:city": "Castel Gandolfo",
                "addr:housenumber": "22",
                "addr:place": "Piazza della Libert\u00e0",
                "addr:postcode": "00073",
                "addr:unit": "23",
                "amenity": "cafe",
                "check_date": "2024-03-09",
                "currency:XBT": "yes",
                "name": "Bar Carosi",
                "opening_hours": "Tu-Su 06:30-23:00",
                "payment:lightning": "yes",
                "payment:lightning_contactless": "no",
                "payment:onchain": "yes",
                "phone": "+39 06 9320944"
            }
        },
        {
            "type": "node",
            "id": 2652250107,
            "lat": 41.8120469,
            "lon": 12.6804759,
            "timestamp": "2024-12-31T18:22:04Z",
            "version": 4,
            "changeset": 160844161,
            "user": "mpbin",
            "uid": 21850090,
            "tags": {
                "addr:city": "Frascati",
                "addr:housenumber": "5",
                "addr:postcode": "00044",
                "addr:street": "Via Sciadonna",
                "brand": "Unieuro",
                "brand:wikidata": "Q4004687",
                "brand:wikipedia": "en:Unieuro",
                "name": "Unieuro",
                "operator": "Unieuro S.p.A.",
                "phone": "+39 06 942 5695",
                "shop": "electronics"
            }
        },
        {
            "type": "node",
            "id": 2965292912,
            "lat": 41.9464893,
            "lon": 12.5215637,
            "timestamp": "2023-11-08T13:43:50Z",
            "version": 4,
            "changeset": 143781337,
            "user": "b-jazz-bot",
            "uid": 9451067,
            "tags": {
                "addr:city": "Roma",
                "addr:housenumber": "92",
                "addr:postcode": "00141",
                "addr:street": "Via dei Prati Fiscali",
                "check_date:currency:XBT": "2023-07-11",
                "currency:XBT": "yes",
                "name": "Zarineh Tappeti",
                "opening_hours": "Mo-Sa 09:00-20:00",
                "phone": "+39 06 8105359",
                "shop": "carpet",
                "website": "https://www.zarineh.it/"
            }
        },
        {
            "type": "node",
            "id": 3353913532,
            "lat": 41.8576318,
            "lon": 12.561718,
            "timestamp": "2021-11-29T11:32:55Z",
            "version": 4,
            "changeset": 114338570,
            "user": "wheelmap_visitor",
            "uid": 290680,
            "tags": {
                "addr:housenumber": "881",
                "addr:street": "Via Tuscolana",
                "brand": "Conad",
                "brand:wikidata": "Q639075",
                "brand:wikipedia": "it:Conad",
                "name": "Conad",
                "operator": "Conad",
                "phone": "+39 06 7480020",
                "shop": "supermarket",
                "wheelchair": "yes"
            }
        },
        {
            "type": "node",
            "id": 3803211111,
            "lat": 41.8875038,
            "lon": 12.5414122,
            "timestamp": "2024-12-30T22:09:14Z",
            "version": 5,
            "changeset": 160812154,
            "user": "mpbin",
            "uid": 21850090,
            "tags": {
                "brand": "Conad",
                "brand:wikidata": "Q639075",
                "brand:wikipedia": "it:Conad",
                "name": "Conad",
                "opening_hours": "Mo-Sa 08:30-20:30; Su 08:30-20:00",
                "operator": "CONAD Soc. Coop.",
                "shop": "supermarket"
            }
        },
        {
            "type": "node",
            "id": 4071574515,
            "lat": 41.7273215,
            "lon": 12.2930841,
            "timestamp": "2024-12-30T22:06:19Z",
            "version": 6,
            "changeset": 160812057,
            "user": "mpbin",
            "uid": 21850090,
            "tags": {
                "addr:housenumber": "38/60",
                "addr:street": "Via della Stella Polare",
                "brand": "Conad",
                "brand:wikidata": "Q639075",
                "brand:wikipedia": "it:Conad",
                "contact:website": "https://www.conad.it/ricerca-negozi/negozio.006436.html",
                "name": "Conad",
                "opening_hours": "Mo-Sa 08:00-20:00; Su 08:30-13:00",
                "operator": "CONAD Soc. Coop.",
                "phone": "+39 06 5630 4929",
                "shop": "supermarket",
                "wikipedia": "it:Conad"
            }
        },
        {
            "type": "node",
            "id": 4213117773,
            "lat": 41.8825891,
            "lon": 12.588388,
            "timestamp": "2024-12-30T22:07:48Z",
            "version": 3,
            "changeset": 160812103,
            "user": "mpbin",
            "uid": 21850090,
            "tags": {
                "addr:city": "Roma",
                "addr:housenumber": "21/23",
                "addr:street": "Via Francesco Tovaglieri",
                "name": "Conad",
                "operator": "CONAD Soc. Coop.",
                "phone": "+39 06 23231064",
                "shop": "supermarket"
            }
        },
        {
            "type": "node",
            "id": 4217107310,
            "lat": 41.8176492,
            "lon": 12.4650278,
            "timestamp": "2025-01-03T16:19:47Z",
            "version": 2,
            "changeset": 160956344,
            "user": "mpbin",
            "uid": 21850090,
            "tags": {
                "addr:housenumber": "271",
                "addr:postcode": "00144",
                "addr:street": "Viale dell'Oceano Atlantico",
                "brand": "OVS",
                "fax": "+39 06 56561576",
                "name": "OVS",
                "opening_hours": "Mo-Sa 09:00-20:00; Su 10:00-20:00",
                "operator": "OVS",
                "phone": "+39 06 54220247",
                "ref:vatin": "IT04240010274",
                "shop": "clothes"
            }
        },
        {
            "type": "node",
            "id": 4230222473,
            "lat": 41.9082017,
            "lon": 12.4672086,
            "timestamp": "2024-12-30T19:07:47Z",
            "version": 5,
            "changeset": 160805079,
            "user": "DnaX",
            "uid": 69259,
            "tags": {
                "addr:city": "Roma",
                "addr:housenumber": "96",
                "addr:postcode": "00193",
                "addr:street": "Piazza Cola di Rienzo",
                "brand": "Doppelg\u00e4nger",
                "brand:wikidata": "Q117451227",
                "check_date:currency:XBT": "2023-05-13",
                "currency:XBT": "yes",
                "name": "Doppelg\u00e4nger",
                "payment:lightning": "no",
                "payment:lightning_contactless": "no",
                "payment:onchain": "yes",
                "phone": "0694365624",
                "shop": "clothes",
                "wheelchair": "no"
            }
        },
        {
            "type": "node",
            "id": 4318519089,
            "lat": 41.6234281,
            "lon": 13.2850509,
            "timestamp": "2025-01-03T10:47:05Z",
            "version": 3,
            "changeset": 160942502,
            "user": "mpbin",
            "uid": 21850090,
            "tags": {
                "addr:city": "Frosinone",
                "addr:housenumber": "28",
                "addr:postcode": "03100",
                "addr:street": "Via Armando Vona",
                "name": "Decathlon",
                "operator": "Decathlon",
                "shop": "outdoor"
            }
        },
        {
            "type": "node",
            "id": 4319599455,
            "lat": 41.9144018,
            "lon": 12.521327,
            "timestamp": "2024-12-30T22:11:12Z",
            "version": 7,
            "changeset": 160812218,
            "user": "mpbin",
            "uid": 21850090,
            "tags": {
                "addr:housenumber": "60",
                "addr:postcode": "00162",
                "addr:street": "Piazza Bologna",
                "brand": "Conad",
                "brand:wikidata": "Q639075",
                "name": "Conad",
                "opening_hours": "Mo-Sa 08:00-21:00; Su 08:30-20:30",
                "operator": "CONAD Soc. Coop.",
                "phone": "+39 06 87570010",
                "shop": "supermarket",
                "website": "http://www.altuoservizio.conad.it"
            }
        },
        {
            "type": "node",
            "id": 4365345890,
            "lat": 41.8847714,
            "lon": 12.5117989,
            "timestamp": "2024-03-09T21:02:46Z",
            "version": 6,
            "changeset": 148439921,
            "user": "Rockedf",
            "uid": 7522075,
            "tags": {
                "addr:city": "Roma",
                "addr:housenumber": "28",
                "addr:postcode": "00182",
                "addr:street": "Via Pontremoli",
                "check_date": "2024-03-09",
                "contact:email": "info@adamsauna.it",
                "contact:facebook": "https://www.facebook.com/adamsaunaroma",
                "contact:instagram": "https://www.instagram.com/adamsaunaroma",
                "contact:twitter": "https://twitter.com/adamsaunaroma",
                "currency:XBT": "yes",
                "leisure": "sauna",
                "lgbtq": "only",
                "min_age": "18",
                "name": "ADAM SAUNA ROMA",
                "opening_hours": "Mo-Th 13:00-00:00; Fr 13:00-17:00; Sa 13:00-18:00; Su 06:00-00:00",
                "payment:lightning": "yes",
                "payment:lightning_contactless": "yes",
                "payment:onchain": "yes",
                "phone": "+39 06 241 5078",
                "source": "local knowledge",
                "website": "https://www.adamsauna.it/"
            }
        },
        {
            "type": "node",
            "id": 4367972979,
            "lat": 41.8739717,
            "lon": 12.5225553,
            "timestamp": "2025-01-03T09:46:02Z",
            "version": 3,
            "changeset": 160940263,
            "user": "mpbin",
            "uid": 21850090,
            "tags": {
                "addr:city": "Roma",
                "addr:country": "IT",
                "addr:housenumber": "450",
                "addr:postcode": "00181",
                "addr:street": "Via Appia Nuova",
                "brand": "Decathlon",
                "brand:wikidata": "Q509349",
                "brand:wikipedia": "en:Decathlon Group",
                "name": "Decathlon",
                "name:it": "Decathlon Easy Appio",
                "operator": "Decathlon",
                "shop": "sports"
            }
        },
        {
            "type": "node",
            "id": 4386198214,
            "lat": 41.910753,
            "lon": 12.3999199,
            "timestamp": "2024-12-31T16:58:53Z",
            "version": 3,
            "changeset": 160841471,
            "user": "mpbin",
            "uid": 21850090,
            "tags": {
                "addr:city": "Roma",
                "addr:housenumber": "6",
                "addr:postcode": "00168",
                "addr:street": "Via Beverino",
                "name": "Unieuro Roma Boccea",
                "name:it": "Unieuro",
                "operator": "Unieuro S.p.A.",
                "shop": "electronics"
            }
        },
        {
            "type": "node",
            "id": 4416405691,
            "lat": 41.86891,
            "lon": 12.362584,
            "timestamp": "2023-07-11T11:53:46Z",
            "version": 4,
            "changeset": 138376938,
            "user": "saunter",
            "uid": 10396321,
            "tags": {
                "addr:city": "Roma",
                "addr:housenumber": "167",
                "addr:postcode": "00166",
                "addr:street": "Via del Casale Lumbroso",
                "amenity": "taxi",
                "check_date:currency:XBT": "2023-07-11",
                "currency:XBT": "yes",
                "description": "Viaggiare in taxi sul territorio della capitale. \u00c8 possibile acquistare corse pagando in bitcoin (per ora esclusivamente attraverso il sito web)",
                "email": "info@ittaxi.it",
                "name": "3570 - itTaxi",
                "website": "https://www.ittaxi.it"
            }
        },
        {
            "type": "node",
            "id": 4450577283,
            "lat": 41.9024646,
            "lon": 12.4846932,
            "timestamp": "2025-01-03T14:08:39Z",
            "version": 4,
            "changeset": 160950857,
            "user": "mpbin",
            "uid": 21850090,
            "tags": {
                "addr:city": "Roma",
                "addr:housenumber": "172",
                "addr:postcode": "00187",
                "addr:street": "Via del Tritone",
                "brand": "OVS",
                "brand:wikidata": "Q2042514",
                "brand:wikipedia": "en:OVS (company)",
                "name": "OVS",
                "operator": "OVS",
                "phone": "+39 06 6783336",
                "shop": "clothes"
            }
        },
        {
            "type": "node",
            "id": 4483864101,
            "lat": 41.8071006,
            "lon": 12.6797947,
            "timestamp": "2023-03-04T20:14:22Z",
            "version": 5,
            "changeset": 133304855,
            "user": "perpetual nomad",
            "uid": 17199501,
            "tags": {
                "addr:city": "Frascati",
                "addr:housenumber": "3",
                "addr:postcode": "00044",
                "addr:street": "Piazza Roma",
                "amenity": "cafe",
                "check_date:currency:XBT": "2023-03-04",
                "currency:XBT": "yes",
                "name": "Gran Caff\u00e8 Roma"
            }
        },
        {
            "type": "node",
            "id": 4502997754,
            "lat": 41.8709193,
            "lon": 12.4680632,
            "timestamp": "2025-01-03T16:28:32Z",
            "version": 2,
            "changeset": 160956722,
            "user": "mpbin",
            "uid": 21850090,
            "tags": {
                "addr:city": "Roma",
                "addr:housenumber": "74",
                "addr:postcode": "00164",
                "addr:street": "Piazza della Radio",
                "name": "OVS",
                "operator": "OVS",
                "shop": "clothes"
            }
        },
        {
            "type": "node",
            "id": 4599904397,
            "lat": 41.7958486,
            "lon": 12.2505625,
            "timestamp": "2025-01-01T18:18:22Z",
            "version": 5,
            "changeset": 160879607,
            "user": "mpbin",
            "uid": 21850090,
            "tags": {
                "brand": "Unieuro",
                "brand:wikidata": "Q4004687",
                "name": "Unieuro",
                "name:it": "Unieuro",
                "opening_hours": "Mo-Su 06:00-22:00",
                "operator": "Unieuro S.p.A.",
                "shop": "electronics",
                "wheelchair": "yes"
            }
        },
        {
            "type": "node",
            "id": 4791345219,
            "lat": 41.9616337,
            "lon": 12.4096632,
            "timestamp": "2024-12-30T22:15:28Z",
            "version": 5,
            "changeset": 160812329,
            "user": "mpbin",
            "uid": 21850090,
            "tags": {
                "addr:city": "Roma",
                "addr:housenumber": "11472",
                "addr:postcode": "00135",
                "addr:street": "Via Trionfale",
                "brand": "Conad",
                "brand:wikidata": "Q639075",
                "brand:wikipedia": "it:Conad",
                "name": "Conad",
                "operator": "CONAD Soc. Coop.",
                "phone": "+39 06 30810201",
                "shop": "supermarket",
                "website": "https://www.conad.it/"
            }
        },
        {
            "type": "node",
            "id": 5044647401,
            "lat": 41.8570874,
            "lon": 12.5627681,
            "timestamp": "2025-01-03T16:37:14Z",
            "version": 4,
            "changeset": 160957023,
            "user": "mpbin",
            "uid": 21850090,
            "tags": {
                "addr:city": "Roma",
                "addr:housenumber": "893",
                "addr:postcode": "00174",
                "addr:street": "Via Tuscolana",
                "brand": "OVS",
                "brand:wikidata": "Q2042514",
                "brand:wikipedia": "en:OVS (company)",
                "name": "OVS",
                "operator": "OVS",
                "shop": "clothes",
                "wheelchair": "yes"
            }
        },
        {
            "type": "node",
            "id": 5056276249,
            "lat": 41.4519689,
            "lon": 12.8890441,
            "timestamp": "2021-07-03T04:54:18Z",
            "version": 4,
            "changeset": 107339049,
            "user": "Silverium",
            "uid": 13566882,
            "tags": {
                "addr:city": "Latina",
                "addr:postcode": "04100",
                "addr:street": "Viale Pablo Picasso",
                "brand": "Conad",
                "brand:wikidata": "Q639075",
                "brand:wikipedia": "it:Conad",
                "name": "Conad",
                "operator": "Conad",
                "phone": "+39 0773 601715",
                "shop": "supermarket",
                "website": "https://www.conad.it/conad/home/puntivendita/dettaglio.html?idPdv=5471"
            }
        },
        {
            "type": "node",
            "id": 5056299984,
            "lat": 41.4622294,
            "lon": 12.9171831,
            "timestamp": "2021-07-03T04:54:19Z",
            "version": 4,
            "changeset": 107339049,
            "user": "Silverium",
            "uid": 13566882,
            "tags": {
                "addr:city": "Latina",
                "addr:housenumber": "51",
                "addr:postcode": "04100",
                "addr:street": "Via Don Carlo Torello",
                "brand": "Conad",
                "brand:wikidata": "Q639075",
                "brand:wikipedia": "it:Conad",
                "name": "Conad",
                "opening_hours": "Mo-Su 08:30-21:00",
                "operator": "Conad",
                "phone": "+39 0773 470032",
                "shop": "supermarket",
                "website": "https://www.conad.it/conad/home/puntivendita/dettaglio.html?idPdv=2313"
            }
        },
        {
            "type": "node",
            "id": 5056379805,
            "lat": 41.4606443,
            "lon": 12.8886307,
            "timestamp": "2023-07-06T21:18:49Z",
            "version": 7,
            "changeset": 138205309,
            "user": "Mario250",
            "uid": 10260914,
            "tags": {
                "addr:city": "Latina",
                "addr:housenumber": "76",
                "addr:postcode": "04100",
                "addr:street": "Viale Pier Luigi Nervi",
                "brand": "Conad Superstore",
                "brand:wikidata": "Q118129616",
                "brand:wikipedia": "it:Conad",
                "check_date": "2022-12-23",
                "internet_access": "wlan",
                "internet_access:fee": "no",
                "internet_access:ssid": "FREE WIFI CONAD",
                "name": "Conad Superstore",
                "opening_hours": "Mo-Su 08:30-21:00",
                "operator": "Conad",
                "phone": "+39 0773 628012",
                "shop": "supermarket",
                "website": "https://www.conad.it/conad/home/puntivendita/dettaglio.html?idPdv=5470"
            }
        },
        {
            "type": "node",
            "id": 5057300986,
            "lat": 41.4519157,
            "lon": 12.872524,
            "timestamp": "2022-11-01T11:56:09Z",
            "version": 6,
            "changeset": 128341814,
            "user": "Neko the gamer",
            "uid": 17021107,
            "tags": {
                "addr:city": "Latina",
                "addr:housenumber": "41-47",
                "addr:postcode": "04100",
                "addr:street": "Viale Niccol\u00f2 Paganini",
                "air_conditioning": "yes",
                "brand": "Conad",
                "brand:wikidata": "Q639075",
                "brand:wikipedia": "it:Conad",
                "check_date": "2022-11-01",
                "currency:EUR": "yes",
                "image": "https://i.ibb.co/tZqPSn7/IMG-20221101-123552.jpg",
                "name": "Conad",
                "operator": "Conad",
                "payment:cash": "yes",
                "payment:contactless": "yes",
                "payment:credit_cards": "yes",
                "payment:mastercard": "yes",
                "payment:visa": "yes",
                "phone": "+39 0773 603050",
                "shop": "supermarket",
                "website": "https://www.conad.it/ricerca-negozi/conad-viale-nicolo-paganini-41-47-04100--latina--008926",
                "wheelchair": "yes"
            }
        },
        {
            "type": "node",
            "id": 5330496621,
            "lat": 41.8804648,
            "lon": 12.5160109,
            "timestamp": "2025-01-03T14:12:05Z",
            "version": 4,
            "changeset": 160951010,
            "user": "mpbin",
            "uid": 21850090,
            "tags": {
                "addr:city": "Roma",
                "addr:housenumber": "183",
                "addr:postcode": "00183",
                "addr:street": "Via Appia Nuova",
                "brand": "OVS",
                "brand:wikidata": "Q2042514",
                "brand:wikipedia": "en:OVS (company)",
                "name": "OVS",
                "operator": "OVS",
                "shop": "clothes"
            }
        },
        {
            "type": "node",
            "id": 5435888644,
            "lat": 41.8940209,
            "lon": 12.5110662,
            "timestamp": "2024-11-29T16:49:57Z",
            "version": 12,
            "changeset": 159749534,
            "user": "mpbin",
            "uid": 21850090,
            "tags": {
                "addr:city": "Roma",
                "addr:housenumber": "387",
                "addr:postcode": "00185",
                "addr:street": "Via Giovanni Giolitti",
                "check_date": "2024-11-29",
                "check_date:currency:XBT": "2024-11-29",
                "contact:facebook": "https://www.facebook.com/locandasantannaroma/",
                "contact:instagram": "https://www.instagram.com/locandasantannaroma/",
                "currency:EUR": "yes",
                "currency:XBT": "yes",
                "email": "locandasantannaroma@gmail.com",
                "fixme": "sistemare tag",
                "internet_access": "yes",
                "mobile": "+39  347 3551958",
                "name": "B&B Locanda Sant'Anna",
                "payment:cryptocurrencies": "yes",
                "payment:website:bitcoin": "yes",
                "rooms": "4",
                "smoking": "no",
                "tourism": "guest_house",
                "website": "https://www.locandasantannaroma.it/"
            }
        },
        {
            "type": "node",
            "id": 5488695124,
            "lat": 41.854324,
            "lon": 12.563105,
            "timestamp": "2024-07-07T11:05:24Z",
            "version": 4,
            "changeset": 153656807,
            "user": "mauropili",
            "uid": 1496865,
            "tags": {
                "addr:city": "Roma",
                "addr:housenumber": "289",
                "addr:postcode": "00174",
                "addr:street": "Viale Appio Claudio",
                "check_date": "2024-01-06",
                "currency:XBT": "yes",
                "description": "Criptolab \u00e8 un'associazione che durante orario lavorativo \u00e8 un coworking, ovvero uno spazio di lavoro condiviso. La sera e il weekend ospita corsi, workshop e meetup riguardo alla tecnologia blockchain e alle valute virtuali.",
                "email": "criptolabinfo@gmail.com",
                "name": "Criptolab",
                "office": "coworking",
                "phone": "+39 06 59875397",
                "website": "https://criptolab.it"
            }
        },
        {
            "type": "node",
            "id": 5584162077,
            "lat": 41.7300549,
            "lon": 13.0161493,
            "timestamp": "2021-07-13T11:17:54Z",
            "version": 4,
            "changeset": 107904561,
            "user": "Giulio Calamita",
            "uid": 10939210,
            "tags": {
                "addr:city": "Colleferro",
                "addr:postcode": "00034",
                "addr:street": "Via Fontana dell'Oste",
                "brand": "Conad",
                "brand:wikidata": "Q639075",
                "brand:wikipedia": "it:Conad",
                "name": "Conad",
                "operator": "Conad",
                "phone": "+39 06 97235179",
                "shop": "supermarket",
                "website": "https://www.conad.it/ricerca-negozi/negozio.006238.html"
            }
        },
        {
            "type": "node",
            "id": 5626826158,
            "lat": 41.873423,
            "lon": 12.521397,
            "timestamp": "2023-09-29T14:18:00Z",
            "version": 4,
            "changeset": 141915115,
            "user": "Rockedf",
            "uid": 7522075,
            "tags": {
                "addr:city": "Roma",
                "addr:housenumber": "55",
                "addr:postcode": "00179",
                "addr:street": "Via Cesare Baronio",
                "check_date": "2023-08-23",
                "check_date:currency:XBT": "2023-09-29",
                "currency:XBT": "yes",
                "description": "Legal Weed Shop. Infiorescenze Legali ad alto contenuto di CBD.",
                "email": "greenovashop@gmail.com",
                "name": "Greenova",
                "payment:lightning": "no",
                "payment:onchain": "yes",
                "phone": "+39 3395239019",
                "shop": "cannabis",
                "website": "https://greenova.shop/"
            }
        },
        {
            "type": "node",
            "id": 5816078954,
            "lat": 41.8743736,
            "lon": 12.5230783,
            "timestamp": "2025-01-09T09:44:32Z",
            "version": 5,
            "changeset": 161162504,
            "user": "DnaX",
            "uid": 69259,
            "tags": {
                "addr:city": "Roma",
                "addr:housenumber": "150",
                "addr:postcode": "00179",
                "addr:street": "Via Appia Nuova",
                "brand": "Doppelg\u00e4nger",
                "brand:wikidata": "Q117451227",
                "check_date:currency:XBT": "2023-05-13",
                "cuisine": "italian",
                "currency:XBT": "yes",
                "name": "Doppelg\u00e4nger",
                "payment:lightning": "no",
                "payment:lightning_contactless": "no",
                "payment:onchain": "yes",
                "phone": "067811840",
                "shop": "clothes"
            }
        },
        {
            "type": "node",
            "id": 5829703589,
            "lat": 41.9011958,
            "lon": 12.4766891,
            "timestamp": "2024-12-30T19:07:40Z",
            "version": 5,
            "changeset": 160805078,
            "user": "DnaX",
            "uid": 69259,
            "tags": {
                "addr:city": "Roma",
                "addr:housenumber": "2",
                "addr:postcode": "00186",
                "addr:street": "Via degli Uffici del Vicario",
                "brand": "Doppelg\u00e4nger",
                "brand:wikidata": "Q117451227",
                "check_date:currency:XBT": "2023-05-13",
                "clothes": "men",
                "currency:XBT": "yes",
                "name": "Doppelg\u00e4nger",
                "payment:lightning": "no",
                "payment:lightning_contactless": "no",
                "payment:onchain": "yes",
                "phone": "+39 06 679 6738",
                "shop": "clothes"
            }
        },
        {
            "type": "node",
            "id": 5979420885,
            "lat": 41.8832665,
            "lon": 12.5182718,
            "timestamp": "2024-08-01T09:20:46Z",
            "version": 6,
            "changeset": 154684065,
            "user": "AlCeRoma",
            "uid": 12770453,
            "tags": {
                "addr:city": "Roma",
                "addr:housenumber": "5",
                "addr:postcode": "00182",
                "addr:street": "Via Matera",
                "brand": "Conad",
                "brand:wikidata": "Q639075",
                "brand:wikipedia": "it:Conad",
                "name": "Conad",
                "opening_hours": "Mo-Su 08:00-20:00",
                "operator": "Conad",
                "phone": "+39 06 7013408",
                "shop": "supermarket",
                "website": "https://www.conad.it/ricerca-negozi/negozio.008008.html"
            }
        },
        {
            "type": "node",
            "id": 6263584248,
            "lat": 41.868455,
            "lon": 12.443207,
            "timestamp": "2024-04-14T10:25:13Z",
            "version": 7,
            "changeset": 149985965,
            "user": "Chiarant",
            "uid": 18452174,
            "tags": {
                "addr:city": "Roma",
                "addr:housenumber": "240 B",
                "addr:postcode": "00151",
                "addr:street": "Viale dei Colli Portuensi",
                "amenity": "atm",
                "check_date": "2024-04-14",
                "currency:XBT": "yes",
                "description": "Bitcoin ATM che permette di acquistare Bitcoin, Ethereum, Litecoin, Dogecoin, Bitcoin Cash, Dash, Monero. L'ATM \u00e8 situato all'interno del negozio NUVOLE D'AROMI 2.0",
                "email": "support@cryptolocalatm.com",
                "name": "CryptoLocalATM c/o NUVOLE D'AROMI 2.0",
                "payment:onchain": "yes",
                "website": "https://cryptolocalatm.com"
            }
        },
        {
            "type": "node",
            "id": 6498339845,
            "lat": 41.885081,
            "lon": 12.5098042,
            "timestamp": "2024-12-30T19:07:22Z",
            "version": 4,
            "changeset": 160805067,
            "user": "DnaX",
            "uid": 69259,
            "tags": {
                "addr:city": "Roma",
                "addr:housenumber": "6",
                "addr:postcode": "00183",
                "addr:street": "Piazzale Appio",
                "brand": "Doppelg\u00e4nger",
                "brand:wikidata": "Q117451227",
                "check_date:currency:XBT": "2023-05-13",
                "clothes": "men",
                "currency:XBT": "yes",
                "name": "Doppelg\u00e4nger",
                "payment:lightning": "no",
                "payment:lightning_contactless": "no",
                "payment:onchain": "yes",
                "phone": "0655271763",
                "shop": "clothes"
            }
        },
        {
            "type": "node",
            "id": 6557099086,
            "lat": 42.0635561,
            "lon": 12.5912875,
            "timestamp": "2025-01-01T19:42:54Z",
            "version": 3,
            "changeset": 160882888,
            "user": "mpbin",
            "uid": 21850090,
            "tags": {
                "addr:housenumber": "169",
                "addr:postcode": "00015",
                "addr:street": "Via Salaria",
                "brand": "Unieuro",
                "brand:wikidata": "Q4004687",
                "name": "Unieuro",
                "operator": "Unieuro S.p.A.",
                "shop": "electronics"
            }
        },
        {
            "type": "node",
            "id": 6783688068,
            "lat": 41.8079692,
            "lon": 12.6812431,
            "timestamp": "2024-05-16T12:34:03Z",
            "version": 2,
            "changeset": 151406177,
            "user": "Chiarant",
            "uid": 18452174,
            "tags": {
                "addr:city": "Frascati",
                "addr:housenumber": "14",
                "addr:postcode": "00044",
                "addr:street": "Piazza San Pietro",
                "check_date": "2024-05-16",
                "currency:XBT": "yes",
                "name": "Liguori",
                "shop": "jewelry"
            }
        },
        {
            "type": "node",
            "id": 6785641541,
            "lat": 41.9052769,
            "lon": 12.4376345,
            "timestamp": "2024-12-30T22:10:28Z",
            "version": 2,
            "changeset": 160812199,
            "user": "mpbin",
            "uid": 21850090,
            "tags": {
                "addr:housenumber": "124",
                "addr:street": "Viale di Valle Aurelia",
                "brand": "Conad",
                "brand:wikidata": "Q639075",
                "brand:wikipedia": "it:Conad",
                "name": "Conad",
                "opening_hours": "Mo-Sa 08:30-20:00",
                "operator": "CONAD Soc. Coop.",
                "phone": "+39 06 3975 4025",
                "shop": "supermarket",
                "website": "https://www.conad.it/ricerca-negozi/negozio.002781.html"
            }
        },
        {
            "type": "node",
            "id": 6933158941,
            "lat": 41.8072726,
            "lon": 13.052651,
            "timestamp": "2025-01-01T19:54:14Z",
            "version": 3,
            "changeset": 160883273,
            "user": "mpbin",
            "uid": 21850090,
            "tags": {
                "addr:city": "Paliano",
                "addr:housenumber": "6/B",
                "addr:postcode": "03018",
                "addr:street": "Viale San Francesco d'Assisi",
                "brand": "Unieuro",
                "brand:wikidata": "Q4004687",
                "building": "yes",
                "name": "Unieuro",
                "operator": "Unieuro S.p.A.",
                "shop": "electronics"
            }
        },
        {
            "type": "node",
            "id": 7018252151,
            "lat": 41.8055921,
            "lon": 12.5979552,
            "timestamp": "2025-01-03T14:15:17Z",
            "version": 6,
            "changeset": 160951140,
            "user": "mpbin",
            "uid": 21850090,
            "tags": {
                "addr:city": "Ciampino",
                "addr:postcode": "00043",
                "addr:street": "Via Carlo Pirzio Biroli",
                "brand": "OVS",
                "brand:wikidata": "Q2042514",
                "mapillary": "2826809500907041",
                "name": "OVS",
                "operator": "OVS",
                "shop": "clothes",
                "wheelchair": "yes"
            }
        },
        {
            "type": "node",
            "id": 7206253186,
            "lat": 41.8531464,
            "lon": 12.5715325,
            "timestamp": "2024-06-11T20:25:36Z",
            "version": 4,
            "changeset": 152560720,
            "user": "Rockedf",
            "uid": 7522075,
            "tags": {
                "addr:city": "Roma",
                "addr:housenumber": "2",
                "addr:postcode": "00173",
                "addr:street": "Viale Palmiro Togliatti",
                "amenity": "atm",
                "branch": "Centro Commerciale Cinecitt\u00e0Due",
                "cash_in": "yes",
                "cash_out": "yes",
                "cash_withdrawal": "yes",
                "check_date": "2024-01-26",
                "contact:email": "support@shitcoins.club",
                "contact:facebook": "https://www.facebook.com/shitcoins.club",
                "contact:instagram": "https://www.instagram.com/shitcoinsclub",
                "contact:telegram": "https://t.me/shitcoinsclub",
                "contact:twitter": "https://twitter.com/BitomatCom",
                "currency:CHF": "yes",
                "currency:DASH": "yes",
                "currency:ETH": "yes",
                "currency:EUR": "yes",
                "currency:GBP": "yes",
                "currency:HUF": "yes",
                "currency:LTC": "yes",
                "currency:RON": "yes",
                "currency:USD": "yes",
                "currency:USDC": "yes",
                "currency:USDT": "yes",
                "currency:XBT": "yes",
                "indoor": "yes",
                "level": "1",
                "name": "Bitcoin ATM - Shitcoins.club",
                "note": "Bancomat Bitcoin Roma si trova al primo piano del centro commerciale, vicino al negozio di abbigliamento Max&Co.",
                "opening_hours": "Mo-Su 08:00-20:00",
                "operator": "Shitcoins.club",
                "payment:cash": "yes",
                "payment:onchain": "yes",
                "phone": "+39 34 8048 7308",
                "start_date": "2020-02-10",
                "url": "https://coinatmradar.com/bitcoin_atm/11688/bitcoin-atm-shitcoins-club-rome-centro-commerciale-cinecittadue/",
                "website": "https://shitcoins.club/localizzazione-atm/atm-bitcoin-roma-cinecitt%C3%A0due"
            }
        },
        {
            "type": "node",
            "id": 7252817427,
            "lat": 41.958812,
            "lon": 12.5250068,
            "timestamp": "2024-12-31T08:40:13Z",
            "version": 2,
            "changeset": 160823182,
            "user": "mpbin",
            "uid": 21850090,
            "tags": {
                "addr:city": "Roma",
                "addr:housenumber": "55",
                "addr:postcode": "00139",
                "addr:street": "Piazza Ottaviano Vimercati",
                "brand": "Conad",
                "brand:wikidata": "Q639075",
                "brand:wikipedia": "it:Conad",
                "name": "Conad",
                "opening_hours": "Mo-Sa 08:00-21:00",
                "operator": "Conad",
                "payment:cash": "yes",
                "payment:credit_cards": "yes",
                "shop": "supermarket"
            }
        },
        {
            "type": "node",
            "id": 7500131813,
            "lat": 41.800442,
            "lon": 12.4291179,
            "timestamp": "2020-05-09T07:42:03Z",
            "version": 1,
            "changeset": 84928330,
            "user": "mascalzone67",
            "uid": 1861652,
            "tags": {
                "addr:city": "Roma",
                "addr:housenumber": "2",
                "addr:postcode": "00127",
                "addr:street": "Via Rinaldo d'Ami",
                "amenity": "pharmacy",
                "dispensing": "no",
                "healthcare": "pharmacy",
                "name": "Parafarmacia Conad",
                "operator": "Conad"
            }
        },
        {
            "type": "node",
            "id": 7500180549,
            "lat": 41.777164,
            "lon": 12.4364949,
            "timestamp": "2020-05-09T07:13:54Z",
            "version": 1,
            "changeset": 84927720,
            "user": "mascalzone67",
            "uid": 1861652,
            "tags": {
                "addr:city": "Tor de' Cenci",
                "addr:housenumber": "5",
                "addr:postcode": "00128",
                "addr:street": "Largo Lido Duranti",
                "amenity": "pharmacy",
                "dispensing": "no",
                "healthcare": "pharmacy",
                "name": "Parafarmacia Conad",
                "operator": "Conad"
            }
        },
        {
            "type": "node",
            "id": 7500191711,
            "lat": 41.77727,
            "lon": 12.436621,
            "timestamp": "2020-05-09T07:13:08Z",
            "version": 1,
            "changeset": 84927699,
            "user": "mascalzone67",
            "uid": 1861652,
            "tags": {
                "addr:city": "Tor de' Cenci",
                "addr:housenumber": "5",
                "addr:postcode": "00128",
                "addr:street": "Largo Lido Duranti",
                "brand": "Conad",
                "brand:wikidata": "Q639075",
                "brand:wikipedia": "it:Conad",
                "name": "Conad",
                "opening_hours": "Mo-Su 08:30-20:00",
                "operator": "Conad",
                "payment:bancomat": "yes",
                "payment:cash": "yes",
                "payment:credit_cards": "yes",
                "phone": "+39 06 5073960",
                "shop": "supermarket",
                "website": "https://www.conad.it/ricerca-negozi/negozio.001149.html"
            }
        },
        {
            "type": "node",
            "id": 7500210215,
            "lat": 41.8437139,
            "lon": 12.552647,
            "timestamp": "2020-05-09T07:31:48Z",
            "version": 2,
            "changeset": 84928099,
            "user": "mascalzone67",
            "uid": 1861652,
            "tags": {
                "addr:city": "Roma",
                "addr:housenumber": "889",
                "addr:postcode": "00178",
                "addr:street": "Via Appia Nuova",
                "amenity": "pharmacy",
                "dispensing": "no",
                "healthcare": "pharmacy",
                "name": "Parafarmacia Conad",
                "operator": "Conad"
            }
        },
        {
            "type": "node",
            "id": 7500246488,
            "lat": 41.8005319,
            "lon": 12.4293969,
            "timestamp": "2022-04-26T11:16:55Z",
            "version": 4,
            "changeset": 120207259,
            "user": "Matteo Fid",
            "uid": 8767392,
            "tags": {
                "addr:city": "Roma",
                "addr:housenumber": "2",
                "addr:postcode": "00127",
                "addr:street": "Via Rinaldo d'Ami",
                "branch": "Superstore",
                "brand": "Conad",
                "brand:wikidata": "Q639075",
                "brand:wikipedia": "it:Conad",
                "name": "Conad",
                "note": "L'area su cui insiste il supermercato dev'essere ridisegnata per vetust\u00e0 immagini.",
                "opening_hours": "Mo-Sa 08:30-19:00; Su 08:30-14:00",
                "operator": "Conad",
                "payment:bancomat": "yes",
                "payment:cash": "yes",
                "payment:credit_cards": "yes",
                "phone": "+39 06 52834236",
                "shop": "supermarket",
                "website": "https://www.conad.it/ricerca-negozi/negozio.008889.html"
            }
        },
        {
            "type": "node",
            "id": 7500258200,
            "lat": 41.6926706,
            "lon": 12.701412,
            "timestamp": "2022-07-07T20:41:08Z",
            "version": 3,
            "changeset": 123335679,
            "user": "Genio2003",
            "uid": 15172358,
            "tags": {
                "addr:city": "Genzano di Roma",
                "addr:postcode": "00045",
                "addr:street": "Via Appia Vecchia",
                "amenity": "pharmacy",
                "dispensing": "no",
                "healthcare": "pharmacy",
                "name": "Parafarmacia Conad",
                "opening_hours": "Mo-Su 08:00-21:00",
                "operator": "Conad"
            }
        },
        {
            "type": "node",
            "id": 7500270272,
            "lat": 41.9003867,
            "lon": 12.5687925,
            "timestamp": "2020-05-09T07:58:59Z",
            "version": 1,
            "changeset": 84928687,
            "user": "mascalzone67",
            "uid": 1861652,
            "tags": {
                "addr:city": "Roma",
                "addr:housenumber": "190",
                "addr:postcode": "00155",
                "addr:street": "Viale Giovanni Battista Valente",
                "amenity": "pharmacy",
                "dispensing": "no",
                "healthcare": "pharmacy",
                "name": "Parafarmacia Conad",
                "operator": "Conad"
            }
        },
        {
            "type": "node",
            "id": 7500377082,
            "lat": 41.9318723,
            "lon": 12.3820239,
            "timestamp": "2020-05-09T10:01:58Z",
            "version": 1,
            "changeset": 84931991,
            "user": "mascalzone67",
            "uid": 1861652,
            "tags": {
                "addr:city": "Roma",
                "addr:housenumber": "55",
                "addr:postcode": "00166",
                "addr:street": "Via Arola",
                "amenity": "pharmacy",
                "dispensing": "no",
                "healthcare": "pharmacy",
                "name": "Parafarmacia Conad",
                "operator": "Conad"
            }
        },
        {
            "type": "node",
            "id": 7500479474,
            "lat": 41.8530518,
            "lon": 12.4163444,
            "timestamp": "2024-12-31T08:44:42Z",
            "version": 3,
            "changeset": 160823285,
            "user": "mpbin",
            "uid": 21850090,
            "tags": {
                "addr:city": "Roma",
                "addr:housenumber": "92",
                "addr:postcode": "00148",
                "addr:street": "Via dei Sampieri",
                "amenity": "pharmacy",
                "dispensing": "no",
                "healthcare": "pharmacy",
                "name": "Parafarmacia Conad",
                "operator": "Conad"
            }
        },
        {
            "type": "node",
            "id": 7500543920,
            "lat": 41.604602,
            "lon": 12.8132468,
            "timestamp": "2020-05-09T10:27:22Z",
            "version": 2,
            "changeset": 84932763,
            "user": "mascalzone67",
            "uid": 1861652,
            "tags": {
                "addr:city": "Cisterna di Latina",
                "addr:housenumber": "km 50.700",
                "addr:postcode": "04012",
                "addr:street": "Via Appia",
                "amenity": "pharmacy",
                "dispensing": "no",
                "healthcare": "pharmacy",
                "name": "Parafarmacia Conad",
                "operator": "Conad"
            }
        },
        {
            "type": "node",
            "id": 7644389813,
            "lat": 41.8781512,
            "lon": 12.4657886,
            "timestamp": "2024-12-31T11:13:04Z",
            "version": 3,
            "changeset": 160827822,
            "user": "mpbin",
            "uid": 21850090,
            "tags": {
                "addr:city": "Roma",
                "addr:housenumber": "219",
                "addr:postcode": "00153",
                "addr:street": "Viale di Trastevere",
                "brand": "Unieuro",
                "brand:wikidata": "Q4004687",
                "brand:wikipedia": "en:Unieuro",
                "name": "Unieuro",
                "opening_hours": "Mo-Sa 09:30-19:00; Su 10:00-14:00, 16:00-20:00",
                "operator": "Unieuro S.p.A.",
                "payment:cash": "yes",
                "payment:credit_cards": "yes",
                "phone": "+39065817537",
                "shop": "electronics",
                "website": "https://www.unieuro.it/online/negozi/Unieuro-Roma---Viale-Trastevere"
            }
        },
        {
            "type": "node",
            "id": 7678460489,
            "lat": 41.8953935,
            "lon": 12.4727308,
            "timestamp": "2024-04-19T06:22:51Z",
            "version": 4,
            "changeset": 150205202,
            "user": "Igor Bubelov",
            "uid": 2104834,
            "tags": {
                "addr:city": "Roma",
                "addr:housenumber": "52",
                "addr:postcode": "00186",
                "addr:street": "Campo de' Fiori",
                "check_date": "2024-04-19",
                "currency:XBT": "yes",
                "name": "Tabacchi Riv.132",
                "payment:bitcoin:operator": "inbitcoin.it",
                "shop": "tobacco"
            }
        },
        {
            "type": "node",
            "id": 7842520760,
            "lat": 41.8340127,
            "lon": 12.5954077,
            "timestamp": "2024-12-31T11:12:16Z",
            "version": 3,
            "changeset": 160827795,
            "user": "mpbin",
            "uid": 21850090,
            "tags": {
                "addr:city": "Roma",
                "addr:housenumber": "11",
                "addr:postcode": "00173",
                "addr:street": "Via Vittorio Metz",
                "brand": "Unieuro",
                "brand:wikidata": "Q4004687",
                "name": "Unieuro City",
                "operator": "Unieuro S.p.A.",
                "shop": "electronics"
            }
        },
        {
            "type": "node",
            "id": 8010748465,
            "lat": 41.8985262,
            "lon": 12.5318458,
            "timestamp": "2021-09-14T19:40:36Z",
            "version": 3,
            "changeset": 111212204,
            "user": "Patrick Bous",
            "uid": 223763,
            "tags": {
                "addr:city": "Roma",
                "addr:housenumber": "50",
                "addr:postcode": "00159",
                "addr:street": "Via Alberto Pollio",
                "amenity": "pharmacy",
                "dispensing": "no",
                "healthcare": "pharmacy",
                "name": "Parafarmacia Conad",
                "opening_hours": "Mo-Su 08:00-21:00",
                "operator": "Conad"
            }
        },
        {
            "type": "node",
            "id": 8095050269,
            "lat": 41.8669887,
            "lon": 12.4687558,
            "timestamp": "2024-05-12T16:11:56Z",
            "version": 3,
            "changeset": 151232566,
            "user": "Michele Aquilani",
            "uid": 3860151,
            "tags": {
                "addr:city": "Roma",
                "addr:country": "IT",
                "addr:housenumber": "133;",
                "addr:postcode": "00146",
                "addr:street": "Viale Guglielmo Marconi",
                "brand": "Unieuro",
                "brand:wikidata": "Q4004687",
                "brand:wikipedia": "en:Unieuro",
                "name": "Unieuro",
                "operator": "Unieuro S.p.A.",
                "phone": "+39 06 5575313",
                "ref:vatin": "IT00876320409",
                "shop": "electronics"
            }
        },
        {
            "type": "node",
            "id": 8164814603,
            "lat": 41.9021442,
            "lon": 12.4798111,
            "timestamp": "2024-12-30T19:07:32Z",
            "version": 6,
            "changeset": 160805073,
            "user": "DnaX",
            "uid": 69259,
            "tags": {
                "addr:city": "Roma",
                "addr:housenumber": "379",
                "addr:postcode": "00186",
                "addr:street": "Via del Corso",
                "brand": "Doppelg\u00e4nger",
                "brand:wikidata": "Q117451227",
                "check_date": "2023-05-05",
                "clothes": "men",
                "currency:XBT": "yes",
                "name": "Doppelg\u00e4nger",
                "payment:onchain": "yes",
                "phone": "+39 06 6994 2356",
                "shop": "clothes",
                "website": "https://www.doppelganger.it/"
            }
        },
        {
            "type": "node",
            "id": 8188405397,
            "lat": 41.8131165,
            "lon": 12.6549305,
            "timestamp": "2021-12-27T21:54:28Z",
            "version": 6,
            "changeset": 115444971,
            "user": "elucci",
            "uid": 12638075,
            "tags": {
                "addr:city": "Frascati",
                "addr:country": "IT",
                "addr:housenumber": "52",
                "addr:postcode": "00044",
                "addr:street": "Via Tuscolana",
                "brand": "OVS",
                "brand:wikidata": "Q2042514",
                "brand:wikipedia": "en:OVS (company)",
                "level": "0",
                "name": "OVS",
                "operator": "OVS",
                "payment:cash": "yes",
                "payment:credit_cards": "yes",
                "payment:debit_cards": "yes",
                "second_hand": "no",
                "shop": "clothes",
                "wheelchair": "yes"
            }
        },
        {
            "type": "node",
            "id": 8188410642,
            "lat": 41.8132525,
            "lon": 12.6551166,
            "timestamp": "2021-12-27T21:54:28Z",
            "version": 8,
            "changeset": 115444971,
            "user": "elucci",
            "uid": 12638075,
            "tags": {
                "addr:city": "Frascati",
                "addr:housenumber": "52",
                "addr:postcode": "00044",
                "addr:street": "Via Tuscolana",
                "branch": "Superstore",
                "brand": "Conad",
                "brand:wikidata": "Q639075",
                "brand:wikipedia": "it:Conad",
                "level": "0",
                "name": "Conad",
                "opening_hours": "Mo-Su 08:00-22:00",
                "operator": "Conad",
                "phone": "+39 0765 4621",
                "shop": "supermarket",
                "start_date": "2020-11-15",
                "website": "https://www.conad.it/ricerca-negozi/negozio.010160.html"
            }
        },
        {
            "type": "node",
            "id": 8836311017,
            "lat": 41.7426254,
            "lon": 13.0031612,
            "timestamp": "2025-01-01T20:05:05Z",
            "version": 7,
            "changeset": 160883578,
            "user": "mpbin",
            "uid": 21850090,
            "tags": {
                "addr:city": "Colleferro",
                "addr:housenumber": "km 49",
                "addr:postcode": "00034",
                "addr:street": "Via Casilina",
                "brand": "Unieuro",
                "brand:wikidata": "Q4004687",
                "brand:wikipedia": "en:Unieuro",
                "email": "dircolleferro@unieuro.com",
                "name": "Unieuro",
                "operator": "Unieuro S.p.A.",
                "phone": "+39 06 9770326",
                "shop": "electronics"
            }
        },
        {
            "type": "node",
            "id": 9160291963,
            "lat": 41.8657088,
            "lon": 12.4607373,
            "timestamp": "2024-12-30T22:10:02Z",
            "version": 3,
            "changeset": 160812186,
            "user": "mpbin",
            "uid": 21850090,
            "tags": {
                "addr:housenumber": "323",
                "addr:street": "Via Portuense",
                "brand": "Conad",
                "brand:wikidata": "Q639075",
                "name": "Conad",
                "operator": "CONAD Soc. Coop.",
                "shop": "supermarket"
            }
        },
        {
            "type": "node",
            "id": 9160313754,
            "lat": 41.9056205,
            "lon": 12.6920439,
            "timestamp": "2024-12-30T22:07:00Z",
            "version": 4,
            "changeset": 160812080,
            "user": "mpbin",
            "uid": 21850090,
            "tags": {
                "addr:city": "Roma",
                "addr:country": "IT",
                "addr:housenumber": "269",
                "addr:postcode": "00132",
                "addr:street": "Via Massa di San Giuliano",
                "brand": "Conad",
                "brand:wikidata": "Q639075",
                "name": "Conad",
                "operator": "CONAD Soc. Coop.",
                "phone": "+39 06 22485828",
                "shop": "supermarket"
            }
        },
        {
            "type": "node",
            "id": 9160353990,
            "lat": 41.8757131,
            "lon": 12.4428251,
            "timestamp": "2025-01-01T20:03:37Z",
            "version": 3,
            "changeset": 160883536,
            "user": "mau59",
            "uid": 257767,
            "tags": {
                "addr:housenumber": "49/47",
                "addr:street": "Viale dei Colli Portuensi",
                "brand": "Conad",
                "brand:wikidata": "Q639075",
                "name": "Conad",
                "operator": "CONAD Soc. Coop.",
                "phone": "+39 06 5344429",
                "shop": "supermarket"
            }
        },
        {
            "type": "node",
            "id": 9160377706,
            "lat": 41.867238,
            "lon": 12.6316794,
            "timestamp": "2024-12-30T22:16:15Z",
            "version": 2,
            "changeset": 160812347,
            "user": "mpbin",
            "uid": 21850090,
            "tags": {
                "addr:housenumber": "52",
                "addr:street": "Via Michele Buonori",
                "name": "Conad",
                "operator": "CONAD Soc. Coop.",
                "shop": "supermarket"
            }
        },
        {
            "type": "node",
            "id": 9160390010,
            "lat": 41.8625929,
            "lon": 12.4669018,
            "timestamp": "2024-12-30T22:17:41Z",
            "version": 2,
            "changeset": 160812391,
            "user": "mpbin",
            "uid": 21850090,
            "tags": {
                "addr:housenumber": "49/51",
                "addr:street": "Via Vincenzo Brunacci",
                "name": "Conad",
                "operator": "CONAD Soc. Coop.",
                "phone": "+36 06 55300328",
                "shop": "supermarket"
            }
        },
        {
            "type": "node",
            "id": 9160432961,
            "lat": 41.7386779,
            "lon": 12.2789433,
            "timestamp": "2024-12-30T22:10:53Z",
            "version": 5,
            "changeset": 160812209,
            "user": "mpbin",
            "uid": 21850090,
            "tags": {
                "addr:city": "Roma",
                "addr:country": "IT",
                "addr:housenumber": "24",
                "addr:postcode": "00121",
                "addr:street": "Via Isole del Capo Verde",
                "brand": "Conad",
                "brand:wikidata": "Q639075",
                "name": "Conad",
                "operator": "CONAD Soc. Coop.",
                "phone": "+39 06 5672284",
                "shop": "supermarket"
            }
        },
        {
            "type": "node",
            "id": 9160507155,
            "lat": 41.8582618,
            "lon": 12.6134167,
            "timestamp": "2024-12-30T22:17:17Z",
            "version": 3,
            "changeset": 160812380,
            "user": "mpbin",
            "uid": 21850090,
            "tags": {
                "addr:housenumber": "6/8",
                "addr:street": "Via della Tenuta di Torrenova",
                "brand": "Conad",
                "brand:wikidata": "Q639075",
                "name": "Conad",
                "operator": "CONAD Soc. Coop.",
                "phone": "+39 06 87570074",
                "shop": "supermarket"
            }
        },
        {
            "type": "node",
            "id": 9681011854,
            "lat": 41.8920755,
            "lon": 12.4678138,
            "timestamp": "2024-12-23T04:40:46Z",
            "version": 5,
            "changeset": 160523365,
            "user": "mseifert",
            "uid": 2491490,
            "tags": {
                "addr:city": "Roma",
                "addr:housenumber": "8",
                "addr:postcode": "00153",
                "addr:street": "Via di Porta Settimiana",
                "amenity": "restaurant",
                "brand": "Polpetta",
                "check_date": "2024-12-22",
                "contact:housenumber": "8",
                "contact:street": "Via di Porta Settimiana",
                "cuisine": "italian",
                "currency:XBT": "yes",
                "delivery": "yes",
                "name": "Polpetta Trastevere",
                "opening_hours": "12:00-24:00",
                "outdoor_seating": "yes",
                "phone": "+3965818284",
                "reservation": "yes",
                "website": "https://www.polpetta.it/"
            }
        },
        {
            "type": "node",
            "id": 9720628244,
            "lat": 41.797266,
            "lon": 12.2987625,
            "timestamp": "2025-01-01T20:42:27Z",
            "version": 4,
            "changeset": 160884699,
            "user": "mpbin",
            "uid": 21850090,
            "tags": {
                "addr:city": "Fiumicino",
                "addr:housenumber": "31/65",
                "addr:postcode": "00054",
                "addr:street": "Viale Donato Bramante",
                "brand": "Unieuro",
                "brand:wikidata": "Q4004687",
                "name": "Unieuro",
                "operator": "Unieuro S.p.A.",
                "shop": "electronics",
                "wheelchair": "yes"
            }
        },
        {
            "type": "node",
            "id": 9779572708,
            "lat": 41.9085904,
            "lon": 12.4577725,
            "timestamp": "2024-12-30T19:08:01Z",
            "version": 4,
            "changeset": 160805086,
            "user": "DnaX",
            "uid": 69259,
            "tags": {
                "addr:city": "Roma",
                "addr:housenumber": "85",
                "addr:postcode": "00192",
                "addr:street": "Via Ottaviano",
                "brand": "Doppelg\u00e4nger",
                "brand:wikidata": "Q117451227",
                "check_date:currency:XBT": "2023-05-13",
                "currency:XBT": "yes",
                "name": "Doppelg\u00e4nger",
                "payment:lightning": "no",
                "payment:lightning_contactless": "no",
                "payment:onchain": "yes",
                "phone": "0639730809",
                "shop": "clothes"
            }
        },
        {
            "type": "node",
            "id": 9873209155,
            "lat": 41.6918821,
            "lon": 12.7012812,
            "timestamp": "2022-07-07T20:41:08Z",
            "version": 1,
            "changeset": 123335679,
            "user": "Genio2003",
            "uid": 15172358,
            "tags": {
                "advertising": "billboard",
                "lit": "yes",
                "operator": "Conad",
                "support": "pole",
                "visibility": "street"
            }
        },
        {
            "type": "node",
            "id": 10128006356,
            "lat": 41.893352,
            "lon": 12.4773192,
            "timestamp": "2023-03-04T20:20:06Z",
            "version": 2,
            "changeset": 133305015,
            "user": "perpetual nomad",
            "uid": 17199501,
            "tags": {
                "addr:city": "Roma",
                "addr:housenumber": "25",
                "addr:postcode": "00186",
                "addr:street": "Via della Reginella",
                "check_date:currency:XBT": "2023-03-04",
                "currency:XBT": "yes",
                "email": "midbar@hotmail.com",
                "name": "ALEFBET - the hebrew letters art gallery",
                "payment:lightning": "yes",
                "payment:lightning_contactless": "no",
                "payment:onchain": "yes",
                "phone": "+39 3473464296",
                "survey:date": "2022-10-25",
                "tourism": "gallery",
                "website": "https://gabrielelevy.com/"
            }
        },
        {
            "type": "node",
            "id": 10150981035,
            "lat": 41.7617311,
            "lon": 12.9609998,
            "timestamp": "2025-01-03T14:25:51Z",
            "version": 2,
            "changeset": 160951625,
            "user": "mpbin",
            "uid": 21850090,
            "tags": {
                "addr:city": "Valmontone",
                "addr:postcode": "00038",
                "addr:street": "Via della Pace",
                "brand": "OVS",
                "brand:wikidata": "Q2042514",
                "name": "OVS",
                "operator": "OVS",
                "shop": "clothes"
            }
        },
        {
            "type": "node",
            "id": 10173068289,
            "lat": 41.4650478,
            "lon": 12.8896497,
            "timestamp": "2025-01-01T20:53:38Z",
            "version": 4,
            "changeset": 160885064,
            "user": "mpbin",
            "uid": 21850090,
            "tags": {
                "addr:city": "Latina",
                "addr:housenumber": "43",
                "addr:postcode": "04100",
                "addr:street": "Viale Pier Luigi Nervi",
                "brand": "Unieuro",
                "brand:wikidata": "Q4004687",
                "name": "Unieuro",
                "operator": "Unieuro S.p.A.",
                "phone": "+39 0773 625552",
                "shop": "electronics",
                "website": "https://www.unieuro.it/"
            }
        },
        {
            "type": "node",
            "id": 10248418330,
            "lat": 41.8969889,
            "lon": 12.474344,
            "timestamp": "2024-08-14T11:15:15Z",
            "version": 3,
            "changeset": 155234520,
            "user": "mauropili",
            "uid": 1496865,
            "tags": {
                "addr:city": "Roma",
                "addr:housenumber": "6",
                "addr:postcode": "00186",
                "addr:street": "Corso del Rinascimento",
                "check_date:currency:XBT": "2022-12-09",
                "contact:instagram": "https://www.instagram.com/operaparrucchierinavona/",
                "currency:XBT": "yes",
                "description": "Beauty Salon",
                "email": "maisondebeaute@fastwebnet.it",
                "name": "Maison de Beaut\u00e9 Opera",
                "opening_hours": "Tu-Sa 09:00-19:00",
                "payment:lightning": "yes",
                "payment:lightning_contactless": "no",
                "payment:onchain": "yes",
                "phone": "+39 668803698",
                "shop": "hairdresser",
                "website": "https://www.operaparrucchieriroma.com"
            }
        },
        {
            "type": "node",
            "id": 10262116715,
            "lat": 41.9365361,
            "lon": 12.547837,
            "timestamp": "2023-08-05T07:03:17Z",
            "version": 2,
            "changeset": 139467123,
            "user": "paulbrunner",
            "uid": 15541433,
            "tags": {
                "addr:city": "Roma",
                "addr:housenumber": "3",
                "addr:postcode": "00156",
                "addr:street": "Via Alessandro Trotter",
                "check_date": "2022-12-14",
                "currency:XBT": "yes",
                "name": "3L World",
                "opening_hours": "Mo-Fr 10:30-13:00,15:30-19:00; Sa 10:30-13:00",
                "payment:lightning": "yes",
                "payment:onchain": "yes",
                "phone": "+393334893281",
                "shop": "travel_agency",
                "website": "https://www.3lworld.it/"
            }
        },
        {
            "type": "node",
            "id": 10316423441,
            "lat": 41.458132,
            "lon": 12.9287802,
            "timestamp": "2024-09-25T11:03:16Z",
            "version": 5,
            "changeset": 157076395,
            "user": "mpbin",
            "uid": 21850090,
            "tags": {
                "addr:city": "Latina",
                "addr:postcode": "04100",
                "addr:street": "Via dei Greci",
                "check_date": "2024-09-25",
                "check_date:currency:XBT": "2024-09-25",
                "contact:facebook": "https://www.facebook.com/AlfaRecovery/",
                "currency:XBT": "yes",
                "description": "Recupero dati professionale da hard disk, SSD e memorie.",
                "email": "info@alfarecovery.com",
                "name": "Alfa Recovery",
                "office": "it",
                "opening_hours": "Mo-Su 09:00-18:00",
                "payment:lightning": "no",
                "payment:lightning_contactless": "no",
                "payment:onchain": "yes",
                "phone": "+39 0773488148",
                "website": "https://www.alfarecovery.com"
            }
        },
        {
            "type": "node",
            "id": 10554257436,
            "lat": 41.9471345,
            "lon": 12.4710426,
            "timestamp": "2023-01-14T10:23:32Z",
            "version": 1,
            "changeset": 131259085,
            "user": "BSN21M",
            "uid": 17441326,
            "tags": {
                "addr:city": "Roma",
                "addr:postcode": "00191",
                "addr:street": "Via Francesco Saverio Nitti",
                "check_date:currency:XBT": "2023-01-14",
                "currency:XBT": "yes",
                "email": "fktdomiciliare@fisionoleggio.it",
                "healthcare": "physiotherapist",
                "name": "Fisioterapia Domiciliare",
                "opening_hours": "Mo-Fr 8:30-19:30, Sa 9:00-13:00",
                "payment:lightning": "no",
                "payment:lightning_contactless": "no",
                "payment:onchain": "yes",
                "phone": "+393891918081",
                "website": "https://www.fisioterapiadomiciliare.com"
            }
        },
        {
            "type": "node",
            "id": 10669703778,
            "lat": 41.9003693,
            "lon": 12.5686181,
            "timestamp": "2025-01-03T09:51:55Z",
            "version": 2,
            "changeset": 160940483,
            "user": "mpbin",
            "uid": 21850090,
            "tags": {
                "addr:city": "Roma",
                "addr:housenumber": "190",
                "addr:postcode": "00155",
                "addr:street": "Viale Giovanni Battista Valente",
                "brand": "Decathlon",
                "brand:wikidata": "Q509349",
                "name": "Decathlon",
                "opening_hours": "Mo-Su 09:00-21:00",
                "operator": "Decathlon",
                "payment:cash": "yes",
                "payment:credit_cards": "yes",
                "phone": "+390683556505",
                "shop": "sports"
            }
        },
        {
            "type": "node",
            "id": 10758272642,
            "lat": 41.7982037,
            "lon": 12.2978829,
            "timestamp": "2025-01-06T14:36:31Z",
            "version": 4,
            "changeset": 161060852,
            "user": "mpbin",
            "uid": 21850090,
            "tags": {
                "addr:city": "Fiumicino",
                "addr:postcode": "00054",
                "addr:street": "Viale Donato Bramante",
                "brand": "IKEA",
                "brand:wikidata": "Q54078",
                "name": "IKEA",
                "opening_hours": "Mo-Su 10:00-21:00",
                "operator": "Ikea Italia Retail S.r.l.",
                "payment:bancomat": "yes",
                "payment:cash": "yes",
                "payment:credit_cards": "yes",
                "shop": "furniture",
                "source": "https://www.italiaoggi.it/news/ikea-apre-a-fiumicino-il-primo-xs-store-d-italia-2596686",
                "start_date": "2023-03-23",
                "survey:date": "2024-04-01",
                "wheelchair": "yes"
            }
        },
        {
            "type": "node",
            "id": 10760752705,
            "lat": 41.8643129,
            "lon": 12.4784983,
            "timestamp": "2024-11-21T11:39:24Z",
            "version": 14,
            "changeset": 159405676,
            "user": "mau59",
            "uid": 257767,
            "tags": {
                "addr:city": "Roma",
                "addr:housenumber": "164g",
                "addr:postcode": "00154",
                "addr:street": "Via Ostiense",
                "amenity": "fast_food",
                "branch": "Ostiense",
                "brand": "Kebhouze",
                "brand:wikidata": "Q130465663",
                "check_date": "2024-05-09",
                "check_date:currency:XBT": "2024-05-09",
                "contact:facebook": "kebhouze",
                "contact:instagram": "kebhouze",
                "cuisine": "kebab",
                "currency:XBT": "yes",
                "diet:vegan": "yes",
                "diet:vegetarian": "yes",
                "name": "Kebhouze",
                "opening_hours": "Su-Th 12:00-15:30, 18:30-23:30; Fr-Sa 12:00-15:30, 18:30-04:00",
                "payment:lightning": "yes",
                "payment:lightning_contactless": "yes",
                "payment:onchain": "yes",
                "phone": "+3906 9826 2096",
                "takeaway": "yes",
                "website": "https://kebhouze.com"
            }
        },
        {
            "type": "node",
            "id": 10765722330,
            "lat": 41.5936638,
            "lon": 12.8237297,
            "timestamp": "2024-11-29T17:15:05Z",
            "version": 4,
            "changeset": 159750349,
            "user": "mpbin",
            "uid": 21850090,
            "tags": {
                "addr:city": "Cisterna di Latina",
                "addr:housenumber": "40",
                "addr:postcode": "04012",
                "addr:street": "Via Carlo Peroni",
                "check_date": "2024-11-29",
                "check_date:currency:XBT": "2024-11-29",
                "currency:XBT": "yes",
                "email": "info@asicmining.it",
                "name": "Asicmining.it - Asic Repair Center",
                "opening_hours": "Mo-Fr 9:00-13:00, 15:00-18:00",
                "payment:lightning": "yes",
                "payment:lightning_contactless": "no",
                "payment:onchain": "yes",
                "phone": "+39 334 594 9842",
                "shop": "repair",
                "website": "https://asicmining.it/"
            }
        },
        {
            "type": "node",
            "id": 10788335322,
            "lat": 41.8693941,
            "lon": 12.4680789,
            "timestamp": "2025-01-09T09:44:41Z",
            "version": 3,
            "changeset": 161162510,
            "user": "DnaX",
            "uid": 69259,
            "tags": {
                "addr:city": "Roma",
                "addr:housenumber": "16",
                "addr:postcode": "00146",
                "addr:street": "Piazza della Radio",
                "brand": "Doppelg\u00e4nger",
                "brand:wikidata": "Q117451227",
                "check_date:currency:XBT": "2023-05-13",
                "clothes": "men",
                "currency:XBT": "yes",
                "name": "Doppelg\u00e4nger",
                "payment:lightning": "no",
                "payment:lightning_contactless": "no",
                "payment:onchain": "yes",
                "phone": "065583975",
                "shop": "clothes"
            }
        },
        {
            "type": "node",
            "id": 10788514140,
            "lat": 41.9706418,
            "lon": 12.5395634,
            "timestamp": "2023-08-04T10:34:22Z",
            "version": 3,
            "changeset": 139434937,
            "user": "Igor Bubelov",
            "uid": 2104834,
            "tags": {
                "addr:city": "Roma",
                "addr:housenumber": "201",
                "addr:postcode": "00139",
                "addr:street": "Via Alberto Lionello",
                "check_date": "2023-04-05",
                "clothes": "men",
                "currency:XBT": "yes",
                "name": "Nuvolari c.c. Porta di Roma",
                "payment:lightning": "no",
                "payment:lightning_contactless": "no",
                "payment:onchain": "yes",
                "phone": "0687070571",
                "shop": "clothes",
                "website": "https://porta-di-roma.klepierre.it/negozi-ristoranti/nuvolari"
            }
        },
        {
            "type": "node",
            "id": 10788533053,
            "lat": 41.9578954,
            "lon": 12.5492675,
            "timestamp": "2023-08-04T10:37:30Z",
            "version": 3,
            "changeset": 139435071,
            "user": "Igor Bubelov",
            "uid": 2104834,
            "tags": {
                "addr:city": "Roma",
                "addr:housenumber": "99",
                "addr:postcode": "00137",
                "addr:street": "Via Dario Niccodemi",
                "check_date": "2023-04-05",
                "clothes": "men",
                "currency:XBT": "yes",
                "name": "Nuvolari Outlet Store c.c. Dima Shopping",
                "payment:lightning": "no",
                "payment:lightning_contactless": "no",
                "payment:onchain": "yes",
                "phone": "0687562458",
                "shop": "clothes",
                "website": "https://www.nuvolari.biz/stores/roma-bufalotta-c-c-dima-shopping"
            }
        },
        {
            "type": "node",
            "id": 10788548244,
            "lat": 41.9022135,
            "lon": 12.4380874,
            "timestamp": "2023-08-04T10:39:17Z",
            "version": 3,
            "changeset": 139435154,
            "user": "Igor Bubelov",
            "uid": 2104834,
            "tags": {
                "addr:city": "Roma",
                "addr:housenumber": "30",
                "addr:postcode": "00167",
                "addr:street": "Viale di Valle Aurelia",
                "check_date": "2023-04-05",
                "clothes": "men",
                "currency:XBT": "yes",
                "name": "Nuvolari c.c Aura",
                "payment:lightning": "no",
                "payment:lightning_contactless": "no",
                "payment:onchain": "yes",
                "phone": "0688976520",
                "shop": "clothes",
                "website": "https://www.nuvolari.biz/stores/roma-aurelia"
            }
        },
        {
            "type": "node",
            "id": 10788554735,
            "lat": 41.8508082,
            "lon": 12.5988331,
            "timestamp": "2023-08-04T07:16:34Z",
            "version": 3,
            "changeset": 139426521,
            "user": "Igor Bubelov",
            "uid": 2104834,
            "tags": {
                "addr:city": "Roma",
                "addr:housenumber": "8",
                "addr:postcode": "00173",
                "addr:street": "Via Enrico Ferri",
                "addr:unit": "96",
                "check_date": "2023-04-05",
                "currency:XBT": "yes",
                "name": "Nuvolari c.c. Romanina",
                "payment:lightning": "no",
                "payment:lightning_contactless": "no",
                "payment:onchain": "yes",
                "phone": "067233530",
                "shop": "clothes",
                "website": "https://www.nuvolari.biz/"
            }
        },
        {
            "type": "node",
            "id": 10788561661,
            "lat": 41.8743954,
            "lon": 12.5230558,
            "timestamp": "2023-08-04T07:18:05Z",
            "version": 3,
            "changeset": 139426572,
            "user": "Igor Bubelov",
            "uid": 2104834,
            "tags": {
                "addr:city": "Roma",
                "addr:housenumber": "450",
                "addr:postcode": "00181",
                "addr:street": "Via Appia Nuova",
                "check_date": "2023-04-05",
                "currency:XBT": "yes",
                "name": "Nuvolari c.c. Happio",
                "payment:lightning": "no",
                "payment:lightning_contactless": "no",
                "payment:onchain": "yes",
                "phone": "0687768218",
                "shop": "clothes",
                "website": "https://www.nuvolari.biz/"
            }
        },
        {
            "type": "node",
            "id": 10901333787,
            "lat": 41.9595919,
            "lon": 12.8012865,
            "timestamp": "2024-11-18T16:52:36Z",
            "version": 3,
            "changeset": 159291435,
            "user": "MagoLombiy",
            "uid": 2900895,
            "tags": {
                "addr:city": "Tivoli",
                "addr:country": "IT",
                "addr:housenumber": "89",
                "addr:postcode": "00019",
                "addr:street": "Viale Tomei",
                "currency:XBT": "yes",
                "leisure": "fitness_centre",
                "name": "Acqua Fitness Marima",
                "payment:cryptocurrencies": "yes",
                "phone": "+39 351 9377723"
            }
        },
        {
            "type": "node",
            "id": 10945146851,
            "lat": 41.4639226,
            "lon": 12.6712735,
            "timestamp": "2025-01-01T21:13:22Z",
            "version": 2,
            "changeset": 160885638,
            "user": "mpbin",
            "uid": 21850090,
            "tags": {
                "addr:city": "Nettuno",
                "addr:postcode": "00048",
                "addr:street": "Via Scipione Borghese",
                "brand": "Unieuro",
                "brand:wikidata": "Q4004687",
                "name": "Unieuro",
                "nohousenumber": "yes",
                "operator": "Unieuro S.p.A.",
                "shop": "electronics"
            }
        },
        {
            "type": "node",
            "id": 11282195298,
            "lat": 41.9156804,
            "lon": 12.4539465,
            "timestamp": "2024-10-06T17:24:19Z",
            "version": 3,
            "changeset": 157550913,
            "user": "mpbin",
            "uid": 21850090,
            "tags": {
                "addr:city": "Roma",
                "addr:housenumber": "13",
                "addr:postcode": "00195",
                "addr:street": "Piazzale Clodio",
                "amenity": "doctors",
                "check_date": "2024-10-06",
                "check_date:currency:XBT": "2024-10-06",
                "currency:XBT": "yes",
                "description": "Specialista in medicina legale.",
                "email": "dr.lastella@gmail.com",
                "healthcare": "doctor",
                "name": "Dr. Alessio La Stella"
            }
        },
        {
            "type": "node",
            "id": 11358040076,
            "lat": 41.9717784,
            "lon": 12.5391173,
            "timestamp": "2024-02-19T04:20:25Z",
            "version": 2,
            "changeset": 147632637,
            "user": "Igor Bubelov",
            "uid": 2104834,
            "tags": {
                "addr:city": "Roma",
                "addr:housenumber": "201",
                "addr:postcode": "00139",
                "addr:street": "Via Alberto Lionello",
                "amenity": "fast_food",
                "check_date": "2023-11-17",
                "cuisine": "kebab",
                "currency:XBT": "yes",
                "name": "Kebhouze -  CC Porta di Roma",
                "payment:lightning": "yes",
                "payment:lightning_contactless": "yes",
                "payment:onchain": "yes",
                "website": "https://kebhouze.com/"
            }
        },
        {
            "type": "node",
            "id": 11358052148,
            "lat": 41.8406085,
            "lon": 12.6222508,
            "timestamp": "2024-02-19T04:21:15Z",
            "version": 2,
            "changeset": 147632651,
            "user": "Igor Bubelov",
            "uid": 2104834,
            "tags": {
                "addr:city": "Roma",
                "addr:housenumber": "426",
                "addr:postcode": "00173",
                "addr:street": "Viale Luigi Schiavonetti",
                "amenity": "fast_food",
                "check_date": "2023-11-17",
                "cuisine": "kebab",
                "currency:XBT": "yes",
                "name": "kebhouze - CC Tor Vergata",
                "payment:lightning": "yes",
                "payment:lightning_contactless": "yes",
                "payment:onchain": "yes",
                "website": "https://kebhouze.com/"
            }
        },
        {
            "type": "node",
            "id": 11459738375,
            "lat": 41.8648544,
            "lon": 12.5521335,
            "timestamp": "2024-12-30T22:16:35Z",
            "version": 3,
            "changeset": 160812355,
            "user": "mpbin",
            "uid": 21850090,
            "tags": {
                "addr:housenumber": "14",
                "brand": "Conad",
                "brand:wikidata": "Q639075",
                "name": "Conad",
                "operator": "CONAD Soc. Coop.",
                "shop": "supermarket"
            }
        },
        {
            "type": "node",
            "id": 11500779932,
            "lat": 41.8551308,
            "lon": 12.4427295,
            "timestamp": "2024-11-10T16:03:48Z",
            "version": 3,
            "changeset": 158973542,
            "user": "mpbin",
            "uid": 21850090,
            "tags": {
                "addr:city": "Roma",
                "addr:housenumber": "7",
                "addr:postcode": "00151",
                "addr:street": "Via Luigi Corti",
                "check_date": "2024-01-08",
                "contact:facebook": "https://www.facebook.com/people/Cleaneco-Service-srl/100034777222351/",
                "contact:mobile": "+39 329 451 3858",
                "craft": "cleaning",
                "currency:XBT": "yes",
                "email": "cleaneco@cleanecoservice.it",
                "name": "CleanEco Service",
                "phone": "+39 06 65793482",
                "source": "+39 06 65793482",
                "website": "http://www.cleanecoservice.it/wordpress/"
            }
        },
        {
            "type": "node",
            "id": 11502774097,
            "lat": 41.895079,
            "lon": 12.4406516,
            "timestamp": "2024-10-19T11:06:12Z",
            "version": 4,
            "changeset": 158085277,
            "user": "mpbin",
            "uid": 21850090,
            "tags": {
                "addr:city": "Roma",
                "addr:housenumber": "38",
                "addr:postcode": "00165",
                "addr:street": "Via Innocenzo Undicesimo",
                "check_date": "2024-10-19",
                "check_date:currency:XBT": "2024-10-19",
                "contact:email": "enotecavinoinanfora@gmail.com",
                "contact:facebook": "https://www.facebook.com/enotecavinoinanfora/",
                "contact:instagram": "https://www.instagram.com/enotecavinoinanfora1/",
                "currency:XBT": "yes",
                "name": "Enoteca Vino in Anfora",
                "opening_hours": "Mo-Sa 10:00-13:00,16:00-20:00",
                "payment:american_express": "yes",
                "payment:cash": "yes",
                "payment:credit_cards": "yes",
                "payment:mastercard": "yes",
                "payment:onchain": "yes",
                "payment:visa": "yes",
                "phone": "+39 327 216 5581",
                "shop": "wine",
                "website": "https://www.enotecavinoinanfora.it"
            }
        },
        {
            "type": "node",
            "id": 11642929577,
            "lat": 41.9094156,
            "lon": 12.5362686,
            "timestamp": "2024-02-19T21:03:25Z",
            "version": 1,
            "changeset": 147668129,
            "user": "Chiarant",
            "uid": 18452174,
            "tags": {
                "addr:city": "Roma",
                "addr:housenumber": "34",
                "addr:postcode": "00157",
                "addr:street": "Via Cupra",
                "addr:unit": "a",
                "check_date": "2024-02-19",
                "currency:XBT": "yes",
                "healthcare": "rehabilitation",
                "mobile": "+39 392 874 1612",
                "name": "Centro di Riabilitazione Studio Kum\u00e0",
                "operator": "Dr. Marco Quadrana",
                "phone": "+39 06 8936 4654",
                "website": "https://studiokumariabilitazione.business.site/"
            }
        },
        {
            "type": "node",
            "id": 11694127045,
            "lat": 41.7300886,
            "lon": 12.659825,
            "timestamp": "2024-03-05T14:45:53Z",
            "version": 2,
            "changeset": 148254017,
            "user": "Chiarant",
            "uid": 18452174,
            "tags": {
                "addr:city": "Albano Laziale",
                "addr:housenumber": "45",
                "addr:postcode": "00041",
                "addr:street": "Via Don Minzoni",
                "amenity": "pub",
                "check_date": "2024-03-05",
                "contact:facebook": "https://www.facebook.com/people/Dooleys-Irish-Pub/100069111750997/",
                "currency:XBT": "yes",
                "name": "Dooley's Irish Pub",
                "opening_hours": "Mo-Su 18:00-02:00",
                "payment:lightning": "yes",
                "payment:onchain": "no",
                "theme": "irish"
            }
        },
        {
            "type": "node",
            "id": 11709312168,
            "lat": 41.8968569,
            "lon": 12.4961975,
            "timestamp": "2024-10-30T13:01:36Z",
            "version": 2,
            "changeset": 158540611,
            "user": "Michele Aquilani",
            "uid": 3860151,
            "tags": {
                "addr:city": "Roma",
                "addr:housenumber": "5",
                "addr:postcode": "00184",
                "addr:street": "Via dei Quattro Cantoni",
                "amenity": "bar",
                "check_date": "2024-03-09",
                "contact:email": "censured.roma@gmail.com",
                "currency:XBT": "yes",
                "lgbtq": "primary",
                "name": "Censured Gay Cruising Bar",
                "payment:lightning": "yes",
                "payment:lightning_contactless": "yes",
                "payment:onchain": "yes",
                "website": "https://censuredclubroma.it/"
            }
        },
        {
            "type": "node",
            "id": 11723361058,
            "lat": 41.7309085,
            "lon": 12.6587998,
            "timestamp": "2024-05-02T13:11:05Z",
            "version": 5,
            "changeset": 150793763,
            "user": "mnestico",
            "uid": 20712493,
            "tags": {
                "addr:city": "Albano Laziale",
                "addr:housenumber": "10",
                "addr:postcode": "00041",
                "addr:street": "Largo Leonardo Murialdo",
                "check_date": "2024-05-02",
                "currency:EUR": "yes",
                "currency:XBT": "yes",
                "name": "Barber Shop da Giallo",
                "payment:lightning": "yes",
                "payment:lightning_contactless": "no",
                "payment:onchain": "yes",
                "phone": "391 420 3984",
                "shop": "hairdresser"
            }
        },
        {
            "type": "node",
            "id": 11772119554,
            "lat": 41.8817331,
            "lon": 12.5599691,
            "timestamp": "2025-01-03T17:33:39Z",
            "version": 2,
            "changeset": 160959144,
            "user": "mpbin",
            "uid": 21850090,
            "tags": {
                "brand": "MediaWorld",
                "brand:wikidata": "Q76504823",
                "name": "MediaWorld",
                "operator": "MediaMarket S.p.A.",
                "shop": "electronics"
            }
        },
        {
            "type": "node",
            "id": 11787412770,
            "lat": 41.854241,
            "lon": 12.4750508,
            "timestamp": "2024-04-04T17:32:05Z",
            "version": 1,
            "changeset": 149580708,
            "user": "Chiarant",
            "uid": 18452174,
            "tags": {
                "addr:city": "Roma",
                "addr:housenumber": "10",
                "addr:postcode": "00146",
                "addr:street": "Via Efeso",
                "check_date": "2024-03-23",
                "currency:XBT": "yes",
                "name": "3GATTI ARCHITECTURE STUDIO",
                "office": "architect",
                "website": "https://3gatti.com/"
            }
        },
        {
            "type": "node",
            "id": 11810607823,
            "lat": 41.9043333,
            "lon": 12.4911934,
            "timestamp": "2024-12-21T10:34:06Z",
            "version": 3,
            "changeset": 160464424,
            "user": "Michele Aquilani",
            "uid": 3860151,
            "tags": {
                "addr:city": "Roma",
                "addr:country": "IT",
                "addr:housenumber": "34",
                "addr:postcode": "00187",
                "addr:street": "Via Barberini",
                "amenity": "cafe",
                "check_date": "2024-04-11",
                "contact:email": "info@coinbar.io",
                "contact:facebook": "https://www.facebook.com/CoinbarSpa",
                "contact:instagram": "https://www.facebook.com/romacoinbar",
                "contact:telegram": "https://t.me/CoinbarITA",
                "contact:twitter": "https://twitter.com/CoinbarOfficial",
                "currency:XBT": "yes",
                "name": "Coinbar Roma \u2013 Barberini",
                "opening_hours": "Su-Sa 07:00-20:00",
                "payment:lightning": "yes",
                "payment:lightning_contactless": "yes",
                "payment:onchain": "yes",
                "website": "https://coinbar.io/"
            }
        },
        {
            "type": "node",
            "id": 11816240076,
            "lat": 41.9081286,
            "lon": 12.4708241,
            "timestamp": "2024-04-14T09:12:58Z",
            "version": 1,
            "changeset": 149983049,
            "user": "Chiarant",
            "uid": 18452174,
            "tags": {
                "addr:city": "Roma",
                "addr:housenumber": "60",
                "addr:postcode": "00193",
                "addr:street": "Via Federico Cesi",
                "amenity": "atm",
                "check_date": "2024-04-14",
                "currency:XBT": "yes",
                "description": "Bitcoin ATM che permette di acquistare Bitcoin, Ethereum, Litecoin, Dogecoin, Bitcoin Cash, Dash, Monero. L'ATM \u00e8 situato all'interno del negozio Erba Volant",
                "email": "support@cryptolocalatm.com",
                "name": "CryptoLocalATM c/o Erba Volant",
                "payment:onchain": "yes",
                "phone": "+447894438974",
                "website": "https://cryptolocalatm.com"
            }
        },
        {
            "type": "node",
            "id": 11819955648,
            "lat": 41.9022589,
            "lon": 12.4382134,
            "timestamp": "2024-04-15T19:29:17Z",
            "version": 1,
            "changeset": 150055311,
            "user": "Chiarant",
            "uid": 18452174,
            "tags": {
                "addr:city": "Roma",
                "addr:housenumber": "30",
                "addr:postcode": "00167",
                "addr:street": "Viale di Valle Aurelia",
                "check_date": "2024-04-14",
                "currency:XBT": "yes",
                "email": "INFO@PROJ3CT.IT",
                "name": "PROJ3CT Store - C.C. Aura",
                "phone": "+39 06 87779535",
                "shop": "clothes",
                "website": "https://www.proj3ct.it/"
            }
        },
        {
            "type": "node",
            "id": 11819959469,
            "lat": 41.9082389,
            "lon": 12.4772941,
            "timestamp": "2024-04-15T19:13:46Z",
            "version": 1,
            "changeset": 150054812,
            "user": "Chiarant",
            "uid": 18452174,
            "tags": {
                "addr:city": "Roma",
                "addr:housenumber": "502",
                "addr:postcode": "00186",
                "addr:street": "Via del Corso",
                "check_date": "2024-04-14",
                "currency:XBT": "yes",
                "email": "INFO@PROJ3CT.IT",
                "name": "PROJ3CT Store - Roma Centro",
                "shop": "clothes",
                "website": "https://www.proj3ct.it/"
            }
        },
        {
            "type": "node",
            "id": 11819969169,
            "lat": 41.9354405,
            "lon": 12.5338201,
            "timestamp": "2024-04-15T19:18:26Z",
            "version": 1,
            "changeset": 150054955,
            "user": "Chiarant",
            "uid": 18452174,
            "tags": {
                "addr:city": "Roma",
                "addr:housenumber": "1",
                "addr:postcode": "00141",
                "addr:street": "Corso Sempione",
                "check_date": "2024-04-14",
                "currency:XBT": "yes",
                "email": "INFO@PROJ3CT.IT",
                "name": "PROJ3CT Store - Montesacro",
                "phone": "+39 06 87179037",
                "shop": "clothes",
                "website": "https://www.proj3ct.it/"
            }
        },
        {
            "type": "node",
            "id": 11819971480,
            "lat": 41.9148482,
            "lon": 12.6609195,
            "timestamp": "2024-04-15T19:26:30Z",
            "version": 1,
            "changeset": 150055207,
            "user": "Chiarant",
            "uid": 18452174,
            "tags": {
                "addr:city": "Roma",
                "addr:housenumber": "858",
                "addr:postcode": "00132",
                "addr:street": "Via Collatina",
                "check_date": "2024-04-14",
                "currency:XBT": "yes",
                "email": "INFO@PROJ3CT.IT",
                "name": "PROJ3CT Store - C.C. RomaEst",
                "phone": "+39 06 22510223",
                "shop": "clothes",
                "website": "https://www.proj3ct.it/"
            }
        },
        {
            "type": "node",
            "id": 11822758657,
            "lat": 41.8119492,
            "lon": 12.6068387,
            "timestamp": "2024-04-17T15:05:07Z",
            "version": 2,
            "changeset": 150134303,
            "user": "Al_14",
            "uid": 21316887,
            "tags": {
                "addr:city": "Roma",
                "addr:housenumber": "72",
                "addr:postcode": "00118",
                "addr:street": "Via del Casale Agostinelli",
                "amenity": "dentist",
                "check_date": "2024-04-16",
                "contact:email": "alessio.petrucci.14@gmail.com",
                "currency:XBT": "yes",
                "healthcare": "dentist",
                "healthcare:speciality": "dentist",
                "name": "Dentista dott. Petrucci Alessio",
                "payment:lightning": "yes",
                "payment:lightning_contactless": "no",
                "payment:onchain": "yes",
                "phone": "+39 35 1907 3364"
            }
        },
        {
            "type": "node",
            "id": 11824785351,
            "lat": 41.8620302,
            "lon": 12.554941,
            "timestamp": "2024-04-17T13:29:31Z",
            "version": 1,
            "changeset": 150130077,
            "user": "Rockedf",
            "uid": 7522075,
            "tags": {
                "addr:city": "Roma",
                "addr:housenumber": "21",
                "addr:postcode": "00175",
                "addr:street": "Via Licinio Murena",
                "amenity": "dentist",
                "check_date": "2024-04-17",
                "contact:email": "alessio.petrucci.14@gmail.com",
                "currency:XBT": "yes",
                "healthcare": "dentist",
                "healthcare:speciality": "dentist",
                "name": "Dentista dott. Alessio Petrucci",
                "payment:lightning": "yes",
                "payment:lightning_contactless": "no",
                "payment:onchain": "yes",
                "phone": "+39 35 1907 3364"
            }
        },
        {
            "type": "node",
            "id": 11827062863,
            "lat": 41.5007909,
            "lon": 12.6281369,
            "timestamp": "2025-01-01T21:36:26Z",
            "version": 2,
            "changeset": 160886305,
            "user": "mpbin",
            "uid": 21850090,
            "tags": {
                "addr:city": "Anzio",
                "addr:postcode": "00042",
                "addr:street": "Via Nettunense",
                "name": "Unieuro",
                "operator": "Unieuro S.p.A.",
                "shop": "electronics"
            }
        },
        {
            "type": "node",
            "id": 11845253611,
            "lat": 41.844778,
            "lon": 12.4565234,
            "timestamp": "2024-04-24T19:19:59Z",
            "version": 1,
            "changeset": 150463866,
            "user": "Rockedf",
            "uid": 7522075,
            "tags": {
                "addr:city": "Roma",
                "addr:housenumber": "281",
                "addr:postcode": "00146",
                "addr:street": "Via della Magliana",
                "addr:unit": "C",
                "amenity": "restaurant",
                "check_date": "2024-04-24",
                "contact:email": "fishenjoyroma@gmail.com",
                "cuisine": "seafood;fish",
                "currency:XBT": "yes",
                "name": "FishEnjoy",
                "payment:lightning": "no",
                "payment:lightning_contactless": "no",
                "payment:onchain": "yes",
                "phone": "+39 34 5535 8821",
                "website": "https://www.fishenjoy.com/"
            }
        },
        {
            "type": "node",
            "id": 11903612219,
            "lat": 41.6884781,
            "lon": 12.4882524,
            "timestamp": "2025-01-02T22:33:01Z",
            "version": 2,
            "changeset": 160928547,
            "user": "mpbin",
            "uid": 21850090,
            "tags": {
                "addr:city": "Pomezia",
                "addr:housenumber": "27,800",
                "addr:postcode": "00071",
                "addr:street": "via Pontina 27,800, c/o parco, 51",
                "brand": "Trony",
                "brand:wikidata": "Q3999692",
                "name": "Trony",
                "operator": "Trony",
                "shop": "electronics"
            }
        },
        {
            "type": "node",
            "id": 11909725983,
            "lat": 41.8582409,
            "lon": 12.4404195,
            "timestamp": "2024-05-16T11:54:27Z",
            "version": 1,
            "changeset": 151404401,
            "user": "Chiarant",
            "uid": 18452174,
            "tags": {
                "addr:city": "Roma",
                "addr:housenumber": "82",
                "addr:postcode": "00151",
                "addr:street": "Via Vincenzo Ussani",
                "check_date": "2024-05-16",
                "currency:XBT": "yes",
                "email": "info@freetime.org",
                "leisure": "fitness_centre",
                "name": "Freetime Sporting Club",
                "opening_hours": "Mo-Fr 07:00-22:00; Sa 07:00-19:00; Su 09:00-14:00",
                "phone": "+39 06 653 5901",
                "website": "https://www.freetimesportingclub.net/"
            }
        },
        {
            "type": "node",
            "id": 11909782206,
            "lat": 41.9473858,
            "lon": 12.4676738,
            "timestamp": "2024-05-16T12:26:33Z",
            "version": 1,
            "changeset": 151405823,
            "user": "Chiarant",
            "uid": 18452174,
            "tags": {
                "addr:city": "Roma",
                "addr:housenumber": "165",
                "addr:postcode": "00191",
                "addr:street": "Via di Vigna Stelluti",
                "check_date": "2024-05-16",
                "currency:XBT": "yes",
                "name": "Liguori - Stelluti",
                "shop": "jewelry",
                "website": "https://www.liguorigioielli.it/"
            }
        },
        {
            "type": "node",
            "id": 11909796488,
            "lat": 41.9437117,
            "lon": 12.5488183,
            "timestamp": "2024-05-16T12:32:22Z",
            "version": 1,
            "changeset": 151406099,
            "user": "Chiarant",
            "uid": 18452174,
            "tags": {
                "addr:city": "Roma",
                "addr:housenumber": "22",
                "addr:postcode": "00137",
                "addr:street": "Via Ugo Ojetti",
                "check_date": "2024-05-16",
                "currency:XBT": "yes",
                "name": "Liguori - Ojetti",
                "shop": "jewelry",
                "website": "https://www.liguorigioielli.it/"
            }
        },
        {
            "type": "node",
            "id": 11928292525,
            "lat": 41.9020363,
            "lon": 12.4381661,
            "timestamp": "2024-06-11T20:24:22Z",
            "version": 3,
            "changeset": 152560680,
            "user": "Rockedf",
            "uid": 7522075,
            "tags": {
                "addr:city": "Roma",
                "addr:housenumber": "30",
                "addr:postcode": "00167",
                "addr:street": "Viale di Valle Aurelia",
                "amenity": "atm",
                "cash_in": "yes",
                "cash_out": "yes",
                "cash_withdrawal": "yes",
                "check_date": "2024-05-23",
                "contact:email": "support@shitcoins.club",
                "contact:facebook": "https://www.facebook.com/shitcoins.club",
                "contact:instagram": "https://www.instagram.com/shitcoinsclub",
                "contact:telegram": "https://t.me/shitcoinsclub",
                "contact:twitter": "https://twitter.com/BitomatCom",
                "currency:CHF": "yes",
                "currency:DASH": "yes",
                "currency:ETH": "yes",
                "currency:EUR": "yes",
                "currency:GBP": "yes",
                "currency:HUF": "yes",
                "currency:LTC": "yes",
                "currency:RON": "yes",
                "currency:USD": "yes",
                "currency:USDC": "yes",
                "currency:USDT": "yes",
                "currency:XBT": "yes",
                "indoor": "yes",
                "name": "Bitcoin ATM - Shitcoins.club",
                "opening_hours": "Mo-Th 09:30-21:00",
                "operator": "Shitcoins.club",
                "payment:cash": "yes",
                "payment:lightning": "no",
                "payment:lightning_contactless": "no",
                "payment:onchain": "yes",
                "phone": "+39 34 8048 7308",
                "website": "https://shitcoins.club/"
            }
        },
        {
            "type": "node",
            "id": 11928307212,
            "lat": 41.8925511,
            "lon": 12.5057686,
            "timestamp": "2024-06-11T20:26:38Z",
            "version": 3,
            "changeset": 152560754,
            "user": "Rockedf",
            "uid": 7522075,
            "tags": {
                "addr:city": "Roma",
                "addr:housenumber": "34",
                "addr:postcode": "00185",
                "addr:street": "Via Emanuele Filiberto",
                "amenity": "atm",
                "cash_in": "yes",
                "cash_out": "yes",
                "cash_withdrawal": "yes",
                "check_date": "2024-05-23",
                "contact:email": "support@shitcoins.club",
                "contact:facebook": "https://www.facebook.com/shitcoins.club",
                "contact:instagram": "https://www.instagram.com/shitcoinsclub",
                "contact:telegram": "https://t.me/shitcoinsclub",
                "contact:twitter": "https://twitter.com/BitomatCom",
                "currency:CAD": "yes",
                "currency:CHF": "yes",
                "currency:DASH": "yes",
                "currency:ETH": "yes",
                "currency:EUR": "yes",
                "currency:HUF": "yes",
                "currency:LTC": "yes",
                "currency:RON": "yes",
                "currency:USD": "yes",
                "currency:USDC": "yes",
                "currency:USDT": "yes",
                "currency:XBT": "yes",
                "indoor": "yes",
                "name": "Bitcoin ATM - Shitcoins.club",
                "opening_hours": "24/7",
                "operator": "Shitcoins.club",
                "payment:cash": "yes",
                "payment:lightning": "no",
                "payment:lightning_contactless": "no",
                "payment:onchain": "yes",
                "phone": "+39 34 8048 7308",
                "website": "https://shitcoins.club/localizzazione-atm/atm-bitcoin-roma-via-emanuele-filiberto"
            }
        },
        {
            "type": "node",
            "id": 11937321164,
            "lat": 41.7349265,
            "lon": 12.2784932,
            "timestamp": "2025-01-03T09:52:55Z",
            "version": 7,
            "changeset": 160940521,
            "user": "mpbin",
            "uid": 21850090,
            "tags": {
                "addr:city": "Ostia",
                "addr:housenumber": "34",
                "addr:postcode": "00121",
                "addr:street": "Via delle Gondole",
                "branch": "Ostia Connect",
                "brand": "Decathlon",
                "brand:wikidata": "Q509349",
                "description": "Negozio connesso al Decathlon Fiumicino",
                "name": "Decathlon",
                "opening_hours": "Mo-Su 10:00-14:00; Mo-Su 15:45-19:30",
                "operator": "Decathlon",
                "payment:credit_cards": "yes",
                "payment:debit_cards": "yes",
                "phone": "+39 06 83551636",
                "shop": "sports",
                "website": "https://www.decathlon.it/store-view/negozio-sport-ostia-connect-0070270202702",
                "wheelchair": "yes"
            }
        },
        {
            "type": "node",
            "id": 11951751265,
            "lat": 41.592095,
            "lon": 12.6277024,
            "timestamp": "2025-01-01T21:39:37Z",
            "version": 2,
            "changeset": 160886393,
            "user": "mpbin",
            "uid": 21850090,
            "tags": {
                "addr:city": "Aprilia",
                "addr:postcode": "04011",
                "addr:street": "Via Riserva Nuova",
                "brand": "Unieuro",
                "brand:wikidata": "Q4004687",
                "name": "Unieuro",
                "operator": "Unieuro S.p.A.",
                "shop": "electronics"
            }
        },
        {
            "type": "node",
            "id": 11951792699,
            "lat": 41.6747882,
            "lon": 12.5032083,
            "timestamp": "2025-01-03T17:34:16Z",
            "version": 2,
            "changeset": 160959160,
            "user": "mpbin",
            "uid": 21850090,
            "tags": {
                "brand": "MediaWorld",
                "brand:wikidata": "Q76504823",
                "name": "MediaWorld",
                "operator": "MediaMarket S.p.A.",
                "shop": "electronics"
            }
        },
        {
            "type": "node",
            "id": 12018238806,
            "lat": 41.9155594,
            "lon": 12.5030491,
            "timestamp": "2025-01-06T14:37:25Z",
            "version": 4,
            "changeset": 161060895,
            "user": "mpbin",
            "uid": 21850090,
            "tags": {
                "brand": "IKEA",
                "brand:wikidata": "Q54078",
                "name": "IKEA",
                "operator": "Ikea Italia Retail S.r.l.",
                "shop": "furniture",
                "wheelchair": "yes"
            }
        },
        {
            "type": "node",
            "id": 12068433363,
            "lat": 41.9286497,
            "lon": 12.4826489,
            "timestamp": "2024-07-22T16:21:16Z",
            "version": 1,
            "changeset": 154270986,
            "user": "mauropili",
            "uid": 1496865,
            "tags": {
                "addr:city": "Roma",
                "addr:housenumber": "15",
                "addr:postcode": "00197",
                "addr:street": "Piazzale del Parco della Rimembranza",
                "amenity": "atm",
                "check_date": "2024-07-19",
                "contact:facebook": "https://www.facebook.com/CoinFlipATM/",
                "contact:instagram": "https://www.instagram.com/coinflip/",
                "contact:linkedin": "https://www.linkedin.com/company/coinflipusa/",
                "contact:twitter": "https://x.com/coinflip",
                "currency:XBT": "yes",
                "description": "Bitcoin ATM che consente agli utenti di acquistare Bitcoin e altre criptovalute in contanti",
                "email": "assistenza@coinflip.tech",
                "name": "Coinflip Bitcoin ATM c/o Tabacchi 492",
                "operator": "Olliv Italia s.r.l.",
                "phone": "+39 800 764704",
                "website": "https://coinflip.tech/"
            }
        },
        {
            "type": "node",
            "id": 12237917353,
            "lat": 41.8808276,
            "lon": 12.5135026,
            "timestamp": "2024-12-30T22:12:57Z",
            "version": 2,
            "changeset": 160812267,
            "user": "mpbin",
            "uid": 21850090,
            "tags": {
                "addr:city": "Roma",
                "addr:country": "IT",
                "addr:housenumber": "18",
                "addr:postcode": "00183",
                "addr:street": "Via Albalonga",
                "brand": "Conad",
                "brand:wikidata": "Q639075",
                "name": "Conad",
                "operator": "CONAD Soc. Coop.",
                "shop": "supermarket"
            }
        },
        {
            "type": "node",
            "id": 12314473265,
            "lat": 41.9197445,
            "lon": 12.4419893,
            "timestamp": "2024-11-05T15:32:00Z",
            "version": 1,
            "changeset": 158783957,
            "user": "mpbin",
            "uid": 21850090,
            "tags": {
                "addr:city": "Roma",
                "addr:housenumber": "13/15",
                "addr:postcode": "00136",
                "addr:street": "Piazza della Balduina",
                "brand": "DOPPELG\u00c4NGER",
                "clothes": "men",
                "contact:facebook": "https://www.facebook.com/doppelganger.abbigliamento/",
                "currency:XBT": "yes",
                "name": "Doppelg\u00e4nger Roma Balduina",
                "phone": "+39 06 35402590",
                "shop": "clothes",
                "website": "https://www.doppelganger.it/"
            }
        },
        {
            "type": "node",
            "id": 12319618892,
            "lat": 41.9099155,
            "lon": 12.5073847,
            "timestamp": "2024-11-06T23:08:15Z",
            "version": 2,
            "changeset": 158836485,
            "user": "mpbin",
            "uid": 21850090,
            "tags": {
                "addr:city": "Roma",
                "addr:housenumber": "15A bis",
                "addr:postcode": "00161",
                "addr:street": "Via di Villa Patrizi",
                "amenity": "doctors",
                "currency:XBT": "yes",
                "healthcare": "doctor",
                "healthcare:speciality": "ophthalmology",
                "name": "Studio Oftalmologico Scuderi",
                "phone": "+39 06 442 31278"
            }
        },
        {
            "type": "way",
            "id": 24242559,
            "timestamp": "2025-01-06T14:39:06Z",
            "version": 13,
            "changeset": 161060952,
            "user": "mpbin",
            "uid": 21850090,
            "nodes": [
                262477661,
                262477675,
                2144765558,
                2144765560,
                2144765590,
                2144765580,
                262477674,
                2144765597,
                2144765617,
                2144765640,
                2144765642,
                2144765647,
                2144765656,
                2144765659,
                2144765663,
                262477673,
                2368322135,
                262477672,
                262477671,
                262477668,
                262477667,
                262477663,
                262477662,
                2144765554,
                2144765546,
                2144765522,
                2144765520,
                2144765517,
                262477661
            ],
            "tags": {
                "addr:city": "Roma",
                "addr:housenumber": "35",
                "addr:postcode": "00173",
                "addr:street": "Via Fattoria Rampa",
                "branch": "Roma Anagnina",
                "brand": "IKEA",
                "brand:wikidata": "Q54078",
                "brand:wikipedia": "en:IKEA",
                "building": "hall",
                "building:levels": "3",
                "name": "IKEA",
                "opening_hours": "Mo-Su 09:30-21:30",
                "operator": "Ikea Italia Retail S.r.l.",
                "ref:vatin": "IT02992760963",
                "shop": "furniture",
                "website": "https://www.ikea.com/it/it/stores/roma-anagnina/",
                "wheelchair": "yes"
            }
        },
        {
            "type": "way",
            "id": 32735011,
            "timestamp": "2024-01-08T16:58:14Z",
            "version": 7,
            "changeset": 146036372,
            "user": "pboscherini",
            "uid": 18038465,
            "nodes": [
                368339440,
                11379863109,
                11379863103,
                11379863106,
                368339444,
                11379863100,
                11500590805,
                4803985323,
                4803985320,
                368339464,
                368339466,
                368339469,
                11500590812,
                368339471,
                11500590810,
                368339474,
                11500590807,
                11500590808,
                11500590809,
                11500590806,
                368339491,
                368339493,
                11500590815,
                368339496,
                11500590813,
                368339500,
                368339504,
                11500590804,
                368339440
            ],
            "tags": {
                "addr:city": "Roma",
                "addr:housenumber": "10",
                "addr:postcode": "00148",
                "addr:street": "Via di Valle Lupara",
                "brand": "Unieuro",
                "brand:wikidata": "Q4004687",
                "brand:wikipedia": "en:Unieuro",
                "building": "yes",
                "building:colour": "#ffffff",
                "height": "3",
                "name": "Unieuro",
                "opening_hours": "Mo-Sa 09:00-21:00; Su 10:00-21:00",
                "operator": "Unieuro S.p.A.",
                "payment:cash": "yes",
                "payment:credit_cards": "yes",
                "phone": "+3906651591",
                "shop": "electronics",
                "website": "https://www.unieuro.it/online/negozi/Unieuro-Roma---Muratella"
            }
        },
        {
            "type": "way",
            "id": 41113035,
            "timestamp": "2024-04-06T12:43:08Z",
            "version": 9,
            "changeset": 149650831,
            "user": "\u0110uro Ji\u0159\u00ed",
            "uid": 14617702,
            "nodes": [
                501609659,
                2612636681,
                2612636682,
                2612636679,
                501609660,
                501609661,
                501609662,
                501609664,
                501609665,
                501609669,
                501609659
            ],
            "tags": {
                "addr:city": "Roma",
                "addr:housenumber": "30",
                "addr:postcode": "00173",
                "addr:street": "Via Mary Pandolfi de Rinaldis",
                "brand": "MediaWorld",
                "brand:wikidata": "Q76504823",
                "building": "retail",
                "building:levels": "5",
                "name": "MediaWorld",
                "opening_hours": "Mo-Su 09:30-20:00",
                "operator": "MediaMarket S.p.A.",
                "shop": "electronics",
                "wheelchair": "yes"
            }
        },
        {
            "type": "way",
            "id": 43130955,
            "timestamp": "2023-07-31T14:23:33Z",
            "version": 4,
            "changeset": 139256906,
            "user": "BTC Map",
            "uid": 18545877,
            "nodes": [
                540358947,
                540358937,
                540358944,
                540358956,
                540358947
            ],
            "tags": {
                "addr:housenumber": "km 13.500",
                "addr:postcode": "00166",
                "addr:street": "Via Aurelia",
                "building": "yes",
                "check_date:currency:XBT": "2023-07-31",
                "currency:XBT": "yes",
                "name": "Mondo Convenienza",
                "opening_hours": "Mo-Su 09:30-20:30",
                "phone": "+390691515",
                "shop": "furniture",
                "website": "https://www.mondoconv.it/punti-vendita/shop/index/negozio/6/"
            }
        },
        {
            "type": "way",
            "id": 94078930,
            "timestamp": "2023-07-12T09:19:48Z",
            "version": 6,
            "changeset": 138413640,
            "user": "AlCeRoma",
            "uid": 12770453,
            "nodes": [
                1093747173,
                11041955786,
                1093747195,
                1093747210,
                2427016269,
                1093747203,
                1093747170,
                2427012486,
                11041955787,
                1093747173
            ],
            "tags": {
                "addr:city": "Roma",
                "addr:housenumber": "190",
                "addr:postcode": "00155",
                "addr:street": "Viale Giovanni Battista Valente",
                "brand": "Conad",
                "brand:wikidata": "Q639075",
                "brand:wikipedia": "it:Conad",
                "building": "yes",
                "name": "Conad",
                "opening_hours": "Mo-Sa 08:30-20:00; Su 08:30-14:00",
                "operator": "Conad",
                "payment:bancomat": "yes",
                "payment:cash": "yes",
                "payment:credit_cards": "yes",
                "phone": "+39 06 214901",
                "shop": "supermarket",
                "website": "https://www.conad.it/ricerca-negozi/negozio.009894.html"
            }
        },
        {
            "type": "way",
            "id": 102270942,
            "timestamp": "2024-02-16T09:07:13Z",
            "version": 10,
            "changeset": 147522472,
            "user": "Palary",
            "uid": 20415443,
            "nodes": [
                1180587687,
                1180587834,
                1180587676,
                1180587878,
                11629761758,
                1180587694,
                1180587613,
                11629761759,
                1180587804,
                11629761760,
                11629761761,
                1180587672,
                1180587872,
                11629761762,
                11629761763,
                11629761764,
                11629761765,
                1180587689,
                11629870069,
                11629761766,
                11629761767,
                11629761768,
                1180587687
            ],
            "tags": {
                "addr:city": "Roma",
                "addr:housenumber": "55",
                "addr:postcode": "00166",
                "addr:street": "Via Arola",
                "brand": "Conad",
                "brand:wikidata": "Q639075",
                "brand:wikipedia": "it:Conad",
                "building": "retail",
                "name": "Conad",
                "opening_hours": "Mo-Su 08:00-21:00",
                "operator": "Conad",
                "payment:bancomat": "yes",
                "payment:cash": "yes",
                "payment:credit_cards": "yes",
                "phone": "+39 06 30266300",
                "shop": "supermarket",
                "website": "https://www.conad.it/ricerca-negozi/negozio.006887.html"
            }
        },
        {
            "type": "way",
            "id": 142141271,
            "timestamp": "2021-07-01T12:38:01Z",
            "version": 5,
            "changeset": 107260269,
            "user": "Silverium",
            "uid": 13566882,
            "nodes": [
                1555734902,
                1555734950,
                1555735005,
                1555734932,
                1555734902
            ],
            "tags": {
                "addr:housenumber": "850",
                "addr:street": "Via Ardeatina",
                "brand": "Conad",
                "brand:wikidata": "Q639075",
                "brand:wikipedia": "it:Conad",
                "building": "supermarket",
                "name": "Conad",
                "opening_hours": "Mo-Sa 08:30-20:00; Su 09:00-13:30",
                "operator": "Conad",
                "phone": "+39 06 50513803",
                "shop": "supermarket"
            }
        },
        {
            "type": "way",
            "id": 191107221,
            "timestamp": "2023-08-04T07:30:49Z",
            "version": 7,
            "changeset": 139427070,
            "user": "Igor Bubelov",
            "uid": 2104834,
            "nodes": [
                2016890640,
                2016890648,
                2016890628,
                3458276515,
                2016890640
            ],
            "tags": {
                "addr:city": "Castel Gandolfo",
                "addr:housenumber": "27",
                "addr:postcode": "00040",
                "addr:street": "Via De' Zecchini",
                "building": "yes",
                "check_date:currency:XBT": "2023-07-11",
                "currency:XBT": "yes",
                "name": "Hotel Castel Gandolfo",
                "phone": "+39 06 9360521",
                "smoking": "outside",
                "stars": "4",
                "tourism": "hotel",
                "website": "https://www.hotelcastelgandolfo.com/"
            }
        },
        {
            "type": "way",
            "id": 196499127,
            "timestamp": "2023-07-31T14:41:06Z",
            "version": 5,
            "changeset": 139257764,
            "user": "BTC Map",
            "uid": 18545877,
            "nodes": [
                2068277865,
                2068277857,
                2068277851,
                2068277853,
                2068277865
            ],
            "tags": {
                "brand": "Mondo Convenienza",
                "brand:wikidata": "Q55830962",
                "building": "commercial",
                "check_date:currency:XBT": "2023-07-31",
                "currency:XBT": "yes",
                "name": "Mondo Convenienza",
                "shop": "furniture",
                "website": "https://www.mondoconv.it/"
            }
        },
        {
            "type": "way",
            "id": 225826084,
            "timestamp": "2021-07-02T12:18:39Z",
            "version": 5,
            "changeset": 107310480,
            "user": "Silverium",
            "uid": 13566882,
            "nodes": [
                2346494244,
                2626206357,
                2346494248,
                2346494249,
                3849194701,
                2529347883,
                2529347877,
                2346494246,
                2346494244
            ],
            "tags": {
                "addr:city": "Frascati",
                "addr:housenumber": "39",
                "addr:postcode": "00044",
                "addr:street": "Via Gregoriana",
                "building": "commercial",
                "name": "Conad",
                "operator": "Conad",
                "phone": "+39 06 9417559",
                "shop": "supermarket",
                "wheelchair": "yes"
            }
        },
        {
            "type": "way",
            "id": 236570048,
            "timestamp": "2021-07-03T06:45:53Z",
            "version": 3,
            "changeset": 107341169,
            "user": "Silverium",
            "uid": 13566882,
            "nodes": [
                2445910339,
                2445910321,
                2445910274,
                2445910296,
                2445910339
            ],
            "tags": {
                "addr:city": "San Vito Romano",
                "addr:housenumber": "60",
                "addr:postcode": "00030",
                "addr:street": "Viale Piave",
                "building": "yes",
                "name": "Conad Margherita",
                "operator": "Conad",
                "shop": "supermarket"
            }
        },
        {
            "type": "way",
            "id": 408362762,
            "timestamp": "2025-01-06T15:36:28Z",
            "version": 5,
            "changeset": 161063421,
            "user": "ivanbranco",
            "uid": 11220113,
            "nodes": [
                4103104331,
                4103104332,
                4103104333,
                4103104334,
                4103104331
            ],
            "tags": {
                "access": "customers",
                "amenity": "parking",
                "fee": "no",
                "operator": "Conad",
                "parking": "surface"
            }
        },
        {
            "type": "way",
            "id": 445960742,
            "timestamp": "2023-07-31T14:41:06Z",
            "version": 3,
            "changeset": 139257764,
            "user": "BTC Map",
            "uid": 18545877,
            "nodes": [
                4433000461,
                4433000295,
                4433000238,
                4433000220,
                4433000277,
                4433000461
            ],
            "tags": {
                "brand": "Mondo Convenienza",
                "brand:wikidata": "Q55830962",
                "building": "commercial",
                "check_date:currency:XBT": "2023-07-31",
                "currency:XBT": "yes",
                "name": "Mondo Convenienza",
                "shop": "furniture"
            }
        },
        {
            "type": "way",
            "id": 471809969,
            "timestamp": "2024-12-30T22:08:36Z",
            "version": 5,
            "changeset": 160812131,
            "user": "mpbin",
            "uid": 21850090,
            "nodes": [
                4659676368,
                4659676369,
                4659676370,
                4659676371,
                4858429119,
                4659676368
            ],
            "tags": {
                "addr:housenumber": "36",
                "addr:street": "Via di Castel Fusano",
                "brand": "Conad",
                "brand:wikidata": "Q639075",
                "brand:wikipedia": "it:Conad",
                "building": "yes",
                "name": "Conad",
                "operator": "CONAD Soc. Coop.",
                "phone": "+39 06 5651929",
                "shop": "supermarket"
            }
        },
        {
            "type": "way",
            "id": 486534369,
            "timestamp": "2024-12-30T22:08:57Z",
            "version": 7,
            "changeset": 160812144,
            "user": "mpbin",
            "uid": 21850090,
            "nodes": [
                4791337918,
                4791337919,
                4791337920,
                4791338121,
                4791337918
            ],
            "tags": {
                "addr:housenumber": "47/49",
                "addr:street": "Via di Polletrara",
                "brand": "Conad",
                "brand:wikidata": "Q639075",
                "building": "retail",
                "name": "Conad",
                "operator": "CONAD Soc. Coop.",
                "phone": "+39 06 61566229",
                "shop": "supermarket",
                "website": "https://www.conad.it/",
                "wheelchair": "yes"
            }
        },
        {
            "type": "way",
            "id": 486913089,
            "timestamp": "2023-01-12T19:19:45Z",
            "version": 2,
            "changeset": 131201756,
            "user": "mascalzone67",
            "uid": 1861652,
            "nodes": [
                4794553801,
                4794553802,
                4794553803,
                4794553804,
                4794553801
            ],
            "tags": {
                "addr:city": "Roma",
                "addr:housenumber": "5",
                "addr:postcode": "00166",
                "addr:street": "Via Vittorino Cannavina",
                "brand": "Conad",
                "brand:wikidata": "Q639075",
                "building": "yes",
                "name": "Conad",
                "opening_hours": "Mo-Su 08:00-21:00",
                "operator": "Conad",
                "payment:bancomat": "yes",
                "payment:cash": "yes",
                "payment:credit_cards": "yes",
                "phone": "+39 06 79784430",
                "shop": "supermarket",
                "source": "https://www.gdonews.it/2023/01/11/inaugura-a-roma-il-nuovo-conad-di-via-vittorino-cannavina/",
                "start_date": "2023-01-12"
            }
        },
        {
            "type": "way",
            "id": 503399518,
            "timestamp": "2025-01-06T15:26:07Z",
            "version": 5,
            "changeset": 161062943,
            "user": "SekeRob",
            "uid": 1940323,
            "nodes": [
                4937181297,
                4724800366,
                12478712729,
                12478712726,
                4937181301,
                4937181302,
                7922768013,
                4937181304,
                4724800327,
                4724800334,
                4724800333,
                4937181308,
                4937181307,
                7922768016,
                7922768017,
                7903035929,
                7922768018,
                4937181300,
                7903035928,
                4937181297
            ],
            "tags": {
                "access": "customers",
                "amenity": "parking",
                "covered": "no",
                "fee": "no",
                "operator": "Conad",
                "operator:type": "private",
                "orientation": "perpendicular",
                "parking": "surface",
                "surface": "asphalt"
            }
        },
        {
            "type": "way",
            "id": 548054477,
            "timestamp": "2021-07-02T12:18:24Z",
            "version": 4,
            "changeset": 107310480,
            "user": "Silverium",
            "uid": 13566882,
            "nodes": [
                5295017835,
                5295017836,
                5295017837,
                5295017838,
                5295017839,
                5295017840,
                5295017841,
                5295017842,
                5295017843,
                5295017844,
                5295017845,
                5295017835
            ],
            "tags": {
                "addr:street": "Viale della Pineta di Fregene",
                "brand": "Conad",
                "brand:wikidata": "Q639075",
                "brand:wikipedia": "it:Conad",
                "building": "retail",
                "name": "Conad",
                "operator": "Conad",
                "phone": "+39 06 61968339",
                "shop": "supermarket"
            }
        },
        {
            "type": "way",
            "id": 861300088,
            "timestamp": "2024-05-28T06:56:29Z",
            "version": 5,
            "changeset": 151928293,
            "user": "B&B il Lago di Nemi",
            "uid": 21319043,
            "nodes": [
                8027453295,
                8027453296,
                8027453297,
                8027453298,
                8027453295
            ],
            "tags": {
                "addr:city": "nemi",
                "addr:housenumber": "1",
                "addr:postcode": "00040",
                "addr:street": "Via delle Navi di Tiberio",
                "building": "yes",
                "check_date": "2024-04-18",
                "currency:XBT": "yes",
                "email": "info@illagodinemi.it",
                "guest_house": "bed_and_breakfast",
                "internet_access": "yes",
                "internet_access:fee": "no",
                "name": "B&B il Lago di Nemi.it",
                "payment:lightning": "yes",
                "payment:onchain": "yes",
                "phone": "+393932933303",
                "rooms": "5",
                "tourism": "guest_house",
                "website": "https://www.illagodinemi.it/"
            }
        },
        {
            "type": "way",
            "id": 1076687281,
            "timestamp": "2025-01-07T09:41:42Z",
            "version": 4,
            "changeset": 161088508,
            "user": "SekeRob",
            "uid": 1940323,
            "nodes": [
                9873192120,
                9873192121,
                9873192122,
                9873192123,
                9873192120
            ],
            "tags": {
                "access": "customers",
                "amenity": "parking",
                "capacity": "18",
                "operator": "Conad",
                "operator:type": "business",
                "orientation": "perpendicular",
                "parking": "street_side"
            }
        },
        {
            "type": "way",
            "id": 1076687282,
            "timestamp": "2025-01-07T09:41:42Z",
            "version": 4,
            "changeset": 161088508,
            "user": "SekeRob",
            "uid": 1940323,
            "nodes": [
                9873192124,
                9873192125,
                9873192126,
                9873192127,
                9873192124
            ],
            "tags": {
                "access": "customers",
                "amenity": "parking",
                "capacity": "18",
                "operator": "Conad",
                "operator:type": "business",
                "orientation": "perpendicular",
                "parking": "street_side"
            }
        },
        {
            "type": "way",
            "id": 1076687283,
            "timestamp": "2025-01-07T09:41:42Z",
            "version": 5,
            "changeset": 161088508,
            "user": "SekeRob",
            "uid": 1940323,
            "nodes": [
                9873192128,
                9873192129,
                9873192130,
                9873192131,
                9873192128
            ],
            "tags": {
                "access": "customers",
                "amenity": "parking",
                "capacity": "20",
                "operator": "Conad",
                "operator:type": "business",
                "orientation": "perpendicular",
                "parking": "street_side"
            }
        },
        {
            "type": "way",
            "id": 1076687285,
            "timestamp": "2025-01-07T09:29:49Z",
            "version": 4,
            "changeset": 161088174,
            "user": "SekeRob",
            "uid": 1940323,
            "nodes": [
                9873192134,
                9873192138,
                9873192135,
                9873192136,
                9873192137,
                9873192134
            ],
            "tags": {
                "access": "customers",
                "amenity": "parking",
                "capacity": "8",
                "operator": "Conad",
                "operator:type": "business",
                "parking": "street_side"
            }
        },
        {
            "type": "way",
            "id": 1076687286,
            "timestamp": "2025-01-07T09:29:49Z",
            "version": 4,
            "changeset": 161088174,
            "user": "SekeRob",
            "uid": 1940323,
            "nodes": [
                9873192135,
                9873192139,
                9873192146,
                9873192143,
                9873192140,
                9873192141,
                9873192142,
                9873192138,
                9873192135
            ],
            "tags": {
                "access": "customers",
                "amenity": "parking",
                "capacity": "3",
                "operator": "Conad",
                "operator:type": "business",
                "parking": "street_side"
            }
        },
        {
            "type": "way",
            "id": 1076687287,
            "timestamp": "2025-01-07T09:29:49Z",
            "version": 4,
            "changeset": 161088174,
            "user": "SekeRob",
            "uid": 1940323,
            "nodes": [
                9873192143,
                9873192148,
                9873192144,
                9873192145,
                9873192140,
                9873192143
            ],
            "tags": {
                "access": "customers",
                "amenity": "parking",
                "capacity:disabled": "10",
                "operator": "Conad",
                "operator:type": "business",
                "parking": "street_side"
            }
        },
        {
            "type": "way",
            "id": 1076687288,
            "timestamp": "2025-01-07T09:29:49Z",
            "version": 4,
            "changeset": 161088174,
            "user": "SekeRob",
            "uid": 1940323,
            "nodes": [
                9873192146,
                9873192147,
                9873192148,
                9873192143,
                9873192146
            ],
            "tags": {
                "access": "customers",
                "amenity": "parking",
                "capacity": "2",
                "operator": "Conad",
                "operator:type": "business",
                "parking": "street_side"
            }
        },
        {
            "type": "way",
            "id": 1076687289,
            "timestamp": "2025-01-07T09:41:42Z",
            "version": 5,
            "changeset": 161088508,
            "user": "SekeRob",
            "uid": 1940323,
            "nodes": [
                9873192149,
                9873192150,
                9873192151,
                9873192152,
                9873192149
            ],
            "tags": {
                "access": "customers",
                "amenity": "parking",
                "capacity": "4",
                "operator": "Conad",
                "operator:type": "business",
                "orientation": "perpendicular",
                "parking": "street_side"
            }
        },
        {
            "type": "way",
            "id": 1076687303,
            "timestamp": "2025-01-06T14:53:32Z",
            "version": 3,
            "changeset": 161061520,
            "user": "SekeRob",
            "uid": 1940323,
            "nodes": [
                9873209085,
                9873209086,
                9873209087,
                9873209088,
                9873209085
            ],
            "tags": {
                "access": "customers",
                "amenity": "parking",
                "capacity": "4",
                "capacity:disabled": "3",
                "operator": "Conad",
                "operator:type": "business"
            }
        },
        {
            "type": "way",
            "id": 1076687304,
            "timestamp": "2025-01-07T09:29:49Z",
            "version": 4,
            "changeset": 161088174,
            "user": "SekeRob",
            "uid": 1940323,
            "nodes": [
                9873209089,
                9873209090,
                9873209091,
                9873209101,
                9873209092,
                9873209089
            ],
            "tags": {
                "access": "customers",
                "amenity": "parking",
                "capacity": "4",
                "operator": "Conad",
                "operator:type": "business",
                "parking": "street_side"
            }
        },
        {
            "type": "way",
            "id": 1076687309,
            "timestamp": "2025-01-07T09:41:42Z",
            "version": 4,
            "changeset": 161088508,
            "user": "SekeRob",
            "uid": 1940323,
            "nodes": [
                9873209122,
                9873209123,
                9873209124,
                9873209125,
                9873209122
            ],
            "tags": {
                "access": "customers",
                "amenity": "parking",
                "capacity": "16",
                "operator": "Conad",
                "operator:type": "business",
                "orientation": "perpendicular",
                "parking": "street_side"
            }
        },
        {
            "type": "way",
            "id": 1076687310,
            "timestamp": "2025-01-07T09:41:42Z",
            "version": 4,
            "changeset": 161088508,
            "user": "SekeRob",
            "uid": 1940323,
            "nodes": [
                9873209126,
                9873209127,
                9873209131,
                9873209213,
                9873209129,
                9873209130,
                9873209128,
                9873209126
            ],
            "tags": {
                "access": "customers",
                "amenity": "parking",
                "capacity": "15",
                "operator": "Conad",
                "operator:type": "business",
                "orientation": "perpendicular",
                "parking": "street_side"
            }
        },
        {
            "type": "way",
            "id": 1076687314,
            "timestamp": "2025-01-07T09:29:49Z",
            "version": 4,
            "changeset": 161088174,
            "user": "SekeRob",
            "uid": 1940323,
            "nodes": [
                9873209145,
                9873209146,
                9873209147,
                9873209148,
                9873209145
            ],
            "tags": {
                "access": "customers",
                "amenity": "parking",
                "capacity": "4",
                "capacity:disabled": "4",
                "operator": "Conad",
                "operator:type": "business",
                "parking": "street_side"
            }
        },
        {
            "type": "way",
            "id": 1076687315,
            "timestamp": "2025-01-07T09:29:49Z",
            "version": 4,
            "changeset": 161088174,
            "user": "SekeRob",
            "uid": 1940323,
            "nodes": [
                9873209149,
                9873209150,
                9873209151,
                9873209152,
                9873209149
            ],
            "tags": {
                "access": "customers",
                "amenity": "parking",
                "capacity": "12",
                "operator": "Conad",
                "operator:type": "business",
                "parking": "street_side"
            }
        },
        {
            "type": "way",
            "id": 1076687321,
            "timestamp": "2025-01-07T09:29:49Z",
            "version": 4,
            "changeset": 161088174,
            "user": "SekeRob",
            "uid": 1940323,
            "nodes": [
                9873209244,
                9873209245,
                9873209246,
                9873209247,
                9873209248,
                9873209249,
                9873209250,
                9873209251,
                9873209252,
                9873209253,
                12480094018,
                9873209244
            ],
            "tags": {
                "access": "customers",
                "amenity": "parking",
                "operator": "Conad",
                "operator:type": "business",
                "surface": "dirt"
            }
        },
        {
            "type": "way",
            "id": 1132982109,
            "timestamp": "2024-04-15T19:22:36Z",
            "version": 5,
            "changeset": 150055086,
            "user": "Chiarant",
            "uid": 18452174,
            "nodes": [
                10563509767,
                10563509768,
                10563509769,
                10563509770,
                10563509771,
                10563509766,
                10563509767
            ],
            "tags": {
                "addr:city": "Roma",
                "addr:housenumber": "865",
                "addr:postcode": "00143",
                "addr:street": "Via Laurentina",
                "check_date": "2024-04-14",
                "currency:XBT": "yes",
                "email": "INFO@PROJ3CT.IT",
                "indoor": "room",
                "level": "1",
                "name": "PROJ3CT Store - C.C. Maximo",
                "phone": "+39 06 89760663",
                "shop": "clothes",
                "website": "https://www.proj3ct.it/"
            }
        },
        {
            "type": "way",
            "id": 1225286775,
            "timestamp": "2024-02-20T03:43:06Z",
            "version": 2,
            "changeset": 147674326,
            "user": "Igor Bubelov",
            "uid": 2104834,
            "nodes": [
                11166948539,
                11164866093,
                11362753331,
                11362753330,
                11166948540,
                11166948539
            ],
            "tags": {
                "addr:city": "Roma",
                "addr:housenumber": "83",
                "addr:postcode": "00144",
                "addr:street": "Via dell'Oceano Pacifico",
                "amenity": "fast_food",
                "check_date": "2023-11-19",
                "cuisine": "kebab",
                "currency:XBT": "yes",
                "indoor": "room",
                "level": "2",
                "name": "Kebhouze - CC Euroma2",
                "payment:lightning": "yes",
                "payment:lightning_contactless": "yes",
                "payment:onchain": "yes",
                "website": "https://kebhouze.com/"
            }
        },
        {
            "type": "way",
            "id": 1275351727,
            "timestamp": "2024-10-15T14:13:47Z",
            "version": 2,
            "changeset": 157923170,
            "user": "Michele Aquilani",
            "uid": 3860151,
            "nodes": [
                11841887950,
                11841887951,
                11841887952,
                11841887953,
                11841887954,
                11841887950
            ],
            "tags": {
                "addr:city": "Ciampino",
                "addr:country": "IT",
                "addr:postcode": "00043",
                "addr:street": "Via San Paolo della Croce",
                "brand": "Conad",
                "brand:wikidata": "Q639075",
                "building": "yes",
                "name": "Conad",
                "opening_hours": "Mo-Su 08:00-22:00",
                "operator": "Conad",
                "phone": "+39 06 87570137",
                "shop": "supermarket",
                "website": "https://www.conad.it/ricerca-negozi/conad-superstore-via-san-paolo-della-croce-1-a-37-00043-ciampino--010540"
            }
        },
        {
            "type": "way",
            "id": 1308443870,
            "timestamp": "2024-08-28T07:22:50Z",
            "version": 2,
            "changeset": 155864766,
            "user": "v1xit",
            "uid": 21858798,
            "nodes": [
                12116912201,
                12141542245,
                12116912202,
                12141542248,
                12116912203,
                12116912204,
                12141542247,
                12141542244,
                12116912205,
                12116912201
            ],
            "tags": {
                "addr:city": "Roma",
                "addr:postcode": "00143",
                "addr:street": "Via della Cecchignola",
                "air_conditioning": "yes",
                "brand": "Conad Superstore",
                "brand:wikidata": "Q118129616",
                "building": "commercial",
                "name": "Conad Superstore",
                "opening_hours": "sunrise-sunset",
                "operator": "Conad",
                "payment:american_express": "yes",
                "payment:cash": "yes",
                "payment:coins": "yes",
                "payment:contactless": "yes",
                "payment:credit_cards": "yes",
                "payment:debit_cards": "yes",
                "payment:maestro": "yes",
                "payment:mastercard": "yes",
                "payment:visa": "yes",
                "phone": "+39 0689411261",
                "shop": "supermarket"
            }
        },
        {
            "type": "relation",
            "id": 12868723,
            "timestamp": "2024-10-20T17:16:27Z",
            "version": 6,
            "changeset": 158138106,
            "user": "lorenzog89",
            "uid": 482753,
            "members": [
                {
                    "type": "way",
                    "ref": 38666682,
                    "role": "outer"
                },
                {
                    "type": "way",
                    "ref": 956526677,
                    "role": "outer"
                },
                {
                    "type": "way",
                    "ref": 956526679,
                    "role": "outer"
                },
                {
                    "type": "way",
                    "ref": 38666191,
                    "role": "outer"
                }
            ],
            "tags": {
                "brand": "Mondo Convenienza",
                "brand:wikidata": "Q55830962",
                "building": "retail",
                "check_date:currency:XBT": "2023-07-31",
                "currency:XBT": "yes",
                "name": "Mondo Convenienza",
                "opening_hours": "Mo-Su 10:00-21:00; PH off",
                "payment:cash": "yes",
                "payment:mastercard": "yes",
                "payment:visa": "yes",
                "phone": "+390691515",
                "shop": "furniture",
                "type": "multipolygon",
                "website": "https://www.mondoconv.it/punti-vendita/shop/index/negozio/9/"
            }
        }
    ],
    "telegram": [
        {
            "telegram": "bb-genzano-roma"
        }
    ]
}