{
    "id": "grosseto",
    "name": "Grosseto",
    "lng": 42.7402,
    "lat": 11.0555,
    "poi": [
        {
            "type": "node",
            "id": 228011550,
            "lat": 42.515393,
            "lon": 11.1944697,
            "timestamp": "2024-02-21T10:10:31Z",
            "version": 8,
            "changeset": 147726099,
            "user": "DnaX",
            "uid": 69259,
            "tags": {
                "addr:city": "Orbetello",
                "addr:postcode": "58015",
                "addr:street": "Via Aurelia",
                "amenity": "fuel",
                "brand": "Q8",
                "brand:wikidata": "Q1634762",
                "fuel:GTL_diesel": "yes",
                "fuel:diesel": "yes",
                "fuel:octane_95": "yes",
                "name": "Q8",
                "operator": "Magarotto Roberto & Berardi Donatella - S.N.C.",
                "ref:mise": "7314"
            }
        },
        {
            "type": "node",
            "id": 491586391,
            "lat": 43.1193902,
            "lon": 11.2356878,
            "timestamp": "2025-10-06T11:58:01Z",
            "version": 8,
            "changeset": 172910202,
            "user": "Comino",
            "uid": 6794624,
            "tags": {
                "access": "permissive",
                "addr:city": "Iesa",
                "addr:housenumber": "32",
                "addr:postcode": "53015",
                "addr:street": "Strada Provinciale delle Pinete",
                "camp_site": "serviced",
                "capacity:caravans": "7",
                "capacity:persons": "20",
                "capacity:tents": "7",
                "caravans": "yes",
                "charge": "16",
                "currency:XBT": "yes",
                "email": "marco@lefontanelle.org",
                "fee": "yes",
                "mobile": "+39 3311337490",
                "name": "Le Fontanelle",
                "operator": "Marco/Pedicini-Benedettini",
                "payment:cash": "yes",
                "payment:contactless": "no",
                "payment:credit_cards": "yes",
                "payment:lightning": "yes",
                "payment:onchain": "yes",
                "payment:paypal": "yes",
                "survey:date": "2025-09-13",
                "tents": "yes",
                "tourism": "camp_site",
                "website": "https://www.lefontanelle.org"
            }
        },
        {
            "type": "node",
            "id": 1396067421,
            "lat": 42.9214612,
            "lon": 10.7569623,
            "timestamp": "2023-07-18T13:33:55Z",
            "version": 5,
            "changeset": 138670263,
            "user": "frasty",
            "uid": 549825,
            "tags": {
                "addr:city": "Follonica",
                "addr:country": "IT",
                "addr:housenumber": "9",
                "addr:postcode": "58022",
                "addr:street": "Via Roma",
                "brand": "Calzedonia",
                "brand:wikidata": "Q1027874",
                "clothes": "underwear",
                "entrance": "yes",
                "name": "Calzedonia",
                "shop": "clothes"
            }
        },
        {
            "type": "node",
            "id": 1814506650,
            "lat": 42.9306193,
            "lon": 10.5260661,
            "timestamp": "2025-10-02T10:25:45Z",
            "version": 5,
            "changeset": 172742559,
            "user": "btcitnet",
            "uid": 22525435,
            "tags": {
                "addr:city": "Piombino",
                "addr:postcode": "57025",
                "addr:street": "Viale Unit\u00e0 d'Italia",
                "amenity": "fuel",
                "brand": "Q8",
                "brand:wikidata": "Q1634762",
                "brand:wikipedia": "en:Kuwait Petroleum Corporation",
                "fuel:diesel": "yes",
                "fuel:octane_95": "yes",
                "name": "Q8",
                "operator": "Ma.Be. S.N.C. di Pallecchi Massimiliano & C.",
                "ref:mise": "42221"
            }
        },
        {
            "type": "node",
            "id": 2431750190,
            "lat": 42.927349,
            "lon": 10.7470123,
            "timestamp": "2023-01-18T00:04:27Z",
            "version": 10,
            "changeset": 131400031,
            "user": "frasty",
            "uid": 549825,
            "tags": {
                "addr:city": "Follonica",
                "addr:country": "IT",
                "addr:housenumber": "81b",
                "addr:postcode": "58022",
                "addr:street": "Via Litoranea",
                "brand": "Conad City",
                "brand:wikidata": "Q57543102",
                "contact:phone": "+39 0566 44004",
                "entrance": "yes",
                "name": "Conad City",
                "opening_hours": "Mo-Sa 07:30-20:30; Su 08:00-20:30",
                "shop": "supermarket",
                "url": "https://www.conad.it/ricerca-negozi/conad-city-via-litoranea-81-58022-follonica--003702"
            }
        },
        {
            "type": "node",
            "id": 2488719218,
            "lat": 42.7606838,
            "lon": 11.1131696,
            "timestamp": "2019-09-03T16:02:42Z",
            "version": 2,
            "changeset": 74049039,
            "user": "bvivi",
            "uid": 124550,
            "tags": {
                "brand": "United Colors of Benetton",
                "brand:wikidata": "Q817139",
                "brand:wikipedia": "en:Benetton Group",
                "name": "United Colors of Benetton",
                "shop": "clothes",
                "short_name": "Benetton"
            }
        },
        {
            "type": "node",
            "id": 2488719223,
            "lat": 42.7606342,
            "lon": 11.1133712,
            "timestamp": "2025-09-28T18:10:29Z",
            "version": 8,
            "changeset": 172579181,
            "user": "btcitnet",
            "uid": 22525435,
            "tags": {
                "addr:city": "Grosseto",
                "addr:housenumber": "13/15",
                "addr:postcode": "58100",
                "addr:street": "Corso Carducci",
                "brand": "OVS",
                "brand:wikidata": "Q2042514",
                "brand:wikipedia": "it:OVS",
                "name": "OVS",
                "operator": "OVS",
                "shop": "clothes"
            }
        },
        {
            "type": "node",
            "id": 2497651517,
            "lat": 43.0266618,
            "lon": 10.6101762,
            "timestamp": "2025-10-02T10:27:20Z",
            "version": 4,
            "changeset": 172742617,
            "user": "btcitnet",
            "uid": 22525435,
            "tags": {
                "addr:city": "Campiglia Marittima",
                "addr:housenumber": "23",
                "addr:postcode": "57021",
                "addr:street": "Via dell'Agricoltura",
                "brand": "Expert",
                "brand:wikidata": "Q680990",
                "brand:wikipedia": "en:Expert (company)",
                "name": "Expert",
                "operator": "Bucciantini",
                "shop": "electronics"
            }
        },
        {
            "type": "node",
            "id": 2556988981,
            "lat": 42.7636079,
            "lon": 11.1044637,
            "timestamp": "2022-03-27T10:07:12Z",
            "version": 5,
            "changeset": 118974842,
            "user": "iz5ufp",
            "uid": 11331823,
            "tags": {
                "addr:city": "Grosseto",
                "addr:housenumber": "21",
                "addr:street": "Via Coclite",
                "brand": "Carrefour",
                "brand:wikidata": "Q217599",
                "brand:wikipedia": "fr:Carrefour (enseigne)",
                "name": "Carrefour",
                "shop": "supermarket"
            }
        },
        {
            "type": "node",
            "id": 3102449701,
            "lat": 42.4429784,
            "lon": 11.2225797,
            "timestamp": "2025-10-04T20:54:05Z",
            "version": 4,
            "changeset": 172846494,
            "user": "btcitnet",
            "uid": 22525435,
            "tags": {
                "addr:city": "Orbetello",
                "addr:postcode": "58015",
                "brand": "Trony",
                "brand:wikidata": "Q3999692",
                "brand:wikipedia": "it:Trony",
                "name": "Trony",
                "shop": "electronics"
            }
        },
        {
            "type": "node",
            "id": 3102616327,
            "lat": 42.3937161,
            "lon": 11.2040808,
            "timestamp": "2025-10-04T20:55:55Z",
            "version": 3,
            "changeset": 172846549,
            "user": "btcitnet",
            "uid": 22525435,
            "tags": {
                "addr:city": "Porto Ercole",
                "addr:postcode": "58018",
                "addr:street": "Viale Caravaggio",
                "brand": "Spar",
                "brand:wikidata": "Q610492",
                "brand:wikipedia": "en:Spar (retailer)",
                "name": "Despar",
                "shop": "supermarket"
            }
        },
        {
            "type": "node",
            "id": 4069732167,
            "lat": 42.7801098,
            "lon": 11.1086457,
            "timestamp": "2021-08-02T15:56:52Z",
            "version": 4,
            "changeset": 109041957,
            "user": "frasty",
            "uid": 549825,
            "tags": {
                "addr:city": "Grosseto",
                "addr:street": "Via Senegal",
                "branch": "Superstore",
                "brand": "Conad",
                "brand:wikidata": "Q639075",
                "brand:wikipedia": "it:Conad",
                "name": "Conad",
                "shop": "supermarket"
            }
        },
        {
            "type": "node",
            "id": 4184895257,
            "lat": 42.9193287,
            "lon": 10.7633462,
            "timestamp": "2023-01-18T00:04:27Z",
            "version": 7,
            "changeset": 131400031,
            "user": "frasty",
            "uid": 549825,
            "tags": {
                "addr:city": "Follonica",
                "addr:country": "IT",
                "addr:housenumber": "14",
                "addr:postcode": "58022",
                "addr:street": "Via Spagna",
                "brand": "Conad City",
                "brand:wikidata": "Q57543102",
                "contact:phone": "+39 0566 269783",
                "entrance": "main",
                "name": "Conad City",
                "opening_hours": "Mo-Sa 07:30-20:30; Su 07:30-20:00",
                "shop": "supermarket",
                "url": "https://www.conad.it/ricerca-negozi/conad-city-via-spagna-14-58022-follonica--006321"
            }
        },
        {
            "type": "node",
            "id": 4184898805,
            "lat": 42.9202571,
            "lon": 10.7728442,
            "timestamp": "2024-05-24T13:28:39Z",
            "version": 5,
            "changeset": 151770125,
            "user": "Flynn_",
            "uid": 21081459,
            "tags": {
                "addr:city": "Follonica",
                "addr:country": "IT",
                "addr:housenumber": "4",
                "addr:postcode": "58022",
                "addr:street": "Via Praga",
                "brand": "Conad",
                "brand:wikidata": "Q639075",
                "name": "Conad",
                "opening_hours": "Mo-Sa 07:30-20:00; Su 08:00-13:00",
                "shop": "supermarket",
                "wheelchair": "yes"
            }
        },
        {
            "type": "node",
            "id": 4202068601,
            "lat": 42.765021,
            "lon": 11.0995981,
            "timestamp": "2020-05-13T07:52:10Z",
            "version": 2,
            "changeset": 85128466,
            "user": "mascalzone67",
            "uid": 1861652,
            "tags": {
                "addr:city": "Grosseto",
                "addr:country": "IT",
                "addr:postcode": "58100",
                "addr:street": "Via Clodia",
                "brand": "Conad",
                "brand:wikidata": "Q639075",
                "brand:wikipedia": "it:Conad",
                "name": "Conad",
                "opening_hours": "Mo-Su 08:00-20:30",
                "operator": "Conad",
                "payment:bancomat": "yes",
                "payment:cash": "yes",
                "payment:credit_cards": "yes",
                "phone": "+39 0564 479015",
                "shop": "supermarket",
                "website": "https://www.conad.it/ricerca-negozi/negozio.007667.html"
            }
        },
        {
            "type": "node",
            "id": 4370466793,
            "lat": 42.7450701,
            "lon": 11.1161623,
            "timestamp": "2025-10-04T20:57:18Z",
            "version": 8,
            "changeset": 172846586,
            "user": "btcitnet",
            "uid": 22525435,
            "tags": {
                "addr:city": "Grosseto",
                "addr:postcode": "58100",
                "amenity": "fuel",
                "brand": "Tamoil",
                "brand:wikidata": "Q706793",
                "name": "Tamoil",
                "opening_hours": "24/7",
                "operator": "Piazzi Gianni",
                "ref:mise": "8477",
                "self_service": "yes"
            }
        },
        {
            "type": "node",
            "id": 4372637140,
            "lat": 42.9289215,
            "lon": 11.2657995,
            "timestamp": "2025-10-04T20:58:32Z",
            "version": 7,
            "changeset": 172846616,
            "user": "btcitnet",
            "uid": 22525435,
            "tags": {
                "addr:city": "Paganico",
                "addr:postcode": "58045",
                "addr:street": "Strada Provinciale 64 Cipressino",
                "amenity": "fuel",
                "brand": "Tamoil",
                "brand:wikidata": "Q706793",
                "fuel:cng": "yes",
                "fuel:lpg": "yes",
                "name": "Eni",
                "name:it": "Tamoil",
                "operator": "Sirtam S.R.L.",
                "ref:mise": "8297"
            }
        },
        {
            "type": "node",
            "id": 5851831505,
            "lat": 42.7782036,
            "lon": 11.1005849,
            "timestamp": "2025-10-04T20:59:45Z",
            "version": 3,
            "changeset": 172846644,
            "user": "btcitnet",
            "uid": 22525435,
            "tags": {
                "addr:city": "Grosseto",
                "addr:housenumber": "135",
                "addr:postcode": "58100",
                "addr:street": "Via Senese",
                "amenity": "fuel",
                "brand": "Q8",
                "brand:wikidata": "Q1634762",
                "name": "Q8",
                "operator": "Servizi & Gestioni Italia Srl",
                "ref:mise": "6572"
            }
        },
        {
            "type": "node",
            "id": 5851836386,
            "lat": 42.9288484,
            "lon": 10.5203238,
            "timestamp": "2024-03-17T14:58:29Z",
            "version": 3,
            "changeset": 148775994,
            "user": "Flynn_",
            "uid": 21081459,
            "tags": {
                "amenity": "fuel",
                "brand": "Tamoil",
                "brand:wikidata": "Q706793",
                "fuel:diesel": "yes",
                "fuel:octane_95": "yes",
                "name": "Tamoil",
                "operator": "T.D.M. S.R.L.",
                "ref:mise": "35447",
                "source": "MISE - Ministero Sviluppo Economico"
            }
        },
        {
            "type": "node",
            "id": 5851837511,
            "lat": 42.3594239,
            "lon": 10.9208761,
            "timestamp": "2024-02-10T17:37:26Z",
            "version": 2,
            "changeset": 147301938,
            "user": "Tag Upgrade Bot",
            "uid": 20033850,
            "tags": {
                "amenity": "fuel",
                "brand": "Q8",
                "brand:wikidata": "Q1634762",
                "name": "Q8",
                "operator": "Bancala' Emanuele",
                "ref:mise": "31928"
            }
        },
        {
            "type": "node",
            "id": 5851837752,
            "lat": 42.7597625,
            "lon": 11.1224923,
            "timestamp": "2025-10-04T21:01:56Z",
            "version": 8,
            "changeset": 172846709,
            "user": "btcitnet",
            "uid": 22525435,
            "tags": {
                "addr:city": "Grosseto",
                "addr:housenumber": "77",
                "addr:postcode": "58100",
                "addr:street": "Viale Pietro Mascagni",
                "amenity": "fuel",
                "brand": "Q8",
                "brand:wikidata": "Q1634762",
                "compressed_air": "yes",
                "name": "Q8",
                "opening_hours": "24/7",
                "operator": "Landi Giorgio",
                "ref:mise": "30095",
                "self_service": "yes",
                "wheelchair": "yes"
            }
        },
        {
            "type": "node",
            "id": 5851845540,
            "lat": 42.7769303,
            "lon": 11.1017946,
            "timestamp": "2025-10-04T21:02:45Z",
            "version": 3,
            "changeset": 172846735,
            "user": "btcitnet",
            "uid": 22525435,
            "tags": {
                "addr:city": "Grosseto",
                "addr:housenumber": "120",
                "addr:postcode": "58100",
                "addr:street": "Via Aurelia Nord",
                "amenity": "fuel",
                "brand": "Q8",
                "brand:wikidata": "Q1634762",
                "name": "Q8",
                "operator": "Servizi & Gestioni Italia S.R.L.",
                "ref:mise": "11613"
            }
        },
        {
            "type": "node",
            "id": 6492131758,
            "lat": 42.9223618,
            "lon": 10.7590249,
            "timestamp": "2021-01-09T19:22:34Z",
            "version": 3,
            "changeset": 97225975,
            "user": "frasty",
            "uid": 549825,
            "tags": {
                "addr:city": "Follonica",
                "addr:country": "IT",
                "addr:housenumber": "66",
                "addr:postcode": "58022",
                "addr:street": "Via Roma",
                "brand": "Intimissimi",
                "brand:wikidata": "Q305404",
                "brand:wikipedia": "en:Intimissimi",
                "clothes": "underwear",
                "entrance": "yes",
                "name": "Intimissimi",
                "shop": "clothes"
            }
        },
        {
            "type": "node",
            "id": 6496440359,
            "lat": 42.9214963,
            "lon": 10.7572695,
            "timestamp": "2024-05-24T13:28:39Z",
            "version": 4,
            "changeset": 151770125,
            "user": "Flynn_",
            "uid": 21081459,
            "tags": {
                "addr:city": "Follonica",
                "addr:country": "IT",
                "addr:housenumber": "18",
                "addr:postcode": "58022",
                "addr:street": "Via Roma",
                "brand": "Tezenis",
                "brand:wikidata": "Q28056374",
                "clothes": "women;underwear;swimwear;men;children",
                "entrance": "yes",
                "name": "Tezenis",
                "shop": "clothes"
            }
        },
        {
            "type": "node",
            "id": 6742717285,
            "lat": 42.9245442,
            "lon": 10.5284133,
            "timestamp": "2025-10-04T21:03:30Z",
            "version": 4,
            "changeset": 172846752,
            "user": "btcitnet",
            "uid": 22525435,
            "tags": {
                "addr:city": "Piombino",
                "addr:housenumber": "38",
                "addr:postcode": "57025",
                "addr:street": "Corso Italia",
                "brand": "Tezenis",
                "brand:wikidata": "Q28056374",
                "clothes": "women;underwear;swimwear;men;children",
                "name": "Tezenis",
                "shop": "clothes"
            }
        },
        {
            "type": "node",
            "id": 7272676872,
            "lat": 43.0282666,
            "lon": 10.6026657,
            "timestamp": "2021-08-24T20:27:50Z",
            "version": 2,
            "changeset": 110192673,
            "user": "Prt_An",
            "uid": 1248925,
            "tags": {
                "brand": "United Colors of Benetton",
                "brand:wikidata": "Q817139",
                "brand:wikipedia": "en:Benetton Group",
                "name": "United Colors of Benetton",
                "shop": "clothes",
                "short_name": "Benetton"
            }
        },
        {
            "type": "node",
            "id": 7272893864,
            "lat": 43.0265928,
            "lon": 10.6104067,
            "timestamp": "2025-10-04T21:04:33Z",
            "version": 3,
            "changeset": 172846773,
            "user": "btcitnet",
            "uid": 22525435,
            "tags": {
                "addr:city": "Campiglia Marittima",
                "addr:housenumber": "23",
                "addr:postcode": "57021",
                "addr:street": "Via dell'Agricoltura",
                "brand": "Kasanova",
                "brand:wikidata": "Q116214505",
                "name": "Kasanova",
                "shop": "houseware"
            }
        },
        {
            "type": "node",
            "id": 7272893865,
            "lat": 43.0258473,
            "lon": 10.6092217,
            "timestamp": "2025-08-10T16:38:49Z",
            "version": 5,
            "changeset": 170254778,
            "user": "steinm",
            "uid": 35349,
            "tags": {
                "addr:city": "Campiglia Marittima",
                "addr:housenumber": "9",
                "addr:postcode": "57021",
                "addr:street": "Via dell'Agricoltura",
                "brand": "Conad",
                "brand:wikidata": "Q639075",
                "brand:wikipedia": "it:Conad",
                "check_date": "2025-08-10",
                "name": "Conad",
                "opening_hours": "Mo-Sa 07:30-20:30; Su 07:30-20:00",
                "shop": "supermarket",
                "wheelchair": "yes"
            }
        },
        {
            "type": "node",
            "id": 7422240103,
            "lat": 42.923719,
            "lon": 10.52797,
            "timestamp": "2025-10-04T21:05:37Z",
            "version": 2,
            "changeset": 172846795,
            "user": "btcitnet",
            "uid": 22525435,
            "tags": {
                "addr:city": "Piombino",
                "addr:housenumber": "5",
                "addr:postcode": "57025",
                "addr:street": "Piazza Giuseppe Verdi",
                "brand": "OVS",
                "brand:wikidata": "Q2042514",
                "brand:wikipedia": "en:OVS (company)",
                "name": "OVS",
                "shop": "clothes"
            }
        },
        {
            "type": "node",
            "id": 8309624656,
            "lat": 42.936532,
            "lon": 10.7842604,
            "timestamp": "2025-06-16T08:58:21Z",
            "version": 8,
            "changeset": 167682927,
            "user": "frasty",
            "uid": 549825,
            "tags": {
                "addr:city": "Follonica",
                "addr:country": "IT",
                "addr:housenumber": "Km 223",
                "addr:postcode": "58022",
                "addr:street": "Strada Provinciale Aurelia Vecchia",
                "alt_name": "Oviesse",
                "brand": "OVS",
                "brand:wikidata": "Q2042514",
                "clothes": "women;children;men",
                "entrance": "yes",
                "name": "OVS",
                "opening_hours": "Mo-Sa 09:30-20:00; Su 10:00-12:30,15:30-19:30; PH off",
                "operator": "OVS",
                "phone": "+39 0566 1909040",
                "second_hand": "no",
                "shop": "clothes",
                "website": "https://www.ovs.it/it/it/stores/italia/toscana/grosseto/follonica-ss-aurelia-km",
                "wheelchair": "yes"
            }
        },
        {
            "type": "node",
            "id": 8743484241,
            "lat": 42.4389199,
            "lon": 11.2104163,
            "timestamp": "2021-05-18T19:01:04Z",
            "version": 2,
            "changeset": 104909991,
            "user": "mascalzone67",
            "uid": 1861652,
            "tags": {
                "addr:city": "Orbetello",
                "addr:housenumber": "7",
                "addr:postcode": "58015",
                "addr:street": "Piazza della Repubblica",
                "brand": "Conad City",
                "brand:wikidata": "Q57543102",
                "name": "Conad City",
                "opening_hours": "Mo-Su 08:00-20:30",
                "operator": "Conad",
                "payment:bancomat": "yes",
                "payment:cash": "yes",
                "payment:credit_cards": "yes",
                "phone": "+39 0564 850709",
                "shop": "supermarket",
                "start_date": "2021-05-20",
                "website": "https://www.conad.it/ricerca-negozi/negozio.010214.html"
            }
        },
        {
            "type": "node",
            "id": 9078254949,
            "lat": 42.7726187,
            "lon": 11.1056093,
            "timestamp": "2025-10-04T21:06:30Z",
            "version": 3,
            "changeset": 172846824,
            "user": "btcitnet",
            "uid": 22525435,
            "tags": {
                "addr:city": "Grosseto",
                "addr:housenumber": "72",
                "addr:postcode": "58100",
                "addr:street": "Via Aurelia Nord",
                "brand": "Upim",
                "brand:wikidata": "Q1414836",
                "name": "Upim",
                "shop": "department_store"
            }
        },
        {
            "type": "node",
            "id": 10295329978,
            "lat": 42.760634,
            "lon": 11.1276333,
            "timestamp": "2022-12-30T16:27:01Z",
            "version": 1,
            "changeset": 130694362,
            "user": "BSN21M",
            "uid": 17441326,
            "tags": {
                "addr:city": "Grosseto",
                "addr:housenumber": "23",
                "addr:postcode": "58100",
                "addr:street": "Via Antonio Meucci",
                "amenity": "dentist",
                "check_date:currency:XBT": "2022-12-30",
                "currency:XBT": "yes",
                "email": "info@kosmedgrosseto.it",
                "healthcare": "dentist",
                "name": "Kosmed Studio Odontoiatrico",
                "opening_hours": "Mo-Fr 09:00-13:00,16:00-19:00",
                "payment:lightning": "yes",
                "payment:lightning_contactless": "yes",
                "payment:onchain": "yes",
                "phone": "+39  564 412534",
                "website": "https://dentistagrosseto.com"
            }
        },
        {
            "type": "node",
            "id": 10604458334,
            "lat": 42.7457948,
            "lon": 11.1105887,
            "timestamp": "2024-09-23T17:56:15Z",
            "version": 6,
            "changeset": 157007622,
            "user": "mpbin",
            "uid": 21850090,
            "tags": {
                "addr:city": "Grosseto",
                "addr:housenumber": "12,14",
                "addr:postcode": "58100",
                "addr:street": "Via Davide Lazzeretti",
                "check_date": "2024-09-23",
                "check_date:currency:XBT": "2024-09-23",
                "currency:XBT": "yes",
                "description": "Dried fruits, pulses, honey and truffles",
                "email": "info@allaterzasrl.it",
                "name": "Prodotti La Contessa",
                "opening_hours": "Mo-Fr 09:00-13:00,15:00-19:00; Sa,Su,PH off",
                "payment:lightning": "yes",
                "payment:lightning_contactless": "no",
                "payment:onchain": "yes",
                "phone": "+39056421687",
                "shop": "deli"
            }
        },
        {
            "type": "node",
            "id": 10604650892,
            "lat": 42.9107695,
            "lon": 11.2483749,
            "timestamp": "2023-02-03T18:28:28Z",
            "version": 1,
            "changeset": 132053146,
            "user": "gianlock",
            "uid": 18347620,
            "tags": {
                "addr:city": "Civitella Paganico",
                "addr:housenumber": "2",
                "addr:postcode": "58045",
                "addr:street": "Loc. Steccaia",
                "check_date": "2023-02-03",
                "currency:XBT": "yes",
                "email": "lasteccaiaalta@hotmail.com",
                "guest_house": "agritourism",
                "name": "Agriturismo La Steccaia Alta",
                "payment:lightning": "yes",
                "payment:lightning_contactless": "no",
                "payment:onchain": "yes",
                "phone": "+393401808494",
                "tourism": "guest_house",
                "website": "https://www.lasteccaiaalta.it"
            }
        },
        {
            "type": "node",
            "id": 10676157528,
            "lat": 43.0485338,
            "lon": 10.8938206,
            "timestamp": "2025-03-14T15:12:41Z",
            "version": 2,
            "changeset": 163614217,
            "user": "NicolaMW",
            "uid": 15444043,
            "tags": {
                "addr:city": "Massa Marittima",
                "addr:postcode": "58024",
                "addr:street": "Via Antonio Gramsci",
                "brand": "Conad",
                "brand:wikidata": "Q639075",
                "brand:wikipedia": "it:Conad",
                "check_date:opening_hours": "2025-03-14",
                "name": "Conad",
                "opening_hours": "Mo-Sa 07:30-20:30, Su 08:00-20:00",
                "payment:bancomat": "yes",
                "payment:cash": "yes",
                "payment:credit_cards": "yes",
                "shop": "supermarket",
                "start_date": "2020-11-12",
                "website": "https://www.conad.it/ricerca-negozi/negozio.010151.html"
            }
        },
        {
            "type": "node",
            "id": 10974559676,
            "lat": 42.9387386,
            "lon": 11.2837042,
            "timestamp": "2023-06-13T18:41:18Z",
            "version": 1,
            "changeset": 137298668,
            "user": "Chiarant",
            "uid": 18452174,
            "tags": {
                "addr:city": "Paganico",
                "addr:housenumber": "14",
                "addr:postcode": "58045",
                "addr:street": "Strada Provinciale 64 Cipressino",
                "amenity": "bar",
                "check_date": "2023-06-13",
                "contact:facebook": "https://www.facebook.com/Barilcacciatore2.0/",
                "currency:XBT": "yes",
                "name": "7e2 Wine e Food",
                "payment:lightning": "yes",
                "payment:onchain": "yes"
            }
        },
        {
            "type": "node",
            "id": 11449547562,
            "lat": 43.0564151,
            "lon": 11.316437,
            "timestamp": "2024-10-09T20:06:37Z",
            "version": 4,
            "changeset": 157688135,
            "user": "mpbin",
            "uid": 21850090,
            "tags": {
                "addr:city": "Civitella Paganico",
                "addr:housenumber": "1",
                "addr:place": "Monte Acuto",
                "addr:postcode": "58045",
                "air_conditioning": "yes",
                "check_date": "2024-10-09",
                "check_date:currency:XBT": "2024-10-09",
                "currency:XBT": "yes",
                "description": "Poggio alla Rocca \u00e8 stato premiato :\n\u2013 da Maremmaguide come una delle migliori location della Maremma \u2013 Toscana\n\u2013 da Astronomitaly come uno dei cieli pi\u00f9 belli di Italia\nE\u2019 tra le 120 strutture in tutta italia che rispettano i criteri di qualit\u00e0 previsti",
                "email": "info@poggioallarocca.it",
                "image": "https://flic.kr/p/TGuUTq",
                "internet_access": "yes",
                "internet_access:fee": "no",
                "name": "Poggio alla Rocca",
                "payment:lightning": "yes",
                "payment:lightning_contactless": "no",
                "payment:onchain": "no",
                "phone": "+39 33 334 53871",
                "rooms": "5",
                "tourism": "hotel",
                "website": "https://www.poggioallarocca.it/"
            }
        },
        {
            "type": "node",
            "id": 11806829583,
            "lat": 42.7619067,
            "lon": 10.8795319,
            "timestamp": "2025-10-04T21:07:49Z",
            "version": 2,
            "changeset": 172846848,
            "user": "btcitnet",
            "uid": 22525435,
            "tags": {
                "addr:city": "Castiglione della Pescaia",
                "addr:housenumber": "12",
                "addr:postcode": "58043",
                "addr:street": "Via del Canale",
                "brand": "Calzedonia",
                "brand:wikidata": "Q1027874",
                "name": "Calzedonia",
                "shop": "clothes"
            }
        },
        {
            "type": "node",
            "id": 11980315851,
            "lat": 42.7652105,
            "lon": 10.8723377,
            "timestamp": "2025-05-29T16:58:16Z",
            "version": 25,
            "changeset": 166933435,
            "user": "Comino",
            "uid": 6794624,
            "tags": {
                "addr:city": "Castiglione della Pescaia",
                "addr:postcode": "58043",
                "addr:street": "Via Carlo Cattaneo",
                "beds": "3",
                "currency:XBT": "yes",
                "currency:XLT": "yes",
                "email": "iacopo.raspolli@gmail.com",
                "internet_access": "wlan",
                "internet_access:fee": "customers",
                "name": "Casavacanze a Castiglione della Pescaia",
                "operator": "Iacopo",
                "payment:lightning": "yes",
                "payment:lightning_contactless": "yes",
                "payment:onchain": "yes",
                "reservation": "required",
                "rooms": "5",
                "survey:date": "2024-11-03",
                "tourism": "apartment",
                "website": "https://www.airbnb.it/rooms/911401039919882337?guests=1&adults=1&s=67&unique_share_id=773655d3-2be8-484c-80b5-0cbaee021789"
            }
        },
        {
            "type": "node",
            "id": 12761893827,
            "lat": 42.4384189,
            "lon": 11.1192944,
            "timestamp": "2025-06-26T09:38:56Z",
            "version": 4,
            "changeset": 168130913,
            "user": "white_sheep",
            "uid": 21982929,
            "tags": {
                "addr:city": "Porto Santo Stefano",
                "addr:housenumber": "86",
                "addr:postcode": "58019",
                "addr:street": "Corso Umberto I",
                "brand": "United Colors of Benetton",
                "brand:wikidata": "Q817139",
                "clothes": "children",
                "contact:facebook": "https://www.facebook.com/profile.php?id=100057631951649",
                "description": "Il nostro punto di forza \u00e8 saper capire le esigenze del cliente e grazie all\u2019ampio assortimento riusciamo a soddisfare le richieste sia per quanto riguarda l\u2019abbigliamento di tutti i giorni sia per gli eventi particolari come le cerimonie.",
                "email": "roxele2014@gmail.com",
                "instagram": "https://www.instagram.com/benetton_012portosantostefano/",
                "internet_access": "yes",
                "name": "United Colors of Benetton",
                "opening_hours": "Mo-Sa 9:30-13:00 16:30-19:30 Su 9:30-13:00",
                "payment:cards": "yes",
                "payment:cash": "yes",
                "phone": "+393282634164",
                "shop": "clothes",
                "short_name": "Benetton",
                "wheelchair": "yes"
            }
        },
        {
            "type": "node",
            "id": 13061568115,
            "lat": 42.437735,
            "lon": 11.2103441,
            "timestamp": "2025-10-04T21:09:02Z",
            "version": 2,
            "changeset": 172846872,
            "user": "btcitnet",
            "uid": 22525435,
            "tags": {
                "addr:city": "Orbetello",
                "addr:housenumber": "103",
                "addr:postcode": "58015",
                "addr:street": "Corso Italia",
                "brand": "Tezenis",
                "brand:wikidata": "Q28056374",
                "clothes": "women;underwear;swimwear;men;children",
                "name": "Tezenis",
                "shop": "clothes"
            }
        },
        {
            "type": "node",
            "id": 13061568117,
            "lat": 42.4382131,
            "lon": 11.2111396,
            "timestamp": "2025-10-04T21:09:55Z",
            "version": 2,
            "changeset": 172846895,
            "user": "btcitnet",
            "uid": 22525435,
            "tags": {
                "addr:city": "Orbetello",
                "addr:housenumber": "72/74",
                "addr:postcode": "58015",
                "addr:street": "Corso Italia",
                "brand": "Intimissimi",
                "brand:wikidata": "Q305404",
                "clothes": "underwear",
                "name": "Intimissimi",
                "shop": "clothes"
            }
        },
        {
            "type": "node",
            "id": 13061568124,
            "lat": 42.4381933,
            "lon": 11.2110826,
            "timestamp": "2025-10-04T21:10:52Z",
            "version": 2,
            "changeset": 172846925,
            "user": "btcitnet",
            "uid": 22525435,
            "tags": {
                "addr:city": "Orbetello",
                "addr:housenumber": "73",
                "addr:postcode": "58015",
                "addr:street": "Corso Italia",
                "brand": "Calzedonia",
                "brand:wikidata": "Q1027874",
                "name": "Calzedonia",
                "shop": "clothes"
            }
        },
        {
            "type": "node",
            "id": 13179783046,
            "lat": 42.43938,
            "lon": 11.1155157,
            "timestamp": "2025-09-29T07:28:54Z",
            "version": 1,
            "changeset": 172597292,
            "user": "white_sheep",
            "uid": 21982929,
            "tags": {
                "addr:city": "Porto Santo Stefano",
                "addr:housenumber": "15",
                "addr:postcode": "58019",
                "addr:street": "Piazzle dei Rioni",
                "brand": "Calzedonia",
                "brand:wikidata": "Q1027874",
                "contact:instagram": "https://www.instagram.com/calzedonia.portosantostefano?igsh=MWtyYmo1OWUwcXZsaQ%3D%3D&utm_source=qr",
                "name": "Calzedonia",
                "opening_hours": "Mattina 10:00 - 13:00 Pomeriggio 17:00 - 23:30",
                "phone": "+393519781437",
                "shop": "clothes"
            }
        },
        {
            "type": "way",
            "id": 166099304,
            "timestamp": "2021-03-06T03:06:42Z",
            "version": 4,
            "changeset": 100520673,
            "user": "frasty",
            "uid": 549825,
            "nodes": [
                1775829342,
                1775829337,
                1775829316,
                1775829325,
                1775829342
            ],
            "tags": {
                "addr:city": "Piombino",
                "addr:postcode": "57025",
                "addr:street": "Via Maestri del Lavoro",
                "brand": "Conad",
                "brand:wikidata": "Q639075",
                "brand:wikipedia": "it:Conad",
                "building": "retail",
                "name": "Conad",
                "operator": "Conad",
                "payment:bancomat": "yes",
                "payment:cash": "yes",
                "payment:credit_cards": "yes",
                "shop": "supermarket",
                "start_date": "2021-03-04"
            }
        },
        {
            "type": "way",
            "id": 167160368,
            "timestamp": "2024-03-17T14:58:29Z",
            "version": 5,
            "changeset": 148775994,
            "user": "Flynn_",
            "uid": 21081459,
            "nodes": [
                1785636500,
                1785636488,
                1785636460,
                1785636493,
                1785636500
            ],
            "tags": {
                "amenity": "fuel",
                "brand": "Q8",
                "brand:wikidata": "Q1634762",
                "building": "yes",
                "fuel:diesel": "yes",
                "fuel:octane_95": "yes",
                "name": "Q8",
                "operator": "Servizi & Gestioni Italia S.R.L.",
                "ref:mise": "6565",
                "source": "MISE - Ministero Sviluppo Economico",
                "source:date": "2018-04-16"
            }
        },
        {
            "type": "way",
            "id": 202188978,
            "timestamp": "2024-12-19T22:12:51Z",
            "version": 5,
            "changeset": 160412599,
            "user": "frasty",
            "uid": 549825,
            "nodes": [
                6900513527,
                6900513526,
                2121703623,
                2121703845,
                12434487386,
                12434487390,
                6900513527
            ],
            "tags": {
                "building": "retail",
                "check_date:currency:XBT": "2023-07-31",
                "currency:XBT": "yes",
                "height": "7",
                "name": "Mondo Convenienza",
                "shop": "furniture"
            }
        },
        {
            "type": "way",
            "id": 846256832,
            "timestamp": "2024-04-09T17:36:51Z",
            "version": 4,
            "changeset": 149787883,
            "user": "\u0110uro Ji\u0159\u00ed",
            "uid": 14617702,
            "nodes": [
                7895366525,
                7895366526,
                7895366527,
                7895366528,
                7895366525
            ],
            "tags": {
                "addr:city": "Grosseto",
                "addr:postcode": "58100",
                "addr:street": "Via Scansanese",
                "brand": "Conad",
                "brand:wikidata": "Q639075",
                "brand:wikipedia": "it:Conad",
                "building": "retail",
                "name": "Conad",
                "opening_hours": "Mo-Su 07:30-21:00",
                "operator": "Conad",
                "payment:bancomat": "yes",
                "payment:cash": "yes",
                "payment:credit_cards": "yes",
                "phone": "+39 0564 27588",
                "shop": "supermarket",
                "start_date": "2021-06-10",
                "website": "https://www.conad.it/ricerca-negozi/negozio.010215.html",
                "wheelchair": "yes"
            }
        },
        {
            "type": "relation",
            "id": 12602936,
            "timestamp": "2024-06-21T15:42:05Z",
            "version": 4,
            "changeset": 152998394,
            "user": "frasty",
            "uid": 549825,
            "members": [
                {
                    "type": "way",
                    "ref": 932266385,
                    "role": "outer"
                },
                {
                    "type": "way",
                    "ref": 742020381,
                    "role": "outer"
                },
                {
                    "type": "way",
                    "ref": 932629908,
                    "role": "outer"
                },
                {
                    "type": "way",
                    "ref": 932629909,
                    "role": "outer"
                },
                {
                    "type": "way",
                    "ref": 932629907,
                    "role": "outer"
                },
                {
                    "type": "way",
                    "ref": 932629906,
                    "role": "outer"
                },
                {
                    "type": "way",
                    "ref": 932266408,
                    "role": "outer"
                }
            ],
            "tags": {
                "addr:city": "Follonica",
                "addr:housename": "Centro Commerciale Coop",
                "addr:postcode": "58022",
                "addr:street": "Via Mario Chirici",
                "brand": "Upim",
                "brand:wikidata": "Q1414836",
                "clothes": "children;babies",
                "indoor": "room",
                "level": "0",
                "name": "Blukids",
                "note": "this is a clothing store named Blukids, not a UPIM department_store",
                "opening_hours": "Mo-Sa 09:00-13:00, 16:00-20:00; Su, PH off",
                "operator": "UPIM",
                "shop": "clothes",
                "start_date": "2021-09",
                "type": "multipolygon",
                "wheelchair": "yes"
            }
        },
        {
            "type": "relation",
            "id": 13302683,
            "timestamp": "2023-06-12T22:33:42Z",
            "version": 3,
            "changeset": 137262326,
            "user": "frasty",
            "uid": 549825,
            "members": [
                {
                    "type": "way",
                    "ref": 991006691,
                    "role": "outer"
                },
                {
                    "type": "way",
                    "ref": 520134996,
                    "role": "outer"
                }
            ],
            "tags": {
                "brand": "OVS",
                "brand:wikidata": "Q2042514",
                "brand:wikipedia": "en:OVS (company)",
                "name": "OVS",
                "opening_hours": "Mo-Su,PH 09:00-20:30",
                "shop": "clothes",
                "type": "multipolygon"
            }
        },
        {
            "type": "relation",
            "id": 13302689,
            "timestamp": "2024-10-08T17:21:52Z",
            "version": 6,
            "changeset": 157637594,
            "user": "frasty",
            "uid": 549825,
            "members": [
                {
                    "type": "way",
                    "ref": 991006703,
                    "role": "outer"
                },
                {
                    "type": "way",
                    "ref": 991370051,
                    "role": "outer"
                },
                {
                    "type": "way",
                    "ref": 991370122,
                    "role": "outer"
                },
                {
                    "type": "way",
                    "ref": 991006700,
                    "role": "outer"
                },
                {
                    "type": "way",
                    "ref": 991006702,
                    "role": "outer"
                },
                {
                    "type": "way",
                    "ref": 991370081,
                    "role": "outer"
                },
                {
                    "type": "way",
                    "ref": 991006706,
                    "role": "outer"
                },
                {
                    "type": "way",
                    "ref": 991006704,
                    "role": "outer"
                }
            ],
            "tags": {
                "brand": "Decathlon",
                "brand:wikidata": "Q509349",
                "brand:wikipedia": "en:Decathlon (retailer)",
                "indoor": "room",
                "level": "0",
                "name": "Decathlon",
                "opening_hours": "Mo-Su 09:00-20:00",
                "shop": "sports",
                "type": "multipolygon",
                "website": "https://www.decathlon.it/store-view/-grosseto-0070152401524",
                "wheelchair": "yes"
            }
        },
        {
            "type": "relation",
            "id": 13308293,
            "timestamp": "2023-06-12T22:33:42Z",
            "version": 3,
            "changeset": 137262326,
            "user": "frasty",
            "uid": 549825,
            "members": [
                {
                    "type": "way",
                    "ref": 991588926,
                    "role": "outer"
                },
                {
                    "type": "way",
                    "ref": 991588951,
                    "role": "outer"
                },
                {
                    "type": "way",
                    "ref": 991588950,
                    "role": "outer"
                }
            ],
            "tags": {
                "brand": "Calzedonia",
                "brand:wikidata": "Q1027874",
                "brand:wikipedia": "en:Calzedonia",
                "clothes": "underwear;women",
                "indoor": "room",
                "level": "0",
                "name": "Calzedonia",
                "opening_hours": "Mo-Su,PH 09:00-20:30",
                "shop": "clothes",
                "type": "multipolygon"
            }
        },
        {
            "type": "relation",
            "id": 13308294,
            "timestamp": "2024-10-16T16:36:30Z",
            "version": 4,
            "changeset": 157973846,
            "user": "DnaX",
            "uid": 69259,
            "members": [
                {
                    "type": "way",
                    "ref": 991588954,
                    "role": "outer"
                },
                {
                    "type": "way",
                    "ref": 991588925,
                    "role": "outer"
                },
                {
                    "type": "way",
                    "ref": 991588951,
                    "role": "outer"
                },
                {
                    "type": "way",
                    "ref": 991588949,
                    "role": "outer"
                },
                {
                    "type": "way",
                    "ref": 991588906,
                    "role": "outer"
                },
                {
                    "type": "way",
                    "ref": 991588955,
                    "role": "outer"
                }
            ],
            "tags": {
                "brand": "Tezenis",
                "brand:wikidata": "Q28056374",
                "brand:wikipedia": "ru:Tezenis",
                "clothes": "women;underwear;swimwear;men;children",
                "indoor": "room",
                "level": "0",
                "name": "Tezenis",
                "opening_hours": "Mo-Su,PH 09:00-20:30",
                "shop": "clothes",
                "type": "multipolygon"
            }
        },
        {
            "type": "relation",
            "id": 13308302,
            "timestamp": "2024-05-15T11:36:19Z",
            "version": 3,
            "changeset": 151356266,
            "user": "DnaX",
            "uid": 69259,
            "members": [
                {
                    "type": "way",
                    "ref": 991588916,
                    "role": "outer"
                },
                {
                    "type": "way",
                    "ref": 991588960,
                    "role": "outer"
                },
                {
                    "type": "way",
                    "ref": 991588908,
                    "role": "outer"
                },
                {
                    "type": "way",
                    "ref": 991588959,
                    "role": "outer"
                }
            ],
            "tags": {
                "brand": "Kasanova",
                "brand:wikidata": "Q116214505",
                "indoor": "room",
                "level": "0",
                "name": "Kasanova",
                "opening_hours": "Mo-Su,PH 09:00-20:30",
                "shop": "houseware",
                "type": "multipolygon"
            }
        },
        {
            "type": "relation",
            "id": 13308306,
            "timestamp": "2023-06-12T22:33:42Z",
            "version": 3,
            "changeset": 137262326,
            "user": "frasty",
            "uid": 549825,
            "members": [
                {
                    "type": "way",
                    "ref": 991588913,
                    "role": "outer"
                },
                {
                    "type": "way",
                    "ref": 991370115,
                    "role": "outer"
                },
                {
                    "type": "way",
                    "ref": 991370114,
                    "role": "outer"
                },
                {
                    "type": "way",
                    "ref": 991588911,
                    "role": "outer"
                },
                {
                    "type": "way",
                    "ref": 991588932,
                    "role": "outer"
                }
            ],
            "tags": {
                "brand": "Intimissimi",
                "brand:wikidata": "Q305404",
                "brand:wikipedia": "en:Intimissimi",
                "clothes": "underwear",
                "indoor": "room",
                "level": "0",
                "name": "Intimissimi",
                "opening_hours": "Mo-Su,PH 09:00-20:30",
                "shop": "clothes",
                "type": "multipolygon"
            }
        },
        {
            "type": "relation",
            "id": 15613961,
            "timestamp": "2024-05-15T11:40:22Z",
            "version": 4,
            "changeset": 151356491,
            "user": "DnaX",
            "uid": 69259,
            "members": [
                {
                    "type": "way",
                    "ref": 1155114816,
                    "role": "outer"
                },
                {
                    "type": "way",
                    "ref": 1155114815,
                    "role": "outer"
                },
                {
                    "type": "way",
                    "ref": 1155114762,
                    "role": "outer"
                },
                {
                    "type": "way",
                    "ref": 298765341,
                    "role": "outer"
                }
            ],
            "tags": {
                "brand": "Kasanova",
                "brand:wikidata": "Q116214505",
                "indoor": "room",
                "level": "0",
                "name": "Kasanova",
                "opening_hours": "Mo-Su 09:00-20:00",
                "shop": "houseware",
                "type": "multipolygon"
            }
        },
        {
            "type": "relation",
            "id": 15613967,
            "timestamp": "2023-03-18T00:07:10Z",
            "version": 3,
            "changeset": 133807962,
            "user": "frasty",
            "uid": 549825,
            "members": [
                {
                    "type": "way",
                    "ref": 1155114828,
                    "role": "outer"
                },
                {
                    "type": "way",
                    "ref": 298765347,
                    "role": "outer"
                },
                {
                    "type": "way",
                    "ref": 1155114827,
                    "role": "outer"
                },
                {
                    "type": "way",
                    "ref": 1155114825,
                    "role": "outer"
                }
            ],
            "tags": {
                "brand": "Unieuro",
                "brand:wikidata": "Q4004687",
                "indoor": "area",
                "level": "0",
                "name": "Unieuro",
                "opening_hours": "Mo-Su 09:00-20:00",
                "phone": "+39 0564 395111",
                "shop": "electronics",
                "type": "multipolygon"
            }
        }
    ],
    "telegram": [
        {
            "telegram": "ss-toscana-sud"
        }
    ]
}