{
    "id": "lecce",
    "name": "Lecce",
    "lng": 40.354948,
    "lat": 18.174879,
    "poi": [
        {
            "type": "node",
            "id": 966930236,
            "lat": 40.1733506,
            "lon": 18.0346497,
            "timestamp": "2024-12-31T17:39:31Z",
            "version": 3,
            "changeset": 160842849,
            "user": "mpbin",
            "uid": 21850090,
            "tags": {
                "addr:city": "Nard\u00f2",
                "addr:housenumber": "33",
                "addr:postcode": "73048",
                "addr:street": "Via John Fitzgerald Kennedy",
                "name": "Unieuro",
                "operator": "Unieuro S.p.A.",
                "shop": "supermarket",
                "wheelchair": "yes"
            }
        },
        {
            "type": "node",
            "id": 4392833125,
            "lat": 40.3581997,
            "lon": 18.1793325,
            "timestamp": "2024-10-21T19:28:58Z",
            "version": 4,
            "changeset": 158184830,
            "user": "mpbin",
            "uid": 21850090,
            "tags": {
                "addr:city": "Lecce",
                "addr:housenumber": "11",
                "addr:postcode": "73100",
                "addr:street": "Piazza Ludovico Ariosto",
                "check_date": "2024-10-21",
                "check_date:currency:XBT": "2024-10-21",
                "contact:facebook": "https://www.facebook.com/casadellachiavesnc/",
                "craft": "key_cutter",
                "currency:XBT": "yes",
                "email": "info@casadellachiavesnc.com",
                "entrance": "yes",
                "mobile": "+39 320 61 95 681",
                "name": "Casa della Chiave",
                "phone": "+39 0832 16 90 971",
                "website": "https://www.casadellachiavesnc.com/"
            }
        },
        {
            "type": "node",
            "id": 4539963841,
            "lat": 40.0083948,
            "lon": 18.3222677,
            "timestamp": "2024-12-31T16:55:37Z",
            "version": 3,
            "changeset": 160841350,
            "user": "mpbin",
            "uid": 21850090,
            "tags": {
                "addr:city": "Surano",
                "addr:housenumber": "km 13,4",
                "addr:postcode": "73030",
                "addr:street": "Strada Statale 275 Maglie - Leuca",
                "brand": "Unieuro",
                "brand:wikidata": "Q4004687",
                "name": "Unieuro",
                "operator": "Unieuro S.p.A.",
                "phone": "+39 0836 939444",
                "ref:vatin": "IT00876320409",
                "shop": "electronics"
            }
        },
        {
            "type": "node",
            "id": 5311134812,
            "lat": 40.3594004,
            "lon": 18.1839147,
            "timestamp": "2025-01-01T18:36:26Z",
            "version": 3,
            "changeset": 160880187,
            "user": "mpbin",
            "uid": 21850090,
            "tags": {
                "addr:city": "Lecce",
                "addr:housenumber": "5",
                "addr:postcode": "73024",
                "addr:street": "Viale Giovanni Paolo Secondo",
                "name": "Unieuro",
                "operator": "Unieuro S.p.A.",
                "shop": "electronics"
            }
        },
        {
            "type": "node",
            "id": 5660407521,
            "lat": 40.2950741,
            "lon": 17.8548774,
            "timestamp": "2024-12-30T23:05:53Z",
            "version": 2,
            "changeset": 160813566,
            "user": "mpbin",
            "uid": 21850090,
            "tags": {
                "addr:city": "Porto Cesareo",
                "addr:housenumber": "SNC",
                "addr:postcode": "73010",
                "addr:street": "Via Giacomo Zanella",
                "name": "Conad",
                "operator": "Conad",
                "shop": "supermarket"
            }
        },
        {
            "type": "node",
            "id": 7505642383,
            "lat": 40.2933259,
            "lon": 18.1976235,
            "timestamp": "2023-11-28T16:58:02Z",
            "version": 5,
            "changeset": 144557211,
            "user": "\u0110uro Ji\u0159\u00ed",
            "uid": 14617702,
            "tags": {
                "addr:city": "Cavallino",
                "addr:postcode": "73020",
                "addr:street": "Strada Statale 16 Adriatica",
                "amenity": "pharmacy",
                "dispensing": "no",
                "healthcare": "pharmacy",
                "name": "Parafarmacia Conad",
                "opening_hours": "Mo-Sa 09:00-21:00; Su 10:00-21:00",
                "operator": "Conad",
                "wheelchair": "yes"
            }
        },
        {
            "type": "node",
            "id": 11352633653,
            "lat": 40.6392398,
            "lon": 17.9473827,
            "timestamp": "2025-01-02T10:54:38Z",
            "version": 5,
            "changeset": 160901394,
            "user": "mpbin",
            "uid": 21850090,
            "tags": {
                "addr:city": "Brindisi",
                "addr:housenumber": "7b",
                "addr:postcode": "72100",
                "addr:street": "Vicolo Amena",
                "check_date": "2024-10-18",
                "check_date:currency:XBT": "2024-10-18",
                "contact:instagram": "https://www.instagram.com/cripta.tattoo/",
                "currency:XBT": "yes",
                "description": "Studio professionale di tatuaggi.",
                "email": "tattoo.cripta@gmail.com",
                "name": "Cripta Tattoo",
                "phone": "+393894958272",
                "shop": "tattoo"
            }
        },
        {
            "type": "node",
            "id": 12324609959,
            "lat": 40.4984508,
            "lon": 17.6433669,
            "timestamp": "2025-01-02T12:10:50Z",
            "version": 2,
            "changeset": 160904209,
            "user": "mpbin",
            "uid": 21850090,
            "tags": {
                "addr:city": "Oria",
                "addr:housenumber": "2",
                "addr:postcode": "72024",
                "addr:street": "Piazza Albanese",
                "amenity": "bar",
                "contact:facebook": "https://www.facebook.com/p/Caveau-ExperienceBar-Oria-61555244900593/",
                "contact:instagram": "https://www.instagram.com/caveau_oria/",
                "currency:XBT": "yes",
                "email": "info@caveaubar.it",
                "name": "Caveau Bar",
                "phone": "+39 350 126 5170"
            }
        },
        {
            "type": "node",
            "id": 12434177691,
            "lat": 39.9685192,
            "lon": 18.0184489,
            "timestamp": "2024-12-19T19:14:45Z",
            "version": 2,
            "changeset": 160407367,
            "user": "FrancescoTricarico",
            "uid": 22304586,
            "tags": {
                "addr:city": "Marina di Mancaversa",
                "addr:housenumber": "20",
                "addr:postcode": "73057",
                "addr:street": "Via Arno",
                "currency:XBT": "yes",
                "guest_house": "guest_house",
                "name": "Il Rifugio dei Marinai",
                "tourism": "guest_house"
            }
        }
    ],
    "telegram": [
        {
            "telegram": "salento-b"
        }
    ]
}