{
    "id": "malta",
    "name": "Malta",
    "lng": 35.886192,
    "lat": 14.4508814,
    "poi": [
        {
            "type": "node",
            "id": 3263294786,
            "lat": 35.8432155,
            "lon": 14.5412616,
            "timestamp": "2025-09-30T16:34:01Z",
            "version": 5,
            "changeset": 172669083,
            "user": "richlv",
            "uid": 47892,
            "tags": {
                "addr:city": "Marsaxlokk",
                "addr:country": "MT",
                "addr:postcode": "MXK9044",
                "addr:street": "Triq I\u017c-\u017bejtun",
                "brand": "Spar",
                "brand:wikidata": "Q610492",
                "brand:wikipedia": "en:SPAR (retailer)",
                "check_date": "2025-09-30",
                "name": "Spar",
                "opening_hours": "07:00-22:00",
                "payment:cash": "yes",
                "payment:credit_cards": "yes",
                "shop": "supermarket"
            }
        },
        {
            "type": "node",
            "id": 5174220552,
            "lat": 35.8742086,
            "lon": 14.4483703,
            "timestamp": "2022-03-29T21:14:08Z",
            "version": 2,
            "changeset": 119088889,
            "user": "Strubbl",
            "uid": 536583,
            "tags": {
                "branch": "Cucine",
                "brand": "Spar",
                "brand:wikidata": "Q610492",
                "brand:wikipedia": "en:SPAR (retailer)",
                "name": "Spar",
                "shop": "convenience"
            }
        },
        {
            "type": "node",
            "id": 5641889022,
            "lat": 35.9009144,
            "lon": 14.4892857,
            "timestamp": "2025-07-15T20:07:59Z",
            "version": 8,
            "changeset": 168982999,
            "user": "Rockedf",
            "uid": 7522075,
            "tags": {
                "addr:city": "Il-G\u017cira",
                "addr:country": "MT",
                "addr:housenumber": "34",
                "addr:postcode": "GZR 1660",
                "addr:street": "Triq Gerry Zammit",
                "amenity": "pub",
                "check_date": "2025-03-08",
                "check_date:currency:XBT": "2025-07-15",
                "contact:facebook": "thehattermalta",
                "currency:XBT": "yes",
                "name": "The Hatter",
                "opening_hours": "Mo-Su 08:00-01:00",
                "payment:cash": "yes",
                "payment:lightning": "yes",
                "payment:lightning_contactless": "yes",
                "payment:onchain": "yes",
                "payment:visa": "yes",
                "phone": "+356 2134 2769"
            }
        },
        {
            "type": "node",
            "id": 5896564791,
            "lat": 35.9095412,
            "lon": 14.5073442,
            "timestamp": "2024-11-18T14:02:18Z",
            "version": 6,
            "changeset": 159284847,
            "user": "SloGIS",
            "uid": 565483,
            "tags": {
                "addr:street": "Triq Tign\u00e9",
                "brand": "Spar",
                "brand:wikidata": "Q610492",
                "brand:wikipedia": "en:SPAR (retailer)",
                "name": "Spar",
                "opening_hours": "Mo-Su 07:00-22:00",
                "payment:cash": "yes",
                "payment:credit_cards": "yes",
                "shop": "supermarket"
            }
        },
        {
            "type": "node",
            "id": 6037246303,
            "lat": 35.923766,
            "lon": 14.4892642,
            "timestamp": "2025-09-01T18:16:43Z",
            "version": 9,
            "changeset": 171328719,
            "user": "samuelzammit",
            "uid": 21459242,
            "tags": {
                "addr:street": "St.George's Road/Triq San Gorg, STJ 3200, Malta",
                "amenity": "atm",
                "brand": "Euronet",
                "brand:wikidata": "Q5412010",
                "brand:wikipedia": "en:Euronet Worldwide",
                "check_date": "2025-09-01",
                "currency:XBT": "yes",
                "description": "Located inside The Seven Apartments",
                "drive_through": "no",
                "name": "Euronet",
                "operator": "Euronet",
                "operator:wikidata": "Q5412010",
                "operator:wikipedia": "en:Euronet Worldwide",
                "payment:lightning": "no",
                "payment:lightning_contactless": "no",
                "payment:onchain": "yes"
            }
        },
        {
            "type": "node",
            "id": 6170511185,
            "lat": 35.9095853,
            "lon": 14.5057474,
            "timestamp": "2020-12-23T10:57:29Z",
            "version": 2,
            "changeset": 96318686,
            "user": "topius",
            "uid": 2903947,
            "tags": {
                "brand": "Calzedonia",
                "brand:wikidata": "Q1027874",
                "brand:wikipedia": "en:Calzedonia",
                "name": "Calzedonia",
                "shop": "clothes"
            }
        },
        {
            "type": "node",
            "id": 7058225070,
            "lat": 35.8795988,
            "lon": 14.4834665,
            "timestamp": "2022-03-29T20:43:22Z",
            "version": 3,
            "changeset": 119088061,
            "user": "Strubbl",
            "uid": 536583,
            "tags": {
                "addr:street": "Triq It-tigrija Al, Qormi MRS 2912",
                "brand": "Decathlon",
                "brand:wikidata": "Q509349",
                "brand:wikipedia": "en:Decathlon (retailer)",
                "description": "Sports and outdoors store",
                "name": "Decathlon",
                "opening_hours": "Mo-Sa 09:00-20:00; Su 10:00-19:00",
                "phone": "2095 9400",
                "shop": "sports"
            }
        },
        {
            "type": "node",
            "id": 7190945438,
            "lat": 35.9280941,
            "lon": 14.4905116,
            "timestamp": "2025-09-01T18:16:43Z",
            "version": 8,
            "changeset": 171328719,
            "user": "samuelzammit",
            "uid": 21459242,
            "tags": {
                "addr:city": "San \u0120iljan",
                "addr:country": "MT",
                "addr:postcode": "STJ 3301",
                "addr:street": "Triq Ix-Xatt ta' San \u0120or\u0121",
                "amenity": "restaurant",
                "check_date": "2025-09-01",
                "cuisine": "mediterranean;european",
                "currency:XBT": "yes",
                "email": "experience@caviarandbull.com",
                "name": "Caviar & Bull",
                "payment:american_express": "yes",
                "payment:cash": "yes",
                "payment:credit_cards": "yes",
                "payment:lightning": "yes",
                "payment:lightning_contactless": "no",
                "payment:onchain": "yes",
                "phone": "+356 9999 3301",
                "website": "https://caviarandbull.com.mt/"
            }
        },
        {
            "type": "node",
            "id": 7194831185,
            "lat": 35.895804,
            "lon": 14.5043323,
            "timestamp": "2025-03-08T23:23:44Z",
            "version": 9,
            "changeset": 163382786,
            "user": "Comino",
            "uid": 6794624,
            "tags": {
                "addr:city": "Floriana",
                "addr:street": "Belt is-Sebh",
                "amenity": "restaurant",
                "check_date": "2025-03-08",
                "check_date:currency:XBT": "2024-12-10",
                "contact:facebook": "dinnerintheskymalta",
                "contact:instagram": "dinnerintheskymalta",
                "currency:XBT": "yes",
                "description": "An extraordinary aerial culinary experience in the heart of Malta.",
                "email": "reservations@dinnerintheskymalta.com",
                "name": "Dinner in the Sky",
                "payment:lightning": "yes",
                "payment:lightning_contactless": "no",
                "payment:onchain": "yes",
                "phone": "+356 9998 8835",
                "website": "https://dinnerintheskymalta.com/"
            }
        },
        {
            "type": "node",
            "id": 9155469717,
            "lat": 35.9280558,
            "lon": 14.4905783,
            "timestamp": "2025-09-01T18:16:43Z",
            "version": 10,
            "changeset": 171328719,
            "user": "samuelzammit",
            "uid": 21459242,
            "tags": {
                "addr:city": "San \u0120iljan",
                "addr:country": "MT",
                "addr:postcode": "STJ 3301",
                "amenity": "restaurant",
                "check_date": "2025-09-01",
                "contact:facebook": "tarragonmalta",
                "contact:instagram": "solebytarragon",
                "cuisine": "latin_american;mediterranean",
                "currency:XBT": "yes",
                "email": "experience@solebytarragon.com",
                "name": "Sole by Tarragon",
                "opening_hours": "Mo-Su 18:30-23:00; Su 12:00-16:00",
                "payment:cash": "yes",
                "payment:contactless": "yes",
                "payment:credit_cards": "yes",
                "payment:cryptocurrencies": "yes",
                "payment:debit_cards": "yes",
                "payment:lightning": "yes",
                "payment:lightning_contactless": "no",
                "payment:mastercard": "yes",
                "payment:onchain": "yes",
                "payment:visa": "yes",
                "phone": "+356 7728 3342",
                "website": "https://solebytarragon.com/"
            }
        },
        {
            "type": "node",
            "id": 9774589017,
            "lat": 35.9105914,
            "lon": 14.5092396,
            "timestamp": "2025-09-04T13:21:01Z",
            "version": 6,
            "changeset": 171453115,
            "user": "parukhin",
            "uid": 519501,
            "tags": {
                "addr:city": "Tas-Sliema",
                "addr:housenumber": "44",
                "addr:postcode": "SLM 3112",
                "addr:street": "Ix-Xatt ta' Qui-si-Sana",
                "amenity": "cafe",
                "check_date": "2025-03-09",
                "check_date:currency:XBT": "2025-07-13",
                "contact:facebook": "coffeecircussliema",
                "contact:instagram": "coffee.circus.sound",
                "cuisine": "coffee_shop",
                "currency:XBT": "yes",
                "name": "Coffee Circus Sound",
                "opening_hours": "Mo-Su 07:00-24:00",
                "payment:credit_cards": "yes",
                "payment:lightning": "yes",
                "payment:lightning_contactless": "yes",
                "payment:onchain": "yes",
                "phone": "+356 79 231 773",
                "website": "https://www.coffeecircus.com.mt/"
            }
        },
        {
            "type": "node",
            "id": 10064536050,
            "lat": 35.8991156,
            "lon": 14.4922686,
            "timestamp": "2025-06-27T12:39:03Z",
            "version": 3,
            "changeset": 168183986,
            "user": "Gremxul_abjad",
            "uid": 22320231,
            "tags": {
                "brand": "Spar",
                "brand:wikidata": "Q610492",
                "name": "Spar",
                "opening_hours": "Mo-Sa 07:00-22:00",
                "shop": "supermarket"
            }
        },
        {
            "type": "node",
            "id": 10300874313,
            "lat": 35.9036742,
            "lon": 14.4875202,
            "timestamp": "2025-03-08T22:56:43Z",
            "version": 4,
            "changeset": 163382253,
            "user": "Comino",
            "uid": 6794624,
            "tags": {
                "addr:city": "Il-G\u017cira",
                "addr:country": "MT",
                "addr:postcode": "GZR 1711",
                "addr:street": "Triq Maria Teresa Spinelli",
                "check_date": "2025-03-08",
                "check_date:currency:XBT": "2023-01-02",
                "currency:XBT": "yes",
                "email": "info@myptmalta.com",
                "leisure": "fitness_centre",
                "name": "My Personal Trainer Malta",
                "payment:lightning": "yes",
                "payment:lightning_contactless": "no",
                "payment:onchain": "yes",
                "phone": "+356 7906 9474",
                "website": "https://www.mypersonaltrainermalta.com/"
            }
        },
        {
            "type": "node",
            "id": 10926232059,
            "lat": 35.9146866,
            "lon": 14.4961673,
            "timestamp": "2025-07-15T18:01:54Z",
            "version": 5,
            "changeset": 168978369,
            "user": "Rockedf",
            "uid": 7522075,
            "tags": {
                "addr:city": "Tas-Sliema",
                "addr:housenumber": "272",
                "addr:postcode": "SLM 1600",
                "addr:street": "Tower Road",
                "check_date:currency:XBT": "2025-07-15",
                "contact:facebook": "https://www.facebook.com/profile.php?id=100090607183294",
                "contact:instagram": "planb_barbershop",
                "currency:XBT": "yes",
                "email": "info@planbbarber.com",
                "name": "Plan B Balluta Bay",
                "payment:lightning": "yes",
                "payment:lightning_contactless": "yes",
                "payment:onchain": "yes",
                "phone": "+356 9931 9792",
                "shop": "hairdresser",
                "survey:date": "2025-03-08",
                "website": "https://www.planbbarber.com/"
            }
        },
        {
            "type": "node",
            "id": 11343436970,
            "lat": 35.950839,
            "lon": 14.4122504,
            "timestamp": "2024-02-10T14:09:27Z",
            "version": 2,
            "changeset": 147294121,
            "user": "Tag Upgrade Bot",
            "uid": 20033850,
            "tags": {
                "addr:street": "Triq ix-Xitwa",
                "brand": "Spar",
                "brand:wikidata": "Q610492",
                "name": "Spar",
                "opening_hours": "24/7",
                "shop": "supermarket"
            }
        },
        {
            "type": "node",
            "id": 11704472866,
            "lat": 35.9277705,
            "lon": 14.4899356,
            "timestamp": "2025-09-01T18:16:43Z",
            "version": 6,
            "changeset": 171328719,
            "user": "samuelzammit",
            "uid": 21459242,
            "tags": {
                "addr:city": "San \u0120iljan",
                "addr:country": "MT",
                "addr:postcode": "STJ3301",
                "addr:street": "Ix-Xatt ta\u2019 San Gorg San Giljan,",
                "amenity": "restaurant",
                "check_date": "2025-09-01",
                "cuisine": "pizza;italian",
                "currency:XBT": "yes",
                "name": "Don Royale",
                "opening_hours": "Mo-Sa 17:00-23:00; Su 12:00-15:30,17:00-23:00",
                "payment:cash": "yes",
                "payment:credit_cards": "yes",
                "payment:lightning": "yes",
                "payment:lightning_contactless": "no",
                "payment:onchain": "yes",
                "phone": "+356 7952 7007",
                "website": "https://donroyalerestaurant.com"
            }
        },
        {
            "type": "node",
            "id": 11742868500,
            "lat": 35.9079663,
            "lon": 14.4997513,
            "timestamp": "2025-08-23T17:22:31Z",
            "version": 5,
            "changeset": 170892247,
            "user": "samuelzammit",
            "uid": 21459242,
            "tags": {
                "addr:city": "Tas-Sliema",
                "addr:country": "MT",
                "addr:housenumber": "110",
                "addr:postcode": "SLM 1020",
                "addr:street": "Triq Ix-Xatt",
                "check_date": "2025-08-23",
                "check_date:currency:XBT": "2025-07-16",
                "contact:facebook": "https://www.facebook.com/profile.php?id=100090607183294",
                "contact:instagram": "planb_barbershop",
                "currency:XBT": "yes",
                "email": "info@planbbarber.com",
                "male": "yes",
                "name": "Plan B The Strand",
                "payment:lightning": "yes",
                "payment:lightning_contactless": "yes",
                "payment:onchain": "yes",
                "phone": "+356 9931 9792",
                "shop": "hairdresser",
                "website": "https://www.planbbarber.com/"
            }
        },
        {
            "type": "node",
            "id": 11800276711,
            "lat": 35.9236763,
            "lon": 14.4901888,
            "timestamp": "2025-03-09T01:14:50Z",
            "version": 2,
            "changeset": 163384378,
            "user": "Comino",
            "uid": 6794624,
            "tags": {
                "amenity": "atm",
                "branch": "Shop Express",
                "cash_in": "yes",
                "cash_out": "yes",
                "cash_withdrawal": "yes",
                "check_date": "2024-04-07",
                "currency:EUR": "yes",
                "currency:XBT": "yes",
                "indoor": "yes",
                "level": "0",
                "manufacturer": "Lamassu",
                "name": "Bitcoin ATM",
                "note": "Located inside Shop Express",
                "opening_hours": "24/7",
                "operator": "Bitlava",
                "payment:cash": "yes",
                "payment:lightning": "no",
                "payment:lightning_contactless": "no",
                "payment:onchain": "yes",
                "start_date": "2024-02-12",
                "url": "https://coinatmradar.com/bitcoin_atm/78448/bitcoin-atm-lamassu-st-julians-shop-express/"
            }
        },
        {
            "type": "node",
            "id": 12031697906,
            "lat": 35.952104,
            "lon": 14.410731,
            "timestamp": "2025-08-26T21:33:27Z",
            "version": 4,
            "changeset": 171051630,
            "user": "samuelzammit",
            "uid": 21459242,
            "tags": {
                "addr:city": "Bugibba",
                "addr:street": "Triq is-Sajf",
                "check_date": "2025-08-26",
                "contact:facebook": "crestbottleshop",
                "currency:XBT": "yes",
                "description": "An esteemed bottle shop in Bugibba selling any and all sorts of wine, beers, spirits and tobacco.",
                "email": "tania@crestbottleshop.com",
                "name": "Crest Bottle Shop",
                "payment:contactless": "yes",
                "payment:lightning": "yes",
                "payment:lightning_contactless": "no",
                "payment:onchain": "yes",
                "phone": "+356 2157 3688",
                "shop": "alcohol",
                "website": "https://crestbottleshop.com/"
            }
        },
        {
            "type": "node",
            "id": 12137711089,
            "lat": 35.9565582,
            "lon": 14.3652009,
            "timestamp": "2025-08-08T23:51:52Z",
            "version": 5,
            "changeset": 170179534,
            "user": "tal-bajdKbar",
            "uid": 13377098,
            "tags": {
                "addr:city": "Mellie\u0127a",
                "addr:housenumber": "66",
                "addr:postcode": "MLH 2313",
                "addr:street": "Triq il-Kbira",
                "amenity": "cafe",
                "check_date": "2025-08-08",
                "contact:facebook": "https://www.facebook.com/profile.php?id=100066829402223",
                "currency:XBT": "yes",
                "name": "Freds Pies & More",
                "opening_hours": "Mo-Su 09:00-22:00",
                "payment:lightning": "yes",
                "payment:lightning_contactless": "no",
                "payment:onchain": "yes",
                "phone": "+356 2152 3593"
            }
        },
        {
            "type": "node",
            "id": 12358033292,
            "lat": 35.9221594,
            "lon": 14.487612,
            "timestamp": "2025-03-12T07:51:09Z",
            "version": 5,
            "changeset": 163515700,
            "user": "Comino",
            "uid": 6794624,
            "tags": {
                "addr:city": "San \u0120iljan",
                "addr:postcode": "STJ 9023",
                "addr:street": "Triq Sant' Andrija",
                "check_date": "2025-03-12",
                "currency:XBT": "yes",
                "name": "Bitsuite",
                "office": "consulting",
                "opening_hours": "Mo-Fr 08:00-16:00",
                "payment:lightning": "yes",
                "payment:lightning_contactless": "no",
                "payment:onchain": "yes",
                "phone": "+356 796 40187",
                "website": "https://bitsuite.co/"
            }
        },
        {
            "type": "node",
            "id": 12399759098,
            "lat": 35.9097484,
            "lon": 14.5065447,
            "timestamp": "2025-03-08T23:32:53Z",
            "version": 6,
            "changeset": 163382948,
            "user": "Comino",
            "uid": 6794624,
            "tags": {
                "addr:city": "Tas-Sliema",
                "addr:postcode": "SLM 1640",
                "addr:street": "Triq Bisazza",
                "check_date": "2025-03-09",
                "check_date:currency:XBT": "2025-03-09",
                "contact:facebook": "dickens.malta",
                "contact:instagram": "dickens.malta",
                "currency:XBT": "yes",
                "email": "info@dickens.com.mt",
                "name": "Dickens",
                "opening_hours": "Mo-Su 09:30-19:30",
                "payment:app": "yes",
                "payment:cash": "yes",
                "payment:credit_cards": "yes",
                "payment:cryptocurrencies": "yes",
                "payment:debit_cards": "yes",
                "payment:lightning": "yes",
                "payment:lightning_contactless": "no",
                "payment:mastercard": "yes",
                "payment:onchain": "yes",
                "payment:visa": "yes",
                "phone": "+356 21 333 562",
                "shop": "photo",
                "website": "https://www.dickens.com.mt/"
            }
        },
        {
            "type": "node",
            "id": 12646464761,
            "lat": 35.9233428,
            "lon": 14.4891637,
            "timestamp": "2025-09-01T18:16:43Z",
            "version": 3,
            "changeset": 171328719,
            "user": "samuelzammit",
            "uid": 21459242,
            "tags": {
                "addr:city": "San \u0120iljan",
                "addr:street": "Triq Elija Zammit",
                "check_date": "2025-09-01",
                "contact:facebook": "https://www.facebook.com/profile.php?id=100090607183294",
                "contact:instagram": "planb_barbershop",
                "currency:XBT": "yes",
                "email": "info@planbbarber.com",
                "name": "Plan B Mercury Tower",
                "payment:lightning": "yes",
                "payment:lightning_contactless": "no",
                "payment:onchain": "yes",
                "phone": "+356 9931 9792",
                "shop": "hairdresser",
                "website": "https://www.planbbarber.com/"
            }
        },
        {
            "type": "node",
            "id": 12646676030,
            "lat": 35.8817997,
            "lon": 14.3981773,
            "timestamp": "2025-03-09T00:08:23Z",
            "version": 1,
            "changeset": 163383540,
            "user": "Comino",
            "uid": 6794624,
            "tags": {
                "addr:city": "Ir-Rabat",
                "addr:housenumber": "9",
                "addr:street": "Triq Bir Ir-Riebu",
                "amenity": "cafe",
                "check_date": "2025-03-09",
                "contact:facebook": "coffeecircussmile",
                "contact:instagram": "coffeecircussmile",
                "cuisine": "coffee_shop",
                "currency:XBT": "yes",
                "name": "Coffee Circus Smile",
                "opening_hours": "Mo-Su 08:30-21:00",
                "payment:lightning": "yes",
                "payment:lightning_contactless": "no",
                "payment:onchain": "yes",
                "phone": "+356 79 231 717",
                "website": "https://www.coffeecircus.com.mt/"
            }
        },
        {
            "type": "node",
            "id": 12646700814,
            "lat": 35.8640792,
            "lon": 14.5618335,
            "timestamp": "2025-03-09T00:26:12Z",
            "version": 1,
            "changeset": 163383836,
            "user": "Comino",
            "uid": 6794624,
            "tags": {
                "addr:city": "Wied il-G\u0127ajn",
                "addr:housenumber": "29",
                "addr:street": "Triq ix-Xatt",
                "amenity": "cafe",
                "check_date": "2025-03-09",
                "contact:facebook": "coffeecircusmarsaskala",
                "contact:instagram": "coffeecircusconnections",
                "cuisine": "coffee_shop",
                "currency:XBT": "yes",
                "name": "Coffee Circus Connections / Marsaskala",
                "opening_hours": "Mo-Su 07:30-23:00",
                "payment:lightning": "yes",
                "payment:lightning_contactless": "no",
                "payment:onchain": "yes",
                "phone": "+356 79 231 717",
                "website": "https://www.coffeecircus.com.mt/"
            }
        },
        {
            "type": "node",
            "id": 13058928906,
            "lat": 35.9507086,
            "lon": 14.4102524,
            "timestamp": "2025-08-09T00:09:58Z",
            "version": 1,
            "changeset": 170179798,
            "user": "tal-bajdKbar",
            "uid": 13377098,
            "tags": {
                "addr:city": "San Pawl il-Ba\u0127ar",
                "addr:housenumber": "16",
                "addr:street": "Triq Sant' Antnin",
                "currency:XBT": "yes",
                "facebook": "https://www.facebook.com/Ilonaerikagaspar",
                "name": "Sisi Therapy Massage Salon",
                "phone": "+356 99760082",
                "shop": "massage"
            }
        }
    ],
    "telegram": [
        {
            "telegram": "bb-malta"
        }
    ]
}