{
    "id": "marche",
    "name": "Marche",
    "lng": 43.61675973,
    "lat": 13.51887537,
    "poi": [
        {
            "type": "node",
            "id": 226902306,
            "lat": 43.5194638,
            "lon": 13.4981294,
            "timestamp": "2022-12-25T13:33:09Z",
            "version": 12,
            "changeset": 130482634,
            "user": "totera",
            "uid": 123412,
            "tags": {
                "addr:city": "Osimo",
                "addr:housenumber": "66",
                "addr:postcode": "60027",
                "addr:street": "Via Ancona",
                "amenity": "fuel",
                "brand": "Q8",
                "brand:wikidata": "Q1634762",
                "fuel:GTL_diesel": "yes",
                "fuel:diesel": "yes",
                "fuel:octane_95": "yes",
                "name": "Q8 Mar.Pav.",
                "operator": "Mar.Pav. di Pavoni Marco",
                "phone": "+39 071 7108000",
                "ref:mise": "39361"
            }
        },
        {
            "type": "node",
            "id": 227539738,
            "lat": 43.5190913,
            "lon": 13.5288281,
            "timestamp": "2025-10-05T07:58:28Z",
            "version": 15,
            "changeset": 172856891,
            "user": "btcitnet",
            "uid": 22525435,
            "tags": {
                "addr:city": "Camerano",
                "addr:postcode": "60021",
                "addr:street": "Via Farfisa",
                "amenity": "fuel",
                "brand": "Q8",
                "brand:wikidata": "Q1634762",
                "brand:wikipedia": "en:Kuwait Petroleum Corporation",
                "compressed_air": "no",
                "fuel:cng": "yes",
                "fuel:diesel": "yes",
                "fuel:lng": "yes",
                "fuel:octane_95": "yes",
                "name": "Q8",
                "opening_hours": "24/7",
                "operator": "Servizi & Gestioni Italia S.R.L.",
                "ref:mise": "6601",
                "self_service": "yes"
            }
        },
        {
            "type": "node",
            "id": 227739748,
            "lat": 43.2825287,
            "lon": 13.6836214,
            "timestamp": "2023-05-03T08:30:25Z",
            "version": 10,
            "changeset": 135648380,
            "user": "totera",
            "uid": 123412,
            "tags": {
                "addr:city": "Civitanova Marche",
                "addr:postcode": "62012",
                "addr:street": "Via Piero Gobetti",
                "amenity": "fuel",
                "brand": "Gep carburanti",
                "brand:wikidata": "Q1634762",
                "fuel:cng": "yes",
                "fuel:diesel": "yes",
                "fuel:lpg": "yes",
                "fuel:octane_95": "yes",
                "name": "Q8",
                "nohousenumber": "yes",
                "operator": "Gep Carburanti",
                "ref:mise": "50041"
            }
        },
        {
            "type": "node",
            "id": 227870910,
            "lat": 43.5855232,
            "lon": 13.3415569,
            "timestamp": "2023-01-02T16:19:44Z",
            "version": 10,
            "changeset": 130794292,
            "user": "totera",
            "uid": 123412,
            "tags": {
                "addr:city": "Camerata Picena",
                "addr:postcode": "60020",
                "addr:street": "Strada Provinciale 2 Sirolo - Senigallia",
                "amenity": "fuel",
                "brand": "Q8",
                "brand:wikidata": "Q1634762",
                "brand:wikipedia": "en:Kuwait Petroleum Corporation",
                "fuel:diesel": "yes",
                "fuel:octane_95": "yes",
                "name": "Q8",
                "operator": "Servizi & Gestioni Italia S.R.L.",
                "ref:mise": "23429"
            }
        },
        {
            "type": "node",
            "id": 227894834,
            "lat": 43.4462138,
            "lon": 13.5540438,
            "timestamp": "2025-10-05T11:14:15Z",
            "version": 10,
            "changeset": 172862238,
            "user": "totera",
            "uid": 123412,
            "tags": {
                "addr:city": "Castelfidardo",
                "addr:milestone": "5",
                "addr:postcode": "60022",
                "addr:street": "Via Jesina",
                "amenity": "fuel",
                "brand": "Q8",
                "brand:wikidata": "Q1634762",
                "brand:wikipedia": "en:Kuwait Petroleum Corporation",
                "fuel:diesel": "yes",
                "fuel:lpg": "yes",
                "fuel:octane_95": "yes",
                "name": "Q8",
                "nohousenumber": "yes",
                "operator": "Servizi & Gestioni Italia Srl",
                "ref:mise": "6602",
                "self_service": "yes"
            }
        },
        {
            "type": "node",
            "id": 227895026,
            "lat": 43.272159,
            "lon": 13.6568,
            "timestamp": "2024-10-14T05:29:23Z",
            "version": 8,
            "changeset": 157859548,
            "user": "totera",
            "uid": 123412,
            "tags": {
                "addr:city": "Sant'Elpidio a Mare",
                "addr:postcode": "63811",
                "addr:street": "Via Brancadoro",
                "amenity": "fuel",
                "brand": "Q8",
                "brand:wikidata": "Q1634762",
                "brand:wikipedia": "en:Kuwait Petroleum Corporation",
                "fuel:diesel": "yes",
                "fuel:lpg": "yes",
                "fuel:octane_95": "yes",
                "name": "Q8",
                "nohousenumber": "yes",
                "operator": "Servizi & Gestioni Italia S.R.L.",
                "ref:mise": "20248"
            }
        },
        {
            "type": "node",
            "id": 227902769,
            "lat": 43.3210622,
            "lon": 13.4268148,
            "timestamp": "2022-12-27T00:53:34Z",
            "version": 8,
            "changeset": 130535901,
            "user": "totera",
            "uid": 123412,
            "tags": {
                "addr:city": "Macerata",
                "addr:milestone": "94.879",
                "addr:postcode": "62100",
                "addr:street": "Strada Provinciale 77 Val di Chienti",
                "amenity": "fuel",
                "brand": "Q8",
                "brand:wikidata": "Q1634762",
                "brand:wikipedia": "en:Kuwait Petroleum Corporation",
                "fuel:diesel": "yes",
                "fuel:octane_95": "yes",
                "name": "Q8",
                "operator": "Servizi & Gestioni Italia S.R.L.",
                "ref:mise": "24372"
            }
        },
        {
            "type": "node",
            "id": 227909946,
            "lat": 43.5084326,
            "lon": 13.6247188,
            "timestamp": "2025-04-19T21:34:41Z",
            "version": 9,
            "changeset": 165171793,
            "user": "btcitnet",
            "uid": 22525435,
            "tags": {
                "addr:city": "Numana",
                "addr:postcode": "60026",
                "brand": "Q8",
                "brand:wikidata": "Q1634762",
                "brand:wikipedia": "en:Kuwait Petroleum Corporation",
                "name": "Q8",
                "operator": "Q8",
                "self_service": "no",
                "waterway": "fuel"
            }
        },
        {
            "type": "node",
            "id": 227910110,
            "lat": 43.503629,
            "lon": 13.499362,
            "timestamp": "2022-11-03T09:35:01Z",
            "version": 8,
            "changeset": 128428569,
            "user": "totera",
            "uid": 123412,
            "tags": {
                "addr:city": "Osimo",
                "addr:milestone": "4.5",
                "addr:postcode": "60027",
                "addr:street": "Strada Provinciale 361 Septempedana",
                "amenity": "fuel",
                "brand": "Q8",
                "brand:wikidata": "Q1634762",
                "brand:wikipedia": "en:Kuwait Petroleum Corporation",
                "fuel:diesel": "yes",
                "fuel:octane_95": "yes",
                "name": "Q8",
                "operator": "Servizi & Gestioni Italia S.R.L.",
                "ref:mise": "6609"
            }
        },
        {
            "type": "node",
            "id": 228252195,
            "lat": 43.8352248,
            "lon": 13.0375007,
            "timestamp": "2025-10-05T08:00:33Z",
            "version": 12,
            "changeset": 172856955,
            "user": "btcitnet",
            "uid": 22525435,
            "tags": {
                "addr:city": "Fano",
                "addr:housenumber": "36",
                "addr:postcode": "61032",
                "addr:street": "Viale Piceno",
                "amenity": "fuel",
                "brand": "Tamoil",
                "brand:wikidata": "Q706793",
                "compressed_air": "yes",
                "fuel:diesel": "yes",
                "fuel:octane_95": "yes",
                "name": "Tamoil",
                "opening_hours": "24/7",
                "operator": "Marchetti Massimo",
                "ref:mise": "40308",
                "self_service": "yes",
                "wheelchair": "yes"
            }
        },
        {
            "type": "node",
            "id": 229118302,
            "lat": 43.593478,
            "lon": 13.520973,
            "timestamp": "2025-04-11T12:30:29Z",
            "version": 11,
            "changeset": 164813856,
            "user": "totera",
            "uid": 123412,
            "tags": {
                "addr:city": "Ancona",
                "addr:housenumber": "1",
                "addr:postcode": "60131",
                "addr:street": "Strada Comunale Asse Nord-Sud",
                "amenity": "fuel",
                "brand": "Q8",
                "brand:wikidata": "Q1634762",
                "check_date": "2025-04-11",
                "fuel:cng": "yes",
                "fuel:diesel": "yes",
                "fuel:lpg": "yes",
                "fuel:octane_95": "yes",
                "name": "Ancona Asse Nord/Sud - Localit\u00e0 Colleverde",
                "operator": "Servizi & Gestioni Italia S.R.L.",
                "ref:mise": "6605"
            }
        },
        {
            "type": "node",
            "id": 262617769,
            "lat": 43.5967759,
            "lon": 12.9304247,
            "timestamp": "2024-01-30T22:26:17Z",
            "version": 7,
            "changeset": 146881834,
            "user": "RobertoErre",
            "uid": 13524418,
            "tags": {
                "addr:city": "San Lorenzo in Campo",
                "addr:housenumber": "6",
                "addr:postcode": "61047",
                "addr:street": "Via San Severo",
                "amenity": "fuel",
                "brand": "Q8",
                "brand:wikidata": "Q1634762",
                "fuel:GTL_diesel": "yes",
                "fuel:diesel": "yes",
                "fuel:octane_100": "yes",
                "fuel:octane_95": "yes",
                "name": "Q8",
                "operator": "Stazione di Servizio San Lorenzo",
                "ref:mise": "9172"
            }
        },
        {
            "type": "node",
            "id": 318114360,
            "lat": 43.5431846,
            "lon": 13.0289579,
            "timestamp": "2024-12-30T22:35:38Z",
            "version": 7,
            "changeset": 160812881,
            "user": "mpbin",
            "uid": 21850090,
            "tags": {
                "addr:city": "Serra de' Conti",
                "addr:housenumber": "21",
                "addr:postcode": "60030",
                "addr:street": "Via Aristide Merloni",
                "brand": "Conad",
                "brand:wikidata": "Q639075",
                "brand:wikipedia": "it:Conad",
                "name": "Conad",
                "operator": "Conad",
                "shop": "supermarket"
            }
        },
        {
            "type": "node",
            "id": 335751283,
            "lat": 43.6506332,
            "lon": 13.0862809,
            "timestamp": "2021-07-03T08:22:26Z",
            "version": 4,
            "changeset": 107343501,
            "user": "Silverium",
            "uid": 13566882,
            "tags": {
                "addr:housenumber": "56",
                "addr:postcode": "60013",
                "addr:street": "Via Corinaldese",
                "brand": "Expert",
                "brand:wikidata": "Q680990",
                "brand:wikipedia": "en:Expert (company)",
                "created_by": "Potlatch 0.10f",
                "name": "Expert",
                "shop": "electronics"
            }
        },
        {
            "type": "node",
            "id": 344856159,
            "lat": 43.6487867,
            "lon": 12.9761987,
            "timestamp": "2025-10-16T18:46:50Z",
            "version": 14,
            "changeset": 173380340,
            "user": "btcitnet",
            "uid": 22525435,
            "tags": {
                "addr:city": "Mondavio",
                "addr:milestone": "19.234",
                "addr:postcode": "61040",
                "addr:street": "Strada Provinciale della Valcesano",
                "amenity": "fuel",
                "brand": "Tamoil",
                "brand:wikidata": "Q706793",
                "brand:wikipedia": "en:Tamoil",
                "fuel:diesel": "yes",
                "fuel:octane_95": "yes",
                "name": "Tamoil",
                "operator": "Tamoil - Mondavio Localit\u00e0 Pianaccio",
                "ref:mise": "13655",
                "wheelchair": "yes"
            }
        },
        {
            "type": "node",
            "id": 484013538,
            "lat": 43.2956331,
            "lon": 13.5819979,
            "timestamp": "2024-07-30T12:40:56Z",
            "version": 6,
            "changeset": 154604455,
            "user": "dambuster80",
            "uid": 11734328,
            "tags": {
                "addr:city": "Morrovalle",
                "addr:housenumber": "114",
                "addr:postcode": "62010",
                "addr:street": "Via Martin Luther King",
                "amenity": "fuel",
                "brand": "Tamoil",
                "brand:wikidata": "Q706793",
                "fuel:diesel": "yes",
                "fuel:octane_95": "yes",
                "name": "Galtor Oil",
                "nobrand": "yes",
                "operator": "Torresi Real Estate S.R.L.",
                "ref:mise": "15742"
            }
        },
        {
            "type": "node",
            "id": 653001436,
            "lat": 43.6079372,
            "lon": 13.5026195,
            "timestamp": "2025-01-18T11:09:21Z",
            "version": 18,
            "changeset": 161486879,
            "user": "totera",
            "uid": 123412,
            "tags": {
                "addr:city": "Ancona",
                "addr:housenumber": "2",
                "addr:postcode": "60127",
                "addr:street": "Corso Carlo Alberto di Savoia",
                "brand": "Conad",
                "brand:wikidata": "Q639075",
                "brand:wikipedia": "it:Conad",
                "check_date": "2025-01-17",
                "name": "Conad",
                "old_name": "Standa",
                "opening_hours": "Mo-Sa 08:00-20:00; Su 08:00-12:30",
                "operator": "Ma.Gia S.r.l.",
                "panoramax": "c6663858-283a-4f63-89be-58a2a771b647",
                "phone": "+39 071 44640",
                "ref:vatin": "IT02842040426",
                "shop": "supermarket",
                "website": "https://www.conad.it/ricerca-negozi/negozio.009949.html"
            }
        },
        {
            "type": "node",
            "id": 711979865,
            "lat": 43.7152011,
            "lon": 13.218049,
            "timestamp": "2025-10-05T08:01:26Z",
            "version": 6,
            "changeset": 172856983,
            "user": "btcitnet",
            "uid": 22525435,
            "tags": {
                "addr:city": "Senigallia",
                "addr:housenumber": "30/32/34/36",
                "addr:postcode": "60019",
                "addr:street": "Corso Due Giugno",
                "brand": "Intimissimi",
                "brand:wikidata": "Q305404",
                "brand:wikipedia": "en:Intimissimi",
                "clothes": "underwear",
                "name": "Intimissimi",
                "shop": "clothes"
            }
        },
        {
            "type": "node",
            "id": 762937564,
            "lat": 43.618122,
            "lon": 13.5116551,
            "timestamp": "2024-09-22T10:37:09Z",
            "version": 5,
            "changeset": 156944910,
            "user": "Robot8A",
            "uid": 393359,
            "tags": {
                "addr:city": "Ancona",
                "addr:housenumber": "52",
                "addr:postcode": "60121",
                "addr:street": "Corso Giuseppe Garibaldi",
                "brand": "Tezenis",
                "brand:wikidata": "Q28056374",
                "clothes": "women;underwear;swimwear;men;children",
                "name": "Tezenis",
                "operator": "Emmeti S.r.l.s.",
                "phone": "+39 071 200942",
                "ref:vatin": "IT02653190427",
                "shop": "clothes"
            }
        },
        {
            "type": "node",
            "id": 762937571,
            "lat": 43.6171227,
            "lon": 13.5158342,
            "timestamp": "2025-03-22T10:05:06Z",
            "version": 11,
            "changeset": 163939228,
            "user": "Neonkaaaaa",
            "uid": 9660877,
            "tags": {
                "addr:city": "Ancona",
                "addr:housenumber": "150",
                "addr:postcode": "60121",
                "addr:street": "Corso Giuseppe Garibaldi",
                "brand": "Doppelg\u00e4nger",
                "brand:wikidata": "Q117451227",
                "check_date": "2024-11-05",
                "check_date:currency:XBT": "2023-05-13",
                "currency:XBT": "yes",
                "name": "Doppelg\u00e4nger",
                "old_name": "Avery K",
                "opening_hours": "Mo-Sa 09:30-20:00; Su 10:00-13:00,15:30-20:00",
                "operator": "International Retail Development srl",
                "payment:lightning": "no",
                "payment:lightning_contactless": "no",
                "payment:onchain": "yes",
                "phone": "+39 071 9691885",
                "ref:vatin": "IT10471441005",
                "shop": "clothes",
                "wheelchair": "limited"
            }
        },
        {
            "type": "node",
            "id": 762937584,
            "lat": 43.6180747,
            "lon": 13.5126484,
            "timestamp": "2025-04-22T12:40:30Z",
            "version": 6,
            "changeset": 165283914,
            "user": "totera",
            "uid": 123412,
            "tags": {
                "addr:city": "Ancona",
                "addr:housenumber": "67",
                "addr:postcode": "60121",
                "addr:street": "Corso Giuseppe Garibaldi",
                "brand": "Calzedonia",
                "brand:wikidata": "Q1027874",
                "brand:wikipedia": "en:Calzedonia",
                "check_date": "2025-04-22",
                "name": "Calzedonia",
                "opening_hours": "Mo-Sa 09:00-20:00; Su 10:00-20:00",
                "shop": "clothes",
                "wheelchair": "limited"
            }
        },
        {
            "type": "node",
            "id": 762937588,
            "lat": 43.6171684,
            "lon": 13.5154027,
            "timestamp": "2025-02-23T09:29:28Z",
            "version": 11,
            "changeset": 162843048,
            "user": "Neonkaaaaa",
            "uid": 9660877,
            "tags": {
                "addr:city": "Ancona",
                "addr:housenumber": "140",
                "addr:postcode": "60121",
                "addr:street": "Corso Giuseppe Garibaldi",
                "brand": "United Colors of Benetton",
                "brand:wikidata": "Q817139",
                "brand:wikipedia": "en:Benetton Group",
                "check_date": "2024-11-15",
                "name": "United Colors of Benetton",
                "old_amenity": "bank",
                "old_name": "Caripe Ancona ag. 1;Banca Popolare di Bari",
                "opening_hours": "Mo-Sa 09:30-13:00,15:30-19:30; Su 10:00-13:00,15:30-19:30",
                "shop": "clothes",
                "short_name": "Benetton",
                "wheelchair": "limited"
            }
        },
        {
            "type": "node",
            "id": 762937608,
            "lat": 43.6181317,
            "lon": 13.5119221,
            "timestamp": "2025-03-22T10:05:06Z",
            "version": 6,
            "changeset": 163939228,
            "user": "Neonkaaaaa",
            "uid": 9660877,
            "tags": {
                "addr:city": "Ancona",
                "addr:housenumber": "58",
                "addr:postcode": "60121",
                "addr:street": "Corso Giuseppe Garibaldi",
                "brand": "Intimissimi",
                "brand:wikidata": "Q305404",
                "brand:wikipedia": "en:Intimissimi",
                "clothes": "underwear",
                "name": "Intimissimi",
                "opening_hours": "Mo-Sa 09:30-20:00; Su 10:00-13:00,16:00-20:00",
                "operator": "Nicoletta Maurizi s.r.l.s. unipersonale",
                "phone": "+39 071 56757",
                "ref:vatin": "IT02633000423",
                "shop": "clothes",
                "wheelchair": "limited"
            }
        },
        {
            "type": "node",
            "id": 835642995,
            "lat": 43.5312591,
            "lon": 13.6009336,
            "timestamp": "2022-11-21T11:40:47Z",
            "version": 6,
            "changeset": 129192524,
            "user": "totera",
            "uid": 123412,
            "tags": {
                "addr:city": "Sirolo",
                "addr:milestone": "15.455",
                "addr:postcode": "60020",
                "addr:street": "Strada Provinciale 1 del Conero",
                "amenity": "fuel",
                "brand": "Tamoil",
                "brand:wikidata": "Q706793",
                "brand:wikipedia": "en:Tamoil",
                "fuel:diesel": "yes",
                "fuel:octane_95": "yes",
                "name": "Tamoil",
                "operator": "Giacchetta Nazzareno",
                "ref:mise": "12572",
                "wheelchair": "yes"
            }
        },
        {
            "type": "node",
            "id": 893969257,
            "lat": 43.564538,
            "lon": 13.5114443,
            "timestamp": "2025-04-10T17:41:27Z",
            "version": 12,
            "changeset": 164780607,
            "user": "totera",
            "uid": 123412,
            "tags": {
                "addr:city": "Ancona",
                "addr:housenumber": "23c",
                "addr:postcode": "60131",
                "addr:street": "Via Primo Maggio",
                "brand": "MediaWorld",
                "brand:wikidata": "Q2381223",
                "name": "MediaWorld",
                "opening_hours": "Mo-Su 09:30-20:30",
                "operator": "MediaMarket S.p.A. con Socio Unico",
                "ref": "66",
                "ref:vatin": "IT02630120166",
                "shop": "electronics",
                "wheelchair": "yes"
            }
        },
        {
            "type": "node",
            "id": 893975167,
            "lat": 43.5522916,
            "lon": 13.512835,
            "timestamp": "2024-12-31T17:38:30Z",
            "version": 7,
            "changeset": 160842811,
            "user": "mpbin",
            "uid": 21850090,
            "tags": {
                "addr:city": "Ancona",
                "addr:housenumber": "7",
                "addr:postcode": "60131",
                "addr:street": "Via Franco Scataglini",
                "brand": "Unieuro",
                "brand:wikidata": "Q4004687",
                "brand:wikipedia": "en:Unieuro",
                "check_date": "2024-11-22",
                "check_date:opening_hours": "2024-11-22",
                "name": "Unieuro",
                "old_name": "Marco Polo Expert",
                "opening_hours": "Mo-Su 09:30-20:00",
                "operator": "Unieuro S.p.A.",
                "shop": "electronics",
                "wheelchair": "yes"
            }
        },
        {
            "type": "node",
            "id": 1260345472,
            "lat": 43.6076554,
            "lon": 13.4544666,
            "timestamp": "2025-09-20T17:05:12Z",
            "version": 5,
            "changeset": 172215189,
            "user": "totera",
            "uid": 123412,
            "tags": {
                "addr:city": "Ancona",
                "addr:housenumber": "6",
                "addr:postcode": "60126",
                "addr:street": "Via Tenna",
                "brand": "Conad",
                "brand:wikidata": "Q639075",
                "brand:wikipedia": "it:Conad",
                "check_date": "2025-09-20",
                "name": "Conad",
                "old_name": "Simply",
                "opening_hours": "Mo-Sa 08:00-20:00; Su 09:00-13:00,17:00-20:00",
                "phone": "+39 071 2181089",
                "shop": "supermarket",
                "website": "https://www.conad.it/ricerca-negozi/negozio.009862.html"
            }
        },
        {
            "type": "node",
            "id": 1268117617,
            "lat": 43.4890684,
            "lon": 13.4934801,
            "timestamp": "2025-10-05T08:02:16Z",
            "version": 5,
            "changeset": 172857007,
            "user": "btcitnet",
            "uid": 22525435,
            "tags": {
                "addr:city": "Osimo",
                "addr:housenumber": "16",
                "addr:postcode": "60027",
                "addr:street": "Via Vecchia Fornace",
                "brand": "Conad",
                "brand:wikidata": "Q639075",
                "brand:wikipedia": "it:Conad",
                "name": "Conad",
                "old_name": "Simply Market",
                "phone": "+39 071 7133512",
                "shop": "supermarket"
            }
        },
        {
            "type": "node",
            "id": 1397443501,
            "lat": 43.6085144,
            "lon": 13.5085788,
            "timestamp": "2024-11-21T20:56:30Z",
            "version": 5,
            "changeset": 159435180,
            "user": "totera",
            "uid": 123412,
            "tags": {
                "addr:city": "Ancona",
                "addr:housenumber": "29",
                "addr:postcode": "60125",
                "addr:street": "Via Tiziano",
                "brand": "Conad",
                "brand:wikidata": "Q639075",
                "brand:wikipedia": "it:Conad",
                "name": "Conad",
                "old_name": "Punto Sma;Punto Simply",
                "opening_hours": "Mo,Th 08:00-13:00,14:00-19:45; Tu,We,Sa 08:00-13:00,16:45-19:45; Fr 08:00-19:45; Su,PH off",
                "phone": "+39 071 2805058",
                "shop": "supermarket",
                "website": "https://www.conad.it/ricerca-negozi/conad-via-tiziano-23-60125-ancona--009962"
            }
        },
        {
            "type": "node",
            "id": 1506837088,
            "lat": 43.836028,
            "lon": 13.0283243,
            "timestamp": "2025-10-05T08:03:25Z",
            "version": 5,
            "changeset": 172857046,
            "user": "btcitnet",
            "uid": 22525435,
            "tags": {
                "addr:city": "Fano",
                "addr:housenumber": "6",
                "addr:postcode": "61032",
                "addr:street": "Via San Lazzaro",
                "branch": "Centro",
                "brand": "Conad",
                "brand:wikidata": "Q639075",
                "name": "Conad",
                "shop": "supermarket"
            }
        },
        {
            "type": "node",
            "id": 1568652619,
            "lat": 43.3572738,
            "lon": 13.4875666,
            "timestamp": "2021-04-09T20:00:09Z",
            "version": 8,
            "changeset": 102668054,
            "user": "sorcrosc",
            "uid": 160229,
            "tags": {
                "addr:city": "Recanati",
                "addr:milestone": "102.02",
                "addr:postcode": "62019",
                "addr:street": "Strada Provinciale 77 Val di Chienti",
                "amenity": "fuel",
                "brand": "Tamoil",
                "brand:wikidata": "Q706793",
                "brand:wikipedia": "en:Tamoil",
                "fuel:diesel": "yes",
                "fuel:octane_95": "yes",
                "name": "Tamoil",
                "operator": "Fermana Carburanti S.R.L.",
                "ref:mise": "29125"
            }
        },
        {
            "type": "node",
            "id": 1579771561,
            "lat": 43.3572051,
            "lon": 13.4820174,
            "timestamp": "2024-12-06T05:17:03Z",
            "version": 7,
            "changeset": 159980704,
            "user": "totera",
            "uid": 123412,
            "tags": {
                "addr:city": "Sambucheto",
                "addr:housenumber": "48",
                "addr:postcode": "62010",
                "addr:street": "Via Michelangelo",
                "brand": "Conad",
                "brand:wikidata": "Q639075",
                "name": "Conad",
                "old_name": "Smafin S.R.L",
                "opening_hours": "Mo-Sa 08:15-20:00; Su 08:30-13:00",
                "phone": "+39 0733 599155",
                "shop": "supermarket",
                "website": "https://www.conad.it/ricerca-negozi/conad-via-michelangelo-48-62010-montecassiano--009864"
            }
        },
        {
            "type": "node",
            "id": 1580967832,
            "lat": 43.5291556,
            "lon": 13.5512292,
            "timestamp": "2025-09-21T17:29:20Z",
            "version": 6,
            "changeset": 172257907,
            "user": "jeanl",
            "uid": 839857,
            "tags": {
                "addr:city": "Camerano",
                "addr:postcode": "60021",
                "addr:street": "Via Papa Giovanni XXIII",
                "amenity": "fuel",
                "brand": "Tamoil",
                "brand:wikidata": "Q706793",
                "brand:wikipedia": "en:Tamoil",
                "check_date": "2025-09-21",
                "fuel:diesel": "yes",
                "fuel:octane_95": "yes",
                "name": "Tamoil",
                "operator": "T.D.M. S.R.L.",
                "ref:mise": "38051"
            }
        },
        {
            "type": "node",
            "id": 1643882770,
            "lat": 43.6184082,
            "lon": 13.5114006,
            "timestamp": "2025-04-30T10:22:36Z",
            "version": 11,
            "changeset": 165628213,
            "user": "baprischka",
            "uid": 974272,
            "tags": {
                "addr:city": "Ancona",
                "addr:housenumber": "35",
                "addr:postcode": "60121",
                "addr:street": "Corso Giuseppe Garibaldi",
                "brand": "La Feltrinelli",
                "brand:wikidata": "Q96311190",
                "check_date": "2025-04-30",
                "email": "ancona@lafeltrinelli.it",
                "fax": "+39 071 2071117",
                "name": "La Feltrinelli",
                "opening_hours": "Mo-Fr 10:00-20:00; Sa 10:00-13:00,16:00-20:00; Su 10:00-13:00,17:00-20:00",
                "payment:cash": "yes",
                "payment:mastercard": "yes",
                "payment:visa": "yes",
                "phone": "+39 071 2073943",
                "ref:vatin": "IT04628790968",
                "shop": "books",
                "website": "https://www.lafeltrinelli.it/fcom/it/home/pages/puntivendita/negozi/trova/marche/la-Feltrinelli-Librerie-Ancona.html",
                "wheelchair": "limited"
            }
        },
        {
            "type": "node",
            "id": 1654067604,
            "lat": 43.8002148,
            "lon": 13.0119351,
            "timestamp": "2020-05-14T13:39:33Z",
            "version": 8,
            "changeset": 85205204,
            "user": "mascalzone67",
            "uid": 1861652,
            "tags": {
                "addr:city": "Fano",
                "addr:housenumber": "30",
                "addr:postcode": "61032",
                "addr:street": "Via Luigi Einaudi",
                "brand": "Conad",
                "brand:wikidata": "Q639075",
                "brand:wikipedia": "it:Conad",
                "name": "Conad",
                "old_name": "Auchan",
                "opening_hours": "Mo-Sa 08:30-21:00",
                "operator": "Tre Effe",
                "payment:bancomat": "yes",
                "payment:cash": "yes",
                "payment:credit_cards": "yes",
                "phone": "+39 0721 8581",
                "ref:vatin": "IT01170560419",
                "shop": "supermarket",
                "website": "https://www.conad.it/ricerca-negozi/negozio.009914.html",
                "wheelchair": "yes"
            }
        },
        {
            "type": "node",
            "id": 1962703672,
            "lat": 43.2372762,
            "lon": 13.689256,
            "timestamp": "2025-10-06T11:02:21Z",
            "version": 6,
            "changeset": 172907791,
            "user": "totera",
            "uid": 123412,
            "tags": {
                "addr:city": "Sant'Elpidio a Mare",
                "addr:housenumber": "132",
                "addr:postcode": "63811",
                "addr:street": "Via Porta Romana",
                "brand": "Conad City",
                "brand:wikidata": "Q57543102",
                "name": "Conad City",
                "opening_hours": "Mo-Sa 08:30-13:00,16:30-20:00",
                "phone": "+39 0734 253811",
                "shop": "supermarket",
                "website": "https://www.conad.it/ricerca-negozi/conad-city-via-porta-romana-132-63811-santelpidio-a-mare--001824"
            }
        },
        {
            "type": "node",
            "id": 1974988739,
            "lat": 43.2968881,
            "lon": 13.7056795,
            "timestamp": "2025-01-01T22:35:12Z",
            "version": 8,
            "changeset": 160887651,
            "user": "mpbin",
            "uid": 21850090,
            "tags": {
                "addr:city": "Civitanova Marche",
                "addr:country": "IT",
                "addr:housenumber": "14",
                "addr:postcode": "62012",
                "addr:street": "Via Giovanni Gronchi",
                "brand": "Trony",
                "brand:wikidata": "Q3999692",
                "brand:wikipedia": "it:Trony",
                "email": "civitanova@trony.it",
                "entrance": "main",
                "fax": "+39 0733 829826",
                "name": "Trony",
                "opening_hours": "Mo-Fr 09:30-13:00,15:30-20:00; Sa 09:30-20:00; Su 10:00-13:00,15:30-20:15",
                "operator": "Trony",
                "phone": "+39 0733 784551",
                "shop": "electronics"
            }
        },
        {
            "type": "node",
            "id": 2037705255,
            "lat": 43.7899762,
            "lon": 12.9987614,
            "timestamp": "2025-01-01T22:35:44Z",
            "version": 6,
            "changeset": 160887667,
            "user": "mpbin",
            "uid": 21850090,
            "tags": {
                "addr:city": "Fano",
                "addr:street": "Via Luigi Einaudi",
                "brand": "Trony",
                "brand:wikidata": "Q3999692",
                "brand:wikipedia": "it:Trony",
                "name": "Trony",
                "operator": "Trony",
                "phone": "+39 0721 855899",
                "ref:vatin": "IT02106250398",
                "shop": "electronics",
                "wheelchair": "yes"
            }
        },
        {
            "type": "node",
            "id": 2055381853,
            "lat": 43.8261289,
            "lon": 13.0123037,
            "timestamp": "2024-12-01T21:14:23Z",
            "version": 5,
            "changeset": 159820487,
            "user": "sorcrosc",
            "uid": 160229,
            "tags": {
                "addr:city": "Fano",
                "addr:housenumber": "54",
                "addr:postcode": "61032",
                "addr:street": "Via Sant'Eusebio",
                "brand": "Conad",
                "brand:wikidata": "Q639075",
                "brand:wikipedia": "it:Conad",
                "contact:phone": "+39 0721 865965",
                "name": "Conad City",
                "opening_hours": "Mo-Sa 07:30-20:00; Su 08:30-13:30",
                "shop": "supermarket"
            }
        },
        {
            "type": "node",
            "id": 2120124973,
            "lat": 43.3091288,
            "lon": 13.7271727,
            "timestamp": "2025-10-06T10:59:09Z",
            "version": 3,
            "changeset": 172907654,
            "user": "btcitnet",
            "uid": 22525435,
            "tags": {
                "addr:city": "Civitanova Marche",
                "addr:housenumber": "109",
                "addr:postcode": "62012",
                "addr:street": "Corso Umberto I",
                "brand": "Calzedonia",
                "brand:wikidata": "Q1027874",
                "brand:wikipedia": "en:Calzedonia",
                "name": "Calzedonia",
                "shop": "clothes"
            }
        },
        {
            "type": "node",
            "id": 2292455689,
            "lat": 43.2907423,
            "lon": 13.4330858,
            "timestamp": "2024-12-06T05:17:03Z",
            "version": 4,
            "changeset": 159980704,
            "user": "totera",
            "uid": 123412,
            "tags": {
                "addr:city": "Macerata",
                "addr:housenumber": "43",
                "addr:postcode": "62100",
                "addr:street": "Via Ignazio Silone",
                "brand": "Conad",
                "brand:wikidata": "Q639075",
                "name": "Conad",
                "old_name": "SMA",
                "opening_hours": "Mo-Sa 08:00-20:00; Su 08:30-13:00",
                "phone": "+39 0733 31619",
                "shop": "supermarket",
                "website": "https://www.conad.it/ricerca-negozi/conad-via-ignazio-silone-43-62100-macerata--009739"
            }
        },
        {
            "type": "node",
            "id": 2313056558,
            "lat": 43.7127977,
            "lon": 13.2205511,
            "timestamp": "2025-01-03T15:58:10Z",
            "version": 7,
            "changeset": 160955425,
            "user": "mpbin",
            "uid": 21850090,
            "tags": {
                "addr:city": "Senigallia",
                "addr:postcode": "60019",
                "addr:street": "Viale Quattro Novembre",
                "brand": "OVS",
                "brand:wikidata": "Q2042514",
                "brand:wikipedia": "en:OVS (company)",
                "name": "OVS",
                "operator": "OVS",
                "shop": "clothes",
                "website": "https://negozi.ovs.it/it/negozi/italia/ancona/ovs-senigallia_00129.aspx"
            }
        },
        {
            "type": "node",
            "id": 2321245149,
            "lat": 43.6146312,
            "lon": 13.5301307,
            "timestamp": "2025-03-15T16:03:42Z",
            "version": 14,
            "changeset": 163657312,
            "user": "totera",
            "uid": 123412,
            "tags": {
                "addr:city": "Ancona",
                "addr:housenumber": "45",
                "addr:postcode": "60124",
                "addr:street": "Via Trieste",
                "brand": "Conad",
                "brand:wikidata": "Q639075",
                "brand:wikipedia": "it:Conad",
                "check_date:opening_hours": "2025-03-15",
                "name": "Conad",
                "old_name": "Punto Sma;Punto Simply Market;MyAuchan",
                "opening_hours": "Mo-Sa 08:00-20:00; Su 09:00-20:00",
                "operator": "Athena Ancona Srl",
                "phone": "+39 071 32986",
                "ref:vatin": "IT02866860428",
                "shop": "supermarket",
                "website": "https://www.conad.it/ricerca-negozi/negozio.009863.html"
            }
        },
        {
            "type": "node",
            "id": 2450535109,
            "lat": 43.2172576,
            "lon": 13.3084424,
            "timestamp": "2025-05-29T09:05:07Z",
            "version": 5,
            "changeset": 166909667,
            "user": "damianeue",
            "uid": 10124288,
            "tags": {
                "brand": "Upim",
                "brand:wikidata": "Q1414836",
                "brand:wikipedia": "it:UPIM",
                "name": "Upim",
                "opening_hours": "Mo-Su 09:00-20:30",
                "shop": "department_store",
                "toilets": "yes"
            }
        },
        {
            "type": "node",
            "id": 2509581941,
            "lat": 43.7667375,
            "lon": 13.1352112,
            "timestamp": "2020-05-13T15:20:59Z",
            "version": 2,
            "changeset": 85152900,
            "user": "marchemap",
            "uid": 4624362,
            "tags": {
                "addr:city": "Marotta",
                "addr:housenumber": "2",
                "addr:postcode": "61037",
                "addr:street": "Via Molise",
                "brand": "Conad City",
                "brand:wikidata": "Q57543102",
                "name": "Conad City",
                "operator": "Conad",
                "shop": "supermarket"
            }
        },
        {
            "type": "node",
            "id": 2815535801,
            "lat": 43.2223741,
            "lon": 13.3343341,
            "timestamp": "2020-11-01T08:33:19Z",
            "version": 2,
            "changeset": 93361787,
            "user": "mascalzone67",
            "uid": 1861652,
            "tags": {
                "addr:city": "Tolentino",
                "addr:country": "IT",
                "addr:housename": "Centro commerciale \"La Rancia\"",
                "addr:postcode": "62029",
                "addr:street": "Contrada Cisterna",
                "brand": "Conad",
                "brand:wikidata": "Q639075",
                "brand:wikipedia": "it:Conad",
                "name": "Conad",
                "opening_hours": "Mo-Su 08:30-20:30",
                "operator": "Conad",
                "payment:bancomat": "yes",
                "payment:cash": "yes",
                "payment:credit_cards": "yes",
                "phone": "+39 0733 9571",
                "shop": "supermarket",
                "website": "https://www.conad.it/ricerca-negozi/negozio.010156.html"
            }
        },
        {
            "type": "node",
            "id": 2859976387,
            "lat": 43.3032088,
            "lon": 13.4397575,
            "timestamp": "2025-10-22T10:08:25Z",
            "version": 4,
            "changeset": 173619502,
            "user": "btcitnet",
            "uid": 22525435,
            "tags": {
                "addr:city": "Macerata",
                "addr:housenumber": "30",
                "addr:postcode": "62100",
                "addr:street": "Via dei Velini",
                "brand": "Conad",
                "brand:wikidata": "Q639075",
                "brand:wikipedia": "it:Conad",
                "name": "Conad",
                "shop": "supermarket"
            }
        },
        {
            "type": "node",
            "id": 2964603266,
            "lat": 43.2919225,
            "lon": 13.7023079,
            "timestamp": "2025-01-01T12:54:11Z",
            "version": 11,
            "changeset": 160861881,
            "user": "mpbin",
            "uid": 21850090,
            "tags": {
                "addr:city": "Civitanova Marche",
                "addr:housenumber": "98",
                "addr:postcode": "62012",
                "addr:street": "Via San Costantino",
                "brand": "Unieuro",
                "brand:wikidata": "Q4004687",
                "level": "0",
                "name": "Unieuro",
                "opening_hours": "Mo-Su 09:00-21:00; PH closed",
                "operator": "Unieuro S.p.A.",
                "shop": "electronics",
                "wheelchair": "yes"
            }
        },
        {
            "type": "node",
            "id": 2981129360,
            "lat": 43.5236842,
            "lon": 13.5241258,
            "timestamp": "2025-07-09T23:18:10Z",
            "version": 15,
            "changeset": 168717962,
            "user": "totera",
            "uid": 123412,
            "tags": {
                "addr:city": "Aspio Terme",
                "addr:postcode": "60021",
                "addr:street": "Via del Campo d'Aviazione",
                "brand": "Decathlon",
                "brand:wikidata": "Q509349",
                "brand:wikipedia": "en:Decathlon Group",
                "name": "Decathlon",
                "nohousenumber": "yes",
                "opening_hours": "Mo-Su 09:00-20:30",
                "operator": "Decathlon",
                "phone": "+39 071 7309128",
                "ref:vatin": "IT11005760159",
                "shop": "sports"
            }
        },
        {
            "type": "node",
            "id": 2999866446,
            "lat": 43.5230997,
            "lon": 13.5240897,
            "timestamp": "2023-08-05T13:06:15Z",
            "version": 3,
            "changeset": 139478913,
            "user": "totera",
            "uid": 123412,
            "tags": {
                "addr:city": "Camerano",
                "addr:housenumber": "17",
                "addr:postcode": "60021",
                "addr:street": "Via del Campo d'Aviazione",
                "brand": "H&M",
                "brand:wikidata": "Q188326",
                "brand:wikipedia": "en:H&M",
                "name": "H&M",
                "operator": "Hennes & Mauritz S.r.l.",
                "ref": "IT0430",
                "ref:vatin": "IT03269110965",
                "shop": "clothes"
            }
        },
        {
            "type": "node",
            "id": 3143447361,
            "lat": 43.6291167,
            "lon": 13.3974755,
            "timestamp": "2024-07-09T08:15:12Z",
            "version": 5,
            "changeset": 153733456,
            "user": "totera",
            "uid": 123412,
            "tags": {
                "addr:city": "Falconara Marittima",
                "addr:housenumber": "86",
                "addr:postcode": "60015",
                "addr:street": "Via Nino Bixio",
                "brand": "Conad City",
                "brand:wikidata": "Q57543102",
                "check_date": "2024-07-09",
                "name": "Conad City",
                "old_name": "Punto Simply",
                "operator": "Tuttofrutta Soc.Coop.",
                "phone": "+39 071 910029",
                "ref:vatin": "IT01061260426",
                "shop": "supermarket",
                "website": "https://www.conad.it/ricerca-negozi/negozio.010048.html"
            }
        },
        {
            "type": "node",
            "id": 3150785132,
            "lat": 43.4971379,
            "lon": 13.1043382,
            "timestamp": "2023-03-15T11:16:28Z",
            "version": 6,
            "changeset": 133705688,
            "user": "gspinoza",
            "uid": 562239,
            "tags": {
                "addr:city": "Castelplanio",
                "addr:housenumber": "5",
                "addr:postcode": "60031",
                "addr:street": "Localit\u00e0 Cannegge",
                "amenity": "fuel",
                "brand": "Q8",
                "brand:wikidata": "Q1634762",
                "compressed_air": "yes",
                "fuel:GTL_diesel": "yes",
                "fuel:cng": "yes",
                "fuel:diesel": "yes",
                "fuel:lpg": "yes",
                "fuel:octane_95": "yes",
                "name": "Q8",
                "opening_hours": "Mo-Sa 08:00-20:00",
                "operator": "Scuppa Roberto",
                "ref:mise": "42771",
                "self_service": "yes"
            }
        },
        {
            "type": "node",
            "id": 3186852562,
            "lat": 43.3383958,
            "lon": 13.4369227,
            "timestamp": "2025-01-03T10:19:29Z",
            "version": 6,
            "changeset": 160941514,
            "user": "mpbin",
            "uid": 21850090,
            "tags": {
                "addr:city": "Montecassiano",
                "addr:hamlet": "Zona Commerciale Piane di Potenza",
                "addr:postcode": "62010",
                "addr:street": "Via Giuseppe Mainini",
                "branch": "Easy",
                "brand": "Decathlon",
                "brand:wikidata": "Q509349",
                "name": "Decathlon",
                "operator": "Decathlon",
                "shop": "sports"
            }
        },
        {
            "type": "node",
            "id": 3256308559,
            "lat": 43.5201098,
            "lon": 13.2392931,
            "timestamp": "2020-06-02T00:17:41Z",
            "version": 3,
            "changeset": 86067238,
            "user": "totera",
            "uid": 123412,
            "tags": {
                "addr:city": "Jesi",
                "addr:postcode": "60035",
                "addr:street": "Corso Giacomo Matteotti",
                "brand": "Tezenis",
                "brand:wikidata": "Q28056374",
                "name": "Tezenis",
                "phone": "+39 0731 205137",
                "shop": "clothes"
            }
        },
        {
            "type": "node",
            "id": 3665677530,
            "lat": 43.6052931,
            "lon": 12.9502928,
            "timestamp": "2024-12-05T15:37:56Z",
            "version": 5,
            "changeset": 159962314,
            "user": "totera",
            "uid": 123412,
            "tags": {
                "addr:city": "San Lorenzo in Campo",
                "addr:housenumber": "57",
                "addr:postcode": "61047",
                "addr:street": "Via Antonio Gramsci",
                "brand": "Conad City",
                "brand:wikidata": "Q57543102",
                "name": "Conad City",
                "old_name": "Simply Market",
                "opening_hours": "Mo-Sa 07:00-20:00; Su 08:30-13:00",
                "phone": "+39 0721 776165",
                "shop": "supermarket",
                "website": "https://www.conad.it/ricerca-negozi/conad-city-via-antonio-gramsci-57-61047-san-lorenzo-in-campo--009950"
            }
        },
        {
            "type": "node",
            "id": 3673083531,
            "lat": 43.8006487,
            "lon": 13.0118385,
            "timestamp": "2025-08-24T23:01:15Z",
            "version": 7,
            "changeset": 170948871,
            "user": "Max Ciaone",
            "uid": 3240268,
            "tags": {
                "addr:city": "Fano",
                "addr:housenumber": "30",
                "addr:postcode": "61032",
                "addr:street": "Via Luigi Einaudi",
                "brand": "OVS",
                "brand:wikidata": "Q2042514",
                "brand:wikipedia": "en:OVS (company)",
                "name": "OVS",
                "operator": "OVS",
                "phone": "+39 0721 860116",
                "shop": "clothes"
            }
        },
        {
            "type": "node",
            "id": 3673089754,
            "lat": 43.8007757,
            "lon": 13.0125703,
            "timestamp": "2025-01-01T17:42:00Z",
            "version": 6,
            "changeset": 160878384,
            "user": "mpbin",
            "uid": 21850090,
            "tags": {
                "addr:city": "Fano",
                "addr:postcode": "61032",
                "addr:street": "Via Luigi Einaudi",
                "brand": "Unieuro",
                "brand:wikidata": "Q4004687",
                "brand:wikipedia": "en:Unieuro",
                "name": "Unieuro",
                "operator": "Unieuro S.p.A.",
                "shop": "electronics"
            }
        },
        {
            "type": "node",
            "id": 3809621232,
            "lat": 43.6858584,
            "lon": 12.9627643,
            "timestamp": "2025-01-15T10:19:57Z",
            "version": 2,
            "changeset": 161374731,
            "user": "damianeue",
            "uid": 10124288,
            "tags": {
                "brand": "Conad City",
                "brand:wikidata": "Q57543102",
                "name": "Conad City",
                "shop": "supermarket"
            }
        },
        {
            "type": "node",
            "id": 3923782713,
            "lat": 43.2910623,
            "lon": 13.3387774,
            "timestamp": "2024-06-30T23:23:58Z",
            "version": 11,
            "changeset": 153388796,
            "user": "totera",
            "uid": 123412,
            "tags": {
                "addr:city": "Treia",
                "addr:milestone": "41.669",
                "addr:postcode": "62010",
                "addr:street": "Contrada San Marco Vecchio",
                "amenity": "fuel",
                "brand": "Tamoil",
                "brand:wikidata": "Q706793",
                "fuel:diesel": "yes",
                "fuel:octane_95": "yes",
                "name": "Tamoil - Treia",
                "nohousenumber": "yes",
                "opening_hours": "24/7",
                "operator": "Forini S.p.A.",
                "ref:mise": "43396",
                "wheelchair": "yes"
            }
        },
        {
            "type": "node",
            "id": 4226559875,
            "lat": 43.8007496,
            "lon": 13.0114782,
            "timestamp": "2020-06-11T23:48:46Z",
            "version": 3,
            "changeset": 86537568,
            "user": "totera",
            "uid": 123412,
            "tags": {
                "addr:city": "Fano",
                "addr:postcode": "61032",
                "addr:street": "Via Luigi Einaudi",
                "brand": "Intimissimi",
                "brand:wikidata": "Q305404",
                "brand:wikipedia": "en:Intimissimi",
                "clothes": "underwear",
                "name": "Intimissimi",
                "phone": "+39 0721 856154",
                "shop": "clothes",
                "website": "https://it.intimissimi.com/"
            }
        },
        {
            "type": "node",
            "id": 4244886377,
            "lat": 43.371668,
            "lon": 13.6312058,
            "timestamp": "2022-08-03T08:42:01Z",
            "version": 9,
            "changeset": 124424657,
            "user": "totera",
            "uid": 123412,
            "tags": {
                "addr:city": "Potenza Picena",
                "addr:postcode": "62018",
                "addr:street": "Via Piana",
                "amenity": "fuel",
                "brand": "Q8",
                "brand:wikidata": "Q1634762",
                "brand:wikipedia": "en:Kuwait Petroleum Corporation",
                "fuel:diesel": "yes",
                "fuel:octane_95": "yes",
                "name": "Distributore Benzina Dichiara Silvano e Verde Antonio Snc",
                "nohousenumber": "yes",
                "operator": "Dichiara Silvano e Verde Antonio S.N.C.",
                "ref:mise": "9153"
            }
        },
        {
            "type": "node",
            "id": 4273356824,
            "lat": 43.7944685,
            "lon": 13.0040869,
            "timestamp": "2025-09-02T22:53:10Z",
            "version": 10,
            "changeset": 171382962,
            "user": "Max Ciaone",
            "uid": 3240268,
            "tags": {
                "addr:city": "Fano",
                "addr:housenumber": "54",
                "addr:postcode": "61032",
                "addr:street": "Via Luigi Einaudi",
                "amenity": "fuel",
                "brand": "Tamoil",
                "brand:wikidata": "Q706793",
                "fuel:cng": "yes",
                "fuel:diesel": "yes",
                "fuel:lpg": "yes",
                "fuel:octane_95": "yes",
                "name": "Tamoil",
                "opening_hours": "Mo-Fr 07:00-19:00, Sa 07:00-12:30, Su closed",
                "operator": "Acema S.p.A.",
                "payment:cash": "yes",
                "payment:maestro": "yes",
                "payment:visa": "yes",
                "ref:mise": "13645"
            }
        },
        {
            "type": "node",
            "id": 4340538433,
            "lat": 43.6187942,
            "lon": 13.511185,
            "timestamp": "2025-03-16T12:52:27Z",
            "version": 8,
            "changeset": 163687484,
            "user": "Neonkaaaaa",
            "uid": 9660877,
            "tags": {
                "addr:city": "Ancona",
                "addr:housenumber": "29",
                "addr:postcode": "60121",
                "addr:street": "Corso Giuseppe Mazzini",
                "brand": "Mondadori",
                "brand:wikidata": "Q85355",
                "name": "Libreria Gulliver Mondadori",
                "opening_hours": "Mo-Su 09:00-20:00",
                "phone": "+39 071 53215",
                "ref:vatin": "IT02681770406",
                "shop": "books",
                "website": "https://www.mondadoristore.it/negozi/punti-vendita/Mondadori-Bookstore-Ancona-Mazzini/1117/",
                "wheelchair": "limited"
            }
        },
        {
            "type": "node",
            "id": 4770534421,
            "lat": 43.2656779,
            "lon": 13.3482256,
            "timestamp": "2023-11-04T00:25:02Z",
            "version": 8,
            "changeset": 143595739,
            "user": "ivanbranco",
            "uid": 11220113,
            "tags": {
                "addr:city": "Pollenza",
                "addr:postcode": "62010",
                "addr:street": "Via Raffaello Sanzio",
                "amenity": "fuel",
                "brand": "Tamoil",
                "brand:wikidata": "Q706793",
                "fuel:diesel": "yes",
                "fuel:octane_95": "yes",
                "name": "Tamoil",
                "operator": "Pad Multienergy S.P.A",
                "phone": "+39 0733 549042",
                "ref:mise": "47321"
            }
        },
        {
            "type": "node",
            "id": 4916291276,
            "lat": 43.2697973,
            "lon": 13.4797654,
            "timestamp": "2021-11-11T15:24:49Z",
            "version": 3,
            "changeset": 113656398,
            "user": "totera",
            "uid": 123412,
            "tags": {
                "addr:city": "Corridonia",
                "addr:postcode": "62014",
                "addr:street": "Via Enrico Mattei",
                "brand": "Mondadori",
                "brand:wikidata": "Q85355",
                "brand:wikipedia": "en:Arnoldo Mondadori Editore",
                "name": "Mondadori",
                "shop": "books"
            }
        },
        {
            "type": "node",
            "id": 4916325898,
            "lat": 43.2701137,
            "lon": 13.4830309,
            "timestamp": "2025-01-03T16:35:30Z",
            "version": 6,
            "changeset": 160956958,
            "user": "mpbin",
            "uid": 21850090,
            "tags": {
                "addr:city": "Corridonia",
                "addr:housenumber": "177/C",
                "addr:postcode": "62014",
                "addr:street": "Via Enrico Mattei",
                "brand": "OVS",
                "brand:wikidata": "Q2042514",
                "brand:wikipedia": "en:OVS (company)",
                "entrance": "yes",
                "name": "OVS",
                "operator": "OVS",
                "shop": "clothes"
            }
        },
        {
            "type": "node",
            "id": 5031195828,
            "lat": 43.8186234,
            "lon": 12.992404,
            "timestamp": "2023-07-30T23:03:34Z",
            "version": 4,
            "changeset": 139228940,
            "user": "Fronzi Matteo",
            "uid": 11206543,
            "tags": {
                "addr:city": "Fano",
                "addr:hamlet": "Rosciano",
                "addr:housenumber": "4",
                "addr:street": "Via Giusto Cespi",
                "brand": "Conad City",
                "brand:wikidata": "Q57543102",
                "check_date": "2023-07-31",
                "contact:phone": "+39 0721 864112",
                "name": "Conad City",
                "operator": "Vagnini Ketti",
                "ref:vatin": "IT02190230413",
                "shop": "supermarket"
            }
        },
        {
            "type": "node",
            "id": 5052344579,
            "lat": 43.6174211,
            "lon": 13.5152029,
            "timestamp": "2025-10-17T17:27:58Z",
            "version": 8,
            "changeset": 173421604,
            "user": "totera",
            "uid": 123412,
            "tags": {
                "addr:housenumber": "107",
                "addr:street": "Corso Giuseppe Garibaldi",
                "brand": "H&M",
                "brand:wikidata": "Q188326",
                "brand:wikipedia": "en:H&M",
                "check_date": "2025-10-17",
                "name": "H&M",
                "opening_hours": "Mo-Sa 09:30-20:00; Su 10:00-20:00",
                "operator": "H&M Hennes & Mauritz S.R.L",
                "ref:vatin": "IT03269110965",
                "shop": "clothes",
                "wheelchair": "yes"
            }
        },
        {
            "type": "node",
            "id": 5493166500,
            "lat": 43.3677776,
            "lon": 13.6234371,
            "timestamp": "2024-12-05T07:49:56Z",
            "version": 6,
            "changeset": 159946278,
            "user": "totera",
            "uid": 123412,
            "tags": {
                "addr:city": "Potenza Picena",
                "addr:postcode": "62018",
                "addr:street": "Via Giovanni Battista Boni",
                "brand": "Conad City",
                "brand:wikidata": "Q57543102",
                "name": "Conad City",
                "nohousenumber": "yes",
                "old_name": "Punto Simply Sma",
                "opening_hours": "Mo-Sa 08:00-19:45",
                "phone": "+39 0733 672045",
                "shop": "supermarket",
                "website": "https://www.conad.it/ricerca-negozi/conad-city-via-giovan-battista-boni-snc-62018-potenza-picena--009956"
            }
        },
        {
            "type": "node",
            "id": 5497258400,
            "lat": 43.4047348,
            "lon": 13.5476948,
            "timestamp": "2020-05-13T12:05:42Z",
            "version": 5,
            "changeset": 85144032,
            "user": "marchemap",
            "uid": 4624362,
            "tags": {
                "addr:city": "Recanati",
                "addr:housenumber": "32",
                "addr:postcode": "62019",
                "addr:street": "Corso Persiani",
                "brand": "United Colors of Benetton",
                "brand:wikidata": "Q817139",
                "brand:wikipedia": "en:Benetton Group",
                "name": "United Colors of Benetton",
                "shop": "clothes",
                "short_name": "Benetton"
            }
        },
        {
            "type": "node",
            "id": 5550211600,
            "lat": 43.4048565,
            "lon": 13.5606909,
            "timestamp": "2021-02-16T18:04:02Z",
            "version": 4,
            "changeset": 99398376,
            "user": "totera",
            "uid": 123412,
            "tags": {
                "addr:city": "Recanati",
                "addr:postcode": "62019",
                "addr:street": "Via Cupa Madonna di Varano",
                "amenity": "fuel",
                "brand": "Q8",
                "brand:wikidata": "Q1634762",
                "brand:wikipedia": "en:Kuwait Petroleum Corporation",
                "fuel:GTL_diesel": "yes",
                "fuel:diesel": "yes",
                "fuel:octane_100": "yes",
                "fuel:octane_95": "yes",
                "name": "Severini e Riccetti",
                "operator": "Severini Armando e Riccetti Ivano S.N.C.",
                "ref:mise": "42150"
            }
        },
        {
            "type": "node",
            "id": 5677922217,
            "lat": 43.481965,
            "lon": 13.48039,
            "timestamp": "2025-10-22T10:07:32Z",
            "version": 3,
            "changeset": 173619448,
            "user": "btcitnet",
            "uid": 22525435,
            "tags": {
                "addr:city": "Osimo",
                "addr:housenumber": "4",
                "addr:postcode": "60027",
                "addr:street": "Via Montefanese",
                "brand": "Conad",
                "brand:wikidata": "Q639075",
                "brand:wikipedia": "it:Conad",
                "name": "Conad",
                "shop": "supermarket"
            }
        },
        {
            "type": "node",
            "id": 5679617169,
            "lat": 43.4860152,
            "lon": 13.4842053,
            "timestamp": "2020-05-13T12:05:42Z",
            "version": 2,
            "changeset": 85144032,
            "user": "marchemap",
            "uid": 4624362,
            "tags": {
                "brand": "Intimissimi",
                "brand:wikidata": "Q305404",
                "brand:wikipedia": "en:Intimissimi",
                "clothes": "underwear",
                "name": "Intimissimi",
                "shop": "clothes"
            }
        },
        {
            "type": "node",
            "id": 5802493877,
            "lat": 43.338111,
            "lon": 13.4372891,
            "timestamp": "2025-10-21T15:37:18Z",
            "version": 3,
            "changeset": 173589279,
            "user": "btcitnet",
            "uid": 22525435,
            "tags": {
                "addr:city": "Montecassiano",
                "addr:postcode": "62010",
                "addr:street": "Via Giuseppe Mainini",
                "brand": "PittaRosso",
                "brand:wikidata": "Q105643314",
                "name": "PittaRosso",
                "shop": "shoes"
            }
        },
        {
            "type": "node",
            "id": 5851837709,
            "lat": 43.1965439,
            "lon": 13.6691616,
            "timestamp": "2025-08-08T18:03:58Z",
            "version": 5,
            "changeset": 170169373,
            "user": "totera",
            "uid": 123412,
            "tags": {
                "addr:city": "Monte Urano",
                "addr:housenumber": "202",
                "addr:postcode": "63813",
                "addr:street": "Via Incancellata",
                "amenity": "fuel",
                "brand": "Tamoil",
                "brand:wikidata": "Q706793",
                "brand:wikipedia": "en:Tamoil",
                "fuel:diesel": "yes",
                "fuel:octane_95": "yes",
                "name": "Tamoil",
                "operator": "Fermana Carburanti S.R.L.",
                "ref:mise": "61282"
            }
        },
        {
            "type": "node",
            "id": 5851843015,
            "lat": 43.3668998,
            "lon": 13.6940852,
            "timestamp": "2022-02-02T09:07:12Z",
            "version": 4,
            "changeset": 116902814,
            "user": "Mapper56K",
            "uid": 14976718,
            "tags": {
                "addr:city": "Potenza Picena",
                "addr:direction": "S",
                "addr:milestone": "335",
                "addr:postcode": "62018",
                "addr:street": "Strada Statale 16 Adriatica",
                "amenity": "fuel",
                "brand": "Q8",
                "brand:wikidata": "Q1634762",
                "brand:wikipedia": "en:Kuwait Petroleum Corporation",
                "fuel:diesel": "yes",
                "fuel:octane_95": "yes",
                "name": "Q8",
                "operator": "Fedeli Paolo e Perugini Andrea S.N.C.",
                "ref:mise": "21545"
            }
        },
        {
            "type": "node",
            "id": 5851845235,
            "lat": 43.2106093,
            "lon": 13.5164759,
            "timestamp": "2024-09-09T00:00:42Z",
            "version": 7,
            "changeset": 156372374,
            "user": "Assadermanassa",
            "uid": 17445709,
            "tags": {
                "addr:city": "Mogliano",
                "addr:housenumber": "65",
                "addr:postcode": "62010",
                "addr:street": "Contrada Macina",
                "amenity": "fuel",
                "brand": "Tamoil",
                "brand:wikidata": "Q706793",
                "fuel:diesel": "yes",
                "fuel:octane_95": "yes",
                "name": "Tamoil Mogliano RAL",
                "operator": "R.A.L. Service S.N.C. di Pompei Luisa e C.",
                "ref:mise": "57850"
            }
        },
        {
            "type": "node",
            "id": 5856461916,
            "lat": 43.2910394,
            "lon": 13.729037,
            "timestamp": "2022-09-30T10:53:19Z",
            "version": 5,
            "changeset": 126817855,
            "user": "Flight777",
            "uid": 9925732,
            "tags": {
                "addr:city": "Civitanova Marche",
                "addr:housenumber": "67",
                "addr:postcode": "62012",
                "addr:street": "Via Fontanella",
                "amenity": "fuel",
                "brand": "Tamoil",
                "brand:wikidata": "Q706793",
                "fuel:cng": "yes",
                "fuel:diesel": "yes",
                "fuel:lpg": "yes",
                "fuel:octane_95": "yes",
                "name": "Tamoil",
                "operator": "Autobella di Benedetti Goffredo e Latini S.A.S.",
                "ref:mise": "12378"
            }
        },
        {
            "type": "node",
            "id": 5893162284,
            "lat": 43.8436641,
            "lon": 13.0165081,
            "timestamp": "2025-10-01T15:09:59Z",
            "version": 8,
            "changeset": 172711340,
            "user": "btcitnet",
            "uid": 22525435,
            "tags": {
                "addr:city": "Fano",
                "addr:housenumber": "144",
                "addr:postcode": "61032",
                "addr:street": "Corso Giacomo Matteotti",
                "brand": "Tezenis",
                "brand:wikidata": "Q28056374",
                "check_date": "2025-06-07",
                "clothes": "women;underwear;swimwear;men;children",
                "name": "Tezenis",
                "shop": "clothes"
            }
        },
        {
            "type": "node",
            "id": 5893162487,
            "lat": 43.8431624,
            "lon": 13.0173768,
            "timestamp": "2025-10-18T17:21:31Z",
            "version": 6,
            "changeset": 173460567,
            "user": "btcitnet",
            "uid": 22525435,
            "tags": {
                "addr:city": "Fano",
                "addr:housenumber": "184",
                "addr:postcode": "61032",
                "addr:street": "Corso Giacomo Matteotti",
                "brand": "Mondadori",
                "brand:wikidata": "Q85355",
                "brand:wikipedia": "en:Arnoldo Mondadori Editore",
                "contact:email": "mondadoribookstorefano@gmail.com",
                "contact:mobile": "+39 339 7419163",
                "contact:phone": "+39 0721 846997",
                "name": "Mondadori",
                "opening_hours": "Mo-Sa 09:30-20:00; Su 10:00-13:00,16:00-20:00",
                "shop": "books"
            }
        },
        {
            "type": "node",
            "id": 6041313672,
            "lat": 43.2883639,
            "lon": 13.7361783,
            "timestamp": "2025-01-03T10:48:31Z",
            "version": 9,
            "changeset": 160942576,
            "user": "mpbin",
            "uid": 21850090,
            "tags": {
                "addr:city": "Porto Sant'Elpidio",
                "addr:housenumber": "41",
                "addr:postcode": "63821",
                "addr:street": "Via Fratte",
                "brand": "Decathlon",
                "brand:wikidata": "Q509349",
                "brand:wikipedia": "en:Decathlon (retailer)",
                "name": "Decathlon",
                "opening_hours": "Mo-Su 09:00-20:30",
                "operator": "Decathlon",
                "shop": "sports",
                "survey:date": "2023-11-15",
                "website": "https://www.decathlon.it/",
                "wheelchair": "yes"
            }
        },
        {
            "type": "node",
            "id": 6066502297,
            "lat": 43.4345528,
            "lon": 13.6628958,
            "timestamp": "2023-08-25T23:07:37Z",
            "version": 3,
            "changeset": 140391750,
            "user": "totera",
            "uid": 123412,
            "tags": {
                "addr:city": "Porto Recanati",
                "addr:housenumber": "31",
                "addr:postcode": "62017",
                "addr:province": "Macerata",
                "addr:street": "Corso Giacomo Matteotti",
                "brand": "Intimissimi",
                "brand:wikidata": "Q305404",
                "clothes": "underwear",
                "name": "Intimissimi",
                "shop": "clothes"
            }
        },
        {
            "type": "node",
            "id": 6070906250,
            "lat": 43.5206137,
            "lon": 13.55757,
            "timestamp": "2024-09-25T08:19:37Z",
            "version": 13,
            "changeset": 157069869,
            "user": "mpbin",
            "uid": 21850090,
            "tags": {
                "addr:city": "Camerano",
                "addr:postcode": "60021",
                "addr:street": "Via Luigi Einaudi",
                "check_date": "2024-09-25",
                "check_date:currency:XBT": "2024-09-25",
                "currency:XBT": "yes",
                "description": "Servizi di Consulenza, Formazione, Progettazione. Risk Management, Salute e Sicurezza sul Lavoro, Corsi di Formazione D.Lgs. 81/2008",
                "email": "contattaci@agrsicurezza.com",
                "name": "AGRsicurezza",
                "office": "occupational_safety",
                "phone": "+39 071 8760 041",
                "website": "https://www.agrsicurezza.it"
            }
        },
        {
            "type": "node",
            "id": 6399647074,
            "lat": 43.5528092,
            "lon": 13.5141562,
            "timestamp": "2024-12-03T23:27:50Z",
            "version": 3,
            "changeset": 159900104,
            "user": "totera",
            "uid": 123412,
            "tags": {
                "addr:city": "Ancona",
                "addr:housenumber": "6",
                "addr:postcode": "60131",
                "addr:street": "Via Franco Scataglini",
                "branch": "Ancona",
                "brand": "Foot Locker",
                "brand:wikidata": "Q63335",
                "check_date": "2024-11-22",
                "local_ref": "n29b",
                "name": "Foot Locker",
                "old_amenity": "fast_food",
                "old_name": "L'Isola del Ristoro",
                "opening_hours": "Mo-Su 09:00-20:30",
                "phone": "+39 071 9759166",
                "shop": "shoes",
                "website": "https://stores.footlocker.it/it/it-57/ancona/unit-41-conero-sc-57_31_06289.html"
            }
        },
        {
            "type": "node",
            "id": 6591068387,
            "lat": 43.317177,
            "lon": 13.7183131,
            "timestamp": "2025-10-14T12:54:04Z",
            "version": 6,
            "changeset": 173273826,
            "user": "f_gonella",
            "uid": 8716397,
            "tags": {
                "brand": "Conad City",
                "brand:wikidata": "Q57543102",
                "name": "Conad City",
                "opening_hours": "Mo-Sa 08:15-13:00,16:45-20:00",
                "shop": "supermarket"
            }
        },
        {
            "type": "node",
            "id": 6896322177,
            "lat": 43.2999663,
            "lon": 13.4529136,
            "timestamp": "2021-10-21T10:13:48Z",
            "version": 2,
            "changeset": 112784572,
            "user": "SimoGine",
            "uid": 11449631,
            "tags": {
                "addr:city": "Macerata",
                "addr:housenumber": "4",
                "addr:postcode": "62100",
                "addr:street": "Corso della Repubblica",
                "brand": "La Feltrinelli",
                "brand:wikidata": "Q96311190",
                "name": "La Feltrinelli",
                "phone": "199151173",
                "shop": "books"
            }
        },
        {
            "type": "node",
            "id": 8223132456,
            "lat": 43.8014569,
            "lon": 13.0155721,
            "timestamp": "2023-03-31T12:30:16Z",
            "version": 3,
            "changeset": 134343452,
            "user": "totera",
            "uid": 123412,
            "tags": {
                "addr:housenumber": "1",
                "addr:postcode": "61032",
                "addr:street": "Via Luigi Einaudi",
                "brand": "PittaRosso",
                "brand:wikidata": "Q105643314",
                "name": "PittaRosso",
                "ref:vatin": "IT03846980286",
                "shop": "shoes"
            }
        },
        {
            "type": "node",
            "id": 9551940924,
            "lat": 43.605797,
            "lon": 13.4877366,
            "timestamp": "2023-10-27T13:00:04Z",
            "version": 6,
            "changeset": 143210467,
            "user": "b-jazz-bot",
            "uid": 9451067,
            "tags": {
                "addr:city": "Ancona",
                "addr:housenumber": "85",
                "addr:postcode": "60126",
                "addr:street": "Via Flaminia",
                "check_date": "2023-09-04",
                "currency:XBT": "yes",
                "description": "Attivit\u00e0 di servizi per organizzazione di eventi e feste. Disponibilit\u00e0 di un configuratore online utile per chi sta cercando location o profili quali deejay, fotografi, animazione e tutto ci\u00f2 che comprende il mondo delle feste private.",
                "email": "info@mypartyevents.it",
                "name": "My Party Events",
                "office": "event_planner",
                "old_name": "Prontomoda",
                "old_shop": "clothes",
                "phone": "+39 3755157921",
                "website": "https://www.mypartyevents.it/"
            }
        },
        {
            "type": "node",
            "id": 9695860731,
            "lat": 43.7460242,
            "lon": 13.1704099,
            "timestamp": "2025-09-30T16:55:09Z",
            "version": 7,
            "changeset": 172669947,
            "user": "totera",
            "uid": 123412,
            "tags": {
                "addr:city": "Cesano di Senigallia",
                "addr:housenumber": "89",
                "addr:postcode": "60019",
                "addr:street": "Strada Adriatica Nord",
                "brand": "Unieuro",
                "brand:wikidata": "Q4004687",
                "name": "Unieuro",
                "operator": "Unieuro S.p.A.",
                "shop": "electronics",
                "wheelchair": "yes"
            }
        },
        {
            "type": "node",
            "id": 10554651585,
            "lat": 43.2174824,
            "lon": 13.3064053,
            "timestamp": "2025-05-29T07:31:59Z",
            "version": 6,
            "changeset": 166906000,
            "user": "totera",
            "uid": 123412,
            "tags": {
                "addr:city": "Tolentino",
                "addr:housenumber": "1",
                "addr:postcode": "62029",
                "addr:street": "Viale della Concordia",
                "check_date": "2025-05-12",
                "check_date:currency:XBT": "2023-01-14",
                "currency:XBT": "yes",
                "description": "Software house",
                "email": "info@protocollicreativi.it",
                "name": "Protocolli Creativi",
                "office": "it",
                "opening_hours": "Mo-Fr 10:00-13:00, 15:00-19:00",
                "payment:lightning": "yes",
                "payment:lightning_contactless": "yes",
                "payment:onchain": "yes",
                "phone": "+39 0733 974921",
                "website": "https://www.protocollicreativi.it/"
            }
        },
        {
            "type": "node",
            "id": 10566976132,
            "lat": 43.2217632,
            "lon": 13.4651049,
            "timestamp": "2023-01-19T06:35:47Z",
            "version": 1,
            "changeset": 131449355,
            "user": "BSN21M",
            "uid": 17441326,
            "tags": {
                "addr:city": "Petriolo",
                "addr:housenumber": "35",
                "addr:postcode": "62014",
                "addr:street": "Via Porta Nuova",
                "check_date:currency:XBT": "2023-01-19",
                "currency:XBT": "yes",
                "name": "Natali Calzature",
                "opening_hours": "Mo-Sa 16:30-19:30",
                "payment:lightning": "yes",
                "payment:lightning_contactless": "no",
                "payment:onchain": "yes",
                "phone": "+39 339 613 4291",
                "shop": "shoes",
                "website": "https://natalicalzature.business.site"
            }
        },
        {
            "type": "node",
            "id": 10722344249,
            "lat": 43.4827895,
            "lon": 13.5954674,
            "timestamp": "2024-04-02T14:03:36Z",
            "version": 2,
            "changeset": 149483177,
            "user": "totera",
            "uid": 123412,
            "tags": {
                "addr:city": "Numana",
                "addr:direction": "N",
                "addr:milestone": "239",
                "addr:postcode": "60026",
                "addr:street": "Autostrada Adriatica",
                "amenity": "fuel",
                "brand": "Q8",
                "brand:wikidata": "Q1634762",
                "fuel:GTL_diesel": "yes",
                "fuel:diesel": "yes",
                "fuel:lpg": "yes",
                "fuel:octane_100": "yes",
                "fuel:octane_95": "yes",
                "name": "AdS Conero est",
                "opening_hours": "24/7",
                "operator": "Conero Est S.R.L.",
                "ref:mise": "51024",
                "self_service": "yes",
                "wheelchair": "yes"
            }
        },
        {
            "type": "node",
            "id": 10862567240,
            "lat": 43.2302873,
            "lon": 13.6848136,
            "timestamp": "2024-07-05T19:57:27Z",
            "version": 2,
            "changeset": 153602893,
            "user": "mauropili",
            "uid": 1496865,
            "tags": {
                "addr:city": "Sant'Elpidio a Mare",
                "addr:housenumber": "64",
                "addr:postcode": "63811",
                "addr:street": "Corso Baccio",
                "amenity": "restaurant",
                "check_date": "2023-05-02",
                "contact:facebook": "https://www.facebook.com/ipozzacci",
                "cuisine": "italian",
                "currency:XBT": "yes",
                "name": "I Pozzacci",
                "phone": "+390734466623"
            }
        },
        {
            "type": "node",
            "id": 11101515276,
            "lat": 43.5125887,
            "lon": 13.5277251,
            "timestamp": "2025-10-08T20:51:00Z",
            "version": 5,
            "changeset": 173023177,
            "user": "btcitnet",
            "uid": 22525435,
            "tags": {
                "addr:city": "Osimo",
                "addr:housenumber": "22",
                "addr:postcode": "60027",
                "addr:street": "Via Sbrozzola",
                "brand": "OVS",
                "brand:wikidata": "Q2042514",
                "name": "OVS",
                "opening_hours": "Mo-Su 09:00-20:00",
                "shop": "clothes",
                "wheelchair": "yes"
            }
        },
        {
            "type": "node",
            "id": 11173847767,
            "lat": 43.3231583,
            "lon": 13.7143383,
            "timestamp": "2023-09-07T10:17:08Z",
            "version": 1,
            "changeset": 140933019,
            "user": "acifani",
            "uid": 13608596,
            "tags": {
                "brand": "Conad",
                "brand:wikidata": "Q639075",
                "name": "Conad",
                "shop": "supermarket"
            }
        },
        {
            "type": "node",
            "id": 11206224462,
            "lat": 43.2797885,
            "lon": 13.5020234,
            "timestamp": "2025-09-23T10:53:48Z",
            "version": 2,
            "changeset": 172337050,
            "user": "jeawrong",
            "uid": 179966,
            "tags": {
                "brand": "Upim",
                "brand:wikidata": "Q1414836",
                "name": "Upim",
                "opening_hours": "Mo-Su,PH 09:00-20:30",
                "shop": "department_store"
            }
        },
        {
            "type": "node",
            "id": 11332546087,
            "lat": 43.5236706,
            "lon": 13.2428279,
            "timestamp": "2023-11-09T08:27:28Z",
            "version": 2,
            "changeset": 143811293,
            "user": "totera",
            "uid": 123412,
            "tags": {
                "addr:city": "Jesi",
                "addr:housenumber": "34",
                "addr:postcode": "60035",
                "addr:street": "Viale della Vittoria",
                "amenity": "fuel",
                "brand": "Tamoil",
                "brand:wikidata": "Q706793",
                "fuel:diesel": "yes",
                "fuel:octane_95": "yes",
                "name": "Tamoil Jesi Viale della Vittoria",
                "operator": "Jesi V.Le Della Vittoria",
                "ref:mise": "47446"
            }
        },
        {
            "type": "node",
            "id": 11335707828,
            "lat": 43.6109082,
            "lon": 13.5042162,
            "timestamp": "2023-11-09T12:14:46Z",
            "version": 1,
            "changeset": 143819796,
            "user": "Rockedf",
            "uid": 7522075,
            "tags": {
                "addr:city": "Ancona",
                "addr:housenumber": "2",
                "addr:postcode": "60125",
                "addr:street": "Via dei Piceni",
                "addr:unit": "A",
                "check_date": "2023-11-09",
                "contact:email": "ilaria.traditi@gmail.com",
                "currency:XBT": "yes",
                "name": "Casa Frinfrina B&B",
                "payment:lightning": "yes",
                "payment:lightning_contactless": "no",
                "payment:onchain": "yes",
                "phone": "+39 32 9013 1428",
                "tourism": "guest_house",
                "website": "https://www.airbnb.it/rooms/32639590"
            }
        },
        {
            "type": "node",
            "id": 11351377005,
            "lat": 43.2875203,
            "lon": 13.735028,
            "timestamp": "2025-10-23T18:48:35Z",
            "version": 6,
            "changeset": 173688326,
            "user": "btcitnet",
            "uid": 22525435,
            "tags": {
                "addr:city": "Porto Sant'Elpidio",
                "addr:postcode": "63821",
                "addr:street": "Via Mare del Nord",
                "brand": "Bottega Verde",
                "brand:wikidata": "Q894870",
                "name": "Bottega Verde",
                "opening_hours": "Mo-Su 09:00-20:30",
                "shop": "cosmetics",
                "wheelchair": "yes"
            }
        },
        {
            "type": "node",
            "id": 11351377009,
            "lat": 43.2873935,
            "lon": 13.7357871,
            "timestamp": "2023-11-16T17:01:26Z",
            "version": 5,
            "changeset": 144104797,
            "user": "totera",
            "uid": 123412,
            "tags": {
                "brand": "Upim",
                "brand:wikidata": "Q1414836",
                "name": "Upim",
                "opening_hours": "Mo-Su 09:00-20:30",
                "shop": "department_store",
                "wheelchair": "yes"
            }
        },
        {
            "type": "node",
            "id": 11351377013,
            "lat": 43.2874254,
            "lon": 13.7348138,
            "timestamp": "2025-01-14T12:01:07Z",
            "version": 5,
            "changeset": 161342515,
            "user": "DnaX",
            "uid": 69259,
            "tags": {
                "brand": "GrandVision",
                "brand:wikidata": "Q105644278",
                "name": "GrandVision",
                "opening_hours": "Mo-Su 09:00-20:30",
                "shop": "optician",
                "wheelchair": "yes"
            }
        },
        {
            "type": "node",
            "id": 11351377016,
            "lat": 43.2874658,
            "lon": 13.7349007,
            "timestamp": "2025-10-08T20:20:41Z",
            "version": 7,
            "changeset": 173022166,
            "user": "btcitnet",
            "uid": 22525435,
            "tags": {
                "addr:city": "Porto Sant'Elpidio",
                "addr:housenumber": "41",
                "addr:postcode": "63018",
                "addr:street": "Via Fratte",
                "brand": "Tezenis",
                "brand:wikidata": "Q28056374",
                "clothes": "women;underwear;swimwear;men;children",
                "name": "Tezenis",
                "opening_hours": "Mo-Su 09:00-20:30",
                "shop": "clothes",
                "wheelchair": "yes"
            }
        },
        {
            "type": "node",
            "id": 11351377018,
            "lat": 43.28759,
            "lon": 13.7349675,
            "timestamp": "2025-10-23T08:31:50Z",
            "version": 6,
            "changeset": 173661573,
            "user": "btcitnet",
            "uid": 22525435,
            "tags": {
                "addr:city": "Porto Sant'Elpidio",
                "addr:housenumber": "41",
                "addr:postcode": "63821",
                "addr:street": "Via Fratte",
                "brand": "Kasanova",
                "brand:wikidata": "Q116214505",
                "name": "Kasanova",
                "opening_hours": "Mo-Su 09:00-20:30",
                "shop": "houseware",
                "wheelchair": "yes"
            }
        },
        {
            "type": "node",
            "id": 11351580782,
            "lat": 43.4403339,
            "lon": 13.625995,
            "timestamp": "2025-01-01T21:19:37Z",
            "version": 3,
            "changeset": 160885827,
            "user": "mpbin",
            "uid": 21850090,
            "tags": {
                "addr:city": "Loreto",
                "addr:housenumber": "1",
                "addr:postcode": "60025",
                "addr:street": "Via Buffolareccia",
                "brand": "Unieuro",
                "brand:wikidata": "Q4004687",
                "name": "Unieuro",
                "operator": "Unieuro S.p.A.",
                "shop": "electronics",
                "wheelchair": "yes"
            }
        },
        {
            "type": "node",
            "id": 11351584816,
            "lat": 43.4402862,
            "lon": 13.6263378,
            "timestamp": "2023-11-15T17:21:14Z",
            "version": 2,
            "changeset": 144059089,
            "user": "\u0110uro Ji\u0159\u00ed",
            "uid": 14617702,
            "tags": {
                "brand": "Mondadori",
                "brand:wikidata": "Q85355",
                "name": "Mondadori",
                "shop": "books",
                "wheelchair": "yes"
            }
        },
        {
            "type": "node",
            "id": 11422445303,
            "lat": 43.763346,
            "lon": 13.146821,
            "timestamp": "2023-12-17T10:22:53Z",
            "version": 2,
            "changeset": 145209193,
            "user": "totera",
            "uid": 123412,
            "tags": {
                "addr:city": "Mondolfo",
                "addr:milestone": "264.431",
                "addr:postcode": "61037",
                "addr:street": "Strada Statale 16 Adriatica",
                "amenity": "fuel",
                "brand": "Tamoil",
                "brand:wikidata": "Q706793",
                "fuel:diesel": "yes",
                "fuel:octane_95": "yes",
                "name": "Tamoil Mondolfo",
                "operator": "Tamoil",
                "ref:mise": "52138"
            }
        },
        {
            "type": "node",
            "id": 11694719728,
            "lat": 43.5990328,
            "lon": 13.3269955,
            "timestamp": "2024-03-05T18:29:13Z",
            "version": 1,
            "changeset": 148263137,
            "user": "dp7",
            "uid": 4188272,
            "tags": {
                "brand": "Mondadori",
                "brand:wikidata": "Q85355",
                "name": "Mondadori",
                "shop": "books"
            }
        },
        {
            "type": "node",
            "id": 11694737988,
            "lat": 43.5978461,
            "lon": 13.3293507,
            "timestamp": "2025-01-01T20:07:31Z",
            "version": 3,
            "changeset": 160883653,
            "user": "mpbin",
            "uid": 21850090,
            "tags": {
                "addr:city": "Chiaravalle",
                "addr:housenumber": "38",
                "addr:postcode": "60033",
                "addr:street": "Via della Pace",
                "brand": "Unieuro",
                "brand:wikidata": "Q4004687",
                "check_date": "2024-12-07",
                "name": "Unieuro",
                "opening_hours": "Mo-Sa 09:00-12:30,16:00-19:30; Su 10:00-12:30,16:00-19:30",
                "operator": "Unieuro S.p.A.",
                "phone": "+39 071 7451787",
                "shop": "electronics"
            }
        },
        {
            "type": "node",
            "id": 11753448257,
            "lat": 43.6211649,
            "lon": 13.3831954,
            "timestamp": "2025-01-01T20:07:51Z",
            "version": 4,
            "changeset": 160883660,
            "user": "mpbin",
            "uid": 21850090,
            "tags": {
                "addr:city": "Falconara Marittima",
                "addr:housenumber": "86",
                "addr:postcode": "60015",
                "addr:street": "Via Guglielmo Marconi",
                "brand": "Unieuro",
                "brand:wikidata": "Q4004687",
                "check_date": "2024-12-07",
                "name": "Unieuro",
                "opening_hours": "Mo-Sa 09:00-12:30,16:00-19:30; Su 10:00-12:30,16:00-19:30",
                "operator": "Unieuro S.p.A.",
                "phone": "+39 071 910016",
                "shop": "electronics"
            }
        },
        {
            "type": "node",
            "id": 11843242870,
            "lat": 43.5529057,
            "lon": 13.5144481,
            "timestamp": "2024-12-03T23:27:50Z",
            "version": 2,
            "changeset": 159900104,
            "user": "totera",
            "uid": 123412,
            "tags": {
                "addr:city": "Ancona",
                "addr:housenumber": "6",
                "addr:postcode": "60131",
                "addr:street": "Via Franco Scataglini",
                "brand": "Intimissimi",
                "brand:wikidata": "Q305404",
                "check_date": "2024-04-24",
                "clothes": "underwear",
                "local_ref": "n26",
                "name": "Intimissimi",
                "opening_hours": "Mo-Su 09:00-20:30",
                "phone": "+39 071 2868588",
                "shop": "clothes",
                "website": "https://www.intimissimi.com/it/negozi/marche/ancona/ancona_via_scataglini_6/8BEC.html"
            }
        },
        {
            "type": "node",
            "id": 11843242873,
            "lat": 43.5530125,
            "lon": 13.5145633,
            "timestamp": "2024-12-03T23:27:50Z",
            "version": 2,
            "changeset": 159900104,
            "user": "totera",
            "uid": 123412,
            "tags": {
                "addr:city": "Ancona",
                "addr:housenumber": "6",
                "addr:postcode": "60131",
                "addr:street": "Via Franco Scataglini",
                "brand": "Bottega Verde",
                "brand:wikidata": "Q894870",
                "check_date": "2024-04-24",
                "local_ref": "n23",
                "name": "Bottega Verde",
                "opening_hours": "Mo-Su 09:00-20:30",
                "phone": "+39 071 2861416",
                "shop": "cosmetics",
                "website": "https://www.bottegaverde.com/it-it/storelocator/ancona/piane_baracola_an_cc_conero"
            }
        },
        {
            "type": "node",
            "id": 11874406150,
            "lat": 43.4896528,
            "lon": 13.4958801,
            "timestamp": "2024-11-15T21:13:47Z",
            "version": 5,
            "changeset": 159187520,
            "user": "mpbin",
            "uid": 21850090,
            "tags": {
                "addr:city": "Osimo",
                "addr:housenumber": "100",
                "addr:postcode": "60027",
                "addr:street": "Via Marco Polo",
                "check_date": "2024-11-15",
                "check_date:currency:XBT": "2024-11-15",
                "contact:facebook": "https://www.facebook.com/erboristeria.naturalmente.osimo/",
                "currency:XBT": "yes",
                "email": "erboristerianaturalmente@gmail.com",
                "name": "Erboristeria Naturalmente",
                "opening_hours": "Mo-Su 09:00-13:00,16:00-20:00",
                "payment:cash": "yes",
                "payment:credit_cards": "yes",
                "payment:debit_cards": "yes",
                "payment:lightning": "yes",
                "payment:lightning_contactless": "no",
                "payment:onchain": "no",
                "phone": "+39 071 7132123",
                "shop": "herbalist"
            }
        },
        {
            "type": "node",
            "id": 11920480577,
            "lat": 43.4778625,
            "lon": 13.6301502,
            "timestamp": "2024-07-06T07:15:13Z",
            "version": 2,
            "changeset": 153612617,
            "user": "mauropili",
            "uid": 1496865,
            "tags": {
                "addr:city": "Numana",
                "check_date": "2024-05-20",
                "currency:XBT": "yes",
                "leisure": "resort",
                "name": "Resort Estivo",
                "payment:lightning": "yes",
                "payment:lightning_contactless": "yes",
                "payment:onchain": "yes",
                "phone": "+39 33 8761 1076",
                "website": "https://www.subito.it/vi/551785629.htm"
            }
        },
        {
            "type": "node",
            "id": 11938388563,
            "lat": 43.4832789,
            "lon": 13.4930931,
            "timestamp": "2024-05-29T04:05:55Z",
            "version": 2,
            "changeset": 151969827,
            "user": "totera",
            "uid": 123412,
            "tags": {
                "addr:city": "Osimo",
                "addr:housenumber": "15",
                "addr:postcode": "60027",
                "addr:street": "Via Cristoforo Colombo",
                "check_date": "2024-05-27",
                "currency:XBT": "yes",
                "name": "Tabaccheria Colombo",
                "payment:lightning": "yes",
                "payment:lightning_contactless": "no",
                "payment:onchain": "no",
                "shop": "tobacco"
            }
        },
        {
            "type": "node",
            "id": 11975336450,
            "lat": 43.3086104,
            "lon": 13.7271027,
            "timestamp": "2024-09-21T18:44:16Z",
            "version": 2,
            "changeset": 156924689,
            "user": "mpbin",
            "uid": 21850090,
            "tags": {
                "addr:city": "Civitanova Marche",
                "addr:housenumber": "88",
                "addr:postcode": "62012",
                "addr:street": "Corso Umberto I",
                "check_date": "2024-06-12",
                "currency:XBT": "yes",
                "name": "Vittoria Profumi",
                "shop": "perfumery",
                "website": "https://www.vittoriaprofumi.com/"
            }
        },
        {
            "type": "node",
            "id": 12041656375,
            "lat": 43.2840949,
            "lon": 13.430952,
            "timestamp": "2025-10-17T13:33:29Z",
            "version": 2,
            "changeset": 173411244,
            "user": "btcitnet",
            "uid": 22525435,
            "tags": {
                "addr:city": "Macerata",
                "addr:housenumber": "72a",
                "addr:postcode": "62100",
                "addr:street": "Via Giovanni Verga",
                "brand": "Conad",
                "brand:wikidata": "Q639075",
                "name": "Conad",
                "old_name": "Simply Market",
                "opening_hours": "Mo-Sa 08:00-20:00; Su 08:30-20:00",
                "phone": "+39 0733 34313",
                "shop": "supermarket",
                "website": "https://www.conad.it/ricerca-negozi/conad-via-giovanni-verga-72-a-62100--macerata--009738"
            }
        },
        {
            "type": "node",
            "id": 12188096237,
            "lat": 43.5537821,
            "lon": 13.5144657,
            "timestamp": "2024-12-03T23:27:50Z",
            "version": 3,
            "changeset": 159900104,
            "user": "totera",
            "uid": 123412,
            "tags": {
                "addr:city": "Ancona",
                "addr:housenumber": "6",
                "addr:postcode": "60131",
                "addr:street": "Via Franco Scataglini",
                "brand": "Kasanova",
                "brand:wikidata": "Q116214505",
                "check_date": "2024-11-22",
                "contact:facebook": "kn.ancona",
                "email": "ancona@kasanova.it",
                "local_ref": "n11",
                "name": "Kasanova",
                "opening_hours": "Mo-Su 09:00-20:30",
                "operator": "Kasanova S.p.A.",
                "phone": "+39 071 9948922",
                "ref:vatin": "IT00743020968",
                "shop": "houseware",
                "website": "https://www.kasanova.com/it/stores/kasanova-ancona-conero-via-franco-scataglini-6"
            }
        },
        {
            "type": "node",
            "id": 12219082631,
            "lat": 43.2702038,
            "lon": 13.5886348,
            "timestamp": "2025-01-01T20:08:30Z",
            "version": 2,
            "changeset": 160883683,
            "user": "mpbin",
            "uid": 21850090,
            "tags": {
                "addr:city": "Morrovalle",
                "addr:housenumber": "58",
                "addr:postcode": "62010",
                "addr:street": "Via Edmondo De Amicis",
                "brand": "Unieuro",
                "brand:wikidata": "Q4004687",
                "name": "Unieuro",
                "operator": "Unieuro S.p.A.",
                "phone": "+390733865184",
                "shop": "electronics"
            }
        },
        {
            "type": "node",
            "id": 12324589823,
            "lat": 43.1858175,
            "lon": 13.4744237,
            "timestamp": "2025-08-28T13:32:15Z",
            "version": 3,
            "changeset": 171135901,
            "user": "damianeue",
            "uid": 10124288,
            "tags": {
                "addr:city": "Mogliano",
                "addr:housenumber": "33/C",
                "addr:postcode": "62010",
                "addr:street": "Viale Venti Settembre",
                "amenity": "bar",
                "currency:XBT": "yes",
                "name": "Kush Snc"
            }
        },
        {
            "type": "node",
            "id": 12365153134,
            "lat": 43.5535164,
            "lon": 13.5146223,
            "timestamp": "2025-01-14T10:43:32Z",
            "version": 3,
            "changeset": 161340005,
            "user": "DnaX",
            "uid": 69259,
            "tags": {
                "addr:city": "Ancona",
                "addr:housenumber": "6",
                "addr:postcode": "60131",
                "addr:street": "Via Franco Scataglini",
                "brand": "GrandVision",
                "brand:wikidata": "Q105644278",
                "check_date": "2024-11-22",
                "local_ref": "n8",
                "name": "GrandVision",
                "opening_hours": "Mo-Su 09:00-20:30",
                "phone": "+39 071 2868093",
                "ref": "K115",
                "shop": "optician",
                "website": "https://www.grandvision.it/it-it/trova-negozi/negozio?storeNumber=K115"
            }
        },
        {
            "type": "node",
            "id": 12365182932,
            "lat": 43.5531507,
            "lon": 13.5143041,
            "timestamp": "2024-12-03T23:27:50Z",
            "version": 2,
            "changeset": 159900104,
            "user": "totera",
            "uid": 123412,
            "tags": {
                "addr:city": "Ancona",
                "addr:housenumber": "6",
                "addr:postcode": "60131",
                "addr:street": "Via Franco Scataglini",
                "brand": "Tezenis",
                "brand:wikidata": "Q28056374",
                "check_date": "2024-11-22",
                "clothes": "women;underwear;swimwear;men;children",
                "local_ref": "n3",
                "name": "Tezenis",
                "opening_hours": "Mo-Su 09:00-20:30",
                "phone": "+39 071 2868777",
                "shop": "clothes",
                "website": "https://www.tezenis.com/it/negozi/marche/ancona/ancona_via_scataglini6_localit_pip_baraccola/T479.html"
            }
        },
        {
            "type": "node",
            "id": 12365182940,
            "lat": 43.5525431,
            "lon": 13.5145381,
            "timestamp": "2024-12-03T23:27:50Z",
            "version": 2,
            "changeset": 159900104,
            "user": "totera",
            "uid": 123412,
            "tags": {
                "addr:city": "Ancona",
                "addr:housenumber": "6",
                "addr:postcode": "60131",
                "addr:street": "Via Franco Scataglini",
                "brand": "Calzedonia",
                "brand:wikidata": "Q1027874",
                "check_date": "2024-11-22",
                "local_ref": "n35",
                "name": "Calzedonia",
                "opening_hours": "Mo-Su 09:00-20:30",
                "phone": "+39 071 4193015",
                "shop": "clothes",
                "website": "https://www.calzedonia.com/it/negozi/marche/ancona/ancona_via_scataglini_6/BQZ.html"
            }
        },
        {
            "type": "node",
            "id": 12463990495,
            "lat": 43.5284878,
            "lon": 13.5184065,
            "timestamp": "2024-12-31T00:01:11Z",
            "version": 1,
            "changeset": 160814756,
            "user": "totera",
            "uid": 123412,
            "tags": {
                "addr:city": "Osimo",
                "addr:milestone": "308.9",
                "addr:postcode": "60027",
                "addr:street": "Strada Statale 16 Adriatica",
                "branch": "Osimo",
                "brand": "Trony",
                "brand:wikidata": "Q3999692",
                "check_date": "2024-12-31",
                "name": "Trony",
                "operator": "DML Spa",
                "phone": "+39 071 7202046",
                "ref:vatin": "IT02106250398",
                "shop": "electronics"
            }
        },
        {
            "type": "node",
            "id": 12513364358,
            "lat": 43.3694106,
            "lon": 13.6921337,
            "timestamp": "2025-01-21T10:43:42Z",
            "version": 3,
            "changeset": 161595079,
            "user": "mueschel",
            "uid": 616774,
            "tags": {
                "addr:city": "Porto Potenza Picena",
                "addr:housenumber": "150",
                "addr:postcode": "62018",
                "addr:street": "Via Gioacchino Rossini",
                "check_date": "2025-01-19",
                "contact:instagram": "gl_immobiliare",
                "contact:whatsapp": "3355265696",
                "currency:XBT": "yes",
                "email": "stefano@gelimmobiliare.it",
                "name": "Impresa Edile G&L Immobiliare",
                "office": "estate_agent",
                "payment:lightning": "yes",
                "payment:lightning_contactless": "no",
                "payment:onchain": "yes",
                "phone": "+39 33 5526 5696",
                "website": "https://www.gelimmobiliare.it/"
            }
        },
        {
            "type": "node",
            "id": 12519353029,
            "lat": 43.8433858,
            "lon": 13.0170292,
            "timestamp": "2025-01-23T17:30:28Z",
            "version": 2,
            "changeset": 161683260,
            "user": "totera",
            "uid": 123412,
            "tags": {
                "addr:city": "Fano",
                "addr:housenumber": "164",
                "addr:postcode": "61032",
                "addr:street": "Corso Giacomo Matteotti",
                "brand": "Intimissimi",
                "brand:wikidata": "Q305404",
                "clothes": "underwear",
                "contact:phone": "+39 342 9595103",
                "name": "Intimissimi",
                "opening_hours": "Mo 09:00-13:00,16:00-20:00; Tu-Sa 09:00-20:00; Su 10:00-13:00,16:00-20:00",
                "shop": "clothes",
                "website": "https://www.intimissimi.com/it/negozi/marche/pesaro_e_urbino/fano_corso_giacomo_matteotti_164/IX38.html"
            }
        },
        {
            "type": "node",
            "id": 12686931000,
            "lat": 43.234544,
            "lon": 13.6415154,
            "timestamp": "2025-08-27T20:49:04Z",
            "version": 2,
            "changeset": 171104159,
            "user": "Comino",
            "uid": 6794624,
            "tags": {
                "addr:city": "Montegranaro",
                "addr:housenumber": "40",
                "addr:postcode": "63812",
                "addr:street": "Via Elpidiense Sud",
                "check_date": "2025-03-21",
                "currency:XBT": "yes",
                "name": "Foresi Giuseppe",
                "payment:lightning": "yes",
                "payment:onchain": "no",
                "phone": "+39 328 7491786",
                "shop": "tobacco"
            }
        },
        {
            "type": "node",
            "id": 12709834471,
            "lat": 43.250963,
            "lon": 13.4044006,
            "timestamp": "2025-03-29T13:55:02Z",
            "version": 1,
            "changeset": 164250260,
            "user": "Robot8A",
            "uid": 393359,
            "tags": {
                "brand": "Expert",
                "brand:wikidata": "Q680990",
                "check_date": "2025-03-29",
                "name": "Expert",
                "shop": "electronics"
            }
        },
        {
            "type": "node",
            "id": 12741748360,
            "lat": 43.5224995,
            "lon": 13.5246878,
            "timestamp": "2025-10-18T17:35:22Z",
            "version": 2,
            "changeset": 173461086,
            "user": "btcitnet",
            "uid": 22525435,
            "tags": {
                "addr:city": "Camerano",
                "addr:housenumber": "17",
                "addr:postcode": "60021",
                "addr:street": "Via del Campo D'Aviazione",
                "brand": "Mondadori",
                "brand:wikidata": "Q85355",
                "check_date": "2025-04-09",
                "name": "Mondadori",
                "shop": "books"
            }
        },
        {
            "type": "node",
            "id": 12753753804,
            "lat": 43.5140903,
            "lon": 13.239595,
            "timestamp": "2025-10-01T16:57:35Z",
            "version": 2,
            "changeset": 172716224,
            "user": "btcitnet",
            "uid": 22525435,
            "tags": {
                "addr:city": "Jesi",
                "addr:housenumber": "78",
                "addr:postcode": "60035",
                "addr:street": "Via Gallodoro",
                "brand": "Unieuro",
                "brand:wikidata": "Q4004687",
                "name": "Unieuro",
                "shop": "electronics"
            }
        },
        {
            "type": "node",
            "id": 12753753805,
            "lat": 43.5142913,
            "lon": 13.2399364,
            "timestamp": "2025-10-01T16:58:33Z",
            "version": 2,
            "changeset": 172716268,
            "user": "btcitnet",
            "uid": 22525435,
            "tags": {
                "addr:city": "Jesi",
                "addr:housenumber": "2/A",
                "addr:postcode": "60035",
                "addr:street": "Piazzale Luciano Maiolatesi",
                "brand": "Upim",
                "brand:wikidata": "Q1414836",
                "name": "Upim",
                "shop": "department_store"
            }
        },
        {
            "type": "node",
            "id": 13149527718,
            "lat": 43.4335975,
            "lon": 13.6071535,
            "timestamp": "2025-09-17T13:07:45Z",
            "version": 1,
            "changeset": 172064083,
            "user": "Chiarant",
            "uid": 18452174,
            "tags": {
                "addr:city": "Loreto",
                "addr:housenumber": "6",
                "addr:postcode": "60025",
                "addr:street": "Piazza Nazareth",
                "check_date": "2025-09-17",
                "currency:XBT": "yes",
                "healthcare": "alternative",
                "healthcare:speciality": "naturopathy",
                "name": "Giuseppina Ferrandes - Specialista Naturopata",
                "payment:lightning": "yes",
                "payment:onchain": "no",
                "phone": "+39 3396564325"
            }
        },
        {
            "type": "way",
            "id": 41974501,
            "timestamp": "2025-10-25T16:41:33Z",
            "version": 7,
            "changeset": 173764363,
            "user": "btcitnet",
            "uid": 22525435,
            "nodes": [
                520265844,
                520265846,
                520265851,
                520265852,
                520265848,
                520265850,
                1418680198,
                520265847,
                520265845,
                520265844
            ],
            "tags": {
                "addr:city": "Jesi",
                "addr:housenumber": "7",
                "addr:postcode": "60035",
                "addr:street": "Via Don Arduino Rettaroli",
                "branch": "Superstore",
                "brand": "Conad",
                "brand:wikidata": "Q639075",
                "building": "retail",
                "name": "Conad",
                "old_name": "IperSimply Market",
                "opening_hours": "Mo-Su 07:30-20:30",
                "phone": "+39 0731 58245",
                "shop": "supermarket"
            }
        },
        {
            "type": "way",
            "id": 42208339,
            "timestamp": "2020-06-09T13:24:47Z",
            "version": 9,
            "changeset": 86410944,
            "user": "totera",
            "uid": 123412,
            "nodes": [
                525709778,
                525709785,
                525709797,
                525709513,
                525709500,
                1271135604,
                1271135782,
                2294415245,
                525709462,
                1271135591,
                1271135846,
                525709778
            ],
            "tags": {
                "addr:city": "Piediripa",
                "addr:housenumber": "22",
                "addr:street": "Strada Cluentina",
                "brand": "Trony",
                "brand:wikidata": "Q3999692",
                "brand:wikipedia": "it:Trony",
                "building": "yes",
                "description": "trony.macerata@dml-italia.com",
                "name": "Trony",
                "phone": "+39 0733 280175",
                "shop": "electronics"
            }
        },
        {
            "type": "way",
            "id": 60738957,
            "timestamp": "2025-08-12T00:44:09Z",
            "version": 9,
            "changeset": 170317399,
            "user": "totera",
            "uid": 123412,
            "nodes": [
                1364270438,
                484013707,
                760354398,
                760354363,
                760354470,
                760354479,
                760354416,
                760354379,
                760354333,
                760354449,
                1364270438
            ],
            "tags": {
                "addr:city": "Aspio Terme",
                "addr:country": "IT",
                "addr:postcode": "60021",
                "addr:street": "Via Terme dell'Aspio",
                "branch": "Ancona",
                "brand": "IKEA",
                "brand:wikidata": "Q54078",
                "brand:wikipedia": "en:IKEA",
                "building": "yes",
                "check_date": "2025-08-10",
                "name": "IKEA",
                "opening_hours": "09:30-20:00",
                "operator": "Ikea Italia Retail s.r.l.",
                "ref:vatin": "IT02992760963",
                "shop": "furniture",
                "website": "https://www.ikea.com/it/it/stores/ancona/",
                "wheelchair": "limited"
            }
        },
        {
            "type": "way",
            "id": 113444984,
            "timestamp": "2024-12-07T16:20:44Z",
            "version": 5,
            "changeset": 160032537,
            "user": "sorcrosc",
            "uid": 160229,
            "nodes": [
                1286322705,
                12402724515,
                1286322721,
                1286322712,
                1286322719,
                1286322705
            ],
            "tags": {
                "addr:city": "Lucrezia",
                "addr:housenumber": "6",
                "addr:street": "Via Amerigo Vespucci",
                "brand": "Conad",
                "brand:wikidata": "Q639075",
                "brand:wikipedia": "it:Conad",
                "building": "supermarket",
                "contact:phone": "+39 0721 897588",
                "name": "Conad City",
                "shop": "supermarket"
            }
        },
        {
            "type": "way",
            "id": 117554574,
            "timestamp": "2025-10-25T17:18:38Z",
            "version": 10,
            "changeset": 173765716,
            "user": "btcitnet",
            "uid": 22525435,
            "nodes": [
                1324092985,
                1324093218,
                1879049665,
                1324092714,
                1879049663,
                1324093441,
                1879049650,
                1324093042,
                1879049628,
                1879049625,
                1324092572,
                1324092247,
                1324093157,
                1324092669,
                1324092325,
                1324093269,
                1879049598,
                1324092779,
                1324092414,
                1324093365,
                1324092944,
                1324092505,
                1324092985
            ],
            "tags": {
                "addr:city": "Corridonia",
                "addr:direction": "W",
                "addr:milestone": "85.103",
                "addr:postcode": "62014",
                "addr:street": "Strada Statale 77 della Val di Chienti",
                "addr:village": "Colbuccaro",
                "amenity": "fuel",
                "brand": "Tamoil",
                "brand:wikidata": "Q706793",
                "brand:wikipedia": "en:Tamoil",
                "contact:phone": "+39 0733 201924",
                "fuel:cng": "yes",
                "fuel:diesel": "yes",
                "fuel:lpg": "yes",
                "fuel:octane_95": "yes",
                "name": "Tamoil",
                "operator": "T.D.M. S.R.L.",
                "ref:mise": "33370",
                "shop": "convenience",
                "surface": "asphalt"
            }
        },
        {
            "type": "way",
            "id": 221595055,
            "timestamp": "2024-05-08T08:21:20Z",
            "version": 6,
            "changeset": 151042444,
            "user": "Flynn_",
            "uid": 21081459,
            "nodes": [
                2306290625,
                2306290635,
                2306290633,
                2306290621,
                2893569394,
                2893569397,
                2306290625
            ],
            "tags": {
                "addr:city": "Corridonia",
                "addr:country": "IT",
                "addr:postcode": "62014",
                "addr:street": "Viale Trento",
                "amenity": "fuel",
                "brand": "Tamoil",
                "brand:wikidata": "Q706793",
                "contact:phone": "+39 0733 437204",
                "fuel:diesel": "yes",
                "fuel:octane_95": "yes",
                "name": "Tamoil",
                "operator": "Cetraro Lorella",
                "ref:mise": "48686"
            }
        },
        {
            "type": "way",
            "id": 243868326,
            "timestamp": "2022-04-16T06:42:43Z",
            "version": 21,
            "changeset": 119772689,
            "user": "\u0110uro Ji\u0159\u00ed",
            "uid": 14617702,
            "nodes": [
                2512255167,
                2512255168,
                2512255169,
                2512255170,
                2512255167
            ],
            "tags": {
                "addr:milestone": "264.431",
                "brand:wikidata": "Q706793",
                "brand:wikipedia": "en:Tamoil",
                "building": "roof",
                "ref:mise": "35544",
                "smoking": "no"
            }
        },
        {
            "type": "way",
            "id": 297977401,
            "timestamp": "2025-07-06T12:40:08Z",
            "version": 10,
            "changeset": 168559916,
            "user": "Curculion",
            "uid": 21796089,
            "nodes": [
                3018776194,
                3018776195,
                3018776196,
                3018776197,
                3018776194
            ],
            "tags": {
                "addr:city": "Serra de' Conti",
                "addr:housenumber": "64",
                "addr:postcode": "60030",
                "addr:street": "Via Santa Lucia",
                "amenity": "fuel",
                "brand": "Q8",
                "brand:wikidata": "Q1634762",
                "building": "roof",
                "email": "erediubaldiemattioli@gmail.com",
                "fuel:GTL_diesel": "yes",
                "fuel:diesel": "yes",
                "fuel:octane_100": "yes",
                "fuel:octane_95": "yes",
                "name": "Staz. servizio Q8 Eredi Ubaldi e Mattioli",
                "operator": "Eredi Ubaldi Mattioli di Ubaldi Lamberto",
                "phone": "+39 0731 879429",
                "ref:mise": "34102",
                "self_service": "yes"
            }
        },
        {
            "type": "way",
            "id": 299485107,
            "timestamp": "2024-05-14T19:00:41Z",
            "version": 10,
            "changeset": 151328154,
            "user": "totera",
            "uid": 123412,
            "nodes": [
                3034715593,
                5376922343,
                3034715594,
                3034715595,
                3034715596,
                5376922344,
                3034715593
            ],
            "tags": {
                "addr:city": "San Marcello",
                "addr:housenumber": "4",
                "addr:postcode": "60030",
                "addr:street": "Viale Madonna di Loreto",
                "amenity": "fuel",
                "brand": "Tamoil",
                "brand:wikidata": "Q706793",
                "building": "yes",
                "fuel:diesel": "yes",
                "fuel:octane_95": "yes",
                "name": "Tamoil",
                "operator": "B.T. S.N.C. di Bartolucci Nazzareno ed Eredi Tonti Pietro",
                "ref:mise": "57824"
            }
        },
        {
            "type": "way",
            "id": 320379957,
            "timestamp": "2025-10-29T08:48:33Z",
            "version": 3,
            "changeset": 173917333,
            "user": "damianeue",
            "uid": 10124288,
            "nodes": [
                3268905507,
                3268905500,
                3268905505,
                3268905512,
                3268905507
            ],
            "tags": {
                "brand": "Intimissimi",
                "brand:wikidata": "Q305404",
                "brand:wikipedia": "en:Intimissimi",
                "buildingpart": "room",
                "clothes": "underwear",
                "indoor": "room",
                "level": "0",
                "name": "Intimissimi",
                "ref": "21",
                "room": "shop",
                "shop": "clothes"
            }
        },
        {
            "type": "way",
            "id": 320379961,
            "timestamp": "2025-10-29T08:48:33Z",
            "version": 3,
            "changeset": 173917333,
            "user": "damianeue",
            "uid": 10124288,
            "nodes": [
                3268905509,
                3268905506,
                3268905496,
                3268905498,
                3268905502,
                3268905509
            ],
            "tags": {
                "brand": "United Colors of Benetton",
                "brand:wikidata": "Q817139",
                "buildingpart": "room",
                "indoor": "room",
                "level": "0",
                "name": "United Colors of Benetton",
                "ref": "27",
                "room": "shop",
                "shop": "clothes",
                "short_name": "Benetton"
            }
        },
        {
            "type": "way",
            "id": 320383970,
            "timestamp": "2025-10-29T08:48:33Z",
            "version": 5,
            "changeset": 173917333,
            "user": "damianeue",
            "uid": 10124288,
            "nodes": [
                3040020856,
                3268946009,
                3268946008,
                3268946002,
                520737147,
                3040020851,
                3040020856
            ],
            "tags": {
                "brand": "Tezenis",
                "brand:wikidata": "Q28056374",
                "buildingpart": "room",
                "clothes": "women;underwear;swimwear;men;children",
                "fax": "+39 0733 292163",
                "indoor": "room",
                "level": "0",
                "name": "Tezenis",
                "phone": "+39 0733 292163",
                "ref": "20",
                "room": "shop",
                "shop": "clothes",
                "website": "https://www.tezenis.com/"
            }
        },
        {
            "type": "way",
            "id": 320383975,
            "timestamp": "2025-10-23T19:47:30Z",
            "version": 4,
            "changeset": 173690322,
            "user": "btcitnet",
            "uid": 22525435,
            "nodes": [
                3268945964,
                3268945963,
                3268945965,
                3268945968,
                3268945964
            ],
            "tags": {
                "addr:city": "Piediripa",
                "addr:housenumber": "31",
                "addr:postcode": "62100",
                "addr:street": "Via Giambattista Velluti",
                "brand": "Bottega Verde",
                "brand:wikidata": "Q894870",
                "buildingpart": "room",
                "level": "0",
                "name": "Bottega Verde",
                "phone": "+39 3316868398",
                "ref": "35",
                "room": "shop",
                "shop": "cosmetics"
            }
        },
        {
            "type": "way",
            "id": 320415268,
            "timestamp": "2025-10-29T08:48:33Z",
            "version": 4,
            "changeset": 173917333,
            "user": "damianeue",
            "uid": 10124288,
            "nodes": [
                575319156,
                3269287203,
                3269287190,
                3269287181,
                3269287173,
                3269287164,
                3269286358,
                520737090,
                3269286359,
                3269287162,
                3269287166,
                3269287165,
                3269287174,
                3269287183,
                3269287176,
                3269287189,
                3269287193,
                575319156
            ],
            "tags": {
                "addr:city": "Piediripa",
                "addr:country": "IT",
                "addr:postcode": "62100",
                "addr:street": "Via Giambattista Velluti",
                "brand": "Unieuro",
                "brand:it": "Unieuro",
                "brand:wikidata": "Q4004687",
                "buildingpart": "room",
                "indoor": "room",
                "level": "0",
                "name": "Unieuro",
                "phone": "+39 0733 408133",
                "ref": "1",
                "room": "shop",
                "shop": "electronics"
            }
        },
        {
            "type": "way",
            "id": 320415284,
            "timestamp": "2025-10-29T08:48:33Z",
            "version": 6,
            "changeset": 173917333,
            "user": "damianeue",
            "uid": 10124288,
            "nodes": [
                3269287204,
                3269287214,
                3269287222,
                3269287218,
                3269287212,
                3269287204
            ],
            "tags": {
                "addr:city": "Piediripa",
                "addr:housenumber": "31",
                "addr:postcode": "62100",
                "addr:street": "Via Giambattista Velluti",
                "brand": "Kasanova",
                "brand:wikidata": "Q116214505",
                "buildingpart": "room",
                "indoor": "room",
                "level": "0",
                "name": "Kasanova",
                "ref": "11",
                "room": "shop",
                "shop": "houseware"
            }
        },
        {
            "type": "way",
            "id": 320415289,
            "timestamp": "2025-10-29T08:48:33Z",
            "version": 4,
            "changeset": 173917333,
            "user": "damianeue",
            "uid": 10124288,
            "nodes": [
                3269287232,
                3269287236,
                3269287239,
                3269287241,
                3269287240,
                3269287237,
                575319125,
                3269287234,
                3269287233,
                3269287235,
                3269287232
            ],
            "tags": {
                "brand": "Calzedonia",
                "brand:wikidata": "Q1027874",
                "buildingpart": "room",
                "indoor": "room",
                "level": "0",
                "name": "Calzedonia",
                "ref": "14",
                "room": "shop",
                "shop": "clothes"
            }
        },
        {
            "type": "way",
            "id": 348356474,
            "timestamp": "2024-08-13T10:47:05Z",
            "version": 3,
            "changeset": 155189131,
            "user": "totera",
            "uid": 123412,
            "nodes": [
                3544890094,
                3544889977,
                3544889959,
                3544889967,
                3544890094
            ],
            "tags": {
                "addr:city": "Monsano",
                "addr:housenumber": "40",
                "addr:postcode": "60030",
                "addr:street": "Via Sant'Ubaldo",
                "brand": "Trony",
                "brand:wikidata": "Q3999692",
                "brand:wikipedia": "it:Trony",
                "building": "retail",
                "check_date": "2024-08-13",
                "email": "monsano@trony.it",
                "name": "Trony",
                "opening_hours": "Mo-Fr 09:30-13:00,15:30-19:30; Sa 09:30-13:00,15:30-20:00; Su 10:00-13:00,15:30-19:30",
                "phone": "+39 0731 616047",
                "shop": "electronics"
            }
        },
        {
            "type": "way",
            "id": 359617019,
            "timestamp": "2022-10-05T18:57:06Z",
            "version": 3,
            "changeset": 127062882,
            "user": "paulbrunner",
            "uid": 15541433,
            "nodes": [
                3642920163,
                3642920164,
                3642920165,
                10078248548,
                10078248547,
                3642920166,
                3642920167,
                10078248549,
                3642920163
            ],
            "tags": {
                "brand": "Conad",
                "brand:wikidata": "Q639075",
                "brand:wikipedia": "it:Conad",
                "building": "yes",
                "name": "Conad",
                "shop": "supermarket"
            }
        },
        {
            "type": "way",
            "id": 435763140,
            "timestamp": "2022-11-03T09:35:01Z",
            "version": 6,
            "changeset": 128428569,
            "user": "totera",
            "uid": 123412,
            "nodes": [
                4336592331,
                4336592332,
                4336592333,
                4336592334,
                4336592335,
                4336592336,
                4336592331
            ],
            "tags": {
                "addr:city": "Sirolo",
                "addr:housenumber": "1",
                "addr:postcode": "60020",
                "addr:street": "Via Carlo Maratta",
                "amenity": "fuel",
                "brand": "Tamoil",
                "brand:wikidata": "Q706793",
                "brand:wikipedia": "en:Tamoil",
                "fuel:diesel": "yes",
                "fuel:octane_95": "yes",
                "name": "Tamoil Sirolo",
                "operator": "Babini Sauro",
                "ref:mise": "24436"
            }
        },
        {
            "type": "way",
            "id": 546876595,
            "timestamp": "2025-10-25T17:21:18Z",
            "version": 6,
            "changeset": 173765842,
            "user": "btcitnet",
            "uid": 22525435,
            "nodes": [
                5284410206,
                5284410207,
                5284410208,
                5284410209,
                5284410206
            ],
            "tags": {
                "addr:housenumber": "21",
                "addr:postcode": "60030",
                "addr:street": "Via Clementina",
                "addr:town": "Castelbellino",
                "addr:village": "Moie",
                "amenity": "fuel",
                "brand": "Tamoil",
                "brand:wikidata": "Q706793",
                "fuel:diesel": "yes",
                "fuel:octane_95": "yes",
                "name": "Tamoil",
                "operator": "Fermana Carburanti S.R.L.",
                "ref:mise": "30467"
            }
        },
        {
            "type": "way",
            "id": 661211218,
            "timestamp": "2024-01-12T20:19:46Z",
            "version": 2,
            "changeset": 146194405,
            "user": "f_gonella",
            "uid": 8716397,
            "nodes": [
                6190369808,
                6190369809,
                6190369810,
                6190369811,
                6190369812,
                6190369813,
                6190369814,
                6190369815,
                6190369808
            ],
            "tags": {
                "brand": "Conad",
                "brand:wikidata": "Q639075",
                "brand:wikipedia": "en:Simply Market",
                "building": "yes",
                "name": "Conad",
                "shop": "supermarket"
            }
        },
        {
            "type": "way",
            "id": 802442484,
            "timestamp": "2020-05-11T09:31:58Z",
            "version": 1,
            "changeset": 85014455,
            "user": "mascalzone67",
            "uid": 1861652,
            "nodes": [
                7506093509,
                7506093510,
                7506093511,
                7506093512,
                7506093509
            ],
            "tags": {
                "addr:city": "Porto Sant'Elpidio",
                "addr:housenumber": "10",
                "addr:postcode": "63821",
                "addr:street": "Via Caserta",
                "brand": "Conad",
                "brand:wikidata": "Q639075",
                "brand:wikipedia": "it:Conad",
                "building": "retail",
                "email": "psantelpidio_cheope1166@di-net.it",
                "name": "Conad",
                "opening_hours": "Mo-Sa 08:30-20:00; Su 09:00-13:00",
                "operator": "Conad",
                "payment:bancomat": "yes",
                "payment:cash": "yes",
                "payment:credit_cards": "yes",
                "phone": "+39 0734 877371",
                "shop": "supermarket",
                "website": "https://www.conad.it/ricerca-negozi/negozio.007668.html"
            }
        },
        {
            "type": "way",
            "id": 1152780505,
            "timestamp": "2024-12-13T02:59:42Z",
            "version": 3,
            "changeset": 160228949,
            "user": "evilworld",
            "uid": 21490170,
            "nodes": [
                10722296895,
                10722296894,
                10722296893,
                10722296892,
                10722296891,
                10722296890,
                10722296888,
                10722296887,
                10722296885,
                10722296895
            ],
            "tags": {
                "addr:city": "Arcevia",
                "addr:housenumber": "90",
                "addr:postcode": "60011",
                "addr:street": "Via San Giovanni Battista",
                "amenity": "fuel",
                "brand": "Tamoil",
                "brand:wikidata": "Q706793",
                "fuel:diesel": "yes",
                "fuel:octane_95": "yes",
                "name": "Tamoil",
                "operator": "A.S.I.A. di Calcatelli I. e Morico S. S.A.S.",
                "ref:mise": "10960",
                "self_service": "yes"
            }
        },
        {
            "type": "way",
            "id": 1207229689,
            "timestamp": "2025-09-28T13:20:20Z",
            "version": 7,
            "changeset": 172565555,
            "user": "jeawrong",
            "uid": 179966,
            "nodes": [
                11186257655,
                11186257656,
                11186258339,
                11186257846,
                11186257845,
                11186257659,
                11186258637,
                11186257844,
                11186257753,
                11186258050,
                9362270829,
                9001964282,
                11186257739,
                11186257655
            ],
            "tags": {
                "brand": "H&M",
                "brand:wikidata": "Q188326",
                "indoor": "room",
                "level": "0",
                "name": "H&M",
                "opening_hours": "Mo-Su,PH 09:00-21:00",
                "shop": "clothes"
            }
        },
        {
            "type": "way",
            "id": 1207229694,
            "timestamp": "2025-09-28T13:23:39Z",
            "version": 4,
            "changeset": 172565555,
            "user": "jeawrong",
            "uid": 179966,
            "nodes": [
                11186257761,
                11186257660,
                11186257662,
                11186258074,
                11186257762,
                11186257761
            ],
            "tags": {
                "brand": "Tezenis",
                "brand:wikidata": "Q28056374",
                "indoor": "room",
                "level": "0",
                "name": "Tezenis",
                "opening_hours": "Mo-Su,PH 09:00-21:00",
                "shop": "clothes"
            }
        },
        {
            "type": "way",
            "id": 1207229721,
            "timestamp": "2023-09-14T10:19:08Z",
            "version": 4,
            "changeset": 141250123,
            "user": "Map47",
            "uid": 11976,
            "nodes": [
                11186258061,
                11186258039,
                9882962391,
                11186258064,
                9470145033,
                11186258060,
                11186258061
            ],
            "tags": {
                "brand": "Intimissimi",
                "brand:wikidata": "Q305404",
                "clothes": "underwear",
                "indoor": "room",
                "level": "0",
                "name": "Intimissimi",
                "shop": "clothes"
            }
        },
        {
            "type": "way",
            "id": 1207229787,
            "timestamp": "2025-10-23T09:42:30Z",
            "version": 5,
            "changeset": 173664482,
            "user": "btcitnet",
            "uid": 22525435,
            "nodes": [
                11186258439,
                11186258740,
                11186257948,
                11186257851,
                11186257955,
                11186258439
            ],
            "tags": {
                "addr:city": "Civitanova Marche",
                "addr:postcode": "62012",
                "addr:street": "Via San Costantino",
                "brand": "Kasanova",
                "brand:wikidata": "Q116214505",
                "indoor": "room",
                "level": "0",
                "name": "Kasanova",
                "opening_hours": "Mo-Su,PH 09:00-21:00",
                "shop": "houseware"
            }
        },
        {
            "type": "way",
            "id": 1207229792,
            "timestamp": "2025-09-28T13:03:57Z",
            "version": 4,
            "changeset": 172565555,
            "user": "jeawrong",
            "uid": 179966,
            "nodes": [
                11186257785,
                11186257856,
                11186257855,
                11186257787,
                11186257677,
                11186257785
            ],
            "tags": {
                "brand": "Calzedonia",
                "brand:wikidata": "Q1027874",
                "indoor": "room",
                "level": "0",
                "name": "Calzedonia",
                "opening_hours": "Mo-Su,PH 09:00-21:00",
                "shop": "clothes"
            }
        },
        {
            "type": "way",
            "id": 1207229799,
            "timestamp": "2025-09-28T12:55:13Z",
            "version": 4,
            "changeset": 172565555,
            "user": "jeawrong",
            "uid": 179966,
            "nodes": [
                11186258343,
                7991359757,
                11186257958,
                11186258937,
                11186258069,
                11186257793,
                11186257681,
                11186258343
            ],
            "tags": {
                "brand": "Guess",
                "brand:wikidata": "Q2470307",
                "indoor": "room",
                "level": "0",
                "name": "Guess",
                "opening_hours": "Mo-Su,PH 09:00-21:00",
                "shop": "clothes"
            }
        },
        {
            "type": "way",
            "id": 1207229812,
            "timestamp": "2025-01-14T15:09:35Z",
            "version": 5,
            "changeset": 161348838,
            "user": "DnaX",
            "uid": 69259,
            "nodes": [
                11186257794,
                11186257687,
                11186257801,
                11186257686,
                11186257688,
                11186257794
            ],
            "tags": {
                "brand": "GrandVision",
                "brand:wikidata": "Q105644278",
                "indoor": "room",
                "level": "0",
                "name": "GrandVision",
                "shop": "optician"
            }
        },
        {
            "type": "way",
            "id": 1247653622,
            "timestamp": "2024-02-08T13:34:45Z",
            "version": 1,
            "changeset": 147218235,
            "user": "pietrell",
            "uid": 20977587,
            "nodes": [
                11598331316,
                11598331317,
                11598331318,
                11598331319,
                11598331320,
                11598331321,
                11598331316
            ],
            "tags": {
                "addr:city": "Marotta",
                "addr:housenumber": "6",
                "addr:postcode": "61037",
                "addr:street": "Via Giacomo Brodolini",
                "brand": "Conad",
                "brand:wikidata": "Q639075",
                "building": "yes",
                "name": "Conad",
                "shop": "supermarket"
            }
        },
        {
            "type": "way",
            "id": 1305391408,
            "timestamp": "2025-07-09T23:43:22Z",
            "version": 5,
            "changeset": 168718309,
            "user": "totera",
            "uid": 123412,
            "nodes": [
                12090305967,
                12090305968,
                12090330569,
                12090330570,
                12090330571,
                12090305967
            ],
            "tags": {
                "addr:city": "Trodica",
                "addr:housenumber": "57",
                "addr:postcode": "62010",
                "addr:street": "Via Michelangelo",
                "amenity": "fuel",
                "brand": "Tamoil",
                "brand:wikidata": "Q706793",
                "fuel:diesel": "yes",
                "fuel:octane_95": "yes",
                "name": "Tamoil",
                "operator": "Gattari Enrica",
                "ref:mise": "55972",
                "self_service": "yes"
            }
        },
        {
            "type": "way",
            "id": 1314268511,
            "timestamp": "2024-09-09T00:00:42Z",
            "version": 1,
            "changeset": 156372374,
            "user": "Assadermanassa",
            "uid": 17445709,
            "nodes": [
                12164591162,
                12164591163,
                12164591164,
                12164591165,
                12164591166,
                12164591167,
                12164591168,
                12164591169,
                12164591170,
                12164591171,
                12164591172,
                12164591173,
                12164591162
            ],
            "tags": {
                "amenity": "fuel",
                "brand": "Tamoil",
                "brand:wikidata": "Q706793",
                "name": "Tamoil"
            }
        },
        {
            "type": "relation",
            "id": 3198899,
            "timestamp": "2024-05-05T21:04:01Z",
            "version": 3,
            "changeset": 150939213,
            "user": "DnaX",
            "uid": 69259,
            "members": [
                {
                    "type": "way",
                    "ref": 237384539,
                    "role": "outer"
                },
                {
                    "type": "way",
                    "ref": 237384540,
                    "role": "outer"
                }
            ],
            "tags": {
                "brand": "Conad",
                "brand:wikidata": "Q639075",
                "building": "yes",
                "name": "Conad",
                "shop": "supermarket",
                "type": "multipolygon"
            }
        }
    ],
    "telegram": [
        {
            "telegram": "ss-marche"
        }
    ]
}