{
    "id": "milano",
    "name": "Milano",
    "lng": 45.45684704,
    "lat": 9.189245,
    "poi": [
        {
            "type": "node",
            "id": 269924649,
            "lat": 45.4799222,
            "lon": 9.1832687,
            "timestamp": "2024-11-12T22:29:23Z",
            "version": 15,
            "changeset": 159070726,
            "user": "descubrebitcoin",
            "uid": 17565129,
            "tags": {
                "addr:city": "Milano",
                "addr:country": "IT",
                "addr:housenumber": "13",
                "addr:postcode": "20121",
                "addr:street": "Via Alessandro Volta",
                "amenity": "pub",
                "check_date": "2024-11-12",
                "check_date:currency:XBT": "2024-09-20",
                "currency:XBT": "yes",
                "email": "info@scottduff.it",
                "image": "https://scottduff.it/img/esterno_ScottDuff.jpg",
                "internet_access": "wlan",
                "internet_access:fee": "customers",
                "internet_access:ssid": "scott_duff_EXT",
                "name": "Scott Duff",
                "opening_hours": "Mo-Su 18:00-02:00",
                "outdoor_seating": "yes",
                "payment:lightning": "yes",
                "payment:lightning_contactless": "no",
                "payment:onchain": "no",
                "phone": "+39 02 29002574",
                "ref:vatin": "IT01631310677",
                "website": "https://scottduff.it/",
                "website:menu": "https://scottduff.it/menu/",
                "wheelchair": "limited"
            }
        },
        {
            "type": "node",
            "id": 408783078,
            "lat": 45.4564731,
            "lon": 9.174639,
            "timestamp": "2023-08-27T15:19:36Z",
            "version": 7,
            "changeset": 140456407,
            "user": "fick89",
            "uid": 1781586,
            "tags": {
                "addr:city": "Milano",
                "addr:country": "IT",
                "addr:housenumber": "25",
                "addr:postcode": "20123",
                "addr:street": "Corso Genova",
                "check_date": "2023-04-16",
                "clothes": "men",
                "currency:EUR": "yes",
                "currency:XBT": "yes",
                "name": "Doppelg\u00e4nger",
                "opening_hours": "Mo-Su 10:00-20:00",
                "phone": "+39028321980",
                "shop": "clothes",
                "wheelchair": "limited"
            }
        },
        {
            "type": "node",
            "id": 428790349,
            "lat": 45.457244,
            "lon": 9.1529447,
            "timestamp": "2024-07-10T19:42:38Z",
            "version": 6,
            "changeset": 153798499,
            "user": "mauropili",
            "uid": 1496865,
            "tags": {
                "addr:city": "Milano",
                "addr:country": "IT",
                "addr:housenumber": "34",
                "addr:street": "Via Romolo Gessi",
                "check_date": "2022-12-09",
                "contact:facebook": "https://www.facebook.com/SetaBeautyItalia/",
                "contact:instagram": "https://www.instagram.com/seta_beautyclinic/",
                "contact:linkedin": "https://www.linkedin.com/company/seta-beauty/",
                "currency:XBT": "yes",
                "name": "Seta Beauty",
                "payment:lightning": "no",
                "payment:onchain": "yes",
                "phone": "+390236637286",
                "shop": "beauty",
                "website": "https://setabeauty.com/"
            }
        },
        {
            "type": "node",
            "id": 932365447,
            "lat": 45.5452176,
            "lon": 9.1185459,
            "timestamp": "2024-04-13T18:32:10Z",
            "version": 9,
            "changeset": 149964766,
            "user": "Rockedf",
            "uid": 7522075,
            "tags": {
                "addr:city": "Bollate",
                "addr:country": "IT",
                "addr:postcode": "20021",
                "addr:street": "Via Ambrogio da Bollate",
                "amenity": "pub",
                "check_date": "2024-04-13",
                "contact:email": "elbarrioloco@gmail.com",
                "currency:XBT": "yes",
                "name": "El barrio loco",
                "opening_hours": "Mo-Su 20:00-02:00",
                "operator": "mino",
                "payment:lightning": "yes",
                "payment:lightning_contactless": "no",
                "payment:onchain": "no",
                "wheelchair": "limited"
            }
        },
        {
            "type": "node",
            "id": 1123505350,
            "lat": 45.778222,
            "lon": 9.0440403,
            "timestamp": "2024-07-05T19:06:33Z",
            "version": 4,
            "changeset": 153601275,
            "user": "mauropili",
            "uid": 1496865,
            "tags": {
                "addr:city": "Montano Lucino",
                "addr:housenumber": "1",
                "addr:postcode": "22070",
                "addr:street": "Via dell'Industria",
                "brand": "Mondo Convenienza",
                "brand:wikidata": "Q55830962",
                "check_date:currency:XBT": "2023-07-31",
                "currency:XBT": "yes",
                "name": "Mondo Convenienza",
                "shop": "furniture"
            }
        },
        {
            "type": "node",
            "id": 1797393762,
            "lat": 45.305864,
            "lon": 9.508433,
            "timestamp": "2023-07-07T18:18:25Z",
            "version": 4,
            "changeset": 138239702,
            "user": "Chiarant",
            "uid": 18452174,
            "tags": {
                "addr:city": "Lodi",
                "addr:housenumber": "67",
                "addr:street": "Corso Giuseppe Mazzini",
                "check_date": "2023-07-07",
                "currency:XBT": "yes",
                "name": "Ecotaurus - Noleggio Bagni Chimici",
                "shop": "trade",
                "source": "Cartografia Provincia di Lodi",
                "website": "https://www.ecotaurus.it/"
            }
        },
        {
            "type": "node",
            "id": 1837526866,
            "lat": 45.4865374,
            "lon": 9.2161844,
            "timestamp": "2024-01-17T00:52:35Z",
            "version": 8,
            "changeset": 146343337,
            "user": "Igor Bubelov",
            "uid": 2104834,
            "tags": {
                "addr:city": "Milano",
                "addr:housenumber": "7",
                "addr:postcode": "20131",
                "addr:street": "Piazzale Loreto",
                "amenity": "pharmacy",
                "check_date:currency:XBT": "2022-10-25",
                "currency:XBT": "yes",
                "dispensing": "yes",
                "healthcare": "pharmacy",
                "name": "Loreto snc",
                "opening_hours": "Mo-Fr 08:00-19:30; Sa 08:30-13:00",
                "operator": "Dr. Greco Antonio Maria & C.",
                "ref:msal": "2887",
                "ref:vatin": "IT10703870153",
                "source": "Ministero della Salute"
            }
        },
        {
            "type": "node",
            "id": 1855676978,
            "lat": 45.4679618,
            "lon": 9.1957001,
            "timestamp": "2024-10-08T19:13:38Z",
            "version": 6,
            "changeset": 157642552,
            "user": "mpbin",
            "uid": 21850090,
            "tags": {
                "addr:city": "Milano",
                "addr:country": "IT",
                "addr:housenumber": "8",
                "addr:postcode": "20121",
                "addr:street": "Via Monte Napoleone",
                "check_date": "2024-10-08",
                "check_date:currency:XBT": "2024-10-08",
                "contact:facebook": "https://www.facebook.com/StudioSciandra/",
                "contact:phone": "+390294758880",
                "contact:twitter": "https://x.com/studiosciandra",
                "currency:XBT": "yes",
                "email": "info@studiosciandra.com",
                "name": "Studio Commercialista Sciandra & Associati",
                "office": "accountant",
                "phone": "+39 02 9475 8880",
                "website": "https://studiosciandra.com"
            }
        },
        {
            "type": "node",
            "id": 2389503405,
            "lat": 45.3536264,
            "lon": 9.6636353,
            "timestamp": "2022-11-08T07:54:20Z",
            "version": 2,
            "changeset": 128627733,
            "user": "BSN21M",
            "uid": 17441326,
            "tags": {
                "addr:city": "Crema",
                "addr:postcode": "26013",
                "addr:street": "Via Cappuccini",
                "currency:XBT": "yes",
                "name": "Matilde Parrucchiera",
                "payment:lightning": "no",
                "payment:lightning_contactless": "no",
                "payment:onchain": "yes",
                "phone": "+39 037330293",
                "shop": "hairdresser",
                "survey:date": "2022-11-08",
                "unisex": "yes",
                "website": "https://www.facebook.com/matildeparrucchiera/"
            }
        },
        {
            "type": "node",
            "id": 2543436921,
            "lat": 45.4855442,
            "lon": 9.2158565,
            "timestamp": "2024-02-19T03:37:19Z",
            "version": 5,
            "changeset": 147631932,
            "user": "Igor Bubelov",
            "uid": 2104834,
            "tags": {
                "addr:city": "Milano",
                "addr:housenumber": "77",
                "addr:postcode": "20124",
                "addr:street": "Corso Buenos Aires",
                "amenity": "fast_food",
                "check_date": "2023-11-16",
                "cuisine": "kebab",
                "currency:XBT": "yes",
                "delivery": "yes",
                "diet:vegan": "yes",
                "diet:vegetarian": "yes",
                "name": "Kebhouze",
                "payment:lightning": "yes",
                "payment:lightning_contactless": "yes",
                "payment:onchain": "yes",
                "takeaway": "yes",
                "website": "https://kebhouze.com/"
            }
        },
        {
            "type": "node",
            "id": 2622478068,
            "lat": 45.4042319,
            "lon": 9.2726917,
            "timestamp": "2023-11-06T19:12:38Z",
            "version": 9,
            "changeset": 143706807,
            "user": "b-jazz-bot",
            "uid": 9451067,
            "tags": {
                "addr:city": "San Giuliano Milanese",
                "addr:housenumber": "6b",
                "addr:postcode": "20098",
                "addr:street": "Via Parlamento",
                "check_date:currency:XBT": "2023-07-21",
                "currency:XBT": "yes",
                "name": "Pegaso Team",
                "opening_hours": "Mo 15:30-19:30; Tu-Fr 09:30-12:30,15:30-19:30; Sa 09:30-12:30,15:30-18:00",
                "operator": "David",
                "phone": "+39 02 98241666",
                "shop": "computer",
                "website": "https://pegasoteam.it/"
            }
        },
        {
            "type": "node",
            "id": 2672833169,
            "lat": 45.6656792,
            "lon": 8.9645113,
            "timestamp": "2024-07-20T20:42:54Z",
            "version": 11,
            "changeset": 154195360,
            "user": "mauropili",
            "uid": 1496865,
            "tags": {
                "addr:city": "Mozzate",
                "addr:housenumber": "160",
                "addr:postcode": "22076",
                "addr:street": "Via Varese",
                "check_date": "2023-07-07",
                "contact:facebook": "https://www.facebook.com/workshopitaly/",
                "contact:instagram": "https://www.instagram.com/workshopitaly",
                "contact:pinterest": "https://it.pinterest.com/workshopitaly/",
                "contact:twitter": "https://x.com/WORKSHOPSRL1",
                "currency:XBT": "yes",
                "description": "Vendita dei migliori marchi del settore ferramenta: Bosch professional, Beta utensili, Karcher e molti altri.",
                "name": "Work Shop s.r.l.",
                "opening_hours": "Mo-Fr 08:30-12:30,14:30-19:30; Sa 08:30-12:30,15:00-18:30",
                "phone": "+39 0331 821764",
                "shop": "hardware",
                "source": "Propietario",
                "website": "https://www.workshopitaly.net/"
            }
        },
        {
            "type": "node",
            "id": 2725051459,
            "lat": 45.4748071,
            "lon": 9.2080757,
            "timestamp": "2023-11-07T09:55:42Z",
            "version": 9,
            "changeset": 143728613,
            "user": "b-jazz-bot",
            "uid": 9451067,
            "tags": {
                "addr:city": "Milano",
                "addr:housenumber": "12",
                "addr:postcode": "20129",
                "addr:street": "Via Marcello Malpighi",
                "check_date:currency:XBT": "2023-07-21",
                "currency:XBT": "yes",
                "description": "Lo studio legale offre assistenza e consulenza legale qualificata a privati e imprese in Lombardia e nella maggior parte dei Tribunali italiani. Consulta il sito web per maggiori informazioni.",
                "name": "Studio legale avvocato Daniel Cibin",
                "office": "lawyer",
                "phone": "+39 02 87186275",
                "website": "https://www.studiocibin.com/"
            }
        },
        {
            "type": "node",
            "id": 2991405599,
            "lat": 45.4643444,
            "lon": 9.1871859,
            "timestamp": "2024-08-09T14:02:34Z",
            "version": 8,
            "changeset": 155025142,
            "user": "AnyFile",
            "uid": 113669,
            "tags": {
                "addr:city": "Milano",
                "addr:housenumber": "1",
                "addr:postcode": "20123",
                "addr:street": "Via Cesare Cant\u00f9",
                "check_date": "2024-08-01",
                "clothes": "men",
                "currency:XBT": "yes",
                "name": "Doppelg\u00e4nger",
                "phone": "0243413725",
                "shop": "clothes",
                "wheelchair": "limited"
            }
        },
        {
            "type": "node",
            "id": 3266807168,
            "lat": 45.8436193,
            "lon": 9.0120844,
            "timestamp": "2024-01-16T17:51:55Z",
            "version": 4,
            "changeset": 146333051,
            "user": "saunter",
            "uid": 10396321,
            "tags": {
                "addr:city": "Balerna",
                "addr:country": "CH",
                "addr:housenumber": "42f",
                "addr:postcode": "6828",
                "addr:street": "Via Sotto Bisio",
                "check_date:currency:XBT": "2024-01-16",
                "currency:XBT": "yes",
                "name": "Animal Service",
                "opening_hours": "Mo-Sa 09:00-18:30",
                "payment:lightning": "yes",
                "payment:onchain": "no",
                "phone": "+41 91 682 04 49",
                "shop": "pet",
                "source": "website and survey",
                "website": "https://www.animalservicegroup.com/"
            }
        },
        {
            "type": "node",
            "id": 3296329914,
            "lat": 45.8431424,
            "lon": 9.0176885,
            "timestamp": "2024-11-05T13:36:42Z",
            "version": 8,
            "changeset": 158779442,
            "user": "descubrebitcoin",
            "uid": 17565129,
            "tags": {
                "addr:city": "Morbio Inferiore",
                "addr:country": "CH",
                "addr:postcode": "6834",
                "addr:street": "Viale Serfontana",
                "amenity": "fast_food",
                "brand": "McDonald's",
                "brand:wikidata": "Q38076",
                "brand:wikipedia": "en:McDonald's",
                "check_date": "2023-01-31",
                "cuisine": "burger",
                "currency:XBT": "yes",
                "drive_through": "yes",
                "internet_access": "wlan",
                "name": "McDonald's",
                "opening_hours": "Su-Th 10:00-22:00; Fr-Sa 10:00-23:00",
                "opening_hours:drive_through": "Su-Th 10:00-23:00; Fr-Sa 10:00-24:00",
                "operator": "McDonald's",
                "outdoor_seating": "yes",
                "payment:lightning": "yes",
                "payment:lightning_contactless": "no",
                "payment:onchain": "no",
                "phone": "+41 91 682 28 78",
                "smoking": "outside",
                "takeaway": "yes",
                "website": "https://www.mcdonalds.com/ch/it-ch/location/morbio/morbio/viale-serfontana/780037.html"
            }
        },
        {
            "type": "node",
            "id": 3578770317,
            "lat": 45.4584903,
            "lon": 9.2110173,
            "timestamp": "2024-01-25T01:03:22Z",
            "version": 11,
            "changeset": 146653067,
            "user": "Igor Bubelov",
            "uid": 2104834,
            "tags": {
                "addr:city": "Milano",
                "addr:housenumber": "25",
                "addr:postcode": "20135",
                "addr:street": "Via Spartaco",
                "check_date": "2023-01-11",
                "currency:XBT": "yes",
                "name": "Davide Briani",
                "note": "Freelance Business Consultant",
                "office": "company",
                "payment:lightning": "yes",
                "payment:onchain": "yes",
                "phone": "+39 329 211 6070",
                "twitter": "https://twitter.com/briani_davide",
                "website": "https://briani.org"
            }
        },
        {
            "type": "node",
            "id": 3851716961,
            "lat": 45.6117344,
            "lon": 8.8519204,
            "timestamp": "2023-12-12T15:11:12Z",
            "version": 6,
            "changeset": 145042115,
            "user": "Rockedf",
            "uid": 7522075,
            "tags": {
                "addr:city": "Busto Arsizio",
                "addr:housenumber": "5",
                "addr:postcode": "21052",
                "addr:street": "Piazza San Giovanni",
                "check_date": "2023-08-26",
                "check_date:currency:XBT": "2023-12-12",
                "clothes": "men",
                "currency:XBT": "yes",
                "name": "DOPPELG\u00c4NGER",
                "phone": "0331808395",
                "shop": "clothes"
            }
        },
        {
            "type": "node",
            "id": 3991747275,
            "lat": 45.4563112,
            "lon": 9.1950412,
            "timestamp": "2024-10-12T13:16:14Z",
            "version": 5,
            "changeset": 157795439,
            "user": "Rockedf",
            "uid": 7522075,
            "tags": {
                "addr:city": "Milano",
                "addr:country": "IT",
                "addr:housenumber": "80",
                "addr:postcode": "20122",
                "addr:street": "Corso di Porta Romana",
                "amenity": "cafe",
                "check_date": "2023-09-04",
                "check_date:currency:XBT": "2024-10-12",
                "currency:XBT": "yes",
                "email": "ilcaffedellaterradiportaromana@gmail.com",
                "name": "Il Caff\u00e8 della Terra di P.ta Romana",
                "phone": "02 8348 0866",
                "website": "https://caffeterra.com"
            }
        },
        {
            "type": "node",
            "id": 4223539909,
            "lat": 45.5638168,
            "lon": 9.0539935,
            "timestamp": "2024-01-25T09:46:21Z",
            "version": 4,
            "changeset": 146665297,
            "user": "Igor Bubelov",
            "uid": 2104834,
            "tags": {
                "addr:city": "Arese",
                "addr:housenumber": "11",
                "addr:postcode": "20020",
                "addr:street": "Viale Giuseppe Eugenio Luraghi",
                "check_date": "2023-04-05",
                "clothes": "men",
                "currency:XBT": "yes",
                "level": "1",
                "name": "Nuvolari c.c. Il Centro Arese",
                "payment:lightning": "no",
                "payment:lightning_contactless": "no",
                "payment:onchain": "yes",
                "phone": "0209959241",
                "shop": "clothes"
            }
        },
        {
            "type": "node",
            "id": 4580735592,
            "lat": 45.3975095,
            "lon": 9.2611814,
            "timestamp": "2023-11-17T22:16:26Z",
            "version": 5,
            "changeset": 144156837,
            "user": "toponomastica_comune_arenzano",
            "uid": 14257573,
            "tags": {
                "addr:city": "San Giuliano Milanese",
                "addr:country": "IT",
                "addr:housenumber": "13a",
                "addr:postcode": "20098",
                "addr:street": "Via della Liberazione",
                "brand": "Mondo Convenienza",
                "brand:wikidata": "Q55830962",
                "check_date:currency:XBT": "2023-07-31",
                "currency:XBT": "yes",
                "name": "Mondo Convenienza",
                "shop": "furniture"
            }
        },
        {
            "type": "node",
            "id": 4708357239,
            "lat": 45.4903659,
            "lon": 9.2037822,
            "timestamp": "2024-10-11T20:29:59Z",
            "version": 7,
            "changeset": 157772606,
            "user": "mpbin",
            "uid": 21850090,
            "tags": {
                "addr:city": "Milano",
                "addr:housenumber": "14",
                "addr:postcode": "20125",
                "addr:street": "Via Giovanni Schiaparelli",
                "amenity": "pub",
                "check_date": "2024-03-16",
                "currency:XBT": "yes",
                "email": "partnerships@niksandco.it",
                "name": "Nik's & Co",
                "opening_hours": "Mo-Sa 07:00-02:00",
                "payment:bitcoin:operator": "inbitcoin.it",
                "website": "https://niksandco.it/"
            }
        },
        {
            "type": "node",
            "id": 4851406430,
            "lat": 45.463958,
            "lon": 9.1785032,
            "timestamp": "2024-08-27T12:48:50Z",
            "version": 4,
            "changeset": 155830481,
            "user": "Tobias235",
            "uid": 14827393,
            "tags": {
                "addr:city": "Milano",
                "addr:country": "IT",
                "addr:housenumber": "19",
                "addr:postcode": "20123",
                "addr:street": "Via Nirone",
                "amenity": "restaurant",
                "check_date": "2024-03-20",
                "currency:XBT": "yes",
                "email": "milano@organya.it",
                "name": "Organya - The Italian Bowl",
                "operational_status": "closed",
                "phone": "+39 02 52516916",
                "website": "https://www.organya.it/"
            }
        },
        {
            "type": "node",
            "id": 4864389514,
            "lat": 45.4835181,
            "lon": 9.1612968,
            "timestamp": "2024-07-20T21:13:50Z",
            "version": 4,
            "changeset": 154196278,
            "user": "mauropili",
            "uid": 1496865,
            "tags": {
                "addr:city": "Milano",
                "addr:country": "IT",
                "addr:housenumber": "63",
                "addr:postcode": "20149",
                "addr:street": "Corso Sempione",
                "check_date": "2022-12-08",
                "contact:facebook": "https://www.facebook.com/SetaBeautyItalia/",
                "contact:instagram": "https://www.instagram.com/seta_beautyclinic/",
                "contact:linkedin": "https://www.linkedin.com/company/seta-beauty/",
                "currency:XBT": "yes",
                "name": "Seta Beauty",
                "opening_hours": "Mo-Fr 08:00-20:00, Sa 08:00-18:00",
                "payment:lightning": "yes",
                "payment:onchain": "yes",
                "phone": "+393756370904",
                "shop": "beauty",
                "website": "https://setabeauty.com/index.php"
            }
        },
        {
            "type": "node",
            "id": 5160943921,
            "lat": 45.6324892,
            "lon": 9.010672,
            "timestamp": "2023-07-07T17:53:06Z",
            "version": 4,
            "changeset": 138238845,
            "user": "Chiarant",
            "uid": 18452174,
            "tags": {
                "addr:city": "Gerenzano",
                "addr:housenumber": "74b",
                "addr:postcode": "21040",
                "addr:street": "Via Giovanni Pascoli",
                "check_date": "2023-07-07",
                "currency:XBT": "yes",
                "description": "Azienda specializzata nel noleggio di bagni chimici per cantieri ed eventi.",
                "name": "Ecotaurus noleggio bagni chimici",
                "phone": "+39 800 593 261",
                "shop": "equipment_rental",
                "website": "https://www.ecotaurus.it/"
            }
        },
        {
            "type": "node",
            "id": 5236284942,
            "lat": 45.5567042,
            "lon": 8.9462721,
            "timestamp": "2024-10-10T20:56:52Z",
            "version": 8,
            "changeset": 157733119,
            "user": "mpbin",
            "uid": 21850090,
            "tags": {
                "addr:city": "Parabiago",
                "addr:country": "IT",
                "addr:housenumber": "77",
                "addr:postcode": "20015",
                "addr:street": "Via Sant'Antonio",
                "amenity": "social_facility",
                "check_date": "2023-05-06",
                "contact:phone": "+39 393 8032957",
                "currency:XBT": "yes",
                "email": "parabiago@assixto.it",
                "healthcare": "hospital",
                "healthcare:speciality": "general;community",
                "name": "Assixto Parabiago",
                "opening_hours": "Mo-Fr 09:00-12:30, 15:00-18:00",
                "payment:credit_cards": "yes",
                "social_facility": "day_care",
                "website": "http://www.assixto.it/assixto-parabiago-mi/"
            }
        },
        {
            "type": "node",
            "id": 5242726285,
            "lat": 45.4744801,
            "lon": 9.2066824,
            "timestamp": "2024-09-27T13:19:13Z",
            "version": 8,
            "changeset": 157171026,
            "user": "mpbin",
            "uid": 21850090,
            "tags": {
                "addr:city": "Milano",
                "addr:housenumber": "1",
                "addr:postcode": "20129",
                "addr:street": "Via Marcello Malpighi",
                "check_date": "2024-09-27",
                "check_date:currency:XBT": "2024-09-27",
                "currency:XBT": "yes",
                "description": "Consulenti Tecnologici, Sicurezza, Privacy , Android, Apple, MAC, WIN. Assistenza Computer 24/24",
                "email": "info@aztecnologia.it",
                "name": "AZ Tecnologia",
                "office": "it"
            }
        },
        {
            "type": "node",
            "id": 5287820724,
            "lat": 45.596133,
            "lon": 8.911783,
            "timestamp": "2023-07-08T10:08:34Z",
            "version": 2,
            "changeset": 138257722,
            "user": "Chiarant",
            "uid": 18452174,
            "tags": {
                "addr:city": "Legnano",
                "addr:housenumber": "10",
                "addr:postcode": "20025",
                "addr:street": "Via Fratelli Cairoli",
                "check_date": "2023-07-07",
                "currency:XBT": "yes",
                "description": "Studio osteopatico: osteopatia, valutazione posturale.",
                "email": "laboratorioposturale@hotmail.com",
                "healthcare": "physiotherapist",
                "healthcare:speciality": "osteopathy",
                "name": "Osteopatia Dallera",
                "phone": "+39 3491615664",
                "website": "https://osteopatiadallera.com"
            }
        },
        {
            "type": "node",
            "id": 5320104524,
            "lat": 45.6086573,
            "lon": 9.2373644,
            "timestamp": "2023-11-09T19:05:35Z",
            "version": 4,
            "changeset": 143835788,
            "user": "b-jazz-bot",
            "uid": 9451067,
            "tags": {
                "addr:city": "Lissone",
                "addr:housenumber": "37",
                "addr:postcode": "20851",
                "addr:street": "Via Carlo Besozzi",
                "check_date": "2023-04-24",
                "contact:instagram": "https://www.instagram.com/xxmiglia_lissone/",
                "currency:XBT": "yes",
                "description": "Componenti informatici, cartucce e toner.",
                "email": "filippo@xxmigliasnc.it",
                "name": "XXMIGLIA s.n.c.",
                "phone": "+39 0392450064",
                "shop": "computer",
                "website": "https://www.xxmigliasnc.it/"
            }
        },
        {
            "type": "node",
            "id": 5331147423,
            "lat": 45.504733,
            "lon": 9.135354,
            "timestamp": "2023-07-10T18:52:52Z",
            "version": 2,
            "changeset": 138349982,
            "user": "Chiarant",
            "uid": 18452174,
            "tags": {
                "addr:city": "Milano",
                "addr:housenumber": "9",
                "addr:postcode": "20156",
                "addr:street": "Via Angelo Brunetti",
                "amenity": "taxi",
                "check_date": "2023-07-10",
                "currency:XBT": "yes",
                "description": "Servizio di chiamata rapida e prenotazione taxi.",
                "email": "info@etaxi.it",
                "name": "RadioTaxi 02.5353",
                "note": "Per pagare in Bitcoin bisogna fare l'abbonamento",
                "phone": "+39 025353",
                "website": "https://www.025353.it/"
            }
        },
        {
            "type": "node",
            "id": 5351518575,
            "lat": 45.3020694,
            "lon": 9.7554851,
            "timestamp": "2024-06-18T11:33:47Z",
            "version": 11,
            "changeset": 152844218,
            "user": "descubrebitcoin",
            "uid": 17565129,
            "tags": {
                "addr:city": "Castelleone",
                "addr:housenumber": "9",
                "addr:postcode": "26012",
                "addr:street": "Via Mariani",
                "amenity": "dentist",
                "check_date:currency:XBT": "2018-01-20",
                "currency:XBT": "yes",
                "email": "mar_anti@yahoo.it",
                "healthcare": "dentist",
                "healthcare:speciality": "orthodontics",
                "name": "Studio dentistico dott. Marco Antinori",
                "operator": "Dott. Marco Antinori",
                "payment:litecoin": "yes",
                "phone": "+39 037457727",
                "website": "http://studioantinori.com"
            }
        },
        {
            "type": "node",
            "id": 5450826058,
            "lat": 45.4911995,
            "lon": 9.2213541,
            "timestamp": "2024-10-11T20:19:09Z",
            "version": 4,
            "changeset": 157772306,
            "user": "mpbin",
            "uid": 21850090,
            "tags": {
                "addr:city": "Milano",
                "addr:country": "IT",
                "addr:housenumber": "8",
                "addr:postcode": "20127",
                "addr:street": "Via Marco Aurelio",
                "amenity": "university",
                "check_date": "2022-12-10",
                "currency:XBT": "yes",
                "email": "info@investmentacademy.it",
                "name": "Investment Academy",
                "payment:lightning": "yes",
                "payment:onchain": "yes",
                "phone": "+390240031282",
                "website": "https://investmentacademy.it/"
            }
        },
        {
            "type": "node",
            "id": 5450827959,
            "lat": 45.4530527,
            "lon": 9.1712425,
            "timestamp": "2024-09-12T12:48:28Z",
            "version": 5,
            "changeset": 156527137,
            "user": "Rockedf",
            "uid": 7522075,
            "tags": {
                "addr:city": "Milano",
                "addr:country": "IT",
                "addr:housenumber": "41",
                "addr:postcode": "20144",
                "addr:street": "Via Vigevano",
                "amenity": "fast_food",
                "check_date": "2023-11-16",
                "check_date:currency:XBT": "2024-09-12",
                "cuisine": "kebab",
                "currency:XBT": "yes",
                "name": "Kebhouze - Porta Genova",
                "payment:lightning": "yes",
                "payment:lightning_contactless": "yes",
                "payment:onchain": "yes",
                "website": "https://kebhouze.com/"
            }
        },
        {
            "type": "node",
            "id": 5611537167,
            "lat": 45.8314524,
            "lon": 9.0357271,
            "timestamp": "2023-07-10T18:35:45Z",
            "version": 6,
            "changeset": 138349423,
            "user": "Chiarant",
            "uid": 18452174,
            "tags": {
                "addr:city": "Como",
                "addr:housenumber": "331",
                "addr:postcode": "22100",
                "addr:street": "Via Bellinzona",
                "amenity": "fast_food",
                "check_date": "2023-07-10",
                "cuisine": "piadina;romagnola",
                "currency:XBT": "yes",
                "name": "La Caveja",
                "payment:revolut": "yes",
                "phone": "+39 3738459173"
            }
        },
        {
            "type": "node",
            "id": 5759888797,
            "lat": 45.4795895,
            "lon": 9.146027,
            "timestamp": "2024-07-05T19:33:33Z",
            "version": 5,
            "changeset": 153602122,
            "user": "mauropili",
            "uid": 1496865,
            "tags": {
                "addr:city": "Milano",
                "addr:housenumber": "18",
                "addr:postcode": "20149",
                "addr:street": "Via Masaccio",
                "amenity": "bar",
                "check_date:currency:XBT": "2023-03-14",
                "currency:XBT": "yes",
                "name": "City Life Cafe"
            }
        },
        {
            "type": "node",
            "id": 5999727438,
            "lat": 45.4802534,
            "lon": 9.2135489,
            "timestamp": "2024-08-31T17:27:40Z",
            "version": 6,
            "changeset": 156025691,
            "user": "mpbin",
            "uid": 21850090,
            "tags": {
                "addr:city": "Milano",
                "addr:housenumber": "39",
                "addr:postcode": "20129",
                "addr:street": "Via Giovanni Battista Morgagni",
                "amenity": "pharmacy",
                "check_date": "2022-12-20",
                "contact:facebook": "https://www.facebook.com/pharmalite",
                "contact:instagram": "https://www.instagram.com/pharmalite_/",
                "contact:linkedin": "https://www.linkedin.com/company/pharmalite/",
                "contact:telegram": "https://telegram.me/Pharmalite_onlinePharmacy",
                "contact:twitter": "https://x.com/LitePharma",
                "currency:XBT": "yes",
                "dispensing": "no",
                "email": "direzione@pharmalite.com",
                "healthcare": "pharmacy",
                "name": "Parafarmacia PharmaLite",
                "payment:lightning": "yes",
                "payment:onchain": "yes",
                "phone": "+393393841753",
                "ref:msal": "007996",
                "ref:vatin": "IT05564660966",
                "website": "https://pharmalite.com/"
            }
        },
        {
            "type": "node",
            "id": 6175091666,
            "lat": 45.5586796,
            "lon": 9.2650455,
            "timestamp": "2024-10-07T21:06:39Z",
            "version": 7,
            "changeset": 157599486,
            "user": "mpbin",
            "uid": 21850090,
            "tags": {
                "addr:city": "Monza",
                "addr:housenumber": "20",
                "addr:postcode": "20900",
                "addr:street": "Via Solone",
                "check_date": "2024-10-07",
                "check_date:currency:XBT": "2024-10-07",
                "contact:facebook": "https://www.facebook.com/PalextraMonza/",
                "contact:instagram": "https://www.instagram.com/palextra_monza",
                "currency:XBT": "yes",
                "description": "Palextra Monza A.S.D. Training Center \u00e8 la palestra di Monza che accetta pagamenti in bitcoin tramite BtcPay Server, sia on-chain che Lightning Network.",
                "email": "contabilitapalextra@gmail.com",
                "leisure": "fitness_centre",
                "mobile": "+390398963394",
                "name": "Palextra Monza A.S.D. Training Center",
                "opening_hours": "Mo-Fr 08:30-21:30; Sa 09:00-18:00; Su 09:00-12:30",
                "payment:lightning": "yes",
                "payment:onchain": "yes",
                "website": "https://palextramonza.it"
            }
        },
        {
            "type": "node",
            "id": 6236532945,
            "lat": 45.443859,
            "lon": 9.208082,
            "timestamp": "2024-05-15T09:41:41Z",
            "version": 4,
            "changeset": 151350082,
            "user": "descubrebitcoin",
            "uid": 17565129,
            "tags": {
                "addr:city": "Milano",
                "addr:housenumber": "6",
                "addr:postcode": "20139",
                "addr:street": "Via Arcivescovo Calabiana",
                "amenity": "atm",
                "cash_in": "yes",
                "cash_out": "no",
                "cash_withdrawal": "no",
                "check_date": "2024-05-15",
                "check_date:currency:XBT": "2022-12-28",
                "currency:EUR": "yes",
                "currency:XBT": "yes",
                "description": "Bitcoin ATM di Chainblock, situato all'interno di Talent Garden.",
                "email": "info@chainblock.it",
                "manufacturer": "General Bytes",
                "name": "Chainblock ATM",
                "operator": "Chainblock",
                "payment:cash": "yes",
                "payment:lightning": "no",
                "payment:lightning_contactless": "no",
                "payment:onchain": "yes",
                "url": "https://coinatmradar.com/bitcoin_atm/3089/bitcoin-atm-general-bytes-milan-talent-garden-milano-calabiana/",
                "website": "https://chainblock.it/atm/"
            }
        },
        {
            "type": "node",
            "id": 6303323756,
            "lat": 45.6002866,
            "lon": 9.1563207,
            "timestamp": "2023-11-09T19:02:24Z",
            "version": 7,
            "changeset": 143835666,
            "user": "b-jazz-bot",
            "uid": 9451067,
            "tags": {
                "addr:city": "Varedo",
                "addr:housenumber": "3",
                "addr:postcode": "20814",
                "addr:street": "Via Monte Tomba",
                "check_date": "2023-07-08",
                "currency:XBT": "yes",
                "description": "Mercatino dell'usato che ritira e vende merce selezionata e di qualit\u00e0.",
                "email": "web@domusluxuryevintage.it",
                "name": "Mercatino usato \"Domus luxury e vintage\"",
                "phone": "+39 3383773838",
                "shop": "second_hand",
                "website": "https://www.domusluxuryevintage.it/"
            }
        },
        {
            "type": "node",
            "id": 6347045135,
            "lat": 45.487452,
            "lon": 9.202572,
            "timestamp": "2023-07-10T19:00:14Z",
            "version": 3,
            "changeset": 138350247,
            "user": "Chiarant",
            "uid": 18452174,
            "tags": {
                "addr:city": "Milano",
                "addr:housenumber": "7",
                "addr:postcode": "20124",
                "addr:street": "Piazza Quattro Novembre",
                "check_date": "2023-07-10",
                "currency:XBT": "yes",
                "description": "Agenzia investigativa, da oltre 50 anni servizi di indagini per privati e aziende. Diretta dal dott. M. Cali\u00f2. Ufficio di consulenza di Milano.",
                "email": "info@europolnovara.com",
                "name": "Europol Investigazioni dal 1962",
                "office": "private_investigator",
                "phone": "+39 320 7413358",
                "website": "https://www.investigatore-privato-milano.com"
            }
        },
        {
            "type": "node",
            "id": 6364602493,
            "lat": 45.4088298,
            "lon": 9.1142842,
            "timestamp": "2024-07-05T19:34:45Z",
            "version": 4,
            "changeset": 153602163,
            "user": "mauropili",
            "uid": 1496865,
            "tags": {
                "addr:city": "Buccinasco",
                "addr:housenumber": "13 19",
                "addr:postcode": "20090",
                "addr:street": "Largo Luigi Brugnatelli",
                "craft": "carpenter",
                "currency:XBT": "yes",
                "name": "Falegnameria Artigianale Wood",
                "survey:date": "2022-11-03",
                "website": "https://www.woodmilano.it/"
            }
        },
        {
            "type": "node",
            "id": 6852717735,
            "lat": 45.481093,
            "lon": 9.1728847,
            "timestamp": "2024-05-26T10:04:12Z",
            "version": 4,
            "changeset": 151843666,
            "user": "CJJ2501",
            "uid": 8922202,
            "tags": {
                "addr:city": "Milano",
                "addr:housenumber": "53",
                "addr:postcode": "20154",
                "addr:street": "Via Paolo Sarpi",
                "amenity": "fast_food",
                "check_date": "2024-05-26",
                "cuisine": "kebab",
                "currency:XBT": "yes",
                "name": "Kebhouze",
                "payment:lightning": "yes",
                "payment:lightning_contactless": "yes",
                "payment:onchain": "yes",
                "website": "https://kebhouze.com/"
            }
        },
        {
            "type": "node",
            "id": 6862516941,
            "lat": 45.5025081,
            "lon": 9.1819523,
            "timestamp": "2024-09-28T12:44:02Z",
            "version": 4,
            "changeset": 157209027,
            "user": "Rockedf",
            "uid": 7522075,
            "tags": {
                "addr:city": "Milano",
                "addr:housenumber": "22",
                "addr:postcode": "20159",
                "addr:street": "Via Carlo Imbonati",
                "amenity": "restaurant",
                "check_date": "2024-03-12",
                "check_date:currency:XBT": "2024-09-28",
                "contact:facebook": "https://www.facebook.com/MammaFarina/",
                "contact:instagram": "https://www.instagram.com/mammafarinamilano/",
                "currency:XBT": "yes",
                "name": "Mamma Farina",
                "opening_hours": "Mo-Fr 12:00-15:30,19:00-23:00; Sa 19:00-23:30",
                "payment:lightning": "yes",
                "payment:lightning_contactless": "no",
                "payment:onchain": "yes",
                "website": "https://www.mammafarina.it/"
            }
        },
        {
            "type": "node",
            "id": 6961538410,
            "lat": 45.2942693,
            "lon": 9.7636712,
            "timestamp": "2023-11-03T20:49:15Z",
            "version": 5,
            "changeset": 143591052,
            "user": "b-jazz-bot",
            "uid": 9451067,
            "tags": {
                "addr:city": "Castelleone",
                "addr:housenumber": "5",
                "addr:postcode": "26012",
                "addr:street": "Via Garibaldi",
                "air_conditioning": "yes",
                "check_date:currency:XBT": "2022-12-09",
                "craft": "photographer",
                "currency:XBT": "yes",
                "email": "info@fotorizzotti.it",
                "internet_access": "wlan",
                "name": "Foto Rizzotti",
                "payment:lightning": "yes",
                "payment:onchain": "yes",
                "phone": "+39 0374350151",
                "website": "https://www.fotorizzotti.it/",
                "wheelchair": "yes"
            }
        },
        {
            "type": "node",
            "id": 7040170285,
            "lat": 45.6940802,
            "lon": 9.6593869,
            "timestamp": "2024-10-10T21:13:55Z",
            "version": 16,
            "changeset": 157733620,
            "user": "mpbin",
            "uid": 21850090,
            "tags": {
                "addr:city": "Bergamo",
                "addr:housenumber": "7",
                "addr:postcode": "24128",
                "addr:street": "Via Francesco Nullo",
                "addr:unit": "a",
                "amenity": "restaurant",
                "contact:facebook": "https://www.facebook.com/risi.co.bergamo/",
                "cuisine": "italian;coffee_shop",
                "currency:XBT": "yes",
                "email": "info@osteriarisico.it",
                "name": "Osteria Risi.co",
                "opening_hours": "Mo 11:30-15:30,18:00-24:30; Tu-Fr 18:00-24:30,18:00-24:30; Sa-Su 12:00-15:00,18:00-24:30",
                "payment:bancomat": "yes",
                "payment:cash": "yes",
                "payment:lightning": "yes",
                "phone": "+39 035217732",
                "survey:date": "2023-05-01",
                "website": "http://www.osteriarisico.it"
            }
        },
        {
            "type": "node",
            "id": 7139715638,
            "lat": 45.4687483,
            "lon": 9.1526145,
            "timestamp": "2024-03-20T18:29:35Z",
            "version": 3,
            "changeset": 148928694,
            "user": "Chiarant",
            "uid": 18452174,
            "tags": {
                "addr:city": "Milano",
                "addr:housenumber": "14",
                "addr:street": "Via Raffaello Sanzio",
                "amenity": "restaurant",
                "check_date": "2024-03-20",
                "currency:XBT": "yes",
                "email": "sanzio@organya.it",
                "name": "Organya - The Italian Bowl",
                "phone": "+39  02 38316982",
                "website": "https://www.organya.it/"
            }
        },
        {
            "type": "node",
            "id": 7206271085,
            "lat": 45.4836041,
            "lon": 9.2301553,
            "timestamp": "2024-06-11T20:19:45Z",
            "version": 6,
            "changeset": 152560504,
            "user": "Rockedf",
            "uid": 7522075,
            "tags": {
                "addr:city": "Milano",
                "addr:housenumber": "12",
                "addr:postcode": "20131",
                "addr:street": "Via Teodosio",
                "amenity": "atm",
                "branch": "Milano",
                "cash_in": "yes",
                "cash_out": "yes",
                "cash_withdrawal": "yes",
                "check_date": "2024-01-03",
                "contact:email": "support@shitcoins.club",
                "contact:facebook": "https://www.facebook.com/shitcoins.club",
                "contact:instagram": "https://www.instagram.com/shitcoinsclub",
                "contact:telegram": "https://t.me/shitcoinsclub",
                "contact:twitter": "https://twitter.com/BitomatCom",
                "currency:CHF": "yes",
                "currency:DASH": "yes",
                "currency:ETH": "yes",
                "currency:EUR": "yes",
                "currency:GBP": "yes",
                "currency:HUF": "yes",
                "currency:LTC": "yes",
                "currency:RON": "yes",
                "currency:USD": "yes",
                "currency:USDC": "yes",
                "currency:USDT": "yes",
                "currency:XBT": "yes",
                "indoor": "yes",
                "level": "0",
                "name": "Bitcoin ATM - Shitcoins.club",
                "opening_hours": "24/7",
                "operator": "Shitcoins.club",
                "payment:cash": "yes",
                "payment:onchain": "yes",
                "phone": "+39 34 8048 7308",
                "start_date": "2019-12-18",
                "url": "https://coinatmradar.com/bitcoin_atm/10875/bitcoin-atm-shitcoins-club-milan-punto-atm-bitcoin/",
                "website": "https://shitcoins.club/localizzazione-atm/atm-bitcoin-milano-via-teodosio"
            }
        },
        {
            "type": "node",
            "id": 7551174343,
            "lat": 45.875802,
            "lon": 8.9869489,
            "timestamp": "2024-07-18T21:30:54Z",
            "version": 7,
            "changeset": 154119514,
            "user": "paulbrunner",
            "uid": 15541433,
            "tags": {
                "addr:city": "Mendrisio",
                "addr:country": "CH",
                "addr:housenumber": "25",
                "addr:postcode": "6850",
                "addr:street": "Via Carlo Pasta",
                "check_date:currency:XBT": "2024-01-16",
                "currency:XBT": "yes",
                "email": "info@z-bike.ch",
                "name": "Z-BIKE",
                "opening_hours": "We-Fr 09:00-13:00, 14:00-18:00; Sa 09:00-15:00;PH off",
                "operator": "Z-BIKE",
                "payment:lightning": "yes",
                "payment:onchain": "no",
                "phone": "+41 91 840 12 02",
                "service:bicycle:repair": "yes",
                "service:bicycle:retail": "yes",
                "shop": "bicycle",
                "website": "https://z-bike.ch/"
            }
        },
        {
            "type": "node",
            "id": 7985349866,
            "lat": 45.4312724,
            "lon": 9.2017584,
            "timestamp": "2024-04-14T08:27:09Z",
            "version": 4,
            "changeset": 149981162,
            "user": "Chiarant",
            "uid": 18452174,
            "tags": {
                "addr:city": "Milano",
                "addr:housenumber": "207",
                "addr:postcode": "20141",
                "addr:street": "Via Giuseppe Ripamonti",
                "amenity": "atm",
                "check_date": "2024-04-14",
                "currency:XBT": "yes",
                "description": "Bitcoin ATM che permette di acquistare Bitcoin, Ethereum, Litecoin, Dogecoin, Bitcoin Cash, Dash, Monero. L'ATM \u00e8 situato all'interno del negozio Euroumby SAS.",
                "email": "support@cryptolocalatm.com",
                "name": "CryptoLocalATM C/o Euroumby SAS",
                "website": "https://cryptolocalatm.com"
            }
        },
        {
            "type": "node",
            "id": 8236380472,
            "lat": 45.5529713,
            "lon": 8.9539794,
            "timestamp": "2024-10-22T12:24:00Z",
            "version": 2,
            "changeset": 158209321,
            "user": "Rockedf",
            "uid": 7522075,
            "tags": {
                "addr:city": "Nerviano",
                "addr:housenumber": "122",
                "addr:postcode": "20015",
                "addr:street": "Via Santa Maria",
                "amenity": "ice_cream",
                "check_date": "2024-10-22",
                "currency:XBT": "yes",
                "name": "Officina del gelato",
                "payment:lightning": "yes",
                "payment:lightning_contactless": "yes",
                "payment:onchain": "yes",
                "phone": "+39 03 3155 1293"
            }
        },
        {
            "type": "node",
            "id": 8288630965,
            "lat": 45.6920266,
            "lon": 9.6726737,
            "timestamp": "2023-09-15T11:09:59Z",
            "version": 3,
            "changeset": 141297857,
            "user": "morsi",
            "uid": 139580,
            "tags": {
                "addr:housenumber": "104",
                "addr:postcode": "24121",
                "addr:street": "Viale Papa Giovanni Ventitreesimo",
                "amenity": "bank",
                "atm": "yes",
                "check_date": "2023-09-15",
                "currency:XBT": "yes",
                "name": "BCC Milano",
                "website": "https://www.ecotaurus.it/",
                "wheelchair": "yes"
            }
        },
        {
            "type": "node",
            "id": 8419981910,
            "lat": 45.4671186,
            "lon": 9.1588398,
            "timestamp": "2024-02-19T04:34:23Z",
            "version": 6,
            "changeset": 147632920,
            "user": "Igor Bubelov",
            "uid": 2104834,
            "tags": {
                "addr:city": "Milano",
                "addr:country": "IT",
                "addr:housenumber": "6a",
                "addr:postcode": "20145",
                "addr:street": "Via Belfiore",
                "check_date": "2023-03-27",
                "check_date:opening_hours": "2023-02-12",
                "clothes": "men",
                "currency:XBT": "yes",
                "name": "Doppelg\u00e4nger",
                "opening_hours": "Mo-Su 10:00-20:00",
                "opening_hours:signed": "no",
                "payment:lightning": "no",
                "payment:lightning_contactless": "no",
                "payment:onchain": "yes",
                "phone": "02437237",
                "shop": "clothes"
            }
        },
        {
            "type": "node",
            "id": 8460786530,
            "lat": 45.5222014,
            "lon": 9.2164337,
            "timestamp": "2024-07-07T08:02:23Z",
            "version": 7,
            "changeset": 153650152,
            "user": "mauropili",
            "uid": 1496865,
            "tags": {
                "addr:city": "Milano",
                "addr:housenumber": "4",
                "addr:postcode": "20126",
                "addr:street": "Via Chiese",
                "amenity": "atm",
                "cash_in": "yes",
                "check_date": "2024-04-20",
                "covered": "yes",
                "currency:XBT": "yes",
                "drive_through": "no",
                "indoor": "yes",
                "level": "1",
                "name": "Bitcoin ATM - Shitcoins.club",
                "operator": "shitcoins.club",
                "website": "https://shitcoins.club/localizzazione-atm/atm-bitcoin-milano-bicocca-village",
                "wikimedia_commons": "File:Bitcoin ATM in Bicocca Village.jpg"
            }
        },
        {
            "type": "node",
            "id": 8661356185,
            "lat": 45.4711281,
            "lon": 9.1562621,
            "timestamp": "2023-02-26T10:50:54Z",
            "version": 3,
            "changeset": 133036844,
            "user": "perpetual nomad",
            "uid": 17199501,
            "tags": {
                "addr:city": "Milano",
                "addr:housenumber": "5",
                "addr:street": "Via Tiziano",
                "amenity": "bar",
                "check_date:currency:XBT": "2023-02-26",
                "currency:XBT": "yes",
                "name": "Bar Ros"
            }
        },
        {
            "type": "node",
            "id": 8753174032,
            "lat": 45.6229994,
            "lon": 9.7675411,
            "timestamp": "2023-11-05T20:26:08Z",
            "version": 6,
            "changeset": 143665115,
            "user": "Mannivu",
            "uid": 1950277,
            "tags": {
                "amenity": "taxi",
                "check_date:currency:XBT": "2023-07-21",
                "currency:XBT": "yes",
                "email": "easytransfer.bg@gmail.com",
                "name": "Easytransfer Ncc",
                "phone": "+39 379 156 3588",
                "website": "https://www.easytransferbergamo.it"
            }
        },
        {
            "type": "node",
            "id": 8820954622,
            "lat": 45.4728829,
            "lon": 9.2139454,
            "timestamp": "2024-04-14T08:30:41Z",
            "version": 4,
            "changeset": 149981288,
            "user": "Chiarant",
            "uid": 18452174,
            "tags": {
                "addr:city": "Milano",
                "addr:housenumber": "47",
                "addr:postcode": "20129",
                "addr:street": "Via Nino Bixio",
                "amenity": "atm",
                "check_date": "2024-04-14",
                "currency:XBT": "yes",
                "description": "Bitcoin ATM che permette di acquistare Bitcoin, Ethereum, Litecoin, Dogecoin, Bitcoin Cash, Dash, Monero. L'ATM \u00e8 situato all'interno del negozio WOWBIT.",
                "email": "support@cryptolocalatm.com",
                "name": "CryptoLocalATM c/o WOWBIT",
                "payment:onchain": "yes",
                "phone": "+447894438974",
                "website": "https://cryptolocalatm.com"
            }
        },
        {
            "type": "node",
            "id": 8953557082,
            "lat": 45.4536509,
            "lon": 9.2001468,
            "timestamp": "2024-01-06T17:40:12Z",
            "version": 4,
            "changeset": 145965647,
            "user": "descubrebitcoin",
            "uid": 17565129,
            "tags": {
                "addr:city": "Milano",
                "addr:housenumber": "114",
                "addr:postcode": "20122",
                "addr:street": "Corso di Porta Romana",
                "beauty": "nails",
                "check_date": "2022-12-08",
                "currency:XBT": "yes",
                "name": "Seta Beauty",
                "opening_hours": "Mo-Tu 09:30-20:00; We-Fr 08:00-20:00, Sa 08:00-19:00",
                "payment:lightning": "yes",
                "payment:onchain": "yes",
                "phone": "+390236576527",
                "shop": "beauty"
            }
        },
        {
            "type": "node",
            "id": 9308132564,
            "lat": 45.4931467,
            "lon": 9.1913046,
            "timestamp": "2024-04-14T08:40:00Z",
            "version": 4,
            "changeset": 149981629,
            "user": "Chiarant",
            "uid": 18452174,
            "tags": {
                "addr:city": "Milano",
                "addr:housenumber": "16",
                "addr:postcode": "20159",
                "addr:street": "Viale Stelvio",
                "amenity": "atm",
                "check_date": "2024-04-14",
                "currency:XBT": "yes",
                "description": "Bitcoin ATM che permette di acquistare Bitcoin, Ethereum, Litecoin, Dogecoin, Bitcoin Cash, Dash, Monero, Dai, Ripple e USDT. L'ATM \u00e8 situato all'interno dell'azienda CR CONSULER SERVICE",
                "email": "support@cryptolocalatm.com",
                "name": "CryptoLocalATM c/o CR Consuler Services",
                "payment:onchain": "yes",
                "phone": "+447894438974",
                "website": "https://cryptolocalatm.com"
            }
        },
        {
            "type": "node",
            "id": 9461841472,
            "lat": 45.4375121,
            "lon": 9.1587881,
            "timestamp": "2024-05-16T11:46:45Z",
            "version": 2,
            "changeset": 151404081,
            "user": "Chiarant",
            "uid": 18452174,
            "tags": {
                "addr:city": "Milano",
                "addr:housenumber": "31",
                "addr:postcode": "20142",
                "addr:street": "Viale Famagosta",
                "check_date": "2024-05-16",
                "currency:XBT": "yes",
                "name": "Mozzarellino",
                "phone": "+39  02 35983530",
                "shop": "cheese",
                "survey:date": "2022-01-27"
            }
        },
        {
            "type": "node",
            "id": 9817421643,
            "lat": 45.3755213,
            "lon": 9.1696247,
            "timestamp": "2024-10-08T19:55:17Z",
            "version": 6,
            "changeset": 157644126,
            "user": "mpbin",
            "uid": 21850090,
            "tags": {
                "addr:city": "Rozzano",
                "addr:housenumber": "31",
                "addr:postcode": "20089",
                "addr:street": "Via Alessandro Manzoni",
                "check_date": "2024-10-08",
                "check_date:currency:XBT": "2024-10-08",
                "currency:XBT": "yes",
                "email": "info@beebit.store",
                "name": "CryptoAgile",
                "office": "it",
                "opening_hours": "Mo-Su 09:00-18:00",
                "operator": "CryptoAgile"
            }
        },
        {
            "type": "node",
            "id": 9830606783,
            "lat": 45.4619866,
            "lon": 9.207853,
            "timestamp": "2024-01-25T09:48:40Z",
            "version": 4,
            "changeset": 146665386,
            "user": "Igor Bubelov",
            "uid": 2104834,
            "tags": {
                "addr:city": "Milano",
                "addr:housenumber": "10",
                "addr:postcode": "20129",
                "addr:street": "Piazza Cinque Giornate",
                "check_date": "2023-03-27",
                "clothes": "men",
                "currency:XBT": "yes",
                "name": "Doppleg\u00e4nger",
                "payment:lightning": "no",
                "payment:lightning_contactless": "no",
                "payment:onchain": "yes",
                "phone": "0255013691",
                "shop": "clothes",
                "wheelchair": "limited"
            }
        },
        {
            "type": "node",
            "id": 10060273673,
            "lat": 45.8192931,
            "lon": 9.0613195,
            "timestamp": "2023-07-07T18:12:38Z",
            "version": 2,
            "changeset": 138239463,
            "user": "Chiarant",
            "uid": 18452174,
            "tags": {
                "addr:city": "Como",
                "addr:housenumber": "39",
                "addr:postcode": "22100",
                "addr:street": "Via Bellinzona",
                "check_date": "2023-07-07",
                "currency:XBT": "yes",
                "name": "Ecotaurus - Noleggio Bagni chimici",
                "shop": "trade",
                "website": "https://www.ecotaurus.it/"
            }
        },
        {
            "type": "node",
            "id": 10126022945,
            "lat": 45.4548702,
            "lon": 9.173021,
            "timestamp": "2024-08-31T17:32:17Z",
            "version": 6,
            "changeset": 156025829,
            "user": "mpbin",
            "uid": 21850090,
            "tags": {
                "addr:city": "Milano",
                "addr:housenumber": "1",
                "addr:postcode": "20144",
                "addr:street": "Viale Gorizia",
                "check_date:currency:XBT": "2022-12-08",
                "currency:XBT": "yes",
                "name": "Seta Beauty",
                "opening_hours": "Mo-Fr 09:30-20:00, Sa 08:00-20:00",
                "payment:lightning": "yes",
                "payment:onchain": "yes",
                "phone": "+390236584172",
                "shop": "beauty",
                "website": "https://setabeauty.com/",
                "wheelchair": "limited"
            }
        },
        {
            "type": "node",
            "id": 10154541289,
            "lat": 45.8358611,
            "lon": 9.0288076,
            "timestamp": "2022-11-05T07:44:16Z",
            "version": 2,
            "changeset": 128510631,
            "user": "user_5359",
            "uid": 5359,
            "tags": {
                "currency:XBT": "yes",
                "name": "Natural Water",
                "payment:lightning": "yes",
                "payment:lightning_contactless": "yes",
                "payment:onchain": "yes",
                "shop": "water",
                "survey:date": "2022-11-03",
                "website": "https://naturalwater.ch/"
            }
        },
        {
            "type": "node",
            "id": 10155364925,
            "lat": 45.7020082,
            "lon": 9.1155577,
            "timestamp": "2024-07-21T17:14:07Z",
            "version": 7,
            "changeset": 154228951,
            "user": "mauropili",
            "uid": 1496865,
            "tags": {
                "addr:city": "Carimate",
                "addr:housenumber": "4",
                "addr:postcode": "22060",
                "addr:street": "Piazza Castelllo",
                "check_date": "2023-05-26",
                "contact:instagram": "https://www.instagram.com/cappellettiarchitetti",
                "contact:linkedin": "https://www.linkedin.com/in/gabrielecappelletti/",
                "currency:XBT": "yes",
                "email": "info@cappellettiarchitetti.com",
                "name": "Studio Interior Design Cappelletti Gabriele",
                "office": "interior_design",
                "phone": "+39 031791264",
                "website": "https://www.cappellettiarchitetti.com/"
            }
        },
        {
            "type": "node",
            "id": 10155364926,
            "lat": 45.8077179,
            "lon": 9.0927771,
            "timestamp": "2024-09-30T11:01:27Z",
            "version": 5,
            "changeset": 157291388,
            "user": "mpbin",
            "uid": 21850090,
            "tags": {
                "addr:city": "Como",
                "addr:housenumber": "23",
                "addr:postcode": "22100",
                "addr:street": "Via Luigi Dottesio",
                "check_date": "2024-09-30",
                "check_date:currency:XBT": "2024-09-30",
                "contact:facebook": "https://www.facebook.com/Cartolola/",
                "contact:instagram": "https://www.instagram.com/lolacartolibreria/",
                "currency:XBT": "yes",
                "email": "lolacartolibreria@gmail.com",
                "name": "Lola Cartolibreria",
                "payment:lightning": "yes",
                "payment:lightning_contactless": "no",
                "payment:onchain": "yes",
                "phone": "+39 3403527381",
                "shop": "stationery",
                "website": "https://pos.btcpayserver.it/apps/KVDYRKZxuLdK5fsBLzgLh66JP5S/pos"
            }
        },
        {
            "type": "node",
            "id": 10165712913,
            "lat": 45.3555613,
            "lon": 9.6627822,
            "timestamp": "2022-11-07T08:23:25Z",
            "version": 1,
            "changeset": 128585645,
            "user": "BSN21M",
            "uid": 17441326,
            "tags": {
                "addr:city": "Crema",
                "addr:postcode": "26013",
                "addr:street": "Via Cappuccini",
                "craft": "painter",
                "currency:XBT": "yes",
                "name": "DOLDI LUCA IMBIANCHINO",
                "payment:lightning": "no",
                "payment:lightning_contactless": "no",
                "payment:onchain": "yes",
                "phone": "+39 3384808366",
                "survey:date": "2022-11-07"
            }
        },
        {
            "type": "node",
            "id": 10165750730,
            "lat": 45.356339,
            "lon": 9.6515674,
            "timestamp": "2022-11-07T08:18:54Z",
            "version": 1,
            "changeset": 128585463,
            "user": "BSN21M",
            "uid": 17441326,
            "tags": {
                "addr:city": "Crema",
                "addr:postcode": "26013",
                "addr:street": "Via Pandino",
                "amenity": "restaurant",
                "currency:XBT": "yes",
                "email": "scorse_89@hotmail.it",
                "name": "Dal Barbarossa",
                "payment:lightning": "no",
                "payment:lightning_contactless": "no",
                "payment:onchain": "yes",
                "phone": "+393491745630",
                "survey:date": "2022-11-07",
                "website": "https://it-it.facebook.com/dalbarbarossaOBV/"
            }
        },
        {
            "type": "node",
            "id": 10219441370,
            "lat": 45.6662023,
            "lon": 9.5620948,
            "timestamp": "2023-11-17T22:16:34Z",
            "version": 6,
            "changeset": 144156841,
            "user": "toponomastica_comune_arenzano",
            "uid": 14257573,
            "tags": {
                "addr:city": "Bonate Sotto",
                "addr:housenumber": "2a",
                "addr:postcode": "24040",
                "addr:street": "Via Santa Giulia",
                "check_date:currency:XBT": "2023-01-24",
                "currency:XBT": "yes",
                "healthcare": "physiotherapist",
                "name": "Incorpomente",
                "payment:lightning": "no",
                "payment:lightning_contactless": "no",
                "payment:onchain": "yes",
                "phone": "+39 035 079 2224",
                "website": "https://www.incorpomente.it/"
            }
        },
        {
            "type": "node",
            "id": 10247805662,
            "lat": 45.4754583,
            "lon": 9.2141064,
            "timestamp": "2024-06-26T16:31:59Z",
            "version": 3,
            "changeset": 153211757,
            "user": "b-jazz-bot",
            "uid": 9451067,
            "tags": {
                "addr:city": "Milano",
                "addr:country": "IT",
                "addr:housenumber": "18",
                "addr:postcode": "20129",
                "addr:street": "Via Achille Maiocchi",
                "check_date": "2022-12-08",
                "currency:XBT": "yes",
                "name": "Seta Beauty",
                "opening_hours": "Mo-Fr 09:30-20:00, Sa 09:00-18:00",
                "payment:lightning": "yes",
                "payment:onchain": "yes",
                "phone": "+393756370903",
                "shop": "beauty",
                "website": "https://setabeauty.com/index.php",
                "wheelchair": "no"
            }
        },
        {
            "type": "node",
            "id": 10247805663,
            "lat": 45.4675295,
            "lon": 9.2138636,
            "timestamp": "2023-11-07T09:57:32Z",
            "version": 2,
            "changeset": 143728702,
            "user": "b-jazz-bot",
            "uid": 9451067,
            "tags": {
                "addr:city": "Milano",
                "addr:country": "IT",
                "addr:housenumber": "14",
                "addr:postcode": "20129",
                "addr:street": "Corso Indipendenza",
                "check_date": "2022-12-08",
                "currency:XBT": "yes",
                "name": "Seta Beauty",
                "opening_hours": "Mo-Tu 09:30-20:00; Fr, We 08:00-20:00; Sa 08:00-19:00",
                "payment:lightning": "yes",
                "payment:onchain": "yes",
                "phone": "+393208659232",
                "shop": "beauty",
                "website": "https://setabeauty.com/"
            }
        },
        {
            "type": "node",
            "id": 10247809015,
            "lat": 45.8100673,
            "lon": 9.0841767,
            "timestamp": "2023-02-09T10:57:50Z",
            "version": 2,
            "changeset": 132300790,
            "user": "BSN21M",
            "uid": 17441326,
            "tags": {
                "addr:city": "Como",
                "addr:postcode": "22100",
                "addr:street": "Via Indipendenza",
                "check_date:currency:XBT": "2023-02-09",
                "currency:XBT": "yes",
                "email": "laborsettacomo@gmail.com",
                "name": "La Borsetta",
                "opening_hours": "Mo-Sa 10:00-14:00, 15:00-19:00",
                "payment:lightning": "yes",
                "payment:lightning_contactless": "no",
                "payment:onchain": "yes",
                "phone": "+39031261567",
                "shop": "bag",
                "website": "https://laborsettacomo.it/"
            }
        },
        {
            "type": "node",
            "id": 10250750356,
            "lat": 45.59965,
            "lon": 9.6970208,
            "timestamp": "2023-05-30T21:12:29Z",
            "version": 2,
            "changeset": 136763638,
            "user": "paulbrunner",
            "uid": 15541433,
            "tags": {
                "addr:city": "Urgnano",
                "addr:housenumber": "39",
                "addr:postcode": "24059",
                "addr:street": "Via Edmondo De Amicis",
                "check_date": "2022-12-10",
                "craft": "photographer",
                "currency:XBT": "yes",
                "name": "Nice Shot Art",
                "opening_hours": "Mo-Sa 09:30-12:30,15:30-19:30",
                "payment:lightning": "yes",
                "payment:onchain": "yes",
                "phone": "+393452329629",
                "website": "https://www.niceshotart.it/"
            }
        },
        {
            "type": "node",
            "id": 10271499562,
            "lat": 45.6182477,
            "lon": 9.0807281,
            "timestamp": "2024-02-09T23:50:22Z",
            "version": 2,
            "changeset": 147277075,
            "user": "fick89",
            "uid": 1781586,
            "tags": {
                "addr:city": "Solaro",
                "addr:housenumber": "2",
                "addr:postcode": "20020",
                "addr:street": "Via Varese",
                "check_date": "2022-12-18",
                "currency:XBT": "yes",
                "mobile": "+393757842955",
                "name": "Nexxtgen",
                "opening_hours": "Mo 10:00-13:00, 15:30-19:30; Tu 15:30-19:30; We 09:30-12:30, 15:30-19:30; Th-Sa 09:30-12:30, 15:00-19:30; Su off",
                "operator": "Nexxtgen S.N.C.",
                "payment:lightning": "yes",
                "payment:onchain": "yes",
                "phone": "+390299768620",
                "shop": "telecommunication",
                "website": "https://nexxtgen-snc-fastweb-vodafone-windtre-iliad-sky-luce-e-gas.business.site/"
            }
        },
        {
            "type": "node",
            "id": 10273256949,
            "lat": 45.4434479,
            "lon": 9.1710005,
            "timestamp": "2024-10-09T18:37:18Z",
            "version": 3,
            "changeset": 157685130,
            "user": "mpbin",
            "uid": 21850090,
            "tags": {
                "addr:city": "Milano",
                "addr:housenumber": "24",
                "addr:postcode": "20143",
                "addr:street": "Viale Liguria",
                "check_date": "2024-10-09",
                "check_date:currency:XBT": "2024-10-09",
                "currency:XBT": "yes",
                "name": "Studio Brega",
                "office": "accountant",
                "opening_hours": "Mo-Fr 09:00-12:30,14:30-19:00",
                "payment:lightning": "yes",
                "payment:onchain": "yes",
                "phone": "+39038542259",
                "website": "https://www.studiobrega.it/"
            }
        },
        {
            "type": "node",
            "id": 10275637372,
            "lat": 45.7485649,
            "lon": 9.2773904,
            "timestamp": "2024-11-01T21:56:49Z",
            "version": 3,
            "changeset": 158638521,
            "user": "fick89",
            "uid": 1781586,
            "tags": {
                "addr:city": "Bulciago",
                "addr:housenumber": "84",
                "addr:postcode": "23892",
                "addr:street": "Via Roma",
                "check_date": "2022-12-20",
                "contact:facebook": "https://www.facebook.com/CleanAirWorldit/",
                "contact:linkedin": "https://www.linkedin.com/company/clean-air-world/",
                "contact:twitter": "https://twitter.com/cleanairworld",
                "contact:youtube": "https://www.youtube.com/channel/UCD3ULmYpkuUtz91Rstu9qgw?sub_confirmation=1&themeRefresh=1",
                "currency:XBT": "yes",
                "email": "info@cleanairworld.it",
                "man_made": "works",
                "name": "CleanAir",
                "operator": "Clean Air Europe S.R.L.",
                "payment:lightning": "yes",
                "payment:onchain": "yes",
                "phone": "+390314153551",
                "ref:vatin": "IT03011000134",
                "website": "https://www.cleanairworld.it/index.php/it/"
            }
        },
        {
            "type": "node",
            "id": 10296649679,
            "lat": 45.4642318,
            "lon": 9.1892532,
            "timestamp": "2022-12-31T11:50:50Z",
            "version": 1,
            "changeset": 130717474,
            "user": "BSN21M",
            "uid": 17441326,
            "tags": {
                "addr:city": "Milano",
                "addr:postcode": "20123",
                "addr:street": "Piazza del Duomo",
                "check_date:currency:XBT": "2022-12-31",
                "contact:instagram": "https://bio.site/Gk76QF",
                "craft": "photographer",
                "currency:XBT": "yes",
                "email": "anademartinoph@gmail.com",
                "name": "Ana de Martino Photography",
                "payment:lightning": "yes",
                "payment:lightning_contactless": "no",
                "payment:onchain": "yes",
                "website": "https://bio.site/Gk76QF"
            }
        },
        {
            "type": "node",
            "id": 10748866710,
            "lat": 45.4735691,
            "lon": 9.13399,
            "timestamp": "2024-02-25T09:12:45Z",
            "version": 4,
            "changeset": 147881881,
            "user": "aa30mom",
            "uid": 13840929,
            "tags": {
                "addr:city": "Milano",
                "addr:housenumber": "73",
                "addr:postcode": "20153",
                "addr:street": "Via Pier Alessandro Paravia",
                "check_date": "2023-03-20",
                "club": "sport",
                "contact:facebook": "https://www.facebook.com/thiagocapoeiramilano",
                "currency:XBT": "yes",
                "description": "School of Capoeira in Milan",
                "email": "info@capoeiramilano.it",
                "leisure": "sports_centre",
                "name": "Capoeira School - Professor Thiago - Capoeira Sul da Bahia",
                "payment:lightning": "yes",
                "payment:lightning_contactless": "yes",
                "payment:onchain": "yes",
                "phone": "+393518585180",
                "sport": "capoeira",
                "website": "https://www.capoeiramilano.it/"
            }
        },
        {
            "type": "node",
            "id": 10765750238,
            "lat": 45.4446133,
            "lon": 9.1546949,
            "timestamp": "2023-08-01T12:10:39Z",
            "version": 4,
            "changeset": 139297426,
            "user": "Igor Bubelov",
            "uid": 2104834,
            "tags": {
                "addr:city": "Milano",
                "addr:housenumber": "4",
                "addr:postcode": "20143",
                "addr:street": "Via Giacomo Watt",
                "check_date": "2023-03-27",
                "craft": "photographer",
                "currency:XBT": "yes",
                "name": "Larix Studio",
                "opening_hours": "\"by appointment\"",
                "payment:lightning": "yes",
                "payment:lightning_contactless": "yes",
                "payment:onchain": "yes",
                "website": "https://enricotabacchi.it/"
            }
        },
        {
            "type": "node",
            "id": 10768366442,
            "lat": 45.4742304,
            "lon": 9.1411054,
            "timestamp": "2024-11-10T19:28:25Z",
            "version": 2,
            "changeset": 158982586,
            "user": "mpbin",
            "uid": 21850090,
            "tags": {
                "addr:city": "Milano",
                "addr:housenumber": "6",
                "addr:postcode": "20148",
                "addr:street": "Piazza Monte Falterona",
                "beauty": "nails",
                "check_date:currency:XBT": "2023-03-28",
                "currency:XBT": "yes",
                "email": "alicecamillapedrazzoli@gmail.com",
                "name": "Alice Beauty",
                "payment:bitcoin:operator": "bitcoinpos.it",
                "payment:onchain": "yes",
                "phone": "+39 02 406210",
                "shop": "beauty"
            }
        },
        {
            "type": "node",
            "id": 10788155081,
            "lat": 45.6205028,
            "lon": 9.4737745,
            "timestamp": "2023-08-21T14:24:38Z",
            "version": 3,
            "changeset": 140185299,
            "user": "Aiman",
            "uid": 67550,
            "tags": {
                "addr:city": "Busnago",
                "addr:housenumber": "197",
                "addr:postcode": "20874",
                "addr:street": "Via Italia",
                "check_date:currency:XBT": "2023-05-13",
                "clothes": "men",
                "currency:XBT": "yes",
                "fixme": "da controllare, sembra che non esiste",
                "name": "DOPPELG\u00c4NGER",
                "payment:lightning": "no",
                "payment:lightning_contactless": "no",
                "payment:onchain": "yes",
                "phone": "+39 039 695 6928",
                "shop": "clothes"
            }
        },
        {
            "type": "node",
            "id": 10788404140,
            "lat": 45.5191876,
            "lon": 9.1489041,
            "timestamp": "2023-08-04T10:29:48Z",
            "version": 3,
            "changeset": 139434735,
            "user": "Igor Bubelov",
            "uid": 2104834,
            "tags": {
                "addr:city": "Novate Milanese",
                "addr:housenumber": "1",
                "addr:postcode": "20026",
                "addr:street": "Via Carlo Amoretti",
                "check_date": "2023-04-05",
                "clothes": "men",
                "currency:XBT": "yes",
                "name": "Nuvolari c.c. Metropoli",
                "payment:lightning": "no",
                "payment:lightning_contactless": "no",
                "payment:onchain": "yes",
                "phone": "023552337",
                "shop": "clothes",
                "website": "https://www.centrometropoli.net/nuvolari/"
            }
        },
        {
            "type": "node",
            "id": 10788589036,
            "lat": 45.4467945,
            "lon": 8.5998451,
            "timestamp": "2024-10-27T13:28:04Z",
            "version": 5,
            "changeset": 158413142,
            "user": "ivanbranco",
            "uid": 11220113,
            "tags": {
                "addr:city": "Novara",
                "addr:housenumber": "7",
                "addr:postcode": "28100",
                "addr:street": "Via Ugo Porzio Giovanola",
                "brand:website": "https://www.nuvolari.biz/",
                "check_date": "2024-10-18",
                "clothes": "men",
                "currency:XBT": "yes",
                "level": "1",
                "name": "Nuvolari",
                "payment:lightning": "no",
                "payment:lightning_contactless": "no",
                "payment:onchain": "yes",
                "phone": "+39 0321 1835619",
                "shop": "clothes"
            }
        },
        {
            "type": "node",
            "id": 10797740383,
            "lat": 45.5845323,
            "lon": 9.4159209,
            "timestamp": "2023-04-27T14:38:21Z",
            "version": 2,
            "changeset": 135431496,
            "user": "jmann6",
            "uid": 668096,
            "tags": {
                "addr:city": "Cavenago di Brianza",
                "addr:housenumber": "12",
                "addr:postcode": "20873",
                "addr:street": "Piazza Libert\u00e0",
                "check_date:currency:XBT": "2023-04-27",
                "currency:XBT": "yes",
                "description": "Progettazione, Certificazione energetica, coordinamento della sicurezza, sanatorie, pratiche catastale",
                "name": "Geom. Pietro Ditroia",
                "office": "architect",
                "opening_hours": "Mo-Fr 09:00-18:00",
                "payment:lightning": "yes",
                "payment:lightning_contactless": "no",
                "payment:onchain": "yes",
                "phone": "+39 393 879 7471",
                "website": "https://www.pietroditroiageometra.com/"
            }
        },
        {
            "type": "node",
            "id": 10840032354,
            "lat": 45.7261155,
            "lon": 9.2858882,
            "timestamp": "2024-01-02T11:49:21Z",
            "version": 4,
            "changeset": 145794666,
            "user": "Stemby",
            "uid": 28559,
            "tags": {
                "addr:city": "Renate",
                "addr:housenumber": "4",
                "addr:postcode": "20838",
                "addr:street": "Via Fratelli Bandiera",
                "amenity": "music_school",
                "check_date": "2024-01-02",
                "contact:facebook": "https://www.facebook.com/associazioneadlibitum.it/",
                "contact:phone": "+39 333 4200593",
                "contact:website": "http://associazioneadlibitum.it",
                "currency:XBT": "yes",
                "level": "0",
                "name": "Scuola di musica di Renate",
                "operator": "Associazione musicale e culturale \"Ad libitum\"",
                "payment:lightning": "yes",
                "payment:onchain": "yes",
                "wheelchair": "no"
            }
        },
        {
            "type": "node",
            "id": 10844470943,
            "lat": 45.0753716,
            "lon": 9.3032702,
            "timestamp": "2024-10-09T18:39:11Z",
            "version": 3,
            "changeset": 157685215,
            "user": "mpbin",
            "uid": 21850090,
            "tags": {
                "addr:city": "Stradella",
                "addr:housenumber": "23/24",
                "addr:postcode": "27049",
                "addr:street": "Piazzale Trieste",
                "check_date": "2024-10-09",
                "check_date:currency:XBT": "2024-10-09",
                "currency:XBT": "yes",
                "email": "info@studiobrega.it",
                "name": "Studio Brega",
                "office": "accountant",
                "phone": "+39 038 542259",
                "website": "https://www.studiobrega.it"
            }
        },
        {
            "type": "node",
            "id": 10844531290,
            "lat": 45.4296701,
            "lon": 8.7391274,
            "timestamp": "2024-09-21T20:16:26Z",
            "version": 4,
            "changeset": 156927331,
            "user": "mpbin",
            "uid": 21850090,
            "tags": {
                "addr:city": "Trecate",
                "addr:housenumber": "16",
                "addr:postcode": "28069",
                "addr:street": "Viale Goffredo Mameli",
                "check_date": "2023-04-26",
                "contact:linkedin": "https://it.linkedin.com/in/mihail-mihaylov-3bb19684",
                "craft": "plumber",
                "currency:XBT": "yes",
                "name": "Energy Systems S.N.C",
                "opening_hours": "Mo-Fr 08:30-18:00"
            }
        },
        {
            "type": "node",
            "id": 10865041339,
            "lat": 45.776503,
            "lon": 8.823116,
            "timestamp": "2023-05-03T14:14:09Z",
            "version": 1,
            "changeset": 135662956,
            "user": "gianlock",
            "uid": 18347620,
            "tags": {
                "addr:city": "Gazzada Schianno",
                "addr:housenumber": "2",
                "addr:postcode": "21045",
                "addr:street": "Via Italo Cremona",
                "check_date:currency:XBT": "2023-05-03",
                "currency:XBT": "yes",
                "description": "Self made design plants",
                "name": "EF Creations",
                "payment:lightning": "yes",
                "payment:lightning_contactless": "no",
                "payment:onchain": "yes",
                "shop": "interior_decoration",
                "website": "https://instagram.com/ef_creations_?igshid=YmMyMTA2M2Y="
            }
        },
        {
            "type": "node",
            "id": 11033018168,
            "lat": 45.4600171,
            "lon": 9.1478308,
            "timestamp": "2023-07-07T18:01:03Z",
            "version": 1,
            "changeset": 138239105,
            "user": "Chiarant",
            "uid": 18452174,
            "tags": {
                "addr:city": "Milano",
                "addr:housenumber": "22",
                "addr:postcode": "20146",
                "addr:street": "Piazzale Tripoli",
                "check_date": "2023-07-07",
                "currency:XBT": "yes",
                "name": "Ecotaurus - Noleggio Bagni Chimici",
                "shop": "yes",
                "website": "https://www.ecotaurus.it/"
            }
        },
        {
            "type": "node",
            "id": 11037149088,
            "lat": 45.6819699,
            "lon": 9.6324476,
            "timestamp": "2023-07-10T10:52:21Z",
            "version": 1,
            "changeset": 138331822,
            "user": "Chiarant",
            "uid": 18452174,
            "tags": {
                "addr:city": "Treviolo",
                "addr:housenumber": "42",
                "addr:postcode": "24080",
                "addr:street": "Via Mohandas Karamchand Gandhi",
                "check_date": "2023-07-10",
                "currency:XBT": "yes",
                "email": "info@yourbiz.it",
                "name": "Yourbiz srl",
                "office": "advertising_agency",
                "phone": "+39 035.4327284",
                "website": "https://www.yourbiz.it/"
            }
        },
        {
            "type": "node",
            "id": 11037926325,
            "lat": 45.7899296,
            "lon": 9.2028618,
            "timestamp": "2023-07-10T19:17:21Z",
            "version": 1,
            "changeset": 138350853,
            "user": "Chiarant",
            "uid": 18452174,
            "tags": {
                "addr:city": "Albavilla",
                "addr:housenumber": "2",
                "addr:postcode": "22031",
                "addr:street": "Via Don Carlo Belloni",
                "addr:unit": "F",
                "check_date": "2023-07-10",
                "currency:XBT": "yes",
                "description": "Servizi di ingegneria integrata, progettazione meccanica industriale, simulazione strutturale FEM,  simulazione fluidodinamica CFD, consulenza software e modellazione CAD",
                "name": "CAEdevice",
                "office": "it",
                "phone": "+39 339 8355478",
                "website": "https://www.caedevice.net/"
            }
        },
        {
            "type": "node",
            "id": 11127357864,
            "lat": 45.4321343,
            "lon": 8.7364515,
            "timestamp": "2024-10-23T19:54:37Z",
            "version": 3,
            "changeset": 158269474,
            "user": "mpbin",
            "uid": 21850090,
            "tags": {
                "addr:city": "Trecate",
                "addr:housenumber": "17",
                "addr:postcode": "28069",
                "addr:street": "Via Adua",
                "amenity": "restaurant",
                "check_date": "2024-10-23",
                "check_date:currency:XBT": "2024-10-23",
                "contact:facebook": "https://www.facebook.com/carusotrecate",
                "contact:instagram": "https://www.instagram.com/carusotrecate/",
                "cuisine": "pizza;italian",
                "currency:XBT": "yes",
                "email": "caruso.pizzeria@gmail.com",
                "name": "Caruso pizzeria con cucina",
                "phone": "+39 0321 71584",
                "website": "https://www.pizzeriacarusotrecate.it/"
            }
        },
        {
            "type": "node",
            "id": 11127449980,
            "lat": 45.6786999,
            "lon": 8.7050913,
            "timestamp": "2024-01-06T09:55:39Z",
            "version": 6,
            "changeset": 145950160,
            "user": "Chiarant",
            "uid": 18452174,
            "tags": {
                "addr:city": "Somma Lombardo",
                "addr:housenumber": "17",
                "addr:postcode": "21019",
                "addr:street": "Via Rimembranze",
                "check_date": "2023-08-19",
                "currency:XBT": "yes",
                "email": "antoniof.gestione@gmail.com",
                "internet_access": "wlan",
                "internet_access:fee": "no",
                "name": "casa vacanza con giardino - comoda per malpensa e milano",
                "operator": "antonio",
                "payment:american_express": "yes",
                "payment:cards": "yes",
                "payment:cash": "yes",
                "payment:coins": "yes",
                "payment:contactless": "yes",
                "payment:credit_cards": "yes",
                "payment:cryptocurrencies": "yes",
                "payment:debit_cards": "yes",
                "payment:ethereum": "yes",
                "payment:lightning": "yes",
                "payment:maestro": "yes",
                "payment:mastercard": "yes",
                "payment:notes": "yes",
                "payment:onchain": "yes",
                "payment:paypal": "yes",
                "payment:visa": "yes",
                "phone": "+39 3420128164",
                "reservation": "required",
                "rooms": "2",
                "tourism": "apartment"
            }
        },
        {
            "type": "node",
            "id": 11132862397,
            "lat": 45.4054054,
            "lon": 9.1618884,
            "timestamp": "2024-02-08T10:25:18Z",
            "version": 2,
            "changeset": 147210993,
            "user": "Igor Bubelov",
            "uid": 2104834,
            "tags": {
                "addr:city": "Assago",
                "addr:postcode": "20057",
                "addr:street": "Viale Milanofiori",
                "amenity": "bar",
                "check_date": "2023-08-20",
                "currency:XBT": "yes",
                "description": "Caffetteria, pausa pranzo, aperitivi.",
                "email": "geomcalboni93@proton.me",
                "name": "ToastEat"
            }
        },
        {
            "type": "node",
            "id": 11232198302,
            "lat": 45.4729189,
            "lon": 9.2351923,
            "timestamp": "2024-10-30T08:32:25Z",
            "version": 6,
            "changeset": 158530032,
            "user": "mpbin",
            "uid": 21850090,
            "tags": {
                "addr:city": "Milano",
                "addr:housenumber": "2",
                "addr:postcode": "20133",
                "addr:street": "Largo Oreste Murani",
                "amenity": "bar",
                "check_date": "2024-10-30",
                "check_date:currency:XBT": "2024-10-30",
                "contact:facebook": "https://www.facebook.com/BarTaita/",
                "currency:XBT": "yes",
                "email": "taitamigliavacca75@gmail.com",
                "name": "Bar Taita",
                "opening_hours": "Mo-Fr 06:00-19:00; Sa 06:00-14:00",
                "payment:cards": "yes",
                "payment:cash": "yes",
                "payment:lightning": "yes",
                "payment:lightning_contactless": "no",
                "payment:onchain": "no",
                "payment:satispay": "yes",
                "phone": "+39 338 692 3799",
                "survey:date": "2023-10-05",
                "website": "https://bartaita.eatbu.com/"
            }
        },
        {
            "type": "node",
            "id": 11331131338,
            "lat": 45.466885,
            "lon": 9.1520127,
            "timestamp": "2023-11-07T13:34:47Z",
            "version": 1,
            "changeset": 143737619,
            "user": "Chiarant",
            "uid": 18452174,
            "tags": {
                "addr:city": "Milano",
                "addr:housenumber": "24",
                "addr:postcode": "20149",
                "addr:street": "Via Marghera",
                "amenity": "fast_food",
                "check_date": "2023-11-07",
                "cuisine": "kebab",
                "currency:XBT": "yes",
                "name": "Kebhouze - Marghera",
                "payment:lightning": "yes",
                "payment:lightning_contactless": "yes",
                "payment:onchain": "yes",
                "website": "https://kebhouze.com/"
            }
        },
        {
            "type": "node",
            "id": 11336264626,
            "lat": 45.6642906,
            "lon": 9.6956887,
            "timestamp": "2023-11-09T17:03:59Z",
            "version": 1,
            "changeset": 143831448,
            "user": "Chiarant",
            "uid": 18452174,
            "tags": {
                "addr:city": "Orio al Serio",
                "addr:housenumber": "71",
                "addr:postcode": "24050",
                "addr:street": "Via Portico",
                "amenity": "fast_food",
                "check_date": "2023-11-09",
                "cuisine": "kebab",
                "currency:XBT": "yes",
                "name": "Kebhouze",
                "payment:lightning": "yes",
                "payment:lightning_contactless": "yes",
                "payment:onchain": "yes",
                "website": "https://kebhouze.com/"
            }
        },
        {
            "type": "node",
            "id": 11336329268,
            "lat": 45.6822616,
            "lon": 9.6108279,
            "timestamp": "2024-10-21T16:12:24Z",
            "version": 4,
            "changeset": 158177594,
            "user": "Mannivu",
            "uid": 1950277,
            "tags": {
                "addr:city": "Curno",
                "addr:housenumber": "1",
                "addr:postcode": "24035",
                "addr:street": "Via Enrico Fermi",
                "amenity": "fast_food",
                "brand": "Kebhouze",
                "brand:wikidata": "Q130465663",
                "check_date": "2023-11-09",
                "cuisine": "kebab",
                "currency:XBT": "yes",
                "name": "Kebhouze",
                "payment:lightning": "yes",
                "payment:onchain": "yes",
                "phone": "+39 035 305 3459",
                "takeaway": "yes",
                "website": "https://kebhouze.com/"
            }
        },
        {
            "type": "node",
            "id": 11357929675,
            "lat": 45.3920264,
            "lon": 9.1763555,
            "timestamp": "2023-12-16T03:07:55Z",
            "version": 2,
            "changeset": 145172036,
            "user": "Rockedf",
            "uid": 7522075,
            "tags": {
                "addr:city": "Rozzano",
                "addr:housenumber": "25",
                "addr:postcode": "20089",
                "addr:street": "Via Eugenio Curiel",
                "amenity": "fast_food",
                "check_date:currency:XBT": "2023-12-15",
                "cuisine": "kebab",
                "currency:XBT": "yes",
                "name": "Kebhouze - cc Fiordaliso",
                "payment:lightning": "yes",
                "payment:lightning_contactless": "yes",
                "payment:onchain": "yes",
                "website": "https://kebhouze.com/"
            }
        },
        {
            "type": "node",
            "id": 11357948821,
            "lat": 45.461258,
            "lon": 9.2095498,
            "timestamp": "2024-02-19T04:28:43Z",
            "version": 3,
            "changeset": 147632781,
            "user": "Igor Bubelov",
            "uid": 2104834,
            "tags": {
                "addr:city": "Milano",
                "addr:housenumber": "7",
                "addr:postcode": "20135",
                "addr:street": "Via Amatore Sciesa",
                "amenity": "fast_food",
                "check_date": "2023-11-17",
                "cuisine": "kebab",
                "currency:XBT": "yes",
                "name": "Kebhouze - Cinque Giornate",
                "payment:lightning": "yes",
                "payment:lightning_contactless": "yes",
                "payment:onchain": "yes",
                "website": "https://kebhouze.com/"
            }
        },
        {
            "type": "node",
            "id": 11357967715,
            "lat": 45.5131411,
            "lon": 9.0996147,
            "timestamp": "2024-07-18T06:14:29Z",
            "version": 6,
            "changeset": 154084811,
            "user": "skizz98",
            "uid": 13920670,
            "tags": {
                "addr:city": "Milano",
                "addr:housenumber": "24",
                "addr:postcode": "20149",
                "addr:street": "Via Gottlieb Wilhelm Daimler",
                "amenity": "fast_food",
                "branch": "Merlata Bloom",
                "brand": "Kebhouze",
                "check_date": "2023-11-17",
                "contact:website": "https://kebhouze.com/",
                "cuisine": "kebab",
                "currency:XBT": "yes",
                "level": "0",
                "name": "Kebhouze",
                "payment:lightning": "yes",
                "payment:lightning_contactless": "yes",
                "payment:onchain": "yes"
            }
        },
        {
            "type": "node",
            "id": 11372230244,
            "lat": 45.695933,
            "lon": 9.6330144,
            "timestamp": "2024-07-09T00:12:20Z",
            "version": 4,
            "changeset": 153724446,
            "user": "Rockedf",
            "uid": 7522075,
            "tags": {
                "addr:city": "Bergamo",
                "addr:housenumber": "33c",
                "addr:postcode": "24129",
                "addr:street": "Via Guglielmo Lochis",
                "amenity": "restaurant",
                "check_date": "2023-11-29",
                "check_date:currency:XBT": "2024-07-08",
                "currency:XBT": "yes",
                "description": "Pizzeria e gastronomia da asporto. Qualche posto per sedersi all'interno.",
                "name": "Mauro Pizzeria e Gastronomia",
                "phone": "+39 035259665",
                "website": "https://mauropizzeriaegastronomia.it/"
            }
        },
        {
            "type": "node",
            "id": 11419984446,
            "lat": 45.4526855,
            "lon": 9.2100717,
            "timestamp": "2024-11-08T19:42:20Z",
            "version": 4,
            "changeset": 158909280,
            "user": "descubrebitcoin",
            "uid": 17565129,
            "tags": {
                "addr:city": "Milano",
                "addr:housenumber": "10",
                "addr:postcode": "20135",
                "addr:street": "Via Sigieri",
                "amenity": "bar",
                "check_date": "2024-10-07",
                "check_date:currency:XBT": "2024-10-07",
                "contact:facebook": "https://www.facebook.com/leylafoodanddrink/",
                "currency:XBT": "yes",
                "email": "ncretella@outlook.it",
                "name": "Leyla Food & Drink",
                "opening_hours": "Mo-Sa 07:00-22:00; Su closed",
                "phone": "+39 328 705 3652"
            }
        },
        {
            "type": "node",
            "id": 11471320036,
            "lat": 45.6133091,
            "lon": 8.87161,
            "timestamp": "2024-02-24T05:04:14Z",
            "version": 7,
            "changeset": 147841476,
            "user": "Igor Bubelov",
            "uid": 2104834,
            "tags": {
                "addr:city": "Busto Arsizio",
                "addr:housenumber": "72",
                "addr:postcode": "21052",
                "addr:street": "Corso Venti Settembre",
                "check_date": "2023-12-31",
                "currency:XBT": "yes",
                "email": "antoniof.gestione@gmail.com",
                "internet_access": "wlan",
                "internet_access:fee": "no",
                "name": "casa vacanza - busto arsizio",
                "operator": "antonio",
                "payment:american_express": "yes",
                "payment:cards": "yes",
                "payment:cash": "yes",
                "payment:coins": "yes",
                "payment:contactless": "yes",
                "payment:credit_cards": "yes",
                "payment:cryptocurrencies": "yes",
                "payment:debit_cards": "yes",
                "payment:ethereum": "yes",
                "payment:lightning": "yes",
                "payment:maestro": "yes",
                "payment:mastercard": "yes",
                "payment:notes": "yes",
                "payment:paypal": "yes",
                "payment:visa": "yes",
                "phone": "+39 3420128164",
                "reservation": "required",
                "rooms": "1",
                "tourism": "apartment"
            }
        },
        {
            "type": "node",
            "id": 11471372956,
            "lat": 45.5291844,
            "lon": 9.0436866,
            "timestamp": "2024-02-24T05:02:11Z",
            "version": 5,
            "changeset": 147841450,
            "user": "Igor Bubelov",
            "uid": 2104834,
            "tags": {
                "addr:city": "Rho",
                "addr:housenumber": "52",
                "addr:postcode": "20017",
                "addr:street": "Via Giacomo Matteotti",
                "check_date": "2023-12-31",
                "currency:XBT": "yes",
                "email": "antoniof.gestione@gmail.com",
                "internet_access": "wlan",
                "internet_access:fee": "no",
                "name": "casa vacanze - rho fiera (centro di rho)",
                "operator": "antonio",
                "payment:american_express": "yes",
                "payment:cards": "yes",
                "payment:cash": "yes",
                "payment:coins": "yes",
                "payment:contactless": "yes",
                "payment:credit_cards": "yes",
                "payment:cryptocurrencies": "yes",
                "payment:debit_cards": "yes",
                "payment:ethereum": "yes",
                "payment:lightning": "yes",
                "payment:maestro": "yes",
                "payment:mastercard": "yes",
                "payment:notes": "yes",
                "payment:onchain": "yes",
                "payment:visa": "yes",
                "phone": "+39 3420128164",
                "reservation": "required",
                "rooms": "3",
                "tourism": "apartment"
            }
        },
        {
            "type": "node",
            "id": 11478770391,
            "lat": 45.7242169,
            "lon": 9.2786869,
            "timestamp": "2024-01-02T12:52:06Z",
            "version": 1,
            "changeset": 145796815,
            "user": "Stemby",
            "uid": 28559,
            "tags": {
                "addr:city": "Renate",
                "addr:housenumber": "80",
                "addr:postcode": "20838",
                "addr:street": "Via Umberto I",
                "check_date": "2024-01-02",
                "contact:facebook": "https://www.facebook.com/associazioneadlibitum.it/",
                "contact:phone": "+39 333 4200593",
                "contact:website": "http://associazioneadlibitum.it/",
                "currency:XBT": "yes",
                "name": "Associazione Ad libitum",
                "office": "association",
                "operator": "Associazione musicale e culturale \"Ad libitum\"",
                "payment:lightning": "yes",
                "payment:onchain": "yes"
            }
        },
        {
            "type": "node",
            "id": 11527450995,
            "lat": 45.7784689,
            "lon": 9.2322729,
            "timestamp": "2024-10-08T19:45:57Z",
            "version": 5,
            "changeset": 157643799,
            "user": "mpbin",
            "uid": 21850090,
            "tags": {
                "addr:city": "Monguzzo",
                "addr:housenumber": "6",
                "addr:postcode": "22040",
                "addr:street": "via Sceria",
                "amenity": "dentist",
                "check_date": "2024-10-08",
                "check_date:currency:XBT": "2024-10-08",
                "contact:facebook": "https://www.facebook.com/studiorossiniodontoiatri/",
                "currency:XBT": "yes",
                "email": "studio@rossiniodontoiatri.it",
                "healthcare": "dentist",
                "healthcare:speciality": "dentist",
                "name": "Studio Rossini Odontoiatri",
                "operator": "STUDIO ROSSINI ODONTOIATRI SRL",
                "payment:onchain": "yes",
                "website": "https://www.rossiniodontoiatri.it/"
            }
        },
        {
            "type": "node",
            "id": 11616303272,
            "lat": 45.4787465,
            "lon": 8.6975058,
            "timestamp": "2024-03-11T18:27:33Z",
            "version": 5,
            "changeset": 148518572,
            "user": "Rockedf",
            "uid": 7522075,
            "tags": {
                "addr:city": "Galliate",
                "addr:housenumber": "16",
                "addr:postcode": "28066",
                "addr:street": "Largo Remo Rabellotti",
                "amenity": "restaurant",
                "check_date": "2024-02-18",
                "check_date:currency:XBT": "2024-03-11",
                "cuisine": "pizza;cocktail",
                "currency:XBT": "yes",
                "name": "Al Vecchio Castello",
                "opening_hours": "Mo-Su 12:00-14:00, 17:00-23:00",
                "payment:lightning": "yes",
                "payment:lightning_contactless": "no",
                "payment:onchain": "yes"
            }
        },
        {
            "type": "node",
            "id": 11670308721,
            "lat": 45.4628908,
            "lon": 9.1870628,
            "timestamp": "2024-03-21T15:54:45Z",
            "version": 5,
            "changeset": 148971159,
            "user": "aa30mom",
            "uid": 13840929,
            "tags": {
                "addr:city": "Milano",
                "addr:housenumber": "20",
                "addr:postcode": "20123",
                "addr:street": "Via Torino",
                "check_date": "2024-03-06",
                "contact:facebook": "https://www.facebook.com/boutiquedelgioiello/",
                "contact:phone": "+39 02 86461726",
                "contact:website": "https://www.boutiquedelgioiello.it/",
                "currency:XBT": "yes",
                "name": "Boutique del Gioiello",
                "opening_hours": "Mo 14:00-19:00; Tu-Sa 10:00-19:00",
                "payment:american_express": "yes",
                "payment:bancomat": "yes",
                "payment:cash": "yes",
                "payment:lightning": "yes",
                "payment:lightning_contactless": "yes",
                "payment:mastercard": "yes",
                "payment:onchain": "yes",
                "payment:visa": "yes",
                "ref:vatin": "IT06093180153",
                "shop": "jewelry",
                "wheelchair": "yes"
            }
        },
        {
            "type": "node",
            "id": 11697369298,
            "lat": 45.4506071,
            "lon": 9.1968048,
            "timestamp": "2024-03-06T12:58:59Z",
            "version": 1,
            "changeset": 148293884,
            "user": "Chiarant",
            "uid": 18452174,
            "tags": {
                "addr:city": "Milano",
                "addr:housenumber": "40",
                "addr:postcode": "20136",
                "addr:street": "Via Salasco",
                "beauty": "hair",
                "check_date": "2024-03-06",
                "currency:XBT": "yes",
                "name": "Bellezza Studio",
                "phone": "+39 02 62063142",
                "shop": "beauty",
                "website": "https://www.bellezzastudio.eu/"
            }
        },
        {
            "type": "node",
            "id": 11709472481,
            "lat": 45.6959709,
            "lon": 9.6309427,
            "timestamp": "2024-03-11T04:14:59Z",
            "version": 3,
            "changeset": 148487566,
            "user": "Igor Bubelov",
            "uid": 2104834,
            "tags": {
                "addr:city": "Bergamo",
                "addr:housenumber": "1/A",
                "addr:postcode": "24129",
                "addr:street": "Via Bellini",
                "check_date": "2024-03-09",
                "currency:XBT": "yes",
                "description": "Frutta, verdura e molto di pi\u00f9.",
                "email": "ilupomangiafrutta@gmail.com",
                "name": "Il lupo mangiafrutta",
                "phone": "+39 3519021831",
                "shop": "greengrocer"
            }
        },
        {
            "type": "node",
            "id": 11748598453,
            "lat": 45.3609724,
            "lon": 9.216206,
            "timestamp": "2024-03-20T17:57:03Z",
            "version": 1,
            "changeset": 148927019,
            "user": "Chiarant",
            "uid": 18452174,
            "tags": {
                "addr:city": "Locate di Triulzi",
                "addr:housenumber": "5",
                "addr:postcode": "20085",
                "addr:street": "Via Milano",
                "amenity": "restaurant",
                "check_date": "2024-03-20",
                "currency:XBT": "yes",
                "email": "scalomilano@organya.it",
                "name": "Organya - The italian bowl",
                "phone": "+39  02 68859703",
                "website": "https://www.organya.it/"
            }
        },
        {
            "type": "node",
            "id": 11808165663,
            "lat": 45.5081589,
            "lon": 9.1335392,
            "timestamp": "2024-04-10T20:24:46Z",
            "version": 1,
            "changeset": 149838119,
            "user": "Rockedf",
            "uid": 7522075,
            "tags": {
                "addr:city": "Milano",
                "addr:housenumber": "22",
                "addr:postcode": "20157",
                "addr:street": "Via Antonio Mambretti",
                "check_date": "2024-04-10",
                "currency:XBT": "yes",
                "guest_house": "guest_house",
                "name": "Cesco's Home - Milano Certosa - Fiera",
                "payment:lightning": "yes",
                "payment:lightning_contactless": "no",
                "payment:onchain": "yes",
                "phone": "+39 33 3273 6528",
                "tourism": "apartment",
                "website": "https://zamperlinfrancesco.wixsite.com/cesco-s-home"
            }
        },
        {
            "type": "node",
            "id": 11892299300,
            "lat": 45.7716909,
            "lon": 9.1953209,
            "timestamp": "2024-09-25T06:17:32Z",
            "version": 3,
            "changeset": 157065442,
            "user": "mpbin",
            "uid": 21850090,
            "tags": {
                "addr:city": "Anzano del Parco",
                "addr:housenumber": "16/B",
                "addr:postcode": "22040",
                "addr:street": "Via Diaz",
                "check_date": "2024-09-25",
                "check_date:currency:XBT": "2024-09-25",
                "craft": "plumber",
                "currency:XBT": "yes",
                "description": "Installazione impianti termoidraulici - risparmio energetico, pompe di calore, solare termico, ventilazione meccanica, caldaie a condensazione",
                "email": "info@ferrari-impianti.com",
                "name": "Ferrari Impianti srl",
                "phone": "+39 0314451519",
                "website": "https://www.ferrari-impianti.com"
            }
        },
        {
            "type": "node",
            "id": 11909756737,
            "lat": 45.6862177,
            "lon": 8.7998766,
            "timestamp": "2024-05-16T12:48:11Z",
            "version": 2,
            "changeset": 151406878,
            "user": "Chiarant",
            "uid": 18452174,
            "tags": {
                "addr:city": "Gallarate",
                "addr:housenumber": "95",
                "addr:postcode": "21013",
                "addr:street": "Via Varese",
                "check_date": "2024-05-16",
                "currency:XBT": "yes",
                "name": "Civico 95 - Organizzazione Matrimoni",
                "office": "wedding_planner",
                "website": "https://www.civico95.it/"
            }
        },
        {
            "type": "node",
            "id": 11925789130,
            "lat": 45.6011028,
            "lon": 8.9481442,
            "timestamp": "2024-06-11T19:07:18Z",
            "version": 3,
            "changeset": 152558008,
            "user": "Rockedf",
            "uid": 7522075,
            "tags": {
                "addr:city": "Cerro Maggiore Milan",
                "addr:housenumber": "52",
                "addr:postcode": "20023",
                "addr:street": "Via F. Turati",
                "amenity": "atm",
                "cash_in": "yes",
                "cash_out": "yes",
                "cash_withdrawal": "yes",
                "check_date": "2024-05-22",
                "contact:email": "support@shitcoins.club",
                "contact:facebook": "https://www.facebook.com/shitcoins.club",
                "contact:instagram": "https://www.instagram.com/shitcoinsclub",
                "contact:telegram": "https://t.me/shitcoinsclub",
                "contact:twitter": "https://twitter.com/BitomatCom",
                "currency:CHF": "yes",
                "currency:DASH": "yes",
                "currency:ETH": "yes",
                "currency:EUR": "yes",
                "currency:GBP": "yes",
                "currency:HUF": "yes",
                "currency:LTC": "yes",
                "currency:RON": "yes",
                "currency:USD": "yes",
                "currency:USDC": "yes",
                "currency:USDT": "yes",
                "currency:XBT": "yes",
                "name": "Bitcoin ATM - Shitcoins.club",
                "opening_hours": "Mo-Fr 11:00-00:00; Sa-Su 11:00-01:00",
                "operator": "Shitcoins.club",
                "payment:cash": "yes",
                "payment:lightning": "no",
                "payment:lightning_contactless": "no",
                "payment:onchain": "yes",
                "phone": "+39 34 8048 7308",
                "website": "https://shitcoins.club/localizzazione-atm/atm-bitcoin-cerro-maggiore-milano-turati"
            }
        },
        {
            "type": "node",
            "id": 11926113163,
            "lat": 45.5223721,
            "lon": 9.2153456,
            "timestamp": "2024-06-11T20:15:56Z",
            "version": 3,
            "changeset": 152560390,
            "user": "Rockedf",
            "uid": 7522075,
            "tags": {
                "addr:city": "Milano",
                "addr:postcode": "20126",
                "addr:street": "Viale Sarca, angolo via Chiese",
                "amenity": "atm",
                "cash_in": "yes",
                "cash_out": "yes",
                "cash_withdrawal": "yes",
                "check_date": "2024-05-22",
                "contact:email": "support@shitcoins.club",
                "contact:facebook": "https://www.facebook.com/shitcoins.club",
                "contact:instagram": "https://www.instagram.com/shitcoinsclub",
                "contact:telegram": "https://t.me/shitcoinsclub",
                "contact:twitter": "https://twitter.com/BitomatCom",
                "currency:CHF": "yes",
                "currency:DASH": "yes",
                "currency:ETH": "yes",
                "currency:EUR": "yes",
                "currency:GBP": "yes",
                "currency:HUF": "yes",
                "currency:LTC": "yes",
                "currency:RON": "yes",
                "currency:USD": "yes",
                "currency:USDC": "yes",
                "currency:USDT": "yes",
                "currency:XBT": "yes",
                "indoor": "yes",
                "name": "Bitcoin ATM - Shitcoins.club",
                "opening_hours": "Mo-Su 07:00-00:00",
                "operator": "Shitcoins.club",
                "payment:cash": "yes",
                "payment:lightning": "no",
                "payment:lightning_contactless": "no",
                "payment:onchain": "yes",
                "phone": "+39 34 8048 7308",
                "website": "https://shitcoins.club/localizzazione-atm/atm-bitcoin-milano-bicocca-village"
            }
        },
        {
            "type": "node",
            "id": 11926366152,
            "lat": 45.4703906,
            "lon": 9.1400807,
            "timestamp": "2024-06-11T20:17:42Z",
            "version": 3,
            "changeset": 152560449,
            "user": "Rockedf",
            "uid": 7522075,
            "tags": {
                "addr:city": "Milano",
                "addr:housenumber": "21",
                "addr:postcode": "20148",
                "addr:street": "Via Daniele Ricciarelli",
                "amenity": "atm",
                "cash_in": "yes",
                "cash_out": "yes",
                "cash_withdrawal": "yes",
                "check_date": "2024-05-22",
                "contact:email": "support@shitcoins.club",
                "contact:facebook": "https://www.facebook.com/shitcoins.club",
                "contact:instagram": "https://www.instagram.com/shitcoinsclub",
                "contact:telegram": "https://t.me/shitcoinsclub",
                "contact:twitter": "https://twitter.com/BitomatCom",
                "currency:CHF": "yes",
                "currency:DASH": "yes",
                "currency:ETH": "yes",
                "currency:EUR": "yes",
                "currency:GBP": "yes",
                "currency:HUF": "yes",
                "currency:LTC": "yes",
                "currency:RON": "yes",
                "currency:USD": "yes",
                "currency:USDC": "yes",
                "currency:USDT": "yes",
                "currency:XBT": "yes",
                "indoor": "yes",
                "name": "Bitcoin ATM - Shitcoins.club",
                "opening_hours": "24/7",
                "operator": "Shitcoins.club",
                "payment:cash": "yes",
                "payment:lightning": "no",
                "payment:lightning_contactless": "no",
                "payment:onchain": "yes",
                "phone": "+39 34 8048 7308",
                "website": "https://shitcoins.club/localizzazione-atm/atm-bitcoin-milano-ricciarelli"
            }
        },
        {
            "type": "node",
            "id": 11926560044,
            "lat": 45.5742836,
            "lon": 9.1800549,
            "timestamp": "2024-09-12T19:19:45Z",
            "version": 4,
            "changeset": 156543265,
            "user": "Cristian1989",
            "uid": 429539,
            "tags": {
                "addr:city": "Paderno Dugnano",
                "addr:housenumber": "35",
                "addr:postcode": "20037",
                "addr:street": "Via Strada Statale",
                "amenity": "atm",
                "cash_in": "yes",
                "cash_out": "yes",
                "cash_withdrawal": "yes",
                "check_date": "2024-05-22",
                "contact:email": "support@shitcoins.club",
                "contact:facebook": "https://www.facebook.com/shitcoins.club",
                "contact:instagram": "https://www.instagram.com/shitcoinsclub",
                "contact:telegram": "https://t.me/shitcoinsclub",
                "contact:twitter": "https://twitter.com/BitomatCom",
                "currency:CHF": "yes",
                "currency:DASH": "yes",
                "currency:ETH": "yes",
                "currency:EUR": "yes",
                "currency:GBP": "yes",
                "currency:HUF": "yes",
                "currency:LTC": "yes",
                "currency:RON": "yes",
                "currency:USD": "yes",
                "currency:USDC": "yes",
                "currency:USDT": "yes",
                "currency:XBT": "yes",
                "indoor": "yes",
                "name": "Bitcoin ATM - Shitcoins.club",
                "opening_hours": "Mo-Sa 07:30-22:00; Su 08:00-21:00",
                "operator": "Shitcoins.club",
                "payment:cash": "yes",
                "payment:lightning": "no",
                "payment:lightning_contactless": "no",
                "payment:onchain": "yes",
                "phone": "+39 34 8048 7308",
                "website": "https://shitcoins.club/"
            }
        },
        {
            "type": "node",
            "id": 11937296236,
            "lat": 45.5874469,
            "lon": 9.0712247,
            "timestamp": "2024-06-15T02:19:24Z",
            "version": 2,
            "changeset": 152703546,
            "user": "Rockedf",
            "uid": 7522075,
            "tags": {
                "addr:city": "Cesate",
                "addr:housenumber": "1",
                "addr:postcode": "20020",
                "addr:street": "Via Italia",
                "amenity": "atm",
                "cash_in": "yes",
                "cash_out": "yes",
                "cash_withdrawal": "yes",
                "check_date": "2024-05-27",
                "contact:email": "support@shitcoins.club",
                "contact:facebook": "https://www.facebook.com/shitcoins.club",
                "contact:instagram": "https://www.instagram.com/shitcoinsclub",
                "contact:telegram": "https://t.me/shitcoinsclub",
                "contact:twitter": "https://twitter.com/BitomatCom",
                "currency:DASH": "yes",
                "currency:ETH": "yes",
                "currency:EUR": "yes",
                "currency:LTC": "yes",
                "currency:USDC": "yes",
                "currency:USDT": "yes",
                "currency:XBT": "yes",
                "indoor": "yes",
                "name": "Bitcoin ATM - Shitcoins.club",
                "opening_hours": "24/7",
                "operator": "Shitcoins.club",
                "payment:cash": "yes",
                "payment:lightning": "no",
                "payment:lightning_contactless": "no",
                "payment:onchain": "yes",
                "phone": "+39 34 8048 7308",
                "website": "https://shitcoins.club/localizzazione-atm/bancomat-bitcoin-Cesate-MI"
            }
        },
        {
            "type": "node",
            "id": 11975334227,
            "lat": 45.4917956,
            "lon": 9.2936367,
            "timestamp": "2024-10-24T19:45:26Z",
            "version": 2,
            "changeset": 158311338,
            "user": "mpbin",
            "uid": 21850090,
            "tags": {
                "addr:city": "Segrate",
                "addr:housenumber": "23",
                "addr:postcode": "20054",
                "addr:street": "Via Roma",
                "check_date": "2024-10-24",
                "check_date:currency:XBT": "2024-10-24",
                "currency:XBT": "yes",
                "email": "info@scintylla.it",
                "name": "SCINTYLLA Beauty Feeling",
                "phone": "+39 02 8493 4643",
                "shop": "beauty",
                "website": "https://www.centroesteticosegrate.com/"
            }
        },
        {
            "type": "node",
            "id": 12030919932,
            "lat": 45.6352787,
            "lon": 8.8345749,
            "timestamp": "2024-07-03T12:42:09Z",
            "version": 2,
            "changeset": 153500650,
            "user": "Rockedf",
            "uid": 7522075,
            "tags": {
                "addr:city": "Busto Arsizio",
                "addr:housenumber": "194",
                "addr:postcode": "21052",
                "addr:street": "Corso Sempione",
                "addr:unit": "Dentro Palestra",
                "check_date:currency:XBT": "2024-07-03",
                "currency:XBT": "yes",
                "healthcare": "nutrition_counselling",
                "name": "Nutrizionista Musorella Paolo",
                "payment:lightning": "yes",
                "payment:onchain": "no",
                "phone": "3784134111"
            }
        },
        {
            "type": "node",
            "id": 12033308457,
            "lat": 45.4569269,
            "lon": 9.2156541,
            "timestamp": "2024-10-24T19:36:46Z",
            "version": 3,
            "changeset": 158311019,
            "user": "mpbin",
            "uid": 21850090,
            "tags": {
                "addr:city": "Milano",
                "addr:housenumber": "72",
                "addr:postcode": "20135",
                "addr:street": "Via Friuli",
                "check_date": "2024-10-24",
                "check_date:currency:XBT": "2024-10-24",
                "contact:email": "animalfood24@ikmail.com",
                "contact:facebook": "https://www.facebook.com/Animalfood-via-Friuli-137866686869402/",
                "currency:XBT": "yes",
                "email": "animalfood24@ikmail.com",
                "name": "Animalfood",
                "opening_hours": "Mo-Sa 09:30-13:00,15:30-19:30",
                "payment:lightning": "yes",
                "payment:lightning_contactless": "no",
                "payment:onchain": "no",
                "phone": "+39 02 8450 1760",
                "phone:mobile": "+39 37 0122 2087",
                "shop": "pet",
                "website": "https://animal-food.it/"
            }
        },
        {
            "type": "node",
            "id": 12108325639,
            "lat": 45.3260126,
            "lon": 8.8635989,
            "timestamp": "2024-08-13T14:57:43Z",
            "version": 2,
            "changeset": 155200009,
            "user": "Tabaccheria QuattroSette",
            "uid": 21844773,
            "tags": {
                "addr:city": "Vigevano",
                "addr:housenumber": "21",
                "addr:postcode": "27029",
                "addr:street": "Viale Francesco Petrarca",
                "check_date": "2024-08-13",
                "contact:email": "info@quattrosette.com",
                "currency:XBT": "yes",
                "name": "Tabaccheria QuattroSette",
                "opening_hours": "Mo-Fr 07:00-12:30,15:30-19:30; Sa 08:00-12:30,15:30-19:30",
                "payment:lightning": "yes",
                "payment:lightning_contactless": "yes",
                "payment:onchain": "yes",
                "phone": "+39 0381 77775",
                "shop": "tobacco",
                "website": "https://g.co/kgs/hG6yC6x"
            }
        },
        {
            "type": "node",
            "id": 12222449707,
            "lat": 45.6874295,
            "lon": 9.7120777,
            "timestamp": "2024-10-04T14:23:38Z",
            "version": 1,
            "changeset": 157463756,
            "user": "Chiarant",
            "uid": 18452174,
            "tags": {
                "addr:city": "Seriate",
                "addr:housenumber": "131",
                "addr:postcode": "24068",
                "addr:street": "Via Italia",
                "beauty": "tanning",
                "check_date": "2024-10-04",
                "currency:XBT": "yes",
                "email": "seriate@centrisole.it",
                "name": "Centro Sole",
                "shop": "beauty",
                "website": "http://www.centrisole.it/"
            }
        },
        {
            "type": "node",
            "id": 12238931073,
            "lat": 45.0160643,
            "lon": 9.1244964,
            "timestamp": "2024-10-09T18:34:26Z",
            "version": 1,
            "changeset": 157685021,
            "user": "mpbin",
            "uid": 21850090,
            "tags": {
                "addr:city": "Casteggio",
                "addr:housenumber": "10",
                "addr:postcode": "27045",
                "addr:street": "Via Console Marcello",
                "check_date": "2024-10-09",
                "check_date:currency:XBT": "2024-10-09",
                "currency:XBT": "yes",
                "email": "info@studiobrega.it",
                "name": "Studio Brega",
                "office": "accountant",
                "phone": "+39 038 542259",
                "website": "https://www.studiobrega.it/"
            }
        },
        {
            "type": "node",
            "id": 12290262769,
            "lat": 45.5320946,
            "lon": 9.3989903,
            "timestamp": "2024-10-26T14:50:52Z",
            "version": 1,
            "changeset": 158379860,
            "user": "quibitcoin",
            "uid": 2201521,
            "tags": {
                "addr:city": "Gorgonzola",
                "addr:housenumber": "7",
                "addr:postcode": "20064",
                "addr:street": "Via G. Galileo",
                "currency:XBT": "yes",
                "description": "Operiamo esclusivamente nel DIRITTO SUCCESSORIO, nel diritto delle persone prive di autonomia, nel DIRITTO DI FAMIGLIA e nel DIRITTO MINORILE.",
                "email": "luigi.cardillo@cardilloefratelli.com",
                "name": "Avv. Luigi Cardillo",
                "office": "lawyer",
                "phone": "+393479444308",
                "website": "http://www.cardilloefratelli.com"
            }
        },
        {
            "type": "node",
            "id": 12290263516,
            "lat": 45.5706468,
            "lon": 9.3347912,
            "timestamp": "2024-10-26T14:48:50Z",
            "version": 1,
            "changeset": 158379769,
            "user": "quibitcoin",
            "uid": 2201521,
            "tags": {
                "addr:city": "Agrate Brianza",
                "addr:housenumber": "25",
                "addr:postcode": "20864",
                "addr:street": "Viale Bartolomeo Colleoni",
                "currency:XBT": "yes",
                "description": "Operiamo esclusivamente nel DIRITTO SUCCESSORIO, nel diritto delle persone prive di autonomia, nel DIRITTO DI FAMIGLIA e nel DIRITTO MINORILE.",
                "email": "luigi.cardillo@cardilloefratelli.com",
                "name": "Studio Legale Cardillo e fratelli",
                "office": "lawyer",
                "phone": "+393479444308",
                "website": "http://www.cardilloefratelli.com"
            }
        },
        {
            "type": "node",
            "id": 12320616470,
            "lat": 45.8402686,
            "lon": 9.0183455,
            "timestamp": "2024-11-07T14:05:51Z",
            "version": 1,
            "changeset": 158857430,
            "user": "descubrebitcoin",
            "uid": 17565129,
            "tags": {
                "amenity": "atm",
                "branch": "Stazione di Servizio Uffico Cambio",
                "cash_in": "yes",
                "cash_out": "yes",
                "check_date": "2024-11-07",
                "currency:CHF": "yes",
                "currency:XBT": "yes",
                "indoor": "yes",
                "manufacturer": "General Bytes",
                "name": "V\u00e4rdex Crypto ATM",
                "opening_hours": "Mo-Fr 07:00-19:00; Sa 07:00-16:00",
                "operator": "V\u00e4rdex",
                "payment:cash": "yes",
                "payment:debit_cards": "yes",
                "payment:onchain": "yes",
                "url": "https://coinatmradar.com/bitcoin_atm/5158/bitcoin-atm-general-bytes-chiasso-stazione-di-servizio-uffico-cambio/",
                "website": "https://www.vaerdex.ch/location-finder?location=stazione-di-servizio-uffico-cambio-chiasso-ch"
            }
        }
    ],
    "telegram": [
        {
            "telegram": "bb-milano"
        },
        {
            "telegram": "ss-milano"
        }
    ]
}