{
    "id": "modena",
    "name": "Modena",
    "lng": 45.05417,
    "lat": 10.893877435,
    "poi": [
        {
            "type": "node",
            "id": 249640918,
            "lat": 45.4474223,
            "lon": 10.8772871,
            "timestamp": "2024-12-31T17:18:14Z",
            "version": 13,
            "changeset": 160842111,
            "user": "mpbin",
            "uid": 21850090,
            "tags": {
                "addr:city": "Bussolengo",
                "addr:housenumber": "43",
                "addr:postcode": "37012",
                "addr:street": "Via del Lavoro",
                "brand": "Unieuro",
                "brand:wikidata": "Q4004687",
                "brand:wikipedia": "en:Unieuro",
                "check_date": "2024-11-24",
                "name": "Unieuro",
                "opening_hours": "Mo-Su 09:00-19:00",
                "operator": "Unieuro S.p.A.",
                "phone": "+39 045 6767026",
                "shop": "electronics"
            }
        },
        {
            "type": "node",
            "id": 1452373305,
            "lat": 45.4394324,
            "lon": 11.0041704,
            "timestamp": "2024-06-28T22:19:44Z",
            "version": 12,
            "changeset": 153312411,
            "user": "Rockedf",
            "uid": 7522075,
            "tags": {
                "addr:city": "Verona",
                "addr:housenumber": "6a",
                "addr:postcode": "37129",
                "addr:street": "Via San Vitale",
                "amenity": "restaurant",
                "check_date:currency:XBT": "2024-06-28",
                "contact:facebook": "https://www.facebook.com/osteriascalin/",
                "currency:XBT": "yes",
                "email": "osteria@scalin.it",
                "name": "Osteria Scalin",
                "payment:lightning": "yes",
                "payment:onchain": "no",
                "phone": "+39 045 2376356",
                "website": "https://www.osteriascalin.it/"
            }
        },
        {
            "type": "node",
            "id": 1663470010,
            "lat": 45.4483983,
            "lon": 10.8791177,
            "timestamp": "2022-03-02T19:35:28Z",
            "version": 5,
            "changeset": 118031469,
            "user": "Patrick Bous",
            "uid": 223763,
            "tags": {
                "addr:city": "Bussolengo",
                "addr:housenumber": "11",
                "addr:postcode": "37012",
                "addr:street": "Localit\u00e0 Ferlina",
                "brand": "Conad",
                "brand:wikidata": "Q639075",
                "brand:wikipedia": "it:Conad",
                "name": "Conad",
                "opening_hours": "Mo-Sa 08:30-21:00; Su 08:30-20:00",
                "operator": "Conad",
                "payment:bancomat": "yes",
                "payment:cash": "yes",
                "payment:credit_cards": "yes",
                "phone": "+39 045 6715111",
                "shop": "supermarket",
                "website": "https://www.conad.it/ricerca-negozi/negozio.009945.html"
            }
        },
        {
            "type": "node",
            "id": 1856864115,
            "lat": 45.4407586,
            "lon": 10.9992299,
            "timestamp": "2024-12-31T18:03:19Z",
            "version": 12,
            "changeset": 160843650,
            "user": "mpbin",
            "uid": 21850090,
            "tags": {
                "addr:city": "Verona",
                "addr:housenumber": "34",
                "addr:postcode": "37121",
                "addr:street": "Via Cappello",
                "brand": "Unieuro",
                "brand:wikidata": "Q4004687",
                "check_date": "2024-09-09",
                "name": "Unieuro",
                "opening_hours": "Mo-Sa 09:30-19:30, Su 10:30-19:30",
                "operator": "Unieuro S.p.A.",
                "shop": "electronics",
                "wheelchair": "yes"
            }
        },
        {
            "type": "node",
            "id": 4166949791,
            "lat": 44.7084079,
            "lon": 10.600361,
            "timestamp": "2023-11-17T18:12:10Z",
            "version": 5,
            "changeset": 144149891,
            "user": "toponomastica_comune_arenzano",
            "uid": 14257573,
            "tags": {
                "addr:city": "Reggio nell'Emilia",
                "addr:country": "IT",
                "addr:housenumber": "72b",
                "addr:street": "Via Fratelli Cervi",
                "name": "Conad Pieve",
                "operator": "CONAD Soc. Coop.",
                "shop": "supermarket"
            }
        },
        {
            "type": "node",
            "id": 4166949793,
            "lat": 44.6808736,
            "lon": 10.6362991,
            "timestamp": "2017-01-02T15:34:10Z",
            "version": 3,
            "changeset": 44847366,
            "user": "Alecs01",
            "uid": 1476146,
            "tags": {
                "addr:city": "Reggio nell'Emilia",
                "addr:country": "IT",
                "addr:housenumber": "59",
                "addr:street": "Via Maiella",
                "name": "CONAD Reggio Sud",
                "operator": "CONAD Soc. Coop.",
                "shop": "supermarket"
            }
        },
        {
            "type": "node",
            "id": 4166949794,
            "lat": 44.6935789,
            "lon": 10.6102643,
            "timestamp": "2017-01-02T15:34:11Z",
            "version": 3,
            "changeset": 44847366,
            "user": "Alecs01",
            "uid": 1476146,
            "tags": {
                "addr:city": "Reggio nell'Emilia",
                "addr:country": "IT",
                "addr:housenumber": "2",
                "addr:street": "Via Muzio Clementi",
                "name": "CONAD SUPERSTORE Le Querce",
                "operator": "CONAD Soc. Coop.",
                "shop": "supermarket"
            }
        },
        {
            "type": "node",
            "id": 4166950193,
            "lat": 44.7641213,
            "lon": 10.5936561,
            "timestamp": "2021-12-21T14:05:26Z",
            "version": 6,
            "changeset": 115211998,
            "user": "bvivi",
            "uid": 124550,
            "tags": {
                "addr:city": "Cadelbosco di Sopra",
                "addr:country": "IT",
                "addr:housenumber": "46",
                "addr:street": "Via Monsignore Giovanni Saccani",
                "brand": "Conad",
                "brand:wikidata": "Q639075",
                "brand:wikipedia": "it:Conad",
                "name": "Conad",
                "operator": "CONAD Soc. Coop.",
                "shop": "supermarket"
            }
        },
        {
            "type": "node",
            "id": 4167013789,
            "lat": 44.7362523,
            "lon": 10.6155182,
            "timestamp": "2017-07-13T07:24:56Z",
            "version": 4,
            "changeset": 50248993,
            "user": "bvivi",
            "uid": 124550,
            "tags": {
                "addr:city": "Reggio nell'Emilia",
                "addr:country": "IT",
                "addr:housenumber": "11",
                "addr:street": "Via Guglielmo Tirelli",
                "name": "CONAD CITY",
                "operator": "CONAD Soc. Coop.",
                "shop": "convenience"
            }
        },
        {
            "type": "node",
            "id": 4167013792,
            "lat": 44.6907358,
            "lon": 10.62614,
            "timestamp": "2019-07-12T08:07:21Z",
            "version": 3,
            "changeset": 72167255,
            "user": "bvivi",
            "uid": 124550,
            "tags": {
                "addr:city": "Reggio nell'Emilia",
                "addr:country": "IT",
                "addr:housenumber": "22",
                "addr:street": "Via Pietro Pariati",
                "brand": "Conad",
                "brand:wikidata": "Q639075",
                "brand:wikipedia": "it:Conad",
                "name": "Conad",
                "operator": "CONAD Soc. Coop.",
                "shop": "supermarket"
            }
        },
        {
            "type": "node",
            "id": 4167015692,
            "lat": 44.674661,
            "lon": 10.607831,
            "timestamp": "2023-11-17T18:12:10Z",
            "version": 4,
            "changeset": 144149891,
            "user": "toponomastica_comune_arenzano",
            "uid": 14257573,
            "tags": {
                "addr:city": "Reggio nell'Emilia",
                "addr:country": "IT",
                "addr:housenumber": "8c",
                "addr:street": "Via Portella delle ginestre",
                "name": "CONAD",
                "operator": "CONAD Soc. Coop.",
                "shop": "supermarket"
            }
        },
        {
            "type": "node",
            "id": 4167164501,
            "lat": 44.6635992,
            "lon": 10.6157973,
            "timestamp": "2017-01-02T15:34:19Z",
            "version": 3,
            "changeset": 44847366,
            "user": "Alecs01",
            "uid": 1476146,
            "tags": {
                "addr:city": "Reggio nell'Emilia",
                "addr:country": "IT",
                "addr:street": "Via Leone Tolstoj",
                "name": "CONAD CITY",
                "operator": "CONAD Soc. Coop.",
                "shop": "convenience"
            }
        },
        {
            "type": "node",
            "id": 4167164601,
            "lat": 44.6050327,
            "lon": 10.8671238,
            "timestamp": "2020-05-12T07:23:37Z",
            "version": 2,
            "changeset": 85067751,
            "user": "mascalzone67",
            "uid": 1861652,
            "tags": {
                "addr:city": "Modena",
                "addr:country": "IT",
                "addr:housenumber": "205",
                "addr:postcode": "41126",
                "addr:street": "Via L. Settembrini",
                "brand": "Conad",
                "brand:wikidata": "Q639075",
                "brand:wikipedia": "it:Conad",
                "email": "ModenaPiusrlPvBaggiovara_E211034B@di-net.it",
                "name": "Conad",
                "opening_hours": "Mo-Sa 08:00-20:00; Su 09:00-13:00",
                "operator": "CONAD Soc. Coop.",
                "payment:bancomat": "yes",
                "payment:cash": "yes",
                "payment:credit_cards": "yes",
                "phone": "+39 059 511086",
                "shop": "supermarket",
                "website": "https://www.conad.it/ricerca-negozi/negozio.007632.html"
            }
        },
        {
            "type": "node",
            "id": 4167605289,
            "lat": 45.293148,
            "lon": 10.4769651,
            "timestamp": "2016-05-07T15:05:00Z",
            "version": 3,
            "changeset": 39165713,
            "user": "Alecs01",
            "uid": 1476146,
            "tags": {
                "addr:city": "Castel Goffredo",
                "addr:housenumber": "66",
                "addr:street": "Via Guerzoni",
                "name": "Conad",
                "operator": "CONAD Soc. Coop.",
                "shop": "supermarket"
            }
        },
        {
            "type": "node",
            "id": 4525313285,
            "lat": 44.6606931,
            "lon": 10.5891065,
            "timestamp": "2024-01-03T18:57:59Z",
            "version": 4,
            "changeset": 145851439,
            "user": "descubrebitcoin",
            "uid": 17565129,
            "tags": {
                "addr:city": "Reggio nell'Emilia",
                "addr:housenumber": "19/1",
                "addr:postcode": "42123",
                "addr:street": "Via della Repubblica",
                "check_date:currency:XBT": "2024-01-03",
                "currency:XBT": "yes",
                "name": "BS VILLAGE",
                "operator": "BUSINESS SHOP S.r.l.",
                "payment:onchain": "yes",
                "phone": "+39 0522 153 6417",
                "shop": "swimming_pool",
                "website": "https://www.bsvillage.com/"
            }
        },
        {
            "type": "node",
            "id": 4553697792,
            "lat": 45.4378688,
            "lon": 10.9958258,
            "timestamp": "2024-07-15T19:44:39Z",
            "version": 4,
            "changeset": 153987400,
            "user": "Rockedf",
            "uid": 7522075,
            "tags": {
                "addr:city": "Verona",
                "addr:country": "IT",
                "addr:housenumber": "7",
                "addr:postcode": "37121",
                "addr:street": "Via Orti Manara",
                "check_date:currency:XBT": "2024-07-15",
                "currency:XBT": "yes",
                "description": "Dottori Commercialisti & Revisori legali",
                "name": "Studio Marchiori STP",
                "office": "accountant",
                "website": "https://www.studiomarchiori.com/"
            }
        },
        {
            "type": "node",
            "id": 4553774993,
            "lat": 45.4417537,
            "lon": 10.9988003,
            "timestamp": "2023-11-08T18:03:05Z",
            "version": 4,
            "changeset": 143792303,
            "user": "mascalzone67",
            "uid": 1861652,
            "tags": {
                "addr:city": "Verona",
                "addr:country": "IT",
                "addr:housenumber": "8",
                "addr:street": "Via Stella",
                "brand": "Conad",
                "brand:wikidata": "Q639075",
                "description": "TuDay Conad, store senza casse a Verona. \u00c8 il primo supermercato con casse automatizzate e pagamenti digitali.",
                "name": "Conad",
                "opening_hours": "Mo-Su 07:30-22:00",
                "operator": "Conad",
                "payment:bancomat": "yes",
                "payment:credit_cards": "yes",
                "payment:smartphone": "yes",
                "shop": "supermarket",
                "source": "https://www.gdonews.it/2023/11/08/lai-rivoluziona-la-spesa-di-prossimita-a-verona-apre-il-primo-tuday-conad-prendivai/",
                "start_date": "2023-11-08",
                "website": "https://www.conad.it/ricerca-negozi/tuday-conad-via-stella-8-37131-verona--010521"
            }
        },
        {
            "type": "node",
            "id": 4712453648,
            "lat": 44.6418557,
            "lon": 10.9188819,
            "timestamp": "2024-09-23T12:39:57Z",
            "version": 7,
            "changeset": 156993966,
            "user": "mpbin",
            "uid": 21850090,
            "tags": {
                "addr:city": "Modena",
                "addr:country": "IT",
                "addr:housenumber": "50",
                "addr:postcode": "41124",
                "addr:street": "Via Carlo Sigonio",
                "addr:suburb": "San Faustino- Madonnina- Quattro Ville",
                "check_date": "2024-09-20",
                "check_date:currency:XBT": "2024-09-20",
                "contact:facebook": "https://www.facebook.com/profile.php?id=100063804144164",
                "contact:instagram": "https://www.instagram.com/rullo__su_tela_/",
                "craft": "painter",
                "currency:XBT": "yes",
                "description": "Decorativi e Resine",
                "email": "info@rullosutela.it",
                "mobile": "+39 327 6249899",
                "name": "Rullo su tela di Soccio Nicol\u00f2",
                "opening_hours": "Mo-Sa 09:00-20:00",
                "payment:lightning": "yes",
                "payment:onchain": "yes",
                "source": "dati.emilia-romagna.it",
                "website": "https://rullosutela.it/"
            }
        },
        {
            "type": "node",
            "id": 4712458289,
            "lat": 44.6357527,
            "lon": 10.9000216,
            "timestamp": "2022-12-20T13:26:31Z",
            "version": 4,
            "changeset": 130290756,
            "user": "saunter",
            "uid": 10396321,
            "tags": {
                "addr:city": "Modena",
                "addr:country": "IT",
                "addr:housenumber": "11",
                "addr:postcode": "41126",
                "addr:street": "Strada Scaglia Est",
                "addr:suburb": "San Faustino- Madonnina- Quattro Ville",
                "amenity": "restaurant",
                "check_date": "2022-12-20",
                "contact:facebook": "https://www.facebook.com/modenaduerestaurantbar/",
                "currency:XBT": "yes",
                "name": "Modena Due Restaurant & Lounge Bar",
                "payment:onchain": "yes",
                "phone": "+393534024359",
                "source": "dati.emilia-romagna.it"
            }
        },
        {
            "type": "node",
            "id": 4712517944,
            "lat": 44.6469689,
            "lon": 10.925682,
            "timestamp": "2023-04-16T09:06:39Z",
            "version": 8,
            "changeset": 134966167,
            "user": "Chiarant",
            "uid": 18452174,
            "tags": {
                "addr:city": "Modena",
                "addr:country": "IT",
                "addr:housenumber": "146",
                "addr:postcode": "41121",
                "addr:street": "Via Emilia Centro",
                "addr:suburb": "Centro Storico",
                "brand": "DOPPELG\u00c4NGER",
                "check_date": "2023-04-15",
                "clothes": "men",
                "currency:XBT": "yes",
                "name": "DOPPELG\u00c4NGER",
                "phone": "0598301476",
                "shop": "clothes"
            }
        },
        {
            "type": "node",
            "id": 4771084852,
            "lat": 44.6994619,
            "lon": 11.04406,
            "timestamp": "2024-09-27T13:22:09Z",
            "version": 7,
            "changeset": 157171166,
            "user": "mpbin",
            "uid": 21850090,
            "tags": {
                "addr:city": "Nonantola",
                "addr:hamlet": "Campazzo",
                "addr:housenumber": "50",
                "addr:postcode": "41015",
                "addr:street": "Via Selvatica",
                "check_date": "2024-09-27",
                "check_date:currency:XBT": "2024-09-27",
                "currency:XBT": "yes",
                "description": "Situato in una strada rurale, dista 3 km da Nonantola. Le camere rustiche eccentriche, alcune caratterizzate da murales originali, sono arredate con mobili d'epoca. Le sistemazioni godono di vista sulla campagna.",
                "email": "selvatica50@gmail.com",
                "guest_house": "bed_and_breakfast",
                "name": "La Selvatica 50 B&B",
                "payment:cash": "yes",
                "payment:satispay": "yes",
                "payment:wire_transfer": "yes",
                "tourism": "guest_house"
            }
        },
        {
            "type": "node",
            "id": 5293931269,
            "lat": 45.4062408,
            "lon": 11.2465163,
            "timestamp": "2023-07-18T21:56:41Z",
            "version": 5,
            "changeset": 138689341,
            "user": "saunter",
            "uid": 10396321,
            "tags": {
                "addr:city": "San Bonifacio",
                "addr:housenumber": "18",
                "addr:postcode": "37047",
                "addr:street": "Via Villabella",
                "check_date:currency:XBT": "2023-07-18",
                "currency:XBT": "yes",
                "description": "I principali ambiti di intervento dello studio sono individuabili nell\u2019area delle materie aziendali, contrattuali, societarie e fiscali, con particolare specializzazione nella gestione ed amministrazione delle piccole e medie imprese.",
                "email": "info@studiopacepartners.it",
                "name": "Studio Pace & Partners",
                "note": "Dottori Commercialisti, Consulenti del Lavoro, Legale e Tributario, Revisori Legali",
                "office": "accountant",
                "payment:ethereum": "yes",
                "payment:litecoin": "yes",
                "phone": "+390456100619",
                "website": "https://www.studiopacepartners.it/"
            }
        },
        {
            "type": "node",
            "id": 6180386635,
            "lat": 45.3307492,
            "lon": 10.9512601,
            "timestamp": "2024-03-12T19:54:00Z",
            "version": 7,
            "changeset": 148565311,
            "user": "Chiarant",
            "uid": 18452174,
            "tags": {
                "addr:city": "Vigasio",
                "addr:housenumber": "92",
                "addr:postcode": "37068",
                "addr:street": "Via Verona",
                "check_date:currency:XBT": "2024-03-12",
                "currency:XBT": "yes",
                "description": "Nella tranquilla campagna Veronese, l'Hotel Montemezzi \u00e8 una moderna struttura 4 stelle, ideale sia per viaggi di piacere che per meeting di lavoro. Il ristorante offre piatti e vini tipici della gastronomia veneta anche con materie prime a km 0.",
                "email": "direzione@montemezzi.it",
                "name": "Hotel Montemezzi",
                "payment:bitcoin:operator": "inbitcoin.it",
                "phone": "+39 045 7363440",
                "tourism": "hotel",
                "website": "https://www.montemezzi.it/",
                "wikidata": "Q111412887"
            }
        },
        {
            "type": "node",
            "id": 6236567436,
            "lat": 45.4397258,
            "lon": 10.8643939,
            "timestamp": "2024-08-24T15:44:03Z",
            "version": 5,
            "changeset": 155702657,
            "user": "Jacopo",
            "uid": 21822,
            "tags": {
                "addr:city": "Sona",
                "addr:housenumber": "1",
                "addr:postcode": "37060",
                "addr:street": "Via Trentino",
                "amenity": "atm",
                "cash_in": "yes",
                "cash_out": "no",
                "cash_withdrawal": "no",
                "check_date": "2024-05-15",
                "check_date:currency:XBT": "2022-12-28",
                "currency:EUR": "yes",
                "currency:XBT": "yes",
                "description": "Bitcoin ATM di Chainblock, situato all'interno del centro commerciale La Grande Mela.",
                "email": "info@chainblock.it",
                "indoor": "yes",
                "level": "0",
                "manufacturer": "General Bytes",
                "name": "Chainblock ATM",
                "operator": "Chainblock",
                "payment:cash": "yes",
                "payment:lightning": "no",
                "payment:lightning_contactless": "no",
                "payment:onchain": "yes",
                "url": "https://coinatmradar.com/bitcoin_atm/5718/bitcoin-atm-general-bytes-sona-centro-commerciale-la-grande-mela/",
                "website": "https://chainblock.it/atm/"
            }
        },
        {
            "type": "node",
            "id": 6475072552,
            "lat": 44.640859,
            "lon": 10.91307,
            "timestamp": "2024-08-20T07:09:07Z",
            "version": 5,
            "changeset": 155493174,
            "user": "mauropili",
            "uid": 1496865,
            "tags": {
                "addr:city": "Modena",
                "addr:housenumber": "219",
                "addr:postcode": "41124",
                "addr:street": "Via Pietro Giardini",
                "check_date:currency:XBT": "2023-02-17",
                "currency:XBT": "yes",
                "description": "Affitto uffici arredati, sale riunioni, spazi condivisi.",
                "email": "info@modenacoworking.it",
                "name": "Modena Coworking",
                "office": "coworking",
                "phone": "+39 3356674607",
                "website": "https://www.modenacoworking.it/"
            }
        },
        {
            "type": "node",
            "id": 6835335762,
            "lat": 45.14667,
            "lon": 10.798655,
            "timestamp": "2023-11-17T18:12:37Z",
            "version": 5,
            "changeset": 144149923,
            "user": "toponomastica_comune_arenzano",
            "uid": 14257573,
            "tags": {
                "addr:city": "Mantova",
                "addr:housenumber": "5a",
                "addr:postcode": "46100",
                "addr:street": "Via Leopoldo Camillo Volta",
                "check_date:currency:XBT": "2023-07-18",
                "currency:XBT": "yes",
                "description": "Soluzioni blockchain e mining.",
                "name": "Bitviking",
                "telecom": "data_center",
                "website": "https://www.bitviking.it"
            }
        },
        {
            "type": "node",
            "id": 7484497896,
            "lat": 44.9929467,
            "lon": 10.7352139,
            "timestamp": "2023-11-17T18:12:37Z",
            "version": 2,
            "changeset": 144149923,
            "user": "toponomastica_comune_arenzano",
            "uid": 14257573,
            "tags": {
                "addr:city": "Suzzara",
                "addr:housenumber": "2a",
                "addr:postcode": "46029",
                "addr:street": "Viale Rossellini",
                "amenity": "pharmacy",
                "dispensing": "no",
                "healthcare": "pharmacy",
                "name": "Parafarmacia Conad",
                "operator": "Conad"
            }
        },
        {
            "type": "node",
            "id": 7484530897,
            "lat": 44.9379749,
            "lon": 10.489694,
            "timestamp": "2020-05-05T08:19:58Z",
            "version": 1,
            "changeset": 84676726,
            "user": "mascalzone67",
            "uid": 1861652,
            "tags": {
                "addr:city": "Viadana",
                "addr:housenumber": "1",
                "addr:postcode": "46019",
                "addr:street": "via A. Moro",
                "amenity": "pharmacy",
                "dispensing": "no",
                "healthcare": "pharmacy",
                "name": "Parafarmacia Conad",
                "operator": "Conad"
            }
        },
        {
            "type": "node",
            "id": 7486962077,
            "lat": 45.4484776,
            "lon": 10.8786033,
            "timestamp": "2020-05-05T19:01:10Z",
            "version": 1,
            "changeset": 84714027,
            "user": "mascalzone67",
            "uid": 1861652,
            "tags": {
                "addr:city": "Bussolengo",
                "addr:housenumber": "11",
                "addr:postcode": "37012",
                "addr:street": "Localit\u00e0 Ferlina",
                "amenity": "pharmacy",
                "dispensing": "no",
                "healthcare": "pharmacy",
                "name": "Parafarmacia Conad",
                "operator": "Conad"
            }
        },
        {
            "type": "node",
            "id": 7513068151,
            "lat": 44.8407522,
            "lon": 10.5470839,
            "timestamp": "2020-05-13T04:36:32Z",
            "version": 1,
            "changeset": 85117112,
            "user": "mascalzone67",
            "uid": 1861652,
            "tags": {
                "addr:city": "Poviglio",
                "addr:housenumber": "76",
                "addr:postcode": "42028",
                "addr:street": "Via Romana",
                "amenity": "pharmacy",
                "dispensing": "no",
                "healthcare": "pharmacy",
                "name": "Parafarmacia Conad",
                "operator": "Conad"
            }
        },
        {
            "type": "node",
            "id": 7513115894,
            "lat": 44.7482709,
            "lon": 10.4477455,
            "timestamp": "2020-05-13T04:53:49Z",
            "version": 1,
            "changeset": 85117808,
            "user": "mascalzone67",
            "uid": 1861652,
            "tags": {
                "addr:city": "Sant'Ilario d'Enza",
                "addr:postcode": "42049",
                "addr:street": "Via Guidetti",
                "amenity": "pharmacy",
                "dispensing": "no",
                "healthcare": "pharmacy",
                "name": "Parafarmacia Conad",
                "operator": "Conad"
            }
        },
        {
            "type": "node",
            "id": 7513136545,
            "lat": 44.9108196,
            "lon": 10.6502718,
            "timestamp": "2024-05-12T16:11:25Z",
            "version": 5,
            "changeset": 151229444,
            "user": "\u0110uro Ji\u0159\u00ed",
            "uid": 14617702,
            "tags": {
                "addr:city": "Guastalla",
                "addr:housenumber": "88",
                "addr:postcode": "42016",
                "addr:street": "Via 11 Settembre",
                "amenity": "pharmacy",
                "dispensing": "no",
                "healthcare": "pharmacy",
                "name": "Parafarmacia Conad",
                "operator": "Conad",
                "wheelchair": "yes"
            }
        },
        {
            "type": "node",
            "id": 8208980511,
            "lat": 45.120793,
            "lon": 10.909389,
            "timestamp": "2024-11-19T15:46:13Z",
            "version": 7,
            "changeset": 159330241,
            "user": "CR1PT0",
            "uid": 22197014,
            "tags": {
                "addr:city": "Roncoferraro",
                "addr:housenumber": "26",
                "addr:postcode": "46037",
                "addr:street": "Via Candido Fanti",
                "currency:EUR": "yes",
                "currency:XBT": "yes",
                "description": "Hacking, cyber security, sicurezza informatica, crittografia, hardware, software, Bitcoin, criptovalute, antivirus, firewall, open source, computer, Linux, Debian, VPN, analisi forensi, audit, vulnerable assestment, smartphone, Android, Graphene.",
                "name": "CR1PT0",
                "office": "it",
                "opening_hours": "24/7",
                "payment:cryptocurrencies": "yes",
                "ref:vatin": "02610840205",
                "start_date": "2015-01-01",
                "website": "https://cr1pt0.com"
            }
        },
        {
            "type": "node",
            "id": 8335906317,
            "lat": 45.4525524,
            "lon": 10.9987741,
            "timestamp": "2023-11-09T19:49:11Z",
            "version": 7,
            "changeset": 143837194,
            "user": "b-jazz-bot",
            "uid": 9451067,
            "tags": {
                "addr:city": "Verona",
                "addr:housenumber": "12d",
                "addr:postcode": "37128",
                "addr:street": "Via Mentana",
                "amenity": "doctors",
                "currency:XBT": "yes",
                "email": "bianchi.osteopata@gmail.com",
                "healthcare": "doctor",
                "healthcare:speciality": "osteopathy",
                "internet_access": "wlan",
                "name": "Tommaso Bianchi - Osteopata",
                "name:en": "Bianchi Tommaso D.O BSc Ost. - Osteopath Verona",
                "opening_hours": "Mo-Sa 08:00-20:30",
                "payment:lightning": "yes",
                "payment:lightning_contactless": "yes",
                "payment:onchain": "yes",
                "phone": "+39 3470483429",
                "survey:date": "2022-10-24",
                "website": "https://bianchiosteopata.it/verona"
            }
        },
        {
            "type": "node",
            "id": 8706247731,
            "lat": 44.6972465,
            "lon": 10.6272017,
            "timestamp": "2024-04-14T19:59:39Z",
            "version": 2,
            "changeset": 150008013,
            "user": "Chiarant",
            "uid": 18452174,
            "tags": {
                "addr:city": "Reggio nell'Emilia",
                "addr:housenumber": "31",
                "addr:postcode": "42121",
                "addr:street": "Corso Giuseppe Garibaldi",
                "addr:unit": "a",
                "amenity": "restaurant",
                "check_date": "2024-04-14",
                "currency:XBT": "yes",
                "name": "Oltre Restaurant",
                "phone": "+39 342 081 0328"
            }
        },
        {
            "type": "node",
            "id": 9153289949,
            "lat": 44.8209645,
            "lon": 10.8886086,
            "timestamp": "2023-02-22T22:28:05Z",
            "version": 2,
            "changeset": 132902063,
            "user": "Martin Ligabue",
            "uid": 8305310,
            "tags": {
                "addr:city": "Fossoli",
                "addr:housenumber": "14",
                "addr:postcode": "41012",
                "addr:street": "Via Mar Ionio",
                "branch": "di Fossoli",
                "brand": "Conad",
                "brand:wikidata": "Q639075",
                "name": "Conad",
                "operator": "Conad",
                "phone": "+39 059 6340048",
                "shop": "supermarket"
            }
        },
        {
            "type": "node",
            "id": 9933827401,
            "lat": 45.322813,
            "lon": 10.9494663,
            "timestamp": "2023-07-18T16:38:00Z",
            "version": 3,
            "changeset": 138678439,
            "user": "saunter",
            "uid": 10396321,
            "tags": {
                "addr:city": "Vigasio",
                "addr:housenumber": "14",
                "addr:postcode": "37068",
                "addr:street": "Via Alzeri",
                "check_date:currency:XBT": "2023-07-18",
                "craft": "electrician",
                "currency:XBT": "yes",
                "description": "Impianti elettrici e automazione cancelli.",
                "email": "info@zoccatelli.it",
                "name": "Z. M. Zoccatelli Impianti",
                "phone": "+39 3484447118",
                "website": "https://www.impiantizoccatelli.it"
            }
        },
        {
            "type": "node",
            "id": 10247809017,
            "lat": 45.38398,
            "lon": 10.492286,
            "timestamp": "2024-07-06T06:47:41Z",
            "version": 3,
            "changeset": 153612144,
            "user": "mauropili",
            "uid": 1496865,
            "tags": {
                "addr:city": "Castiglione delle Stiviere",
                "addr:housenumber": "55",
                "addr:postcode": "46043",
                "addr:street": "Via Giuseppe Mazzini",
                "addr:unit": "c",
                "check_date": "2022-12-09",
                "currency:XBT": "yes",
                "name": "FunPlanet",
                "opening_hours": "Mo-Sa 09:00-12:30, 14:30-19:00",
                "payment:lightning": "yes",
                "payment:onchain": "yes",
                "phone": "+390376670942",
                "shop": "mobile_phone",
                "website": "https://www.funplanet.it/"
            }
        },
        {
            "type": "node",
            "id": 10661986526,
            "lat": 44.66928,
            "lon": 10.7403141,
            "timestamp": "2023-02-15T14:20:08Z",
            "version": 1,
            "changeset": 132584333,
            "user": "BSN21M",
            "uid": 17441326,
            "tags": {
                "addr:city": "Reggio Emilia",
                "addr:postcode": "42122",
                "addr:street": "Via Romani",
                "check_date:currency:XBT": "2023-02-15",
                "craft": "winery",
                "currency:XBT": "yes",
                "email": "dario_rota@yahoo.com",
                "name": "Cantina Rota",
                "opening_hours": "Mo-Fr 8:00-18:00",
                "payment:lightning": "no",
                "payment:lightning_contactless": "no",
                "payment:onchain": "yes",
                "phone": "+39 0522 340 118",
                "website": "https://cantinarota.com"
            }
        },
        {
            "type": "node",
            "id": 10766227160,
            "lat": 45.1577683,
            "lon": 10.7918184,
            "timestamp": "2023-08-01T12:14:23Z",
            "version": 3,
            "changeset": 139297583,
            "user": "Igor Bubelov",
            "uid": 2104834,
            "tags": {
                "addr:housenumber": "45",
                "addr:postcode": "46100",
                "addr:street": "Corso Umberto I\u00b0",
                "check_date": "2023-03-27",
                "clothes": "men",
                "currency:XBT": "yes",
                "name": "DOPPELG\u00c4NGER",
                "phone": "0376360615",
                "shop": "clothes",
                "website": "https://www.doppelganger.it/it/"
            }
        },
        {
            "type": "node",
            "id": 11384696081,
            "lat": 44.7054455,
            "lon": 10.6116509,
            "timestamp": "2024-10-30T19:11:53Z",
            "version": 2,
            "changeset": 158555912,
            "user": "mpbin",
            "uid": 21850090,
            "tags": {
                "addr:city": "Reggio nell'Emilia",
                "addr:housenumber": "17/a",
                "addr:postcode": "42124",
                "addr:street": "Via Fratelli Cervi",
                "amenity": "pub",
                "check_date": "2023-11-29",
                "contact:facebook": "https://www.facebook.com/ghigiuristopub/",
                "cuisine": "burger;pinsa",
                "currency:XBT": "yes",
                "email": "graziano-valentina@hotmail.it",
                "mobile": "+39 348 876 6518",
                "name": "Birreria Ghigiu Risto Pub",
                "payment:lightning": "yes",
                "payment:onchain": "yes",
                "phone": "+39 0522 303884",
                "website": "https://www.ghigiuristopub.it/"
            }
        },
        {
            "type": "node",
            "id": 11928368360,
            "lat": 45.4395088,
            "lon": 11.0086218,
            "timestamp": "2024-06-13T02:35:57Z",
            "version": 3,
            "changeset": 152610740,
            "user": "Rockedf",
            "uid": 7522075,
            "tags": {
                "addr:city": "Verona",
                "addr:housenumber": "70",
                "addr:postcode": "37129",
                "addr:street": "Via Venti Settembre",
                "amenity": "atm",
                "cash_in": "yes",
                "cash_out": "yes",
                "cash_withdrawal": "yes",
                "check_date": "2024-05-23",
                "contact:email": "support@shitcoins.club",
                "contact:facebook": "https://www.facebook.com/shitcoins.club",
                "contact:instagram": "https://www.instagram.com/shitcoinsclub",
                "contact:telegram": "https://t.me/shitcoinsclub",
                "contact:twitter": "https://twitter.com/BitomatCom",
                "currency:CAD": "yes",
                "currency:CHF": "yes",
                "currency:DASH": "yes",
                "currency:ETH": "yes",
                "currency:EUR": "yes",
                "currency:HUF": "yes",
                "currency:LTC": "yes",
                "currency:RON": "yes",
                "currency:USD": "yes",
                "currency:USDC": "yes",
                "currency:USDT": "yes",
                "currency:XBT": "yes",
                "indoor": "yes",
                "name": "Bitcoin ATM - Shitcoins.club",
                "opening_hours": "24/7",
                "operator": "Shitcoins.club",
                "payment:cash": "yes",
                "payment:lightning": "no",
                "payment:lightning_contactless": "no",
                "payment:onchain": "yes",
                "phone": "+39 34 8048 7308",
                "website": "https://shitcoins.club/localizzazione-atm/atm-bitcoin-verona-via-venti-settembre"
            }
        },
        {
            "type": "node",
            "id": 11947970330,
            "lat": 44.8900087,
            "lon": 11.0548275,
            "timestamp": "2024-06-19T02:36:16Z",
            "version": 2,
            "changeset": 152871589,
            "user": "Rockedf",
            "uid": 7522075,
            "tags": {
                "addr:city": "Mirandola",
                "addr:housenumber": "37-3",
                "addr:postcode": "41037",
                "addr:street": "Via G. Agnini",
                "amenity": "atm",
                "cash_in": "yes",
                "cash_out": "yes",
                "cash_withdrawal": "yes",
                "check_date": "2024-05-31",
                "contact:email": "support@shitcoins.club",
                "contact:facebook": "https://www.facebook.com/shitcoins.club",
                "contact:instagram": "https://www.instagram.com/shitcoinsclub",
                "contact:telegram": "https://t.me/shitcoinsclub",
                "contact:twitter": "https://twitter.com/BitomatCom",
                "currency:CHF": "yes",
                "currency:DASH": "yes",
                "currency:ETH": "yes",
                "currency:EUR": "yes",
                "currency:GBP": "yes",
                "currency:HUF": "yes",
                "currency:LTC": "yes",
                "currency:RON": "yes",
                "currency:USD": "yes",
                "currency:USDC": "yes",
                "currency:USDT": "yes",
                "currency:XBT": "yes",
                "indoor": "yes",
                "name": "Bitcoin ATM - Shitcoins.club",
                "opening_hours": "Mo-Sa 08:30-20:30; Su 09:00-20:00",
                "operator": "Shitcoins.club",
                "payment:cash": "yes",
                "payment:lightning": "no",
                "payment:lightning_contactless": "no",
                "payment:onchain": "yes",
                "phone": "+39 34 8048 7308",
                "website": "https://shitcoins.club/localizzazione-atm/bancomat-bitcoin-Mirandola"
            }
        }
    ],
    "telegram": [
        {
            "telegram": "bc-modena"
        },
        {
            "telegram": "ss-modena"
        }
    ]
}