{
    "id": "padova",
    "name": "Padova",
    "lng": 45.40692987,
    "lat": 11.87608719,
    "poi": [
        {
            "type": "node",
            "id": 257552971,
            "lat": 45.0680737,
            "lon": 11.7878289,
            "timestamp": "2024-08-14T11:27:55Z",
            "version": 6,
            "changeset": 155235105,
            "user": "mauropili",
            "uid": 1496865,
            "tags": {
                "addr:city": "Rovigo",
                "addr:housenumber": "84",
                "addr:postcode": "45100",
                "addr:street": "Via Nicola Badaloni",
                "amenity": "pub",
                "check_date:currency:XBT": "2024-04-26",
                "contact:instagram": "https://www.instagram.com/mobydick_beerpub/",
                "currency:XBT": "yes",
                "name": "Moby Dick",
                "payment:lightning": "yes",
                "payment:lightning_contactless": "yes",
                "payment:onchain": "no"
            }
        },
        {
            "type": "node",
            "id": 843506208,
            "lat": 45.0692125,
            "lon": 11.7898454,
            "timestamp": "2024-04-21T03:26:20Z",
            "version": 2,
            "changeset": 150285875,
            "user": "Rockedf",
            "uid": 7522075,
            "tags": {
                "addr:city": "Rovigo",
                "addr:housenumber": "5",
                "addr:postcode": "45100",
                "addr:street": "Piazzale Lionello Caffaratti",
                "amenity": "ice_cream",
                "check_date": "2024-04-21",
                "currency:XBT": "yes",
                "name": "Dolce Castigo Gelateria Artigianale",
                "payment:lightning": "yes",
                "payment:lightning_contactless": "no",
                "payment:onchain": "no",
                "phone": "+39 38 9449 3206"
            }
        },
        {
            "type": "node",
            "id": 844684096,
            "lat": 45.0705762,
            "lon": 11.7907889,
            "timestamp": "2024-04-21T02:02:13Z",
            "version": 3,
            "changeset": 150285025,
            "user": "Rockedf",
            "uid": 7522075,
            "tags": {
                "addr:city": "Rovigo",
                "addr:housenumber": "38",
                "addr:postcode": "45100",
                "addr:street": "Piazza Vittorio Emanuele II",
                "amenity": "pub",
                "check_date": "2024-04-20",
                "currency:XBT": "yes",
                "name": "Pedavena",
                "payment:lightning": "yes",
                "payment:lightning_contactless": "yes",
                "payment:onchain": "no",
                "phone": "+39 39 2165 0044"
            }
        },
        {
            "type": "node",
            "id": 846780779,
            "lat": 45.0702684,
            "lon": 11.7911899,
            "timestamp": "2024-04-20T18:27:26Z",
            "version": 2,
            "changeset": 150275928,
            "user": "Rockedf",
            "uid": 7522075,
            "tags": {
                "addr:city": "Rovigo",
                "addr:housenumber": "4",
                "addr:postcode": "45100",
                "addr:street": "Vicolo Canevone",
                "amenity": "bar",
                "check_date": "2024-04-20",
                "currency:XBT": "yes",
                "name": "Canevone",
                "payment:lightning": "yes",
                "payment:lightning_contactless": "yes",
                "payment:onchain": "no",
                "phone": "+39 34 8073 3806"
            }
        },
        {
            "type": "node",
            "id": 860165498,
            "lat": 45.0707825,
            "lon": 11.7905142,
            "timestamp": "2024-04-23T14:27:25Z",
            "version": 4,
            "changeset": 150398652,
            "user": "Rockedf",
            "uid": 7522075,
            "tags": {
                "addr:city": "Rovigo",
                "addr:housenumber": "24",
                "addr:postcode": "45100",
                "addr:street": "Piazza Vittorio Emanuele II",
                "amenity": "cafe",
                "check_date": "2024-04-23",
                "contact:housenumber": "24",
                "contact:street": "Piazza Vittorio Emanuele II",
                "currency:XBT": "yes",
                "name": "Caff\u00e8 Franchin",
                "operator": "Shooter's sas",
                "payment:lightning": "yes",
                "payment:lightning_contactless": "yes",
                "payment:onchain": "no",
                "phone": "+39 34 8073 3806",
                "ref:vatin": "IT00969380294"
            }
        },
        {
            "type": "node",
            "id": 861325859,
            "lat": 45.0710746,
            "lon": 11.7950794,
            "timestamp": "2024-07-05T19:04:37Z",
            "version": 3,
            "changeset": 153601227,
            "user": "mauropili",
            "uid": 1496865,
            "tags": {
                "addr:city": "Rovigo",
                "addr:housenumber": "1",
                "addr:postcode": "45100",
                "addr:street": "Piazza Venti settembre",
                "amenity": "fast_food",
                "check_date": "2024-04-20",
                "cuisine": "pizza",
                "currency:XBT": "yes",
                "name": "Pizzeria La Rotonda",
                "payment:lightning": "yes",
                "payment:lightning_contactless": "no",
                "payment:onchain": "no",
                "phone": "+39 04 252 7204"
            }
        },
        {
            "type": "node",
            "id": 1592597102,
            "lat": 45.729348,
            "lon": 11.7598676,
            "timestamp": "2024-10-18T16:52:25Z",
            "version": 5,
            "changeset": 158060087,
            "user": "mpbin",
            "uid": 21850090,
            "tags": {
                "addr:city": "Ros\u00e0",
                "addr:housenumber": "5-1",
                "addr:postcode": "36027",
                "addr:street": "Via IV Armata",
                "address": "Via quarta Armata 5/1 Ros\u00e0",
                "check_date": "2024-10-18",
                "check_date:currency:XBT": "2024-10-18",
                "contact:email": "info@descasa.it",
                "contact:phone": "+393496863495",
                "currency:XBT": "yes",
                "description": "Progettiamo la ristrutturazione della tua casa. E se vuoi, possiamo anche occuparci di eseguire tutti i lavori necessari con formula chiavi in mano.",
                "name": "Descasa STP",
                "office": "architect",
                "payment:lightning": "no",
                "payment:lightning_contactless": "no"
            }
        },
        {
            "type": "node",
            "id": 2800768123,
            "lat": 45.371839,
            "lon": 11.7913317,
            "timestamp": "2024-10-06T08:30:00Z",
            "version": 7,
            "changeset": 157528611,
            "user": "mpbin",
            "uid": 21850090,
            "tags": {
                "addr:city": "Abano Terme",
                "addr:housenumber": "129",
                "addr:postcode": "35031",
                "addr:street": "Via Cesare Battisti",
                "check_date": "2024-10-06",
                "check_date:currency:XBT": "2024-10-06",
                "contact:facebook": "https://www.facebook.com/www.autofesiocom/",
                "currency:XBT": "yes",
                "email": "info@autofesio.com",
                "landuse": "commercial",
                "name": "AutoFesio Salone Auto",
                "phone": "+39 329 6876517",
                "shop": "car",
                "website": "https://www.autofesio.com/"
            }
        },
        {
            "type": "node",
            "id": 3010651735,
            "lat": 45.4385355,
            "lon": 12.3214867,
            "timestamp": "2024-10-23T18:45:42Z",
            "version": 16,
            "changeset": 158267075,
            "user": "mpbin",
            "uid": 21850090,
            "tags": {
                "addr:city": "Venezia",
                "addr:housenumber": "220",
                "addr:street": "Fondamenta dei Tolentini",
                "amenity": "fast_food",
                "check_date": "2024-10-23",
                "check_date:currency:XBT": "2024-10-17",
                "contact:facebook": "https://www.facebook.com/atledmeatlab/",
                "contact:instagram": "https://www.instagram.com/atled_meatlab/",
                "contact:pinterest": "https://it.pinterest.com/AtledMeatLab/",
                "cuisine": "burger;sandwich",
                "currency:XBT": "yes",
                "diet:meat": "yes",
                "email": "info@atledmeatlab.it",
                "name": "Atled Meat Lab",
                "payment:lightning": "yes",
                "phone": "+39 041 458 8914",
                "website": "https://www.atledmeatlab.it/"
            }
        },
        {
            "type": "node",
            "id": 3380264635,
            "lat": 45.0736427,
            "lon": 11.7874789,
            "timestamp": "2024-04-22T02:16:58Z",
            "version": 4,
            "changeset": 150324103,
            "user": "Rockedf",
            "uid": 7522075,
            "tags": {
                "addr:city": "Rovigo",
                "addr:housenumber": "1",
                "addr:postcode": "45100",
                "addr:street": "Via Domenico Piva",
                "amenity": "ice_cream",
                "check_date": "2024-04-22",
                "currency:XBT": "yes",
                "name": "Godot",
                "payment:lightning": "yes",
                "payment:lightning_contactless": "no",
                "payment:onchain": "no",
                "phone": "+39 04 2520 2044",
                "website": "https://www.gelateriagodot.it/"
            }
        },
        {
            "type": "node",
            "id": 3396925558,
            "lat": 45.4386847,
            "lon": 12.3213929,
            "timestamp": "2024-10-17T16:16:44Z",
            "version": 7,
            "changeset": 158016334,
            "user": "Rockedf",
            "uid": 7522075,
            "tags": {
                "addr:city": "Venezia",
                "addr:housenumber": "225",
                "addr:postcode": "30135",
                "addr:street": "Fondamenta dei Tolentini",
                "amenity": "restaurant",
                "check_date:currency:XBT": "2024-10-17",
                "currency:XBT": "yes",
                "currency:XBT:operator": "bitcoinpos.it",
                "name": "Hostaria Vecio Biavarol",
                "payment:lightning": "yes"
            }
        },
        {
            "type": "node",
            "id": 4234614970,
            "lat": 45.4362405,
            "lon": 12.3357088,
            "timestamp": "2023-08-26T09:45:56Z",
            "version": 7,
            "changeset": 140403740,
            "user": "Chiarant",
            "uid": 18452174,
            "tags": {
                "addr:city": "Venezia",
                "addr:housenumber": "4558",
                "addr:postcode": "30124",
                "addr:street": "Campo San Luca",
                "check_date": "2023-08-26",
                "clothes": "men",
                "currency:XBT": "yes",
                "name": "Doppelganger",
                "opening_hours": "Mo-Sa 09:30-19:30; Su 11:00-19:30",
                "phone": "0415209251",
                "shop": "clothes"
            }
        },
        {
            "type": "node",
            "id": 4377025289,
            "lat": 45.5475583,
            "lon": 12.3039652,
            "timestamp": "2023-07-31T14:23:33Z",
            "version": 2,
            "changeset": 139256906,
            "user": "BTC Map",
            "uid": 18545877,
            "tags": {
                "check_date:currency:XBT": "2023-07-31",
                "currency:XBT": "yes",
                "name": "Mondo Convenienza",
                "name:it": "Mondo Convenienza",
                "shop": "furniture"
            }
        },
        {
            "type": "node",
            "id": 4526469787,
            "lat": 45.5572776,
            "lon": 11.5274867,
            "timestamp": "2023-11-21T18:26:49Z",
            "version": 2,
            "changeset": 144298563,
            "user": "Chiarant",
            "uid": 18452174,
            "tags": {
                "addr:city": "Vicenza",
                "addr:country": "IT",
                "addr:housenumber": "282",
                "addr:postcode": "36100",
                "addr:street": "Viale Trento",
                "check_date": "2023-11-21",
                "contact:facebook": "https://www.facebook.com/metodogommesnc/",
                "currency:XBT": "yes",
                "email": "metodogomme@gmail.com",
                "name": "Metodo Gomme",
                "phone": "+39 328 093 1955",
                "shop": "tyres"
            }
        },
        {
            "type": "node",
            "id": 4531889985,
            "lat": 45.6851608,
            "lon": 12.2466798,
            "timestamp": "2024-06-14T12:39:05Z",
            "version": 5,
            "changeset": 152676259,
            "user": "Rockedf",
            "uid": 7522075,
            "tags": {
                "addr:city": "Treviso",
                "addr:country": "IT",
                "addr:housenumber": "24",
                "addr:postcode": "31100",
                "addr:street": "Via dei Da Prata",
                "amenity": "restaurant",
                "check_date": "2022-12-12",
                "check_date:currency:XBT": "2024-06-14",
                "currency:XBT": "yes",
                "name": "Bastian Osteria",
                "opening_hours": "Mo-Fr 12:00-15:00,18:00-26:00; Sa 18:00-26:00; Su 16:30-26:00",
                "payment:lightning": "no",
                "payment:lightning_contactless": "no",
                "payment:onchain": "yes",
                "phone": "+390422424391",
                "website": "https://bastianosteria.it/"
            }
        },
        {
            "type": "node",
            "id": 4727745918,
            "lat": 45.4090126,
            "lon": 11.8788211,
            "timestamp": "2023-08-26T09:32:32Z",
            "version": 5,
            "changeset": 140403176,
            "user": "Chiarant",
            "uid": 18452174,
            "tags": {
                "addr:city": "Padova",
                "addr:housenumber": "9",
                "addr:postcode": "35121",
                "addr:street": "Via Altinate",
                "check_date": "2023-08-26",
                "clothes": "men",
                "currency:XBT": "yes",
                "name": "Doppelg\u00e4nger",
                "phone": "+39 0498757916",
                "shop": "clothes"
            }
        },
        {
            "type": "node",
            "id": 5010147423,
            "lat": 45.037075,
            "lon": 11.782145,
            "timestamp": "2024-09-30T08:48:23Z",
            "version": 8,
            "changeset": 157286135,
            "user": "mpbin",
            "uid": 21850090,
            "tags": {
                "addr:city": "Rovigo",
                "addr:housenumber": "53",
                "addr:postcode": "45100",
                "addr:street": "Via del Mercante",
                "check_date": "2024-09-30",
                "check_date:currency:XBT": "2024-09-30",
                "currency:XBT": "yes",
                "description": "Realizzazione immagine pubblicitaria, progettazione grafica di marchi, brochure, manifesti, stampa piccolo e grande formato, decorazioni automezzi, personalizzazione abbigliamento e gadget, siti internet, adesivi, vetrofanie ed insegne.",
                "email": "info@graphicdivision.it",
                "name": "Graphic Division",
                "office": "graphic_design",
                "phone": "+39 0425 410616",
                "website": "https://www.graphicdivision.it/"
            }
        },
        {
            "type": "node",
            "id": 5248441042,
            "lat": 45.6545355,
            "lon": 11.9084338,
            "timestamp": "2024-04-30T09:31:08Z",
            "version": 7,
            "changeset": 150697110,
            "user": "\u0110uro Ji\u0159\u00ed",
            "uid": 14617702,
            "tags": {
                "addr:city": "Castelfranco Veneto",
                "addr:housenumber": "17",
                "addr:postcode": "31033",
                "addr:street": "Via Castellana",
                "amenity": "restaurant",
                "check_date:currency:XBT": "2023-09-25",
                "currency:XBT": "yes",
                "description": "Storico ristorante pizzeria dal 1890.",
                "email": "info@pizzeriabriangennaro.it",
                "indoor_seating": "yes",
                "name": "Pizzeria da Gennaro",
                "outdoor_seating": "yes",
                "phone": "+390423482188",
                "website": "http://www.pizzeriabriangennaro.it"
            }
        },
        {
            "type": "node",
            "id": 5293931269,
            "lat": 45.4062408,
            "lon": 11.2465163,
            "timestamp": "2023-07-18T21:56:41Z",
            "version": 5,
            "changeset": 138689341,
            "user": "saunter",
            "uid": 10396321,
            "tags": {
                "addr:city": "San Bonifacio",
                "addr:housenumber": "18",
                "addr:postcode": "37047",
                "addr:street": "Via Villabella",
                "check_date:currency:XBT": "2023-07-18",
                "currency:XBT": "yes",
                "description": "I principali ambiti di intervento dello studio sono individuabili nell\u2019area delle materie aziendali, contrattuali, societarie e fiscali, con particolare specializzazione nella gestione ed amministrazione delle piccole e medie imprese.",
                "email": "info@studiopacepartners.it",
                "name": "Studio Pace & Partners",
                "note": "Dottori Commercialisti, Consulenti del Lavoro, Legale e Tributario, Revisori Legali",
                "office": "accountant",
                "payment:ethereum": "yes",
                "payment:litecoin": "yes",
                "phone": "+390456100619",
                "website": "https://www.studiopacepartners.it/"
            }
        },
        {
            "type": "node",
            "id": 5333027525,
            "lat": 45.780744,
            "lon": 11.889103,
            "timestamp": "2023-07-18T22:00:14Z",
            "version": 4,
            "changeset": 138689431,
            "user": "saunter",
            "uid": 10396321,
            "tags": {
                "addr:city": "Fonte",
                "addr:housenumber": "53",
                "addr:postcode": "31010",
                "addr:street": "Via delle Industrie",
                "check_date:currency:XBT": "2023-07-18",
                "craft": "carpenter",
                "currency:XBT": "yes",
                "description": "Produzione di mobili e arredamenti di alta gamma, anche personalizzati.",
                "email": "faber@fabermobili.com",
                "name": "Faber Mobili srl",
                "phone": "+39 0423410000",
                "website": "https://www.fabermobili.com/"
            }
        },
        {
            "type": "node",
            "id": 5720390522,
            "lat": 45.5493197,
            "lon": 11.5335038,
            "timestamp": "2024-03-09T10:43:35Z",
            "version": 4,
            "changeset": 148416311,
            "user": "_Andrea_",
            "uid": 1462614,
            "tags": {
                "addr:city": "Vicenza",
                "addr:housenumber": "10",
                "addr:postcode": "36100",
                "addr:street": "Viale Battaglione Framarin",
                "amenity": "bar",
                "currency:XBT": "yes",
                "name": "Eclisse Bar",
                "payment:lightning": "yes",
                "payment:lightning_contactless": "no",
                "payment:onchain": "yes",
                "phone": "+39 0444 321896",
                "survey:date": "2023-06-08"
            }
        },
        {
            "type": "node",
            "id": 5779529274,
            "lat": 45.535792,
            "lon": 11.513533,
            "timestamp": "2024-09-25T08:00:14Z",
            "version": 4,
            "changeset": 157069100,
            "user": "mpbin",
            "uid": 21850090,
            "tags": {
                "addr:city": "Vicenza",
                "addr:housenumber": "12",
                "addr:postcode": "36100",
                "addr:street": "Via Benedetto Marcello",
                "check_date": "2024-09-25",
                "check_date:currency:XBT": "2024-09-25",
                "currency:XBT": "yes",
                "description": "Realizziamo internamente insegne, totem, decorazioni automezzi, marketing digitale e tanto altro ancora. Siamo sul territorio dal 1947 e aiutiamo i nostri clienti a sviluppare la loro immagine.",
                "email": "massimo@leodari.com",
                "name": "Leodari Pubblicit\u00e0 s.r.l.",
                "office": "advertising_agency",
                "phone": "+39 0444962233",
                "website": "https://leodari.com/"
            }
        },
        {
            "type": "node",
            "id": 6131287245,
            "lat": 45.354129,
            "lon": 11.772486,
            "timestamp": "2023-07-21T00:41:15Z",
            "version": 2,
            "changeset": 138788730,
            "user": "saunter",
            "uid": 10396321,
            "tags": {
                "addr:city": "Abano Terme",
                "addr:housenumber": "21",
                "addr:postcode": "35031",
                "addr:street": "Via Monteortone",
                "check_date:currency:XBT": "2023-07-21",
                "currency:XBT": "yes",
                "description": "Consulenza su criptovalute e blockchain, cambio critpovalute contro euro, messa in sicurezza, vendita gadget informatici, hardware wallet, T-shirt, corsi di formazione sul mondo cripto e bitcoin.",
                "email": "center@bitcoinveneto.it",
                "name": "Bitcoin Veneto Center",
                "office": "educational_institution",
                "phone": "+39 3405035130",
                "website": "https://www.bitcoinvenetocenter.it"
            }
        },
        {
            "type": "node",
            "id": 6503288231,
            "lat": 45.435037,
            "lon": 12.340914,
            "timestamp": "2024-02-19T04:27:46Z",
            "version": 13,
            "changeset": 147632766,
            "user": "Igor Bubelov",
            "uid": 2104834,
            "tags": {
                "addr:city": "Venezia",
                "addr:housenumber": "4318",
                "addr:place": "Castello",
                "addr:postcode": "30122",
                "addr:street": "Rugheta Sant'Apollonia",
                "check_date": "2023-11-17",
                "currency:XBT": "yes",
                "description": "Negozio laboratorio di produzione gioielli in oro e pietre preziose: moretti ed altri gioielli esclusivi personalizzati realizzati a mano, teschi vanitas, corniole incise, gioielli con opali e molto altro.",
                "email": "info@webjewels.it",
                "name": "Oreficeria Gioielleria Dogale",
                "note": "Domenica chiuso (luglio e agosto chiuso anche il sabato pomeriggio) Sunday closed (July and August also closed on Saturday afternoons)",
                "opening_hours": "Mo-Sa 09:40-12:40,15:30-18:40",
                "payment:cash": "yes",
                "payment:credit_cards": "yes",
                "payment:lightning": "yes",
                "payment:onchain": "yes",
                "phone": "+39 0415287549",
                "shop": "jewelry",
                "start_date": "1952",
                "website": "https://www.gioiellivenezia.com/"
            }
        },
        {
            "type": "node",
            "id": 7010944119,
            "lat": 45.0690798,
            "lon": 11.7924896,
            "timestamp": "2024-07-05T19:36:47Z",
            "version": 3,
            "changeset": 153602223,
            "user": "mauropili",
            "uid": 1496865,
            "tags": {
                "addr:city": "Rovigo",
                "addr:housenumber": "10",
                "addr:postcode": "45100",
                "addr:street": "Via Giovanni Miani",
                "check_date": "2024-04-29",
                "currency:XBT": "yes",
                "name": "Rubiero",
                "payment:lightning": "yes",
                "payment:lightning_contactless": "yes",
                "payment:onchain": "no",
                "phone": "+39 04 2553 7438",
                "shop": "bakery"
            }
        },
        {
            "type": "node",
            "id": 7010956711,
            "lat": 45.0707116,
            "lon": 11.7906036,
            "timestamp": "2024-03-20T14:21:49Z",
            "version": 3,
            "changeset": 148916448,
            "user": "Rockedf",
            "uid": 7522075,
            "tags": {
                "addr:city": "Rovigo",
                "addr:housenumber": "28",
                "addr:postcode": "45100",
                "addr:street": "Piazza Vittorio Emanuele II",
                "check_date": "2024-03-20",
                "contact:email": "laboutiquedellosmartphone64@gmail.com",
                "currency:XBT": "yes",
                "name": "La boutique dello smartphone",
                "payment:lightning": "yes",
                "payment:lightning_contactless": "yes",
                "payment:onchain": "no",
                "shop": "mobile_phone"
            }
        },
        {
            "type": "node",
            "id": 7272505722,
            "lat": 45.402589,
            "lon": 11.8830613,
            "timestamp": "2024-07-05T19:38:19Z",
            "version": 5,
            "changeset": 153602277,
            "user": "mauropili",
            "uid": 1496865,
            "tags": {
                "addr:city": "Padova",
                "addr:housenumber": "212",
                "addr:postcode": "35121",
                "addr:street": "Via San Francesco",
                "amenity": "restaurant",
                "check_date:currency:XBT": "2023-08-28",
                "currency:XBT": "yes",
                "name": "Da Giggino - Rosticceria",
                "payment:lightning": "yes",
                "payment:onchain": "yes",
                "phone": "+393777073860"
            }
        },
        {
            "type": "node",
            "id": 8154718782,
            "lat": 45.0677021,
            "lon": 11.7877546,
            "timestamp": "2024-04-17T13:57:11Z",
            "version": 2,
            "changeset": 150131386,
            "user": "Rockedf",
            "uid": 7522075,
            "tags": {
                "addr:city": "Rovigo",
                "addr:housenumber": "43",
                "addr:postcode": "45100",
                "addr:street": "Via Nicola Badaloni",
                "check_date": "2024-04-17",
                "currency:XBT": "yes",
                "name": "Nuovo Forno a Legna",
                "payment:lightning": "yes",
                "payment:lightning_contactless": "no",
                "payment:onchain": "no",
                "phone": "+39 34 7504 0891",
                "shop": "bakery"
            }
        },
        {
            "type": "node",
            "id": 8154718783,
            "lat": 45.0682612,
            "lon": 11.7881041,
            "timestamp": "2024-04-17T14:21:58Z",
            "version": 3,
            "changeset": 150132399,
            "user": "Rockedf",
            "uid": 7522075,
            "tags": {
                "addr:city": "Rovigo",
                "addr:housenumber": "66",
                "addr:postcode": "45100",
                "addr:street": "Via Nicola Badaloni",
                "amenity": "pub",
                "check_date": "2024-04-17",
                "contact:facebook": "https://www.facebook.com/p/Badabeer-Birreria-100063565181483/",
                "contact:instagram": "https://www.instagram.com/birreriabadabeer/",
                "currency:XBT": "yes",
                "name": "Badabeer",
                "payment:lightning": "yes",
                "payment:lightning_contactless": "yes",
                "payment:onchain": "no",
                "phone": "+39 33 3498 1015",
                "website": "https://www.badabeer.it/"
            }
        },
        {
            "type": "node",
            "id": 8154718784,
            "lat": 45.068445,
            "lon": 11.7883165,
            "timestamp": "2024-04-21T03:02:30Z",
            "version": 2,
            "changeset": 150285583,
            "user": "Rockedf",
            "uid": 7522075,
            "tags": {
                "addr:city": "Rovigo",
                "addr:housenumber": "60",
                "addr:postcode": "45100",
                "addr:street": "Via Nicola Badaloni",
                "amenity": "fast_food",
                "check_date": "2024-04-20",
                "contact:email": "pizzeriaalvescovado@gmail.con",
                "contact:facebook": "https://www.facebook.com/pizzeriaalvescovado",
                "contact:instagram": "https://www.instagram.com/pizzeriaalvescovado.it_rovigo/",
                "cuisine": "pizza",
                "currency:XBT": "yes",
                "name": "Pizzeria al Vescovado",
                "payment:lightning": "yes",
                "payment:lightning_contactless": "yes",
                "payment:onchain": "no",
                "phone": "+39 04 2507 0029",
                "website": "https://pizzeriaalvescovado.it/"
            }
        },
        {
            "type": "node",
            "id": 8155292984,
            "lat": 45.0670531,
            "lon": 11.7870618,
            "timestamp": "2024-04-20T14:45:33Z",
            "version": 2,
            "changeset": 150266639,
            "user": "Rockedf",
            "uid": 7522075,
            "tags": {
                "addr:city": "Rovigo",
                "addr:housenumber": "3/5",
                "addr:postcode": "45100",
                "addr:street": "Via dei Cappuccini",
                "amenity": "cafe",
                "check_date": "2024-04-20",
                "currency:XBT": "yes",
                "name": "Pasticceria Dei Frati",
                "payment:lightning": "yes",
                "payment:lightning_contactless": "yes",
                "payment:onchain": "no"
            }
        },
        {
            "type": "node",
            "id": 8168616368,
            "lat": 45.0719266,
            "lon": 11.786415,
            "timestamp": "2024-07-05T19:39:29Z",
            "version": 3,
            "changeset": 153602318,
            "user": "mauropili",
            "uid": 1496865,
            "tags": {
                "addr:city": "Rovigo",
                "addr:housenumber": "20",
                "addr:postcode": "45100",
                "addr:street": "Via Umberto I\u00b0",
                "check_date": "2024-04-22",
                "currency:XBT": "yes",
                "name": "Biliardo",
                "payment:lightning": "yes",
                "payment:lightning_contactless": "yes",
                "payment:onchain": "no",
                "phone": "+39 04 2527 906",
                "shop": "clothes"
            }
        },
        {
            "type": "node",
            "id": 8753097385,
            "lat": 45.0707688,
            "lon": 11.7867961,
            "timestamp": "2024-04-14T08:49:11Z",
            "version": 5,
            "changeset": 149981966,
            "user": "Chiarant",
            "uid": 18452174,
            "tags": {
                "addr:city": "Rovigo",
                "addr:housenumber": "8",
                "addr:postcode": "45100",
                "addr:street": "Via Marcello Grimani",
                "amenity": "atm",
                "brand": "CryptoLocalATM",
                "check_date": "2024-04-14",
                "currency:XBT": "yes",
                "description": "Bitcoin ATM che permette di acquistare Bitcoin, Ethereum, Litecoin, Dogecoin, Bitcoin Cash, Dash, Monero. L'ATM \u00e8 situato all'interno della TABACCHERIA ZIOSMOKE.",
                "email": "support@cryptolocalatm.com",
                "location": "indoor",
                "name": "CryptoLocalATM c/o TABACCHERIA ZIOSMOKE",
                "payment:onchain": "yes",
                "phone": "+447894438974",
                "website": "https://cryptolocalatm.com"
            }
        },
        {
            "type": "node",
            "id": 9391569155,
            "lat": 45.6688905,
            "lon": 12.2412925,
            "timestamp": "2024-04-14T08:44:34Z",
            "version": 4,
            "changeset": 149981812,
            "user": "Chiarant",
            "uid": 18452174,
            "tags": {
                "addr:city": "Treviso",
                "addr:housenumber": "54",
                "addr:postcode": "31100",
                "addr:street": "Viale Bartolomeo D'Alviano",
                "amenity": "atm",
                "check_date": "2024-04-14",
                "currency:XBT": "yes",
                "description": "Bitcoin ATM che permette di acquistare Bitcoin, Ethereum, Litecoin, Dogecoin, Bitcoin Cash, Dash, Monero. L'ATM \u00e8 situato all'interno del BAR 98.",
                "email": "support@cryptolocalatm.com",
                "name": "CryptoLocalATM c/o BAR 98",
                "payment:onchain": "yes",
                "phone": "+447894438974",
                "website": "https://cryptolocalatm.com"
            }
        },
        {
            "type": "node",
            "id": 9483808945,
            "lat": 45.4358531,
            "lon": 12.3351141,
            "timestamp": "2024-10-29T20:47:46Z",
            "version": 5,
            "changeset": 158516366,
            "user": "mpbin",
            "uid": 21850090,
            "tags": {
                "addr:city": "Venezia",
                "addr:housenumber": "4590",
                "addr:postcode": "30124",
                "addr:street": "Campo San Luca",
                "check_date": "2024-10-29",
                "check_date:currency:XBT": "2024-10-29",
                "check_date:opening_hours": "2024-08-21",
                "contact:facebook": "https://www.facebook.com/DestinationVenice",
                "contact:instagram": "https://www.instagram.com/destination_venice/",
                "currency:XBT": "yes",
                "email": "info@destination-venice.com",
                "flag:type": "municipal",
                "name": "Destination Venice",
                "opening_hours:signed": "no",
                "phone": "+39 041 528 3547",
                "shop": "travel_agency",
                "tourism": "travel_agent;information",
                "website": "https://destination-venice.com/"
            }
        },
        {
            "type": "node",
            "id": 10035938701,
            "lat": 45.4542033,
            "lon": 12.3510493,
            "timestamp": "2022-09-22T06:09:00Z",
            "version": 2,
            "changeset": 126489243,
            "user": "Igor Bubelov",
            "uid": 2104834,
            "tags": {
                "addr:city": "Murano",
                "addr:housenumber": "6",
                "addr:postcode": "30141",
                "addr:street": "Ramo Domenico Gisberti",
                "currency:XBT": "yes",
                "name": "Sunset Yogurt",
                "phone": "+39 3703689211",
                "shop": "jewelry",
                "survey:date": "2022-09-22",
                "website": "https://sunsetyogurt.com/"
            }
        },
        {
            "type": "node",
            "id": 10155200041,
            "lat": 45.3915973,
            "lon": 11.8928962,
            "timestamp": "2024-07-05T19:47:53Z",
            "version": 6,
            "changeset": 153602587,
            "user": "mauropili",
            "uid": 1496865,
            "tags": {
                "addr:city": "Padova",
                "addr:housenumber": "1",
                "addr:postcode": "35127",
                "addr:street": "Via Giuseppe Perin",
                "amenity": "cafe",
                "check_date:currency:XBT": "2023-08-09",
                "cuisine": "coffee_shop",
                "currency:XBT": "yes",
                "name": "20quadricafe'",
                "payment:lightning": "yes",
                "survey:date": "2022-11-03"
            }
        },
        {
            "type": "node",
            "id": 10222087379,
            "lat": 45.4770977,
            "lon": 12.2016531,
            "timestamp": "2023-12-13T13:45:22Z",
            "version": 3,
            "changeset": 145076091,
            "user": "Rockedf",
            "uid": 7522075,
            "tags": {
                "addr:city": "Venezia",
                "addr:housenumber": "14",
                "addr:postcode": "30175",
                "addr:street": "Via Bottenigo",
                "check_date:currency:XBT": "2023-12-13",
                "currency:XBT": "yes",
                "email": "artigianafoto@mail.com",
                "name": "Artigiana Foto",
                "operator": "Artigiana Foto",
                "payment:lightning": "yes",
                "payment:lightning_contactless": "yes",
                "payment:onchain": "yes",
                "phone": "+39041923438",
                "shop": "photo"
            }
        },
        {
            "type": "node",
            "id": 10273203685,
            "lat": 45.6324007,
            "lon": 11.5671468,
            "timestamp": "2024-07-05T19:50:48Z",
            "version": 4,
            "changeset": 153602683,
            "user": "mauropili",
            "uid": 1496865,
            "tags": {
                "addr:city": "Povolaro di Dueville",
                "addr:housenumber": "35a",
                "addr:postcode": "36030",
                "addr:street": "Via Divisione Julia",
                "check_date": "2022-12-19",
                "craft": "electrician",
                "currency:XBT": "yes",
                "name": "Impianti Elettrici Parise",
                "payment:lightning": "yes",
                "payment:onchain": "yes",
                "phone": "+393391741073",
                "website": "https://www.impiantielettriciparise.com/impianti-elettrici-parise-passione-e-professionalita-a-vicenz/"
            }
        },
        {
            "type": "node",
            "id": 10273264150,
            "lat": 45.2024965,
            "lon": 12.2981574,
            "timestamp": "2024-10-28T17:15:09Z",
            "version": 3,
            "changeset": 158465653,
            "user": "mpbin",
            "uid": 21850090,
            "tags": {
                "addr:city": "Chioggia",
                "addr:housenumber": "206",
                "addr:postcode": "30015",
                "addr:street": "Viale Cristoforo Colombo",
                "amenity": "restaurant",
                "check_date": "2024-10-28",
                "check_date:currency:XBT": "2024-10-28",
                "contact:facebook": "https://www.facebook.com/MammaMiaSottomarina/",
                "cuisine": "pizza",
                "currency:XBT": "yes",
                "email": "mammamiasottomarina@gmail.com",
                "name": "MammaMia",
                "opening_hours": "Fr 18:00-22:00; Sa-Su 10:00-02:00, 18:00-22:00",
                "payment:lightning": "yes",
                "payment:lightning_contactless": "no",
                "payment:onchain": "yes",
                "phone": "+390417792544"
            }
        },
        {
            "type": "node",
            "id": 10561952509,
            "lat": 45.4314612,
            "lon": 12.3561868,
            "timestamp": "2024-01-24T10:46:46Z",
            "version": 2,
            "changeset": 146624011,
            "user": "Igor Bubelov",
            "uid": 2104834,
            "tags": {
                "addr:city": "Venezia",
                "addr:housenumber": "1044",
                "addr:postcode": "30122",
                "addr:street": "Calle de le Ancore",
                "check_date": "2023-01-17",
                "currency:XBT": "yes",
                "description": "Tre appartamenti distanti pochi metri dalla Biennale di Venezia e a 15 minuti a piedi da Piazza San Marco.",
                "email": "homeveniceapartments@gmail.com",
                "name": "Home Venice Apartments - Biennale",
                "phone": "+39 3423920076",
                "tourism": "apartment",
                "website": "https://www.homeveniceapartments.it"
            }
        },
        {
            "type": "node",
            "id": 10568121547,
            "lat": 45.4381785,
            "lon": 12.333332,
            "timestamp": "2024-04-29T14:05:02Z",
            "version": 3,
            "changeset": 150665455,
            "user": "MarcoZampiva",
            "uid": 238904,
            "tags": {
                "addr:city": "Venezia",
                "addr:housenumber": "977",
                "addr:place": "San Polo",
                "addr:postcode": "30125",
                "check_date": "2023-01-19",
                "currency:XBT": "yes",
                "description": "Appartamenti distanti pochi metri dal Ponte di Rialto e a 15 minuti a piedi da Piazza San Marco.",
                "email": "homeveniceapartments@gmail.com",
                "name": "Home Venice Apartments - Rialto",
                "phone": "+39 3423920076",
                "tourism": "apartment",
                "website": "https://www.homeveniceapartments.it"
            }
        },
        {
            "type": "node",
            "id": 10568157405,
            "lat": 45.4352777,
            "lon": 12.3307798,
            "timestamp": "2024-04-30T07:13:55Z",
            "version": 3,
            "changeset": 150692489,
            "user": "MarcoZampiva",
            "uid": 238904,
            "tags": {
                "addr:city": "Venezia",
                "addr:housenumber": "3870",
                "addr:place": "San Marco",
                "addr:postcode": "30124",
                "check_date": "2023-09-06",
                "currency:XBT": "yes",
                "description": "Servizi per la compravendita di immobili sia residenziali che commerciali; consulenze gestionali in tutte le fasi della trattativa.",
                "email": "agenziaquinvest@gmail.com",
                "name": "Quinvest Srl",
                "office": "estate_agent",
                "phone": "+39 041 8473628",
                "website": "https://www.quinvestagenzia.it"
            }
        },
        {
            "type": "node",
            "id": 10616413306,
            "lat": 45.6493422,
            "lon": 11.7884405,
            "timestamp": "2024-09-22T16:48:57Z",
            "version": 2,
            "changeset": 156960684,
            "user": "mpbin",
            "uid": 21850090,
            "tags": {
                "addr:city": "Cittadella",
                "addr:postcode": "35013",
                "addr:street": "Via Borgo Treviso",
                "check_date": "2024-09-22",
                "check_date:currency:XBT": "2024-09-22",
                "currency:XBT": "yes",
                "email": "leonardo@pegasodigitalstudio.com",
                "name": "Pegaso Digital Studio",
                "office": "advertising_agency",
                "opening_hours": "Mo-Sa 8:30-12:00, 15:00-19:00",
                "payment:lightning": "yes",
                "payment:lightning_contactless": "no",
                "payment:onchain": "yes",
                "phone": "+39 3478758148",
                "website": "https://www.pegasodigitalstudio.com/"
            }
        },
        {
            "type": "node",
            "id": 10788160129,
            "lat": 45.4586063,
            "lon": 12.2134184,
            "timestamp": "2023-08-02T13:13:40Z",
            "version": 3,
            "changeset": 139347502,
            "user": "Igor Bubelov",
            "uid": 2104834,
            "tags": {
                "addr:city": "Venezia",
                "addr:housenumber": "1",
                "addr:postcode": "30175",
                "addr:street": "Via Pietro Arduino",
                "check_date": "2023-08-02",
                "clothes": "men",
                "currency:XBT": "yes",
                "name": "DOPPELG\u00c4NGER",
                "phone": "041924659",
                "shop": "clothes",
                "website": "https://www.doppelganger.it/"
            }
        },
        {
            "type": "node",
            "id": 10834405910,
            "lat": 45.071072,
            "lon": 11.7875442,
            "timestamp": "2024-04-21T03:34:11Z",
            "version": 2,
            "changeset": 150285955,
            "user": "Rockedf",
            "uid": 7522075,
            "tags": {
                "addr:city": "Rovigo",
                "addr:housenumber": "141",
                "addr:postcode": "45100",
                "addr:street": "Corso del Popolo",
                "amenity": "restaurant",
                "check_date": "2024-04-21",
                "contact:instagram": "https://www.instagram.com/inkimakisushi/",
                "cuisine": "sushi",
                "currency:XBT": "yes",
                "name": "Inki Makisushi Rovigo",
                "payment:lightning": "yes",
                "payment:lightning_contactless": "no",
                "payment:onchain": "no",
                "phone": "+39 04 25168 5995",
                "website": "https://inki.it/"
            }
        },
        {
            "type": "node",
            "id": 10879354113,
            "lat": 45.370045,
            "lon": 11.922507,
            "timestamp": "2023-05-10T12:11:02Z",
            "version": 2,
            "changeset": 135933878,
            "user": "Chiarant",
            "uid": 18452174,
            "tags": {
                "addr:city": "Ponte San Nicol\u00f2",
                "addr:housenumber": "130",
                "addr:postcode": "35020",
                "addr:street": "Via Guglielmo Marconi",
                "addr:unit": "A",
                "amenity": "restaurant",
                "contact:facebook": "https://www.facebook.com/montenapoleonespaten/",
                "contact:instagram": "https://www.instagram.com/montenapoleonespaten/",
                "currency:XBT": "yes",
                "email": "ponte@ristorantimontenapoleone.com",
                "name": "SPATEN - BIRRERIA MONTENAPOLEONE",
                "payment:lightning": "yes",
                "payment:lightning_contactless": "yes",
                "payment:onchain": "no",
                "phone": "+39 0498882698",
                "survey:date": "2023-05-10",
                "website": "https://www.ristorantimontenapoleone.com/"
            }
        },
        {
            "type": "node",
            "id": 10945938353,
            "lat": 45.6366088,
            "lon": 11.7838331,
            "timestamp": "2024-10-08T19:02:44Z",
            "version": 7,
            "changeset": 157642146,
            "user": "mpbin",
            "uid": 21850090,
            "tags": {
                "addr:city": "Cittadella",
                "addr:housenumber": "56",
                "addr:postcode": "35013",
                "addr:street": "Via Beltramina",
                "addr:unit": "3",
                "check_date": "2024-10-08",
                "check_date:currency:XBT": "2024-10-08",
                "contact:facebook": "https://www.facebook.com/profile.php?id=100083076879992",
                "currency:XBT": "yes",
                "email": "m.beltramello@proton.me",
                "guest_house": "landlords_-_affittacamere",
                "internet_access": "wlan",
                "internet_access:fee": "customers",
                "name": "B&B - Beltramina Bedroom - Affitta Camere",
                "payment:cash": "yes",
                "payment:lightning": "yes",
                "payment:lightning_contactless": "yes",
                "payment:onchain": "yes",
                "phone": "+393498444285",
                "rooms": "3",
                "survey:date": "2023-06-03",
                "tourism": "guest_house",
                "website": "https://airbnb.com/h/beltraminabedroom1"
            }
        },
        {
            "type": "node",
            "id": 11331183190,
            "lat": 45.4583868,
            "lon": 12.2127619,
            "timestamp": "2023-11-07T14:04:09Z",
            "version": 1,
            "changeset": 143738826,
            "user": "Chiarant",
            "uid": 18452174,
            "tags": {
                "addr:city": "Venezia",
                "addr:housenumber": "20",
                "addr:postcode": "30175",
                "addr:street": "Via Pietro Arduino",
                "amenity": "fast_food",
                "check_date": "2023-11-07",
                "cuisine": "kebab",
                "currency:XBT": "yes",
                "name": "Kebhouze - Nave de Vero",
                "payment:lightning": "yes",
                "payment:lightning_contactless": "yes",
                "payment:onchain": "yes",
                "website": "https://kebhouze.com"
            }
        },
        {
            "type": "node",
            "id": 11404313408,
            "lat": 45.4451233,
            "lon": 12.3290784,
            "timestamp": "2024-07-06T07:04:13Z",
            "version": 5,
            "changeset": 153612433,
            "user": "mauropili",
            "uid": 1496865,
            "tags": {
                "addr:city": "Venezia",
                "addr:housenumber": "2690/A",
                "addr:postcode": "30121",
                "addr:street": "Sestiere Cannaregio",
                "amenity": "restaurant",
                "check_date:currency:XBT": "2024-02-28",
                "cuisine": "regional;italian",
                "currency:XBT": "yes",
                "currency:XBT:operator": "walletofsatoshi.com",
                "name": "Osteria Marcianino",
                "payment:lightning": "yes",
                "payment:onchain": "yes",
                "phone": "+39 041 476 7531",
                "survey:date": "2024-02-28"
            }
        },
        {
            "type": "node",
            "id": 11739288103,
            "lat": 45.5749982,
            "lon": 11.5445911,
            "timestamp": "2024-03-17T23:30:55Z",
            "version": 2,
            "changeset": 148793917,
            "user": "Legalbitcoin",
            "uid": 21205303,
            "tags": {
                "addr:city": "Vicenza",
                "addr:housenumber": "129",
                "addr:postcode": "36100",
                "addr:street": "Via dei Laghi",
                "check_date": "2024-03-17",
                "currency:XBT": "yes",
                "description": "Vendita prodotti JUST. Contattami su WhatsApp, sarai ricontattato appena possibile.",
                "name": "Guoli Patrizia- Prodotti JUST",
                "payment:lightning": "yes",
                "payment:lightning_contactless": "yes",
                "payment:onchain": "yes",
                "phone": "+39 340 693 9814 (solo WhatsApp)",
                "shop": "cosmetics"
            }
        },
        {
            "type": "node",
            "id": 11749080606,
            "lat": 45.6402384,
            "lon": 11.3730009,
            "timestamp": "2024-03-20T22:24:08Z",
            "version": 1,
            "changeset": 148936397,
            "user": "Rockedf",
            "uid": 7522075,
            "tags": {
                "addr:city": "Monte di Malo (VI)",
                "addr:housenumber": "3",
                "addr:postcode": "36030",
                "addr:street": "Via San Giorgio",
                "check_date": "2024-03-20",
                "contact:facebook": "https://www.facebook.com/sabrina.crystalglassart",
                "contact:instagram": "https://www.instagram.com/golinsabrina/",
                "currency:XBT": "yes",
                "name": "Sabrina Golin Art",
                "opening_hours": "Mo-Fr 08:00-12:00,14:00-20:00",
                "payment:lightning": "yes",
                "payment:lightning_contactless": "yes",
                "payment:onchain": "yes",
                "tourism": "gallery",
                "website": "https://www.sabrinacrystal.it/"
            }
        },
        {
            "type": "node",
            "id": 11812265884,
            "lat": 45.384531,
            "lon": 11.7844921,
            "timestamp": "2024-07-05T20:00:22Z",
            "version": 2,
            "changeset": 153602990,
            "user": "mauropili",
            "uid": 1496865,
            "tags": {
                "addr:city": "Selvazzano Dentro",
                "addr:housenumber": "151",
                "addr:postcode": "35030",
                "addr:street": "Via Euganea",
                "amenity": "pub",
                "check_date": "2024-04-12",
                "currency:XBT": "yes",
                "name": "Dalle Canaglie",
                "payment:lightning": "yes",
                "payment:lightning_contactless": "no",
                "payment:onchain": "no",
                "phone": "+39 04 9261 5718"
            }
        },
        {
            "type": "node",
            "id": 11822788620,
            "lat": 45.0653346,
            "lon": 11.7844629,
            "timestamp": "2024-04-16T18:59:00Z",
            "version": 1,
            "changeset": 150099311,
            "user": "Rockedf",
            "uid": 7522075,
            "tags": {
                "addr:city": "Rovigo",
                "addr:housenumber": "2",
                "addr:postcode": "45100",
                "addr:street": "Via Vittorio Veneto",
                "check_date": "2024-04-16",
                "currency:XBT": "yes",
                "name": "Trend Hair di Pasetto Rudi",
                "opening_hours": "Mo-Fr 08:30-19:30; Sa 08:30-19:00",
                "payment:lightning": "yes",
                "payment:lightning_contactless": "yes",
                "payment:onchain": "no",
                "phone": "+39 34 8711 3978",
                "shop": "hairdresser",
                "website": "https://tend-hair.net/"
            }
        },
        {
            "type": "node",
            "id": 11824889366,
            "lat": 45.0679373,
            "lon": 11.7881238,
            "timestamp": "2024-04-17T14:13:36Z",
            "version": 1,
            "changeset": 150132073,
            "user": "Rockedf",
            "uid": 7522075,
            "tags": {
                "addr:city": "Rovigo",
                "addr:housenumber": "33",
                "addr:postcode": "45100",
                "addr:street": "Via Nicola Badaloni",
                "check_date": "2024-04-17",
                "currency:XBT": "yes",
                "name": "La Verdura dei Santi",
                "payment:lightning": "yes",
                "payment:lightning_contactless": "no",
                "payment:onchain": "no",
                "phone": "+39 35 1917 9962",
                "shop": "greengrocer",
                "website": "https://laverduradeisanti.it/"
            }
        },
        {
            "type": "node",
            "id": 11824904423,
            "lat": 45.0679786,
            "lon": 11.788055,
            "timestamp": "2024-04-17T14:30:48Z",
            "version": 1,
            "changeset": 150132786,
            "user": "Rockedf",
            "uid": 7522075,
            "tags": {
                "addr:city": "Rovigo",
                "addr:housenumber": "33",
                "addr:postcode": "45100",
                "addr:street": "Via Nicola Badaloni",
                "addr:unit": "B",
                "check_date": "2024-04-17",
                "currency:XBT": "yes",
                "name": "Tabaccheria N. 7",
                "payment:lightning": "yes",
                "payment:lightning_contactless": "yes",
                "payment:onchain": "no",
                "phone": "+39 04 2509 0084",
                "shop": "tobacco"
            }
        },
        {
            "type": "node",
            "id": 11833115727,
            "lat": 45.0681037,
            "lon": 11.787879,
            "timestamp": "2024-04-20T14:51:13Z",
            "version": 1,
            "changeset": 150266875,
            "user": "Rockedf",
            "uid": 7522075,
            "tags": {
                "addr:city": "Rovigo",
                "addr:housenumber": "80",
                "addr:postcode": "45100",
                "addr:street": "Via Nicola Badaloni",
                "check_date": "2024-04-20",
                "currency:XBT": "yes",
                "name": "Coco' Parrucchieri",
                "payment:lightning": "yes",
                "payment:lightning_contactless": "no",
                "payment:onchain": "no",
                "phone": "+39 04 252 2037",
                "shop": "hairdresser_supply"
            }
        },
        {
            "type": "node",
            "id": 11833137935,
            "lat": 45.0741038,
            "lon": 11.7973561,
            "timestamp": "2024-04-20T15:01:02Z",
            "version": 1,
            "changeset": 150267289,
            "user": "Rockedf",
            "uid": 7522075,
            "tags": {
                "addr:city": "Rovigo",
                "addr:housenumber": "85",
                "addr:postcode": "45100",
                "addr:street": "Viale della Pace",
                "amenity": "restaurant",
                "check_date": "2024-04-20",
                "cuisine": "pizza",
                "currency:XBT": "yes",
                "name": "Speedy Pizza",
                "payment:lightning": "yes",
                "payment:lightning_contactless": "no",
                "payment:onchain": "no",
                "phone": "+39 04 253 3122"
            }
        },
        {
            "type": "node",
            "id": 11834059617,
            "lat": 45.0705892,
            "lon": 11.7888266,
            "timestamp": "2024-04-21T01:50:21Z",
            "version": 1,
            "changeset": 150284884,
            "user": "Rockedf",
            "uid": 7522075,
            "tags": {
                "addr:city": "Rovigo",
                "addr:housenumber": "157",
                "addr:postcode": "45100",
                "addr:street": "Corso del Popolo",
                "check_date": "2024-04-20",
                "currency:XBT": "yes",
                "name": "Orto in Corso",
                "payment:lightning": "yes",
                "payment:lightning_contactless": "no",
                "payment:onchain": "no",
                "phone": "+39 34 7734 0393",
                "shop": "greengrocer"
            }
        },
        {
            "type": "node",
            "id": 11834096056,
            "lat": 45.0712841,
            "lon": 11.7954225,
            "timestamp": "2024-04-21T02:39:12Z",
            "version": 1,
            "changeset": 150285324,
            "user": "Rockedf",
            "uid": 7522075,
            "tags": {
                "addr:city": "Rovigo",
                "addr:housenumber": "36",
                "addr:postcode": "45100",
                "addr:street": "Via Silvestri",
                "addr:unit": "38",
                "amenity": "bar",
                "check_date": "2024-04-20",
                "contact:facebook": "https://www.facebook.com/Le-Chat-Noir-759138697545989/",
                "currency:XBT": "yes",
                "name": "Le chat noir",
                "payment:lightning": "yes",
                "payment:lightning_contactless": "no",
                "payment:onchain": "no",
                "phone": "+39 32 9237 3299",
                "website": "https://www.lechatnoirbar.it/"
            }
        },
        {
            "type": "node",
            "id": 11834101066,
            "lat": 45.0707532,
            "lon": 11.7914037,
            "timestamp": "2024-04-21T02:30:51Z",
            "version": 1,
            "changeset": 150285248,
            "user": "Rockedf",
            "uid": 7522075,
            "tags": {
                "addr:city": "Rovigo",
                "addr:housenumber": "4",
                "addr:postcode": "45100",
                "addr:street": "Piazza Giuseppe Garibaldi",
                "check_date": "2024-04-20",
                "contact:email": "info@tosinitabacchi.it",
                "contact:facebook": "https://www.facebook.com/iqosrovigo",
                "contact:instagram": "https://www.instagram.com/iqosrovigo/",
                "currency:XBT": "yes",
                "name": "Tabaccheria Garibaldi",
                "payment:lightning": "yes",
                "payment:lightning_contactless": "no",
                "payment:onchain": "no",
                "phone": "+39 04 2520 0275",
                "shop": "tobacco",
                "website": "https://tabaccheriagaribaldi.it/"
            }
        },
        {
            "type": "node",
            "id": 11834187170,
            "lat": 45.0506244,
            "lon": 11.7829758,
            "timestamp": "2024-04-21T03:18:33Z",
            "version": 1,
            "changeset": 150285777,
            "user": "Rockedf",
            "uid": 7522075,
            "tags": {
                "addr:city": "Rovigo",
                "addr:housenumber": "90",
                "addr:postcode": "45100",
                "addr:street": "Via Luigi Einaudi",
                "addr:unit": "A",
                "check_date": "2024-04-20",
                "contact:email": "info@oldinktattoo.it",
                "contact:facebook": "https://www.facebook.com/oldinktattoorovigo/",
                "contact:instagram": "https://www.instagram.com/old_ink_tattoo_rovigo/?hl=en",
                "currency:XBT": "yes",
                "name": "Old Ink Tattoo Studio",
                "payment:lightning": "yes",
                "payment:lightning_contactless": "no",
                "payment:onchain": "yes",
                "phone": "+39 38 8473 1358",
                "shop": "tattoo",
                "website": "https://oldinktattoo.it/"
            }
        },
        {
            "type": "node",
            "id": 11836264303,
            "lat": 45.0720251,
            "lon": 11.7964567,
            "timestamp": "2024-04-22T02:06:40Z",
            "version": 1,
            "changeset": 150323943,
            "user": "Rockedf",
            "uid": 7522075,
            "tags": {
                "addr:city": "Rovigo",
                "addr:housenumber": "9",
                "addr:postcode": "45100",
                "addr:street": "Viale Erminia Fu\u00e0 Fusinato",
                "amenity": "restaurant",
                "check_date": "2024-04-22",
                "contact:facebook": "https://www.facebook.com/prosciuttiamoristoranterovigo/",
                "currency:XBT": "yes",
                "name": "Prosciuttiamo",
                "payment:lightning": "yes",
                "payment:lightning_contactless": "no",
                "payment:onchain": "no",
                "phone": "+39 04 252 6178"
            }
        },
        {
            "type": "node",
            "id": 11837695495,
            "lat": 45.0703555,
            "lon": 11.7914006,
            "timestamp": "2024-04-22T14:44:44Z",
            "version": 1,
            "changeset": 150350804,
            "user": "Rockedf",
            "uid": 7522075,
            "tags": {
                "addr:city": "Rovigo",
                "addr:housenumber": "1",
                "addr:postcode": "45100",
                "addr:street": "Via Dieci luglio",
                "check_date": "2024-04-22",
                "currency:XBT": "yes",
                "name": "Avignon",
                "payment:lightning": "yes",
                "payment:lightning_contactless": "yes",
                "payment:onchain": "no",
                "phone": "+39 04 2520 0027",
                "shop": "clothes"
            }
        },
        {
            "type": "node",
            "id": 11848020162,
            "lat": 45.0696853,
            "lon": 11.7935393,
            "timestamp": "2024-04-25T18:12:35Z",
            "version": 1,
            "changeset": 150508862,
            "user": "Rockedf",
            "uid": 7522075,
            "tags": {
                "addr:city": "Rovigo",
                "addr:housenumber": "2",
                "addr:postcode": "45100",
                "addr:street": "Via Luigi Boscolo",
                "amenity": "cafe",
                "check_date": "2024-04-25",
                "currency:XBT": "yes",
                "name": "Bad Wolf Caf\u00e9",
                "payment:lightning": "yes",
                "payment:lightning_contactless": "no",
                "payment:onchain": "no",
                "phone": "+39 32 7713 9947"
            }
        },
        {
            "type": "node",
            "id": 11848051720,
            "lat": 45.0769004,
            "lon": 11.7873506,
            "timestamp": "2024-04-25T18:20:26Z",
            "version": 1,
            "changeset": 150509180,
            "user": "Rockedf",
            "uid": 7522075,
            "tags": {
                "addr:city": "Rovigo",
                "addr:housenumber": "4",
                "addr:postcode": "45100",
                "addr:street": "Largo Fratelli Bandiera",
                "amenity": "bar",
                "check_date": "2024-04-25",
                "currency:XBT": "yes",
                "name": "Bar Commenda",
                "payment:lightning": "yes",
                "payment:lightning_contactless": "no",
                "payment:onchain": "no",
                "phone": "+39 34 5762 7308"
            }
        },
        {
            "type": "node",
            "id": 11866205904,
            "lat": 45.0639892,
            "lon": 11.7842022,
            "timestamp": "2024-04-29T13:06:30Z",
            "version": 1,
            "changeset": 150662956,
            "user": "Rockedf",
            "uid": 7522075,
            "tags": {
                "addr:city": "Rovigo",
                "addr:housenumber": "29",
                "addr:postcode": "45100",
                "addr:street": "Via Vittorio Veneto",
                "check_date": "2024-04-29",
                "currency:XBT": "yes",
                "name": "Salone Maria Grazia Prandini",
                "payment:lightning": "yes",
                "payment:lightning_contactless": "no",
                "payment:onchain": "no",
                "phone": "+39 04 2542 2310",
                "shop": "hairdresser"
            }
        },
        {
            "type": "node",
            "id": 11902287309,
            "lat": 45.6684186,
            "lon": 11.395146,
            "timestamp": "2024-10-11T21:00:49Z",
            "version": 6,
            "changeset": 157773469,
            "user": "mpbin",
            "uid": 21850090,
            "tags": {
                "addr:city": "Malo",
                "addr:housenumber": "26",
                "addr:postcode": "36034",
                "addr:street": "Via VIII Marzo",
                "contact:email": "info@saloneniko.it",
                "contact:facebook": "https://www.facebook.com/saloneniko.malo",
                "contact:instagram": "https://www.instagram.com/saloneniko/",
                "currency:XBT": "yes",
                "email": "info@saloneniko.it",
                "name": "SALONE NIKO",
                "note": "Taglio, Tecniche del colore, Permanente e stiratura, Asciugatura, Acconciatura, extension. E' gradito l'appuntamento",
                "payment:lightning": "yes",
                "payment:lightning_contactless": "yes",
                "payment:onchain": "no",
                "phone": "+39 0445 602518",
                "shop": "hairdresser",
                "survey:date": "2024-05-11",
                "website": "https://saloneniko.it/"
            }
        },
        {
            "type": "node",
            "id": 11975303381,
            "lat": 45.4030901,
            "lon": 11.691016,
            "timestamp": "2024-06-12T12:30:05Z",
            "version": 1,
            "changeset": 152585259,
            "user": "Chiarant",
            "uid": 18452174,
            "tags": {
                "addr:city": "Fossona",
                "addr:housenumber": "148",
                "addr:postcode": "35030",
                "addr:street": "Via Roma",
                "check_date": "2024-06-12",
                "currency:XBT": "yes",
                "email": "gioielli@lineagem.it",
                "name": "Lineagem S.p.A.",
                "shop": "jewelry",
                "website": "https://www.lineagem.it/"
            }
        },
        {
            "type": "node",
            "id": 12146085710,
            "lat": 45.6599593,
            "lon": 12.2534554,
            "timestamp": "2024-08-30T12:37:48Z",
            "version": 1,
            "changeset": 155972100,
            "user": "mpbin",
            "uid": 21850090,
            "tags": {
                "addr:city": "Treviso",
                "addr:housenumber": "31",
                "addr:postcode": "31100",
                "addr:street": "Via Sebastiano Venier",
                "consulting": "bitcoin",
                "contact:telegram": "https://t.me/Suhaci",
                "currency:XBT": "yes",
                "description": "Consulenza Aziendale",
                "email": "consulting@suhaci.com",
                "name": "Suhaci Consulting",
                "office": "consulting",
                "payment:lightning": "no",
                "phone": "+39 340 389 3512",
                "website": "https://www.suhaci.com/"
            }
        }
    ],
    "telegram": [
        {
            "telegram": "b-veneto"
        },
        {
            "telegram": "ss-padova"
        }
    ]
}