{
    "id": "parma",
    "name": "Parma",
    "lng": 44.926589750000005,
    "lat": 10.01094045,
    "poi": [
        {
            "type": "node",
            "id": 4513679325,
            "lat": 44.6953631,
            "lon": 10.4970745,
            "timestamp": "2023-11-17T18:12:13Z",
            "version": 4,
            "changeset": 144149891,
            "user": "toponomastica_comune_arenzano",
            "uid": 14257573,
            "tags": {
                "addr:city": "Barco",
                "addr:housenumber": "34a",
                "addr:postcode": "42021",
                "addr:street": "Via Nazario Sauro",
                "check_date": "2023-04-26",
                "currency:XBT": "yes",
                "email": "info@senso-unico.net",
                "name": "Senso Unico snc grafica & Design",
                "office": "graphic_design",
                "phone": "0522372351",
                "website": "https://www.senso-unico.net"
            }
        },
        {
            "type": "node",
            "id": 4755101621,
            "lat": 44.7742289,
            "lon": 10.3230526,
            "timestamp": "2023-11-21T22:38:33Z",
            "version": 2,
            "changeset": 144305159,
            "user": "Chiarant",
            "uid": 18452174,
            "tags": {
                "addr:city": "Parma",
                "addr:housenumber": "136a",
                "addr:postcode": "43124",
                "addr:street": "Strada Langhirano",
                "check_date": "2023-11-21",
                "contact:facebook": "https://www.facebook.com/people/Tennispro-Parma/100063702842288/",
                "currency:XBT": "yes",
                "email": "tennisproparma@tennispro.it",
                "name": "Tennispro Parma",
                "payment:lightning": "yes",
                "payment:onchain": "yes",
                "phone": "+39 0521 929790",
                "shop": "sports",
                "sport": "tennis;padel",
                "website": "https://www.tennispro.it/"
            }
        },
        {
            "type": "node",
            "id": 4756783299,
            "lat": 44.8610971,
            "lon": 10.0676522,
            "timestamp": "2024-03-14T17:04:28Z",
            "version": 2,
            "changeset": 148652536,
            "user": "Chiarant",
            "uid": 18452174,
            "tags": {
                "addr:city": "Fidenza",
                "addr:housenumber": "3",
                "addr:postcode": "43036",
                "addr:street": "Via Francesco Baracca",
                "check_date": "2024-03-14",
                "contact:facebook": "https://www.facebook.com/p/Dolcepasta-Cavallo-100064162410169/",
                "currency:XBT": "yes",
                "description": "Siamo un laboratorio/vendita di pasta fresca, dolci caserecci e piccola gastronomia.\nTutto esclusivamente di nostra produzione.",
                "name": "DolcePasta Cavallo di Dioni Barbara",
                "payment:lightning": "yes",
                "payment:lightning_contactless": "no",
                "payment:onchain": "no",
                "phone": "+39 347 149 5268",
                "shop": "pasta"
            }
        },
        {
            "type": "node",
            "id": 5351518575,
            "lat": 45.3020694,
            "lon": 9.7554851,
            "timestamp": "2024-06-18T11:33:47Z",
            "version": 11,
            "changeset": 152844218,
            "user": "descubrebitcoin",
            "uid": 17565129,
            "tags": {
                "addr:city": "Castelleone",
                "addr:housenumber": "9",
                "addr:postcode": "26012",
                "addr:street": "Via Mariani",
                "amenity": "dentist",
                "check_date:currency:XBT": "2018-01-20",
                "currency:XBT": "yes",
                "email": "mar_anti@yahoo.it",
                "healthcare": "dentist",
                "healthcare:speciality": "orthodontics",
                "name": "Studio dentistico dott. Marco Antinori",
                "operator": "Dott. Marco Antinori",
                "payment:litecoin": "yes",
                "phone": "+39 037457727",
                "website": "http://studioantinori.com"
            }
        },
        {
            "type": "node",
            "id": 5742258055,
            "lat": 45.1336971,
            "lon": 10.0232059,
            "timestamp": "2023-06-02T13:31:15Z",
            "version": 4,
            "changeset": 136868712,
            "user": "paulbrunner",
            "uid": 15541433,
            "tags": {
                "addr:city": "Cremona",
                "addr:housenumber": "20",
                "addr:postcode": "26100",
                "addr:street": "Piazza Antonio Stradivari",
                "amenity": "cafe",
                "check_date": "2022-12-20",
                "currency:XBT": "yes",
                "name": "Chocabeck",
                "opening_hours": "Tu-Fr 12:00-15:00,18:00-26:00",
                "operator": "Mama S.r.l.",
                "payment:lightning": "yes",
                "payment:onchain": "yes",
                "phone": "+39037234988",
                "ref:vatin": "IT01572680195",
                "website": "https://chocabeck.net/"
            }
        },
        {
            "type": "node",
            "id": 6185696785,
            "lat": 45.1336065,
            "lon": 10.0227861,
            "timestamp": "2024-03-03T11:08:27Z",
            "version": 3,
            "changeset": 148161072,
            "user": "Chiarant",
            "uid": 18452174,
            "tags": {
                "addr:city": "Cremona",
                "addr:housenumber": "17",
                "addr:postcode": "26100",
                "addr:street": "Piazza Antonio Stradivari",
                "amenity": "bar",
                "check_date": "2024-03-03",
                "currency:XBT": "yes",
                "name": "Di Bianco",
                "payment:lightning": "no",
                "payment:onchain": "yes"
            }
        },
        {
            "type": "node",
            "id": 6758886855,
            "lat": 44.8432632,
            "lon": 10.0157361,
            "timestamp": "2024-07-19T07:09:21Z",
            "version": 10,
            "changeset": 154129936,
            "user": "Som",
            "uid": 80203,
            "tags": {
                "addr:city": "Fidenza",
                "addr:housenumber": "32",
                "addr:place": "Ponte Ghiara",
                "addr:postcode": "43036",
                "amenity": "restaurant",
                "check_date:currency:XBT": "2023-12-17",
                "contact:email": "info@bar50special.it",
                "contact:facebook": "https://www.facebook.com/bar50special/",
                "cuisine": "pizza;coffee_shop;italian",
                "currency:XBT": "yes",
                "email": "info@bar50special.it",
                "name": "50 Special",
                "opening_hours": "Mo-Su 07:00-01:30",
                "payment:lightning": "yes",
                "payment:lightning_contactless": "yes",
                "payment:onchain": "no",
                "phone": "+39 0524 202364"
            }
        },
        {
            "type": "node",
            "id": 6961538410,
            "lat": 45.2942693,
            "lon": 9.7636712,
            "timestamp": "2023-11-03T20:49:15Z",
            "version": 5,
            "changeset": 143591052,
            "user": "b-jazz-bot",
            "uid": 9451067,
            "tags": {
                "addr:city": "Castelleone",
                "addr:housenumber": "5",
                "addr:postcode": "26012",
                "addr:street": "Via Garibaldi",
                "air_conditioning": "yes",
                "check_date:currency:XBT": "2022-12-09",
                "craft": "photographer",
                "currency:XBT": "yes",
                "email": "info@fotorizzotti.it",
                "internet_access": "wlan",
                "name": "Foto Rizzotti",
                "payment:lightning": "yes",
                "payment:onchain": "yes",
                "phone": "+39 0374350151",
                "website": "https://www.fotorizzotti.it/",
                "wheelchair": "yes"
            }
        },
        {
            "type": "node",
            "id": 10250750357,
            "lat": 45.3462702,
            "lon": 10.1350625,
            "timestamp": "2022-12-10T14:01:40Z",
            "version": 1,
            "changeset": 129934597,
            "user": "saunter",
            "uid": 10396321,
            "tags": {
                "addr:city": "Manerbio",
                "addr:housenumber": "10",
                "addr:postcode": "25025",
                "addr:street": "Via Cremona",
                "amenity": "fast_food",
                "check_date": "2022-12-12",
                "cuisine": "italian;sandwich",
                "currency:XBT": "yes",
                "name": "La Piadineria",
                "payment:lightning": "yes",
                "payment:onchain": "yes",
                "phone": "+390309938067",
                "website": "https://www.lapiadineria.com/"
            }
        },
        {
            "type": "node",
            "id": 10273236375,
            "lat": 45.2226058,
            "lon": 9.7706893,
            "timestamp": "2024-08-31T16:40:12Z",
            "version": 2,
            "changeset": 156023778,
            "user": "mpbin",
            "uid": 21850090,
            "tags": {
                "addr:city": "Formigara",
                "addr:housenumber": "1",
                "addr:postcode": "26020",
                "addr:street": "Via Castello",
                "check_date": "2022-12-19",
                "contact:facebook": "https://www.facebook.com/MaisCorvino/",
                "contact:instagram": "https://www.instagram.com/mais_corvino/",
                "currency:XBT": "yes",
                "email": "info@maiscorvino.it",
                "name": "Mais Corvino",
                "payment:lightning": "yes",
                "payment:onchain": "yes",
                "phone": "+393477191733",
                "shop": "health_food",
                "website": "https://www.maiscorvino.it/"
            }
        },
        {
            "type": "node",
            "id": 10801651077,
            "lat": 44.7897656,
            "lon": 10.3061159,
            "timestamp": "2023-08-04T07:38:33Z",
            "version": 4,
            "changeset": 139427358,
            "user": "Igor Bubelov",
            "uid": 2104834,
            "tags": {
                "addr:city": "Parma",
                "addr:housenumber": "8",
                "addr:postcode": "43125",
                "addr:street": "Via Carlo Porta",
                "check_date": "2023-04-11",
                "contact:facebook": "https://www.facebook.com/mytrico",
                "currency:XBT": "yes",
                "description": "Studio di Tricopigmentazione & Osteopatia",
                "email": "info@mytrico.it",
                "healthcare": "alternative",
                "healthcare:speciality": "osteopathy",
                "name": "MyTrico Studio",
                "website": "https://www.mytrico.it/"
            }
        },
        {
            "type": "node",
            "id": 10844464866,
            "lat": 45.3120876,
            "lon": 9.9985,
            "timestamp": "2024-08-31T16:22:43Z",
            "version": 3,
            "changeset": 156023018,
            "user": "mpbin",
            "uid": 21850090,
            "tags": {
                "addr:city": "Quinzano D'Oglio",
                "addr:housenumber": "30",
                "addr:postcode": "25027",
                "addr:street": "Via Luigi Ciocca",
                "check_date": "2023-04-26",
                "currency:XBT": "yes",
                "email": "info@2fsas.com",
                "name": "2F Computer",
                "phone": "+390309924331",
                "shop": "computer",
                "website": "https://www.2fsas.com"
            }
        },
        {
            "type": "node",
            "id": 11104778454,
            "lat": 44.8156263,
            "lon": 9.9773502,
            "timestamp": "2023-08-10T13:46:45Z",
            "version": 2,
            "changeset": 139708317,
            "user": "Chiarant",
            "uid": 18452174,
            "tags": {
                "addr:city": "Salsomaggiore Terme",
                "addr:housenumber": "9",
                "addr:postcode": "43039",
                "addr:street": "Via Loschi",
                "check_date": "2023-08-10",
                "contact:facebook": "https://www.facebook.com/diegopaccini.macelleria.streetfood.catering/",
                "currency:XBT": "yes",
                "email": "info@diegopaccini.it",
                "name": "Macelleria Paccini",
                "payment:lightning": "yes",
                "payment:onchain": "yes",
                "phone": "+39 0524 573219",
                "shop": "butcher",
                "website": "https://diegopaccini.it/"
            }
        },
        {
            "type": "node",
            "id": 11693941996,
            "lat": 44.7975679,
            "lon": 10.3312786,
            "timestamp": "2024-06-11T20:21:57Z",
            "version": 3,
            "changeset": 152560566,
            "user": "Rockedf",
            "uid": 7522075,
            "tags": {
                "addr:city": "Parma",
                "addr:housenumber": "65",
                "addr:postcode": "43121",
                "addr:street": "Borgo Felino",
                "amenity": "atm",
                "cash_in": "yes",
                "cash_out": "yes",
                "cash_withdrawal": "yes",
                "contact:email": "support@shitcoins.club",
                "contact:facebook": "https://www.facebook.com/shitcoins.club",
                "contact:instagram": "https://www.instagram.com/shitcoinsclub",
                "contact:telegram": "https://t.me/shitcoinsclub",
                "contact:twitter": "https://twitter.com/BitomatCom",
                "currency:CAD": "yes",
                "currency:CHF": "yes",
                "currency:DASH": "yes",
                "currency:ETH": "yes",
                "currency:EUR": "yes",
                "currency:HUF": "yes",
                "currency:LTC": "yes",
                "currency:RON": "yes",
                "currency:USD": "yes",
                "currency:USDC": "yes",
                "currency:USDT": "yes",
                "currency:XBT": "yes",
                "description": "L'ATM Bitcoin a Parma si trova accanto all'enoteca Bottiglia Azzurra ed \u00e8 aperto 24/7",
                "indoor": "yes",
                "name": "Bitcoin ATM - Shitcoins.club",
                "network": "shitcoins.club",
                "opening_hours": "24/7",
                "operator": "Shitcoins.club",
                "payment:cash": "yes",
                "payment:onchain": "yes",
                "phone": "+39 34 8048 7308",
                "survey:date": "2024-03-04",
                "website": "https://shitcoins.club/localizzazione-atm/atm-bitcoin-parma-borgo-felino"
            }
        },
        {
            "type": "node",
            "id": 11907356017,
            "lat": 45.1588719,
            "lon": 10.1061461,
            "timestamp": "2024-05-25T12:09:19Z",
            "version": 6,
            "changeset": 151808304,
            "user": "Rockedf",
            "uid": 7522075,
            "tags": {
                "addr:city": "Gadesco Pieve Delmona",
                "addr:country": "IT",
                "addr:housenumber": "20",
                "addr:postcode": "26030",
                "addr:street": "Via Sandro Pertini",
                "amenity": "marketplace",
                "check_date:currency:XBT": "2024-05-25",
                "currency:XBT": "yes",
                "name": "Spend Your Sats",
                "payment:lightning": "yes",
                "payment:lightning_contactless": "yes",
                "payment:onchain": "yes",
                "website": "https://www.spendsats.org"
            }
        }
    ],
    "telegram": [
        {
            "telegram": "bitcoin-parma"
        },
        {
            "telegram": "ss-parma-e-piacenza"
        }
    ]
}