{
    "id": "pordenone",
    "name": "Pordenone",
    "lng": 45.9628504,
    "lat": 12.6551973,
    "poi": [
        {
            "type": "node",
            "id": 1397194006,
            "lat": 46.1517185,
            "lon": 12.9991398,
            "timestamp": "2024-05-08T05:08:59Z",
            "version": 5,
            "changeset": 151036542,
            "user": "Igor Bubelov",
            "uid": 2104834,
            "tags": {
                "addr:city": "San Daniele del Friuli",
                "addr:housenumber": "1",
                "addr:postcode": "33038",
                "addr:street": "Via Europa",
                "amenity": "restaurant",
                "check_date:currency:XBT": "2024-05-07",
                "cuisine": "pizza",
                "currency:XBT": "yes",
                "name": "Julia e Brutus Pizza e Bistrot",
                "payment:lightning": "yes",
                "payment:onchain": "yes",
                "phone": "+39.0432.847.792"
            }
        },
        {
            "type": "node",
            "id": 2739044697,
            "lat": 46.0313863,
            "lon": 13.2576341,
            "timestamp": "2023-09-26T14:10:03Z",
            "version": 19,
            "changeset": 141776593,
            "user": "descubrebitcoin",
            "uid": 17565129,
            "tags": {
                "addr:city": "Udine",
                "addr:housenumber": "420",
                "addr:postcode": "33100",
                "addr:street": "Viale Palmanova",
                "amenity": "atm",
                "cash_in": "yes",
                "cash_out": "no",
                "cash_withdrawal": "no",
                "check_date": "2023-09-26",
                "currency:EUR": "yes",
                "currency:XBT": "yes",
                "currency:others": "no",
                "indoor": "yes",
                "language:fur": "yes",
                "language:it": "yes",
                "manufacturer": "Lamassu",
                "name": "Distributore Lamassu",
                "opening_hours": "Mo-Fr 08:00-20:00; Sa 09:00-13:00",
                "operator": "GavriloBTC",
                "payment:cash": "yes",
                "payment:coins": "no",
                "payment:credit_cards": "no",
                "payment:debit_cards": "no",
                "payment:lightning": "no",
                "payment:lightning_contactless": "no",
                "payment:notes": "yes",
                "payment:onchain": "yes",
                "start_date": "2014-02-20",
                "url": "https://coinatmradar.com/bitcoin_atm/111/bitcoin-atm-lamassu-udine-gavrilobtc-headquarters/"
            }
        },
        {
            "type": "node",
            "id": 3748981441,
            "lat": 46.0561112,
            "lon": 13.2300291,
            "timestamp": "2024-07-20T20:51:25Z",
            "version": 4,
            "changeset": 154195620,
            "user": "mauropili",
            "uid": 1496865,
            "tags": {
                "addr:city": "Udine",
                "addr:housenumber": "33",
                "addr:postcode": "33100",
                "addr:street": "Via Antonio Marangoni",
                "check_date": "2023-12-05",
                "contact:linkedin": "https://www.linkedin.com/in/christian-visintin/",
                "contact:twitter": "https://x.com/veeso_dev",
                "currency:XBT": "yes",
                "email": "christian.visintin@veeso.dev",
                "name": "Veeso Web Design",
                "office": "consulting",
                "opening_hours": "Mo-Fr 09:00-18:00",
                "payment:lightning": "yes",
                "payment:onchain": "yes",
                "phone": "+39 379 261 5635",
                "website": "https://veeso.dev/"
            }
        },
        {
            "type": "node",
            "id": 3765116375,
            "lat": 45.9582864,
            "lon": 12.6622506,
            "timestamp": "2024-07-20T20:53:38Z",
            "version": 7,
            "changeset": 154195679,
            "user": "mauropili",
            "uid": 1496865,
            "tags": {
                "addr:city": "Pordenone",
                "addr:housenumber": "5",
                "addr:postcode": "33170",
                "addr:street": "Piazzetta dei Domenicani",
                "check_date:currency:XBT": "2023-03-03",
                "contact:facebook": "https://www.facebook.com/FrancoPadovanZETA",
                "contact:linkedin": "https://www.linkedin.com/in/franco-padovan-0b232b107/",
                "currency:XBT": "yes",
                "name": "Zeta Gold Banco Metalli",
                "shop": "gold_buyer",
                "website": "https://www.francopadovan.com/"
            }
        },
        {
            "type": "node",
            "id": 3784381012,
            "lat": 46.1098938,
            "lon": 13.2285273,
            "timestamp": "2024-07-10T11:31:54Z",
            "version": 3,
            "changeset": 153779943,
            "user": "Chiarant",
            "uid": 18452174,
            "tags": {
                "addr:city": "Tavagnacco",
                "addr:housenumber": "66",
                "addr:postcode": "33010",
                "addr:street": "Via Nazionale",
                "amenity": "restaurant",
                "check_date": "2024-07-10",
                "currency:XBT": "yes",
                "name": "Il Melograno",
                "payment:lightning": "yes",
                "payment:onchain": "yes",
                "phone": "+39 0432 1447002",
                "survey:date": "2024-02-02",
                "website": "https://ilmelograno.online/"
            }
        },
        {
            "type": "node",
            "id": 3788852578,
            "lat": 46.1113684,
            "lon": 12.8992771,
            "timestamp": "2024-07-20T20:55:34Z",
            "version": 3,
            "changeset": 154195728,
            "user": "mauropili",
            "uid": 1496865,
            "tags": {
                "addr:city": "Spilimbergo",
                "addr:housenumber": "1",
                "addr:postcode": "33097",
                "addr:street": "Corso Roma",
                "check_date": "2024-02-19",
                "contact:facebook": "https://www.facebook.com/ValberShop/",
                "currency:XBT": "yes",
                "email": "info@valbershop.it",
                "name": "Valber Shop",
                "phone": "+39 0427 731290",
                "shop": "clothes",
                "website": "https://www.valbershop.it/"
            }
        },
        {
            "type": "node",
            "id": 3887586481,
            "lat": 46.1693851,
            "lon": 12.7043867,
            "timestamp": "2024-02-19T21:13:40Z",
            "version": 2,
            "changeset": 147668418,
            "user": "Chiarant",
            "uid": 18452174,
            "tags": {
                "addr:city": "Maniago",
                "addr:housenumber": "2",
                "addr:postcode": "33085",
                "addr:street": "Via Alessandro Manzoni",
                "check_date": "2024-02-19",
                "currency:XBT": "yes",
                "email": "info@valbershop.it",
                "name": "Valber Shop",
                "phone": "+39 0427 731290",
                "shop": "clothes",
                "website": "https://www.valbershop.it/"
            }
        },
        {
            "type": "node",
            "id": 4531889985,
            "lat": 45.6851608,
            "lon": 12.2466798,
            "timestamp": "2024-06-14T12:39:05Z",
            "version": 5,
            "changeset": 152676259,
            "user": "Rockedf",
            "uid": 7522075,
            "tags": {
                "addr:city": "Treviso",
                "addr:country": "IT",
                "addr:housenumber": "24",
                "addr:postcode": "31100",
                "addr:street": "Via dei Da Prata",
                "amenity": "restaurant",
                "check_date": "2022-12-12",
                "check_date:currency:XBT": "2024-06-14",
                "currency:XBT": "yes",
                "name": "Bastian Osteria",
                "opening_hours": "Mo-Fr 12:00-15:00,18:00-26:00; Sa 18:00-26:00; Su 16:30-26:00",
                "payment:lightning": "no",
                "payment:lightning_contactless": "no",
                "payment:onchain": "yes",
                "phone": "+390422424391",
                "website": "https://bastianosteria.it/"
            }
        },
        {
            "type": "node",
            "id": 5770912521,
            "lat": 45.989237,
            "lon": 12.29552,
            "timestamp": "2023-07-19T13:50:49Z",
            "version": 5,
            "changeset": 138719050,
            "user": "saunter",
            "uid": 10396321,
            "tags": {
                "addr:city": "Vittorio Veneto",
                "addr:housenumber": "2",
                "addr:postcode": "31029",
                "addr:street": "Largo Felice Cavallotti",
                "check_date:currency:XBT": "2023-07-19",
                "currency:XBT": "yes",
                "description": "Rivendita sali e tabacchi, articoli da fumo e lotto.",
                "email": "sasakiperin@gmail.com",
                "name": "Tabaccheria al Quadrilatero",
                "shop": "tobacco",
                "website": "https://www.facebook.com/tabaccheriaquadrilatero"
            }
        },
        {
            "type": "node",
            "id": 5954144929,
            "lat": 45.850341,
            "lon": 12.881855,
            "timestamp": "2023-07-21T13:50:08Z",
            "version": 4,
            "changeset": 138814862,
            "user": "saunter",
            "uid": 10396321,
            "tags": {
                "addr:city": "Cordovado",
                "addr:postcode": "33075",
                "addr:street": "Piazza Cecchini",
                "check_date:currency:XBT": "2023-07-21",
                "currency:XBT": "yes",
                "description": "Vendita piante e fiori ambulante presso mercato settimanale del gioved\u00ec.",
                "email": "luana@montinofiori.it",
                "name": "MontinoFiori",
                "shop": "florist",
                "website": "http://www.montinofiori.it"
            }
        },
        {
            "type": "node",
            "id": 5959527686,
            "lat": 45.808581,
            "lon": 12.995961,
            "timestamp": "2023-07-21T13:49:48Z",
            "version": 4,
            "changeset": 138814842,
            "user": "saunter",
            "uid": 10396321,
            "tags": {
                "addr:city": "Ronchis",
                "addr:postcode": "33050",
                "addr:street": "Piazzetta Giovanni Battista Trombetta",
                "check_date:currency:XBT": "2023-07-21",
                "currency:XBT": "yes",
                "description:it": "Vendita piante e fiori ambulante presso mercato settimanale del venerd\u00ec.",
                "email": "maurizio@montinofiori.it",
                "name": "MontinoFiori",
                "shop": "florist",
                "website": "http://www.montinofiori.it"
            }
        },
        {
            "type": "node",
            "id": 6477573230,
            "lat": 46.0489313,
            "lon": 12.0524223,
            "timestamp": "2024-04-17T10:38:51Z",
            "version": 4,
            "changeset": 150122040,
            "user": "Igor Bubelov",
            "uid": 2104834,
            "tags": {
                "addr:city": "Mel",
                "addr:housenumber": "65",
                "addr:postcode": "32026",
                "addr:street": "Via Campo San Pietro",
                "check_date": "2024-04-17",
                "currency:XBT": "yes",
                "email": "info@ramcomputers.org",
                "name": "RAM Computers",
                "payment:bitcoin:operator": "inbitcoin.it",
                "phone": "+390437552344",
                "shop": "computer",
                "website": "https://ramcomputers.org"
            }
        },
        {
            "type": "node",
            "id": 9391569155,
            "lat": 45.6688905,
            "lon": 12.2412925,
            "timestamp": "2024-04-14T08:44:34Z",
            "version": 4,
            "changeset": 149981812,
            "user": "Chiarant",
            "uid": 18452174,
            "tags": {
                "addr:city": "Treviso",
                "addr:housenumber": "54",
                "addr:postcode": "31100",
                "addr:street": "Viale Bartolomeo D'Alviano",
                "amenity": "atm",
                "check_date": "2024-04-14",
                "currency:XBT": "yes",
                "description": "Bitcoin ATM che permette di acquistare Bitcoin, Ethereum, Litecoin, Dogecoin, Bitcoin Cash, Dash, Monero. L'ATM \u00e8 situato all'interno del BAR 98.",
                "email": "support@cryptolocalatm.com",
                "name": "CryptoLocalATM c/o BAR 98",
                "payment:onchain": "yes",
                "phone": "+447894438974",
                "website": "https://cryptolocalatm.com"
            }
        },
        {
            "type": "node",
            "id": 9961635885,
            "lat": 45.7915148,
            "lon": 12.8154246,
            "timestamp": "2024-02-15T03:32:45Z",
            "version": 7,
            "changeset": 147473116,
            "user": "Igor Bubelov",
            "uid": 2104834,
            "tags": {
                "addr:city": "Portogruaro",
                "addr:housenumber": "29",
                "addr:postcode": "30026",
                "addr:street": "Via Prati Guori",
                "addr:unit": "12",
                "check_date": "2023-05-12",
                "clothes": "men",
                "currency:XBT": "yes",
                "name": "Nuvolari",
                "opening_hours": "Mo-Fr 09:30-20:00; Sa 09:00-20:00; Su 10:00-20:00",
                "payment:lightning": "no",
                "payment:lightning_contactless": "no",
                "payment:onchain": "yes",
                "phone": "+39 0421 280343",
                "shop": "clothes",
                "website": "https://www.nuvolari.biz/",
                "wheelchair": "yes"
            }
        },
        {
            "type": "node",
            "id": 10220094327,
            "lat": 45.6368266,
            "lon": 13.0492561,
            "timestamp": "2024-09-22T16:46:19Z",
            "version": 3,
            "changeset": 156960554,
            "user": "mpbin",
            "uid": 21850090,
            "tags": {
                "addr:city": "Bibione",
                "addr:postcode": "30028",
                "addr:street": "Via dell'Acquario",
                "check_date": "2024-09-22",
                "check_date:currency:XBT": "2024-09-22",
                "currency:XBT": "yes",
                "description": "Rental of eco-friendly apartments",
                "email": "info@villalisy.com",
                "internet_access": "wlan",
                "name": "Villa Lisy",
                "payment:lightning": "yes",
                "payment:lightning_contactless": "no",
                "payment:onchain": "no",
                "phone": "+39 347 382 806",
                "tourism": "apartment",
                "website": "https://www.villalisy.com"
            }
        },
        {
            "type": "node",
            "id": 10718692223,
            "lat": 45.9584492,
            "lon": 12.6586746,
            "timestamp": "2024-02-19T21:10:46Z",
            "version": 2,
            "changeset": 147668334,
            "user": "Chiarant",
            "uid": 18452174,
            "tags": {
                "addr:city": "Pordenone",
                "addr:housenumber": "29",
                "addr:postcode": "33170",
                "addr:street": "Piazzale Venti Settembre",
                "check_date": "2024-02-19",
                "currency:XBT": "yes",
                "email": "info@valbershop.it",
                "name": "Valber Shop - Only Pordenone",
                "phone": "+39 0434 177 7825",
                "shop": "clothes",
                "website": "https://www.valbershop.it/"
            }
        },
        {
            "type": "node",
            "id": 11080635396,
            "lat": 45.9639713,
            "lon": 12.273031,
            "timestamp": "2023-10-14T15:03:10Z",
            "version": 3,
            "changeset": 142580671,
            "user": "Rockedf",
            "uid": 7522075,
            "tags": {
                "addr:city": "Cozzuolo, Vittorio Veneto",
                "addr:housenumber": "13",
                "addr:postcode": "31020",
                "addr:street": "Via San Mor",
                "amenity": "restaurant",
                "check_date:currency:XBT": "2023-10-14",
                "cuisine": "regional;italian",
                "currency:XBT": "yes",
                "diet:healthy": "yes",
                "diet:local": "yes",
                "diet:meat": "yes",
                "diet:vegetarian": "yes",
                "internet_access": "wlan",
                "name": "Agriturismo Le Colline",
                "payment:lightning": "yes",
                "payment:onchain": "yes",
                "phone": "0438560282",
                "website": "lecollinecozzuolo.it"
            }
        },
        {
            "type": "node",
            "id": 11467342354,
            "lat": 45.9018373,
            "lon": 13.2483191,
            "timestamp": "2024-10-16T17:33:59Z",
            "version": 2,
            "changeset": 157976401,
            "user": "mpbin",
            "uid": 21850090,
            "tags": {
                "addr:city": "Gonars",
                "addr:housenumber": "111",
                "addr:postcode": "33050",
                "addr:street": "Via Gorizia",
                "addr:unit": "A",
                "check_date": "2024-10-16",
                "check_date:currency:XBT": "2024-10-16",
                "contact:email": "cottage.lenone@gmail.com",
                "currency:XBT": "yes",
                "guest_house": "guest_house",
                "name": "Cottage \"Le None\"",
                "payment:lightning": "no",
                "payment:lightning_contactless": "no",
                "payment:onchain": "yes",
                "phone": "+39 38 8861 2544",
                "tourism": "guest_house"
            }
        },
        {
            "type": "node",
            "id": 11600298458,
            "lat": 45.7886513,
            "lon": 12.6778123,
            "timestamp": "2024-02-09T00:49:18Z",
            "version": 1,
            "changeset": 147237744,
            "user": "Carlofrc",
            "uid": 588899,
            "tags": {
                "addr:city": "Annone Veneto",
                "addr:housenumber": "30/A",
                "addr:postcode": "30020",
                "addr:street": "Via Oltrefossa",
                "check_date:currency:XBT": "2023-02-21",
                "currency:XBT": "yes",
                "email": "netwir@netwir.com",
                "fax": "+39 0422 868437",
                "name": "Network & Wireless SRL",
                "office": "telecommunication",
                "opening_hours": "09:00-12:00,15:00-19:00",
                "operator": "INFORMATION & COMMUNICATIONS TECHNOLOGY",
                "payment:cash": "yes",
                "payment:coins": "yes",
                "payment:debit_cards": "no",
                "payment:litecoin": "yes",
                "payment:maestro": "no",
                "payment:mastercard": "yes",
                "payment:visa": "yes",
                "phone": "+39 0422 868082",
                "website": "https://www.netwir.com",
                "wheelchair": "limited"
            }
        },
        {
            "type": "node",
            "id": 11942357562,
            "lat": 46.0930782,
            "lon": 13.2343691,
            "timestamp": "2024-06-16T12:40:29Z",
            "version": 2,
            "changeset": 152759031,
            "user": "Rockedf",
            "uid": 7522075,
            "tags": {
                "addr:city": "Udine",
                "addr:housenumber": "149",
                "addr:postcode": "33100",
                "addr:street": "Centro Commerciale Terminal Nord Via Tricesimo",
                "amenity": "atm",
                "cash_in": "yes",
                "cash_out": "yes",
                "cash_withdrawal": "yes",
                "check_date": "2024-05-29",
                "contact:email": "support@shitcoins.club",
                "contact:facebook": "https://www.facebook.com/shitcoins.club",
                "contact:instagram": "https://www.instagram.com/shitcoinsclub",
                "contact:telegram": "https://t.me/shitcoinsclub",
                "contact:twitter": "https://twitter.com/BitomatCom",
                "currency:CHF": "yes",
                "currency:DASH": "yes",
                "currency:ETH": "yes",
                "currency:EUR": "yes",
                "currency:GBP": "yes",
                "currency:HUF": "yes",
                "currency:LTC": "yes",
                "currency:RON": "yes",
                "currency:USD": "yes",
                "currency:USDC": "yes",
                "currency:USDT": "yes",
                "currency:XBT": "yes",
                "indoor": "yes",
                "name": "Bitcoin ATM - Shitcoins.club",
                "opening_hours": "Mo-Su 08:30-21:00",
                "operator": "Shitcoins.club",
                "payment:cash": "yes",
                "payment:lightning": "no",
                "payment:lightning_contactless": "no",
                "payment:onchain": "yes",
                "phone": "+39 34 8048 7308",
                "website": "https://shitcoins.club/localizzazione-atm/atm-bitcoin-Udine-Terminal-nord"
            }
        },
        {
            "type": "node",
            "id": 11980863518,
            "lat": 45.9058678,
            "lon": 12.3362754,
            "timestamp": "2024-06-14T13:29:12Z",
            "version": 1,
            "changeset": 152679049,
            "user": "Rockedf",
            "uid": 7522075,
            "tags": {
                "addr:city": "San Fior",
                "addr:housenumber": "86",
                "addr:postcode": "31020",
                "addr:street": "Via Nazionale",
                "amenity": "car_wash",
                "check_date": "2024-06-14",
                "currency:XBT": "yes",
                "name": "Ip San Fior Autolavaggio e Noleggio",
                "payment:lightning": "yes",
                "payment:lightning_contactless": "no",
                "payment:onchain": "yes",
                "phone": "+39 37 6176 3526"
            }
        },
        {
            "type": "node",
            "id": 11980916898,
            "lat": 46.0301992,
            "lon": 12.5164386,
            "timestamp": "2024-06-14T14:15:47Z",
            "version": 2,
            "changeset": 152681319,
            "user": "Maarmolada Art",
            "uid": 21657162,
            "tags": {
                "addr:city": "Polcenigo",
                "addr:housenumber": "17",
                "addr:postcode": "33070",
                "addr:street": "Via Pizzoch",
                "currency:XBT": "yes",
                "name": "Maarmolada Art",
                "opening_hours": "Mo-Su 10:00-22:00",
                "payment:contactless": "no",
                "payment:lightning": "yes",
                "payment:onchain": "no",
                "survey:date": "2024-01-01",
                "tourism": "gallery",
                "website": "https://linktr.ee/Ma.armoladaArt?fbclid=PAZXh0bgNhZW0CMTEAAab21UrFK8GPO9qQpBG1sLHqZAghQhylICmYogHy_rvxFkkjjHose8qtG74_aem_ZmFrZWR1bW15MTZieXRlcw"
            }
        },
        {
            "type": "node",
            "id": 12124193046,
            "lat": 45.5869419,
            "lon": 12.853504,
            "timestamp": "2024-08-21T11:39:46Z",
            "version": 1,
            "changeset": 155553209,
            "user": "Chiarant",
            "uid": 18452174,
            "tags": {
                "addr:city": "Caorle",
                "addr:housenumber": "33",
                "addr:postcode": "30021",
                "addr:street": "Corso Genova",
                "amenity": "bar",
                "currency:XBT": "yes",
                "name": "Bar Carillon",
                "payment:onchain": "yes"
            }
        },
        {
            "type": "node",
            "id": 12146085710,
            "lat": 45.6599593,
            "lon": 12.2534554,
            "timestamp": "2024-08-30T12:37:48Z",
            "version": 1,
            "changeset": 155972100,
            "user": "mpbin",
            "uid": 21850090,
            "tags": {
                "addr:city": "Treviso",
                "addr:housenumber": "31",
                "addr:postcode": "31100",
                "addr:street": "Via Sebastiano Venier",
                "consulting": "bitcoin",
                "contact:telegram": "https://t.me/Suhaci",
                "currency:XBT": "yes",
                "description": "Consulenza Aziendale",
                "email": "consulting@suhaci.com",
                "name": "Suhaci Consulting",
                "office": "consulting",
                "payment:lightning": "no",
                "phone": "+39 340 389 3512",
                "website": "https://www.suhaci.com/"
            }
        },
        {
            "type": "node",
            "id": 12285483206,
            "lat": 46.0591621,
            "lon": 13.2541945,
            "timestamp": "2024-10-24T14:09:03Z",
            "version": 1,
            "changeset": 158298901,
            "user": "frank_movement",
            "uid": 22104616,
            "tags": {
                "addr:city": "Udine",
                "addr:housenumber": "12",
                "addr:postcode": "33100",
                "addr:street": "Via Ipplis",
                "currency:XBT": "yes",
                "leisure": "fitness_centre",
                "name": "SteelLab - Personal Training Studio",
                "opening_hours": "Mo-Fr 08:00-21:00",
                "payment:lightning": "yes",
                "payment:lightning_contactless": "no",
                "payment:onchain": "yes",
                "sport": "fitness;benessere;allenamento_funzionale;allenamento_della_forza;allenamento_rieducativo;post_operazione;kettlebell_training;calishtenics;allenamento_posturale;stretching",
                "survey:date": "2024-10-24",
                "website": "https://www.steel-lab.it/"
            }
        }
    ],
    "telegram": [
        {
            "telegram": "bitcoin-pordenone"
        }
    ]
}