{
    "id": "portosangiorgio",
    "name": "Porto San Giorgio",
    "lng": 43.1802884,
    "lat": 13.7746607,
    "poi": [
        {
            "type": "node",
            "id": 893969257,
            "lat": 43.564538,
            "lon": 13.5114443,
            "timestamp": "2025-01-03T17:16:00Z",
            "version": 11,
            "changeset": 160958497,
            "user": "mpbin",
            "uid": 21850090,
            "tags": {
                "addr:city": "Ancona",
                "addr:housenumber": "23c",
                "addr:postcode": "60131",
                "addr:street": "Via Primo Maggio",
                "brand": "MediaWorld",
                "brand:wikidata": "Q2381223",
                "name": "MediaWorld",
                "opening_hours": "Mo-Su 09:30-20:30",
                "operator": "MediaMarket S.p.A.",
                "shop": "electronics",
                "wheelchair": "yes"
            }
        },
        {
            "type": "node",
            "id": 893975167,
            "lat": 43.5522916,
            "lon": 13.512835,
            "timestamp": "2024-12-31T17:38:30Z",
            "version": 7,
            "changeset": 160842811,
            "user": "mpbin",
            "uid": 21850090,
            "tags": {
                "addr:city": "Ancona",
                "addr:housenumber": "7",
                "addr:postcode": "60131",
                "addr:street": "Via Franco Scataglini",
                "brand": "Unieuro",
                "brand:wikidata": "Q4004687",
                "brand:wikipedia": "en:Unieuro",
                "check_date": "2024-11-22",
                "check_date:opening_hours": "2024-11-22",
                "name": "Unieuro",
                "old_name": "Marco Polo Expert",
                "opening_hours": "Mo-Su 09:30-20:00",
                "operator": "Unieuro S.p.A.",
                "shop": "electronics",
                "wheelchair": "yes"
            }
        },
        {
            "type": "node",
            "id": 945519740,
            "lat": 42.8464104,
            "lon": 13.6225391,
            "timestamp": "2025-03-02T19:47:08Z",
            "version": 8,
            "changeset": 163135988,
            "user": "totera",
            "uid": 123412,
            "tags": {
                "addr:city": "Ascoli Piceno",
                "addr:housenumber": "52",
                "addr:postcode": "63100",
                "addr:street": "Viale del Commercio",
                "branch": "Ascoli Battente",
                "brand": "Unieuro",
                "brand:wikidata": "Q4004687",
                "brand:wikipedia": "en:Unieuro",
                "check_date": "2025-03-02",
                "name": "Unieuro",
                "old_name": "Euronics",
                "opening_hours": "Mo-Su 09:00-21:00",
                "operator": "Unieuro S.p.A.",
                "phone": "+39 0736 46625",
                "ref": "173",
                "ref:vatin": "IT00876320409",
                "shop": "electronics",
                "website": "https://www.unieuro.it/online/negozi/Unieuro-Ascoli-Piceno---via-del-Commercio-"
            }
        },
        {
            "type": "node",
            "id": 1974988739,
            "lat": 43.2968881,
            "lon": 13.7056795,
            "timestamp": "2025-01-01T22:35:12Z",
            "version": 8,
            "changeset": 160887651,
            "user": "mpbin",
            "uid": 21850090,
            "tags": {
                "addr:city": "Civitanova Marche",
                "addr:country": "IT",
                "addr:housenumber": "14",
                "addr:postcode": "62012",
                "addr:street": "Via Giovanni Gronchi",
                "brand": "Trony",
                "brand:wikidata": "Q3999692",
                "brand:wikipedia": "it:Trony",
                "email": "civitanova@trony.it",
                "entrance": "main",
                "fax": "+39 0733 829826",
                "name": "Trony",
                "opening_hours": "Mo-Fr 09:30-13:00,15:30-20:00; Sa 09:30-20:00; Su 10:00-13:00,15:30-20:15",
                "operator": "Trony",
                "phone": "+39 0733 784551",
                "shop": "electronics"
            }
        },
        {
            "type": "node",
            "id": 2815535801,
            "lat": 43.2223741,
            "lon": 13.3343341,
            "timestamp": "2020-11-01T08:33:19Z",
            "version": 2,
            "changeset": 93361787,
            "user": "mascalzone67",
            "uid": 1861652,
            "tags": {
                "addr:city": "Tolentino",
                "addr:country": "IT",
                "addr:housename": "Centro commerciale \"La Rancia\"",
                "addr:postcode": "62029",
                "addr:street": "Contrada Cisterna",
                "brand": "Conad",
                "brand:wikidata": "Q639075",
                "brand:wikipedia": "it:Conad",
                "name": "Conad",
                "opening_hours": "Mo-Su 08:30-20:30",
                "operator": "Conad",
                "payment:bancomat": "yes",
                "payment:cash": "yes",
                "payment:credit_cards": "yes",
                "phone": "+39 0733 9571",
                "shop": "supermarket",
                "website": "https://www.conad.it/ricerca-negozi/negozio.010156.html"
            }
        },
        {
            "type": "node",
            "id": 2964603266,
            "lat": 43.2919225,
            "lon": 13.7023079,
            "timestamp": "2025-01-01T12:54:11Z",
            "version": 11,
            "changeset": 160861881,
            "user": "mpbin",
            "uid": 21850090,
            "tags": {
                "addr:city": "Civitanova Marche",
                "addr:housenumber": "98",
                "addr:postcode": "62012",
                "addr:street": "Via San Costantino",
                "brand": "Unieuro",
                "brand:wikidata": "Q4004687",
                "level": "0",
                "name": "Unieuro",
                "opening_hours": "Mo-Su 09:00-21:00; PH closed",
                "operator": "Unieuro S.p.A.",
                "shop": "electronics",
                "wheelchair": "yes"
            }
        },
        {
            "type": "node",
            "id": 2981129360,
            "lat": 43.5236842,
            "lon": 13.5241258,
            "timestamp": "2025-03-09T16:33:50Z",
            "version": 13,
            "changeset": 163408402,
            "user": "sorcrosc",
            "uid": 160229,
            "tags": {
                "addr:city": "Camerano",
                "addr:postcode": "60021",
                "addr:street": "Via del Campo d'Aviazione",
                "brand": "Decathlon",
                "brand:wikidata": "Q509349",
                "brand:wikipedia": "en:Decathlon Group",
                "name": "Decathlon",
                "nohousenumber": "yes",
                "operator": "Decathlon",
                "phone": "+39 071 7309128",
                "ref:vatin": "IT11005760159",
                "shop": "sports"
            }
        },
        {
            "type": "node",
            "id": 3186852562,
            "lat": 43.3383958,
            "lon": 13.4369227,
            "timestamp": "2025-01-03T10:19:29Z",
            "version": 6,
            "changeset": 160941514,
            "user": "mpbin",
            "uid": 21850090,
            "tags": {
                "addr:city": "Montecassiano",
                "addr:hamlet": "Zona Commerciale Piane di Potenza",
                "addr:postcode": "62010",
                "addr:street": "Via Giuseppe Mainini",
                "branch": "Easy",
                "brand": "Decathlon",
                "brand:wikidata": "Q509349",
                "name": "Decathlon",
                "operator": "Decathlon",
                "shop": "sports"
            }
        },
        {
            "type": "node",
            "id": 4635242368,
            "lat": 42.955987,
            "lon": 13.8756335,
            "timestamp": "2025-01-03T16:32:14Z",
            "version": 5,
            "changeset": 160956864,
            "user": "mpbin",
            "uid": 21850090,
            "tags": {
                "addr:city": "San Benedetto del Tronto",
                "addr:housenumber": "183",
                "addr:postcode": "63074",
                "addr:street": "Corso Giuseppe Mazzini",
                "brand": "OVS",
                "brand:wikidata": "Q2042514",
                "brand:wikipedia": "en:OVS (company)",
                "name": "OVS",
                "operator": "OVS",
                "shop": "clothes"
            }
        },
        {
            "type": "node",
            "id": 4916325898,
            "lat": 43.2701137,
            "lon": 13.4830309,
            "timestamp": "2025-01-03T16:35:30Z",
            "version": 6,
            "changeset": 160956958,
            "user": "mpbin",
            "uid": 21850090,
            "tags": {
                "addr:city": "Corridonia",
                "addr:housenumber": "177/C",
                "addr:postcode": "62014",
                "addr:street": "Via Enrico Mattei",
                "brand": "OVS",
                "brand:wikidata": "Q2042514",
                "brand:wikipedia": "en:OVS (company)",
                "entrance": "yes",
                "name": "OVS",
                "operator": "OVS",
                "shop": "clothes"
            }
        },
        {
            "type": "node",
            "id": 5370509916,
            "lat": 42.9012868,
            "lon": 13.8945182,
            "timestamp": "2025-01-02T21:40:10Z",
            "version": 6,
            "changeset": 160927282,
            "user": "mpbin",
            "uid": 21850090,
            "tags": {
                "addr:city": "San Benedetto Del Tronto",
                "addr:housenumber": "66",
                "addr:postcode": "63074",
                "addr:street": "Via Pasubio",
                "brand": "Trony",
                "brand:wikidata": "Q3999692",
                "brand:wikipedia": "it:Trony",
                "name": "Trony",
                "operator": "Trony",
                "shop": "electronics"
            }
        },
        {
            "type": "node",
            "id": 6041313672,
            "lat": 43.2883639,
            "lon": 13.7361783,
            "timestamp": "2025-01-03T10:48:31Z",
            "version": 9,
            "changeset": 160942576,
            "user": "mpbin",
            "uid": 21850090,
            "tags": {
                "addr:city": "Porto Sant'Elpidio",
                "addr:housenumber": "41",
                "addr:postcode": "63821",
                "addr:street": "Via Fratte",
                "brand": "Decathlon",
                "brand:wikidata": "Q509349",
                "brand:wikipedia": "en:Decathlon (retailer)",
                "name": "Decathlon",
                "opening_hours": "Mo-Su 09:00-20:30",
                "operator": "Decathlon",
                "shop": "sports",
                "survey:date": "2023-11-15",
                "website": "https://www.decathlon.it/",
                "wheelchair": "yes"
            }
        },
        {
            "type": "node",
            "id": 6070906250,
            "lat": 43.5206137,
            "lon": 13.55757,
            "timestamp": "2024-09-25T08:19:37Z",
            "version": 13,
            "changeset": 157069869,
            "user": "mpbin",
            "uid": 21850090,
            "tags": {
                "addr:city": "Camerano",
                "addr:postcode": "60021",
                "addr:street": "Via Luigi Einaudi",
                "check_date": "2024-09-25",
                "check_date:currency:XBT": "2024-09-25",
                "currency:XBT": "yes",
                "description": "Servizi di Consulenza, Formazione, Progettazione. Risk Management, Salute e Sicurezza sul Lavoro, Corsi di Formazione D.Lgs. 81/2008",
                "email": "contattaci@agrsicurezza.com",
                "name": "AGRsicurezza",
                "office": "occupational_safety",
                "phone": "+39 071 8760 041",
                "website": "https://www.agrsicurezza.it"
            }
        },
        {
            "type": "node",
            "id": 7632632759,
            "lat": 42.8371423,
            "lon": 13.8994662,
            "timestamp": "2024-10-12T18:19:53Z",
            "version": 4,
            "changeset": 157808312,
            "user": "mpbin",
            "uid": 21850090,
            "tags": {
                "addr:city": "Colonnella",
                "addr:postcode": "64010",
                "addr:street": "Centro Commerciale Arcobaleno",
                "brand": "Mondo Convenienza",
                "brand:wikidata": "Q55830962",
                "check_date:currency:XBT": "2023-07-31",
                "contact:facebook": "https://www.facebook.com/mondoconv/",
                "currency:XBT": "yes",
                "name": "Mondo Convenienza",
                "opening_hours": "Mo-Su 09:30-20:30",
                "phone": "+39 06 91515",
                "shop": "furniture",
                "website": "https://www.mondoconv.it/"
            }
        },
        {
            "type": "node",
            "id": 8957342073,
            "lat": 43.164857,
            "lon": 13.801135,
            "timestamp": "2025-01-03T14:19:09Z",
            "version": 3,
            "changeset": 160951328,
            "user": "mpbin",
            "uid": 21850090,
            "tags": {
                "addr:city": "Porto San Giorgio",
                "addr:postcode": "63822",
                "addr:street": "Via Fratelli Rosselli",
                "brand": "OVS",
                "brand:wikidata": "Q2042514",
                "brand:wikipedia": "en:OVS (company)",
                "name": "OVS",
                "nohousenumber": "yes",
                "opening_hours": "Mo-Sa 09:00-20:00; Su,PH 10:00-20:00",
                "operator": "OVS",
                "phone": "+39 0734 687086",
                "ref:vatin": "IT04240010274",
                "shop": "clothes"
            }
        },
        {
            "type": "node",
            "id": 10554651585,
            "lat": 43.2174824,
            "lon": 13.3064053,
            "timestamp": "2024-05-20T19:58:37Z",
            "version": 3,
            "changeset": 151598237,
            "user": "Protocolli Creativi srl",
            "uid": 18273465,
            "tags": {
                "addr:city": "Tolentino",
                "addr:housenumber": "1",
                "addr:postcode": "62029",
                "addr:street": "Viale Concordia",
                "check_date:currency:XBT": "2023-01-14",
                "currency:XBT": "yes",
                "description": "Software house",
                "email": "info@protocollicreativi.it",
                "name": "Protocolli Creativi srl",
                "office": "it",
                "opening_hours": "Mo-Fr 10:00-13:00, 15:00-19:00",
                "payment:lightning": "yes",
                "payment:lightning_contactless": "yes",
                "payment:onchain": "yes",
                "phone": "+39 0733 974921",
                "website": "https://www.protocollicreativi.it/"
            }
        },
        {
            "type": "node",
            "id": 10566976132,
            "lat": 43.2217632,
            "lon": 13.4651049,
            "timestamp": "2023-01-19T06:35:47Z",
            "version": 1,
            "changeset": 131449355,
            "user": "BSN21M",
            "uid": 17441326,
            "tags": {
                "addr:city": "Petriolo",
                "addr:housenumber": "35",
                "addr:postcode": "62014",
                "addr:street": "Via Porta Nuova",
                "check_date:currency:XBT": "2023-01-19",
                "currency:XBT": "yes",
                "name": "Natali Calzature",
                "opening_hours": "Mo-Sa 16:30-19:30",
                "payment:lightning": "yes",
                "payment:lightning_contactless": "no",
                "payment:onchain": "yes",
                "phone": "+39 339 613 4291",
                "shop": "shoes",
                "website": "https://natalicalzature.business.site"
            }
        },
        {
            "type": "node",
            "id": 10852549720,
            "lat": 43.1968639,
            "lon": 13.7879854,
            "timestamp": "2024-10-08T19:39:31Z",
            "version": 4,
            "changeset": 157643567,
            "user": "mpbin",
            "uid": 21850090,
            "tags": {
                "addr:city": "Porto San Giorgio",
                "addr:housenumber": "25",
                "addr:postcode": "63822",
                "addr:street": "via Abruzzo",
                "check_date": "2024-10-08",
                "check_date:currency:XBT": "2024-10-08",
                "currency:XBT": "yes",
                "email": "betasrls01@gmail.com",
                "name": "Studio BETA SRLS",
                "opening_hours": "Mo-Fr 09:00-17:00",
                "payment:onchain": "yes",
                "telecom": "data_center"
            }
        },
        {
            "type": "node",
            "id": 10862567240,
            "lat": 43.2302873,
            "lon": 13.6848136,
            "timestamp": "2024-07-05T19:57:27Z",
            "version": 2,
            "changeset": 153602893,
            "user": "mauropili",
            "uid": 1496865,
            "tags": {
                "addr:city": "Sant'Elpidio a Mare",
                "addr:housenumber": "64",
                "addr:postcode": "63811",
                "addr:street": "Corso Baccio",
                "amenity": "restaurant",
                "check_date": "2023-05-02",
                "contact:facebook": "https://www.facebook.com/ipozzacci",
                "cuisine": "italian",
                "currency:XBT": "yes",
                "name": "I Pozzacci",
                "phone": "+390734466623"
            }
        },
        {
            "type": "node",
            "id": 11351580782,
            "lat": 43.4403339,
            "lon": 13.625995,
            "timestamp": "2025-01-01T21:19:37Z",
            "version": 3,
            "changeset": 160885827,
            "user": "mpbin",
            "uid": 21850090,
            "tags": {
                "addr:city": "Loreto",
                "addr:housenumber": "1",
                "addr:postcode": "60025",
                "addr:street": "Via Buffolareccia",
                "brand": "Unieuro",
                "brand:wikidata": "Q4004687",
                "name": "Unieuro",
                "operator": "Unieuro S.p.A.",
                "shop": "electronics",
                "wheelchair": "yes"
            }
        },
        {
            "type": "node",
            "id": 11417096286,
            "lat": 43.1604826,
            "lon": 13.7877303,
            "timestamp": "2024-01-05T15:52:55Z",
            "version": 5,
            "changeset": 145927855,
            "user": "Chiarant",
            "uid": 18452174,
            "tags": {
                "addr:city": "Fermo",
                "addr:housenumber": "111",
                "addr:postcode": "63900",
                "addr:street": "Via Francesco Egidi",
                "check_date": "2024-01-05",
                "currency:XBT": "yes",
                "email": "info@coworkingfermo.com",
                "internet_access": "yes",
                "internet_access:fee": "customers",
                "mobile": "+39 338 1450 312",
                "name": "Studio Civico 111",
                "office": "coworking",
                "opening_hours": "24/7",
                "payment:onchain": "yes",
                "phone": "+39 0734 300983",
                "website": "https://coworkingfermo.com/"
            }
        },
        {
            "type": "node",
            "id": 11663889123,
            "lat": 43.1624728,
            "lon": 13.7965583,
            "timestamp": "2024-11-06T14:02:19Z",
            "version": 3,
            "changeset": 158819584,
            "user": "mpbin",
            "uid": 21850090,
            "tags": {
                "addr:city": "Fermo",
                "addr:housenumber": "181",
                "addr:postcode": "63900",
                "addr:street": "Via Francesco Egidi",
                "check_date": "2024-02-26",
                "contact:facebook": "https://www.facebook.com/gentlemanleathercare",
                "contact:instagram": "https://www.instagram.com/gentlemanleathercare/",
                "currency:XBT": "yes",
                "description": "Azienda specializzata nella produzione di materiali vernicianti per le pelli, per la loro ricostruzione e il loro mantenimento.",
                "email": "gentlemanleathercare@gmail.com",
                "name": "Gentleman Leather Care",
                "payment:lightning": "yes",
                "payment:onchain": "yes",
                "phone": "+39 0734 302677",
                "shop": "paint",
                "website": "https://www.gentlemanleathercare.com/"
            }
        },
        {
            "type": "node",
            "id": 11663940504,
            "lat": 43.1624355,
            "lon": 13.7966382,
            "timestamp": "2024-11-06T14:08:39Z",
            "version": 6,
            "changeset": 158819818,
            "user": "mpbin",
            "uid": 21850090,
            "tags": {
                "addr:city": "Fermo",
                "addr:housenumber": "181",
                "addr:postcode": "63900",
                "addr:street": "Via Francesco Egidi",
                "check_date": "2024-09-21",
                "check_date:currency:XBT": "2024-09-21",
                "contact:facebook": "https://www.facebook.com/sscgaragedetailer",
                "contact:instagram": "https://www.instagram.com/sscgarage/",
                "contact:twitter": "https://x.com/GarageSsc",
                "currency:XBT": "yes",
                "email": "info@sscgarage.com",
                "name": "SSC Garage di Mem\u00e8 Michele",
                "payment:lightning": "yes",
                "payment:onchain": "yes",
                "phone": "+39 0734 302677",
                "shop": "car_repair",
                "website": "https://www.sscgarage.com/"
            }
        },
        {
            "type": "node",
            "id": 11813795439,
            "lat": 43.1782928,
            "lon": 13.6714654,
            "timestamp": "2025-01-01T21:33:27Z",
            "version": 2,
            "changeset": 160886208,
            "user": "mpbin",
            "uid": 21850090,
            "tags": {
                "addr:city": "Fermo",
                "addr:housenumber": "42",
                "addr:postcode": "63900",
                "addr:street": "Via Giacomo Filippo Maria Prosperi",
                "brand": "Unieuro",
                "brand:wikidata": "Q4004687",
                "name": "Unieuro",
                "operator": "Unieuro S.p.A.",
                "shop": "electronics"
            }
        },
        {
            "type": "node",
            "id": 11874406150,
            "lat": 43.4896528,
            "lon": 13.4958801,
            "timestamp": "2024-11-15T21:13:47Z",
            "version": 5,
            "changeset": 159187520,
            "user": "mpbin",
            "uid": 21850090,
            "tags": {
                "addr:city": "Osimo",
                "addr:housenumber": "100",
                "addr:postcode": "60027",
                "addr:street": "Via Marco Polo",
                "check_date": "2024-11-15",
                "check_date:currency:XBT": "2024-11-15",
                "contact:facebook": "https://www.facebook.com/erboristeria.naturalmente.osimo/",
                "currency:XBT": "yes",
                "email": "erboristerianaturalmente@gmail.com",
                "name": "Erboristeria Naturalmente",
                "opening_hours": "Mo-Su 09:00-13:00,16:00-20:00",
                "payment:cash": "yes",
                "payment:credit_cards": "yes",
                "payment:debit_cards": "yes",
                "payment:lightning": "yes",
                "payment:lightning_contactless": "no",
                "payment:onchain": "no",
                "phone": "+39 071 7132123",
                "shop": "herbalist"
            }
        },
        {
            "type": "node",
            "id": 11919478635,
            "lat": 43.1795188,
            "lon": 13.7930083,
            "timestamp": "2024-05-20T10:06:54Z",
            "version": 1,
            "changeset": 151570849,
            "user": "Chiarant",
            "uid": 18452174,
            "tags": {
                "addr:city": "Porto San Giorgio",
                "addr:housenumber": "17",
                "addr:postcode": "63822",
                "addr:street": "Corso Castel San Giorgio",
                "amenity": "pub",
                "check_date": "2024-05-20",
                "contact:facebook": "https://www.facebook.com/lalocurapsg/",
                "cuisine": "burger",
                "currency:XBT": "yes",
                "email": "lalocurapsg@gmail.com",
                "name": "La Locura Bistrot",
                "payment:lightning": "yes",
                "payment:onchain": "yes",
                "phone": "+39 327 1352526"
            }
        },
        {
            "type": "node",
            "id": 11920480577,
            "lat": 43.4778625,
            "lon": 13.6301502,
            "timestamp": "2024-07-06T07:15:13Z",
            "version": 2,
            "changeset": 153612617,
            "user": "mauropili",
            "uid": 1496865,
            "tags": {
                "addr:city": "Numana",
                "check_date": "2024-05-20",
                "currency:XBT": "yes",
                "leisure": "resort",
                "name": "Resort Estivo",
                "payment:lightning": "yes",
                "payment:lightning_contactless": "yes",
                "payment:onchain": "yes",
                "phone": "+39 33 8761 1076",
                "website": "https://www.subito.it/vi/551785629.htm"
            }
        },
        {
            "type": "node",
            "id": 11938388563,
            "lat": 43.4832789,
            "lon": 13.4930931,
            "timestamp": "2024-05-29T04:05:55Z",
            "version": 2,
            "changeset": 151969827,
            "user": "totera",
            "uid": 123412,
            "tags": {
                "addr:city": "Osimo",
                "addr:housenumber": "15",
                "addr:postcode": "60027",
                "addr:street": "Via Cristoforo Colombo",
                "check_date": "2024-05-27",
                "currency:XBT": "yes",
                "name": "Tabaccheria Colombo",
                "payment:lightning": "yes",
                "payment:lightning_contactless": "no",
                "payment:onchain": "no",
                "shop": "tobacco"
            }
        },
        {
            "type": "node",
            "id": 11954201749,
            "lat": 42.8866527,
            "lon": 13.9122053,
            "timestamp": "2024-11-06T14:12:18Z",
            "version": 4,
            "changeset": 158819964,
            "user": "mpbin",
            "uid": 21850090,
            "tags": {
                "addr:city": "Martinsicuro",
                "addr:housenumber": "28",
                "addr:postcode": "64014",
                "addr:street": "Via Piemonte",
                "check_date": "2024-10-30",
                "check_date:currency:XBT": "2024-10-30",
                "contact:facebook": "https://www.facebook.com/primopierantozzi.coach",
                "currency:XBT": "yes",
                "name": "DR PRIMO PIERANTOZZI - Mental coach professionista",
                "office": "company",
                "payment:lightning": "yes",
                "payment:onchain": "yes",
                "phone": "+39 331 113 7193",
                "website": "https://www.pierantozzi.it/"
            }
        },
        {
            "type": "node",
            "id": 11975336450,
            "lat": 43.3086104,
            "lon": 13.7271027,
            "timestamp": "2024-09-21T18:44:16Z",
            "version": 2,
            "changeset": 156924689,
            "user": "mpbin",
            "uid": 21850090,
            "tags": {
                "addr:city": "Civitanova Marche",
                "addr:housenumber": "88",
                "addr:postcode": "62012",
                "addr:street": "Corso Umberto I",
                "check_date": "2024-06-12",
                "currency:XBT": "yes",
                "name": "Vittoria Profumi",
                "shop": "perfumery",
                "website": "https://www.vittoriaprofumi.com/"
            }
        },
        {
            "type": "node",
            "id": 12003242084,
            "lat": 42.8969965,
            "lon": 13.6623472,
            "timestamp": "2024-06-25T14:47:52Z",
            "version": 3,
            "changeset": 153161122,
            "user": "Rockedf",
            "uid": 7522075,
            "tags": {
                "addr:city": "Appignano del Tronto",
                "addr:housenumber": "29",
                "addr:postcode": "63083",
                "addr:street": "Via Dante Alighieri",
                "check_date": "2024-06-24",
                "check_date:currency:XBT": "2024-06-25",
                "currency:XBT": "yes",
                "email": "dinicolodanilo@gmail.com",
                "name": "Studio Tecnico Di Nicol\u00f2",
                "office": "consulting",
                "payment:lightning": "yes",
                "payment:onchain": "yes",
                "phone": "+39 347 6314795",
                "website": "http://www.studiotecnicodinicolo.it/"
            }
        },
        {
            "type": "node",
            "id": 12049222891,
            "lat": 43.1780612,
            "lon": 13.7953845,
            "timestamp": "2024-07-30T08:18:45Z",
            "version": 3,
            "changeset": 154593999,
            "user": "totera",
            "uid": 123412,
            "tags": {
                "addr:city": "Porto San Giorgio",
                "addr:housenumber": "72",
                "addr:postcode": "63822",
                "addr:street": "Via Raffaele Tombolini",
                "check_date": "2024-07-12",
                "currency:XBT": "yes",
                "name": "Parrucchieria Umbertina",
                "operator": "Giovanni Ciucani",
                "payment:lightning": "yes",
                "payment:onchain": "yes",
                "phone": "+39 0734 675306",
                "shop": "hairdresser"
            }
        },
        {
            "type": "node",
            "id": 12219082631,
            "lat": 43.2702038,
            "lon": 13.5886348,
            "timestamp": "2025-01-01T20:08:30Z",
            "version": 2,
            "changeset": 160883683,
            "user": "mpbin",
            "uid": 21850090,
            "tags": {
                "addr:city": "Morrovalle",
                "addr:housenumber": "58",
                "addr:postcode": "62010",
                "addr:street": "Via Edmondo De Amicis",
                "brand": "Unieuro",
                "brand:wikidata": "Q4004687",
                "name": "Unieuro",
                "operator": "Unieuro S.p.A.",
                "phone": "+390733865184",
                "shop": "electronics"
            }
        },
        {
            "type": "node",
            "id": 12324589823,
            "lat": 43.1858175,
            "lon": 13.4744237,
            "timestamp": "2024-11-08T21:50:38Z",
            "version": 1,
            "changeset": 158912851,
            "user": "mpbin",
            "uid": 21850090,
            "tags": {
                "addr:city": "Mogliano",
                "addr:housenumber": "33/C",
                "addr:postcode": "62010",
                "addr:street": "Viale XX Settembre",
                "amenity": "bar",
                "currency:XBT": "yes",
                "name": "KUSH SNC"
            }
        },
        {
            "type": "node",
            "id": 12513364358,
            "lat": 43.3694106,
            "lon": 13.6921337,
            "timestamp": "2025-01-21T10:43:42Z",
            "version": 3,
            "changeset": 161595079,
            "user": "mueschel",
            "uid": 616774,
            "tags": {
                "addr:city": "Porto Potenza Picena",
                "addr:housenumber": "150",
                "addr:postcode": "62018",
                "addr:street": "Via Gioacchino Rossini",
                "check_date": "2025-01-19",
                "contact:instagram": "gl_immobiliare",
                "contact:whatsapp": "3355265696",
                "currency:XBT": "yes",
                "email": "stefano@gelimmobiliare.it",
                "name": "Impresa Edile G&L Immobiliare",
                "office": "estate_agent",
                "payment:lightning": "yes",
                "payment:lightning_contactless": "no",
                "payment:onchain": "yes",
                "phone": "+39 33 5526 5696",
                "website": "https://www.gelimmobiliare.it/"
            }
        },
        {
            "type": "node",
            "id": 12632957186,
            "lat": 43.1608261,
            "lon": 13.7089557,
            "timestamp": "2025-03-03T10:06:09Z",
            "version": 2,
            "changeset": 163153935,
            "user": "Chiarant",
            "uid": 18452174,
            "tags": {
                "addr:city": "Fermo",
                "addr:housenumber": "17",
                "addr:street": "Corso Guglielmo Marconi",
                "check_date": "2025-03-01",
                "currency:XBT": "yes",
                "description": "Fornitura gas - consegna a domicilio per privati e/o aziende",
                "email": "pieronibombolegpl@gmail.com",
                "name": "Pieroni gas di Pieroni Lucio & C. snc",
                "payment:lightning": "yes",
                "payment:onchain": "yes",
                "phone": "+39 327 4562271",
                "shop": "gas",
                "website": "https://www.pieronibombolegpl.it/"
            }
        },
        {
            "type": "node",
            "id": 12686931000,
            "lat": 43.234544,
            "lon": 13.6415154,
            "timestamp": "2025-03-21T11:55:52Z",
            "version": 1,
            "changeset": 163902395,
            "user": "Chiarant",
            "uid": 18452174,
            "tags": {
                "addr:city": "Montegranaro",
                "addr:housenumber": "40",
                "addr:postcode": "63812",
                "addr:street": "Via Elpidiense Sud",
                "check_date": "2025-03-21",
                "currency:XBT": "yes",
                "name": "LOTTO, FUMO E ALTRO DI FORESI GIUSEPPE",
                "payment:lightning": "yes",
                "payment:onchain": "no",
                "phone": "+39 328 7491786",
                "shop": "tobacco"
            }
        },
        {
            "type": "way",
            "id": 245784052,
            "timestamp": "2024-11-02T10:44:24Z",
            "version": 7,
            "changeset": 158652584,
            "user": "mircozorzo",
            "uid": 224342,
            "nodes": [
                2529093852,
                2529093853,
                2529093854,
                2529093855,
                2529093852
            ],
            "tags": {
                "addr:city": "San Benedetto del Tronto",
                "addr:housenumber": "2",
                "addr:postcode": "63074",
                "addr:street": "Piazza Enzo Tortora",
                "brand": "Conad",
                "brand:wikidata": "Q639075",
                "brand:wikipedia": "it:Conad",
                "building": "retail",
                "name": "Conad",
                "operator": "Conad",
                "phone": "+39 0735 781200;+39 324 8999840",
                "shop": "supermarket"
            }
        },
        {
            "type": "way",
            "id": 802442484,
            "timestamp": "2020-05-11T09:31:58Z",
            "version": 1,
            "changeset": 85014455,
            "user": "mascalzone67",
            "uid": 1861652,
            "nodes": [
                7506093509,
                7506093510,
                7506093511,
                7506093512,
                7506093509
            ],
            "tags": {
                "addr:city": "Porto Sant'Elpidio",
                "addr:housenumber": "10",
                "addr:postcode": "63821",
                "addr:street": "Via Caserta",
                "brand": "Conad",
                "brand:wikidata": "Q639075",
                "brand:wikipedia": "it:Conad",
                "building": "retail",
                "email": "psantelpidio_cheope1166@di-net.it",
                "name": "Conad",
                "opening_hours": "Mo-Sa 08:30-20:00; Su 09:00-13:00",
                "operator": "Conad",
                "payment:bancomat": "yes",
                "payment:cash": "yes",
                "payment:credit_cards": "yes",
                "phone": "+39 0734 877371",
                "shop": "supermarket",
                "website": "https://www.conad.it/ricerca-negozi/negozio.007668.html"
            }
        },
        {
            "type": "way",
            "id": 1096729156,
            "timestamp": "2023-01-15T02:24:13Z",
            "version": 4,
            "changeset": 131284609,
            "user": "totera",
            "uid": 123412,
            "nodes": [
                10042880773,
                10042880774,
                1657606131,
                10042860911,
                2301179556,
                10042860915,
                10042860914,
                10042860913,
                10042880717,
                10042880718,
                10042880719,
                10042860908,
                10042860907,
                10042880773
            ],
            "tags": {
                "addr:city": "Colonnella",
                "addr:postcode": "64010",
                "addr:street": "Strada Provinciale 3 di Colonnella",
                "brand": "Conad",
                "brand:wikidata": "Q639075",
                "indoor": "area",
                "level": "0",
                "name": "Conad",
                "opening_hours": "Mo-Fr 09:00-20:00; Sa 09:00-19:00; Su 09:00-13:00",
                "operator": "Conad",
                "payment:bancomat": "yes",
                "payment:cash": "yes",
                "payment:credit_cards": "yes",
                "phone": "+39 0861 7991",
                "shop": "supermarket",
                "website": "https://www.conad.it/ricerca-negozi/negozio.009720.html",
                "wheelchair": "yes"
            }
        },
        {
            "type": "way",
            "id": 1207229688,
            "timestamp": "2023-09-13T16:58:11Z",
            "version": 3,
            "changeset": 141220903,
            "user": "acifani",
            "uid": 13608596,
            "nodes": [
                11186257655,
                9362270831,
                11186258437,
                11186257946,
                11186258337,
                11186257752,
                11186257751,
                11186257945,
                11186258049,
                11186257944,
                11186257658,
                11186257657,
                11186257943,
                2260335966,
                11186258339,
                11186257656,
                11186257655
            ],
            "tags": {
                "addr:city": "Civitanova Marche",
                "addr:country": "IT",
                "addr:housenumber": "98",
                "addr:postcode": "62012",
                "addr:street": "Via San Costantino",
                "brand": "Spazio Conad",
                "brand:wikidata": "Q118130063",
                "brand:wikipedia": "it:Conad",
                "indoor": "room",
                "level": "0",
                "name": "Spazio Conad",
                "opening_hours": "PH,Mo-Su 09:00-21:00",
                "operator": "Conad",
                "payment:bancomat": "yes",
                "payment:cash": "yes",
                "payment:credit_cards": "yes",
                "phone": "+39 0733 828111",
                "shop": "supermarket",
                "website": "https://www.conad.it/ricerca-negozi/negozio.009722.html",
                "wheelchair": "yes"
            }
        }
    ],
    "telegram": [
        {
            "telegram": "bitticcistation"
        }
    ]
}