{
    "id": "ravenna",
    "name": "Ravenna",
    "lng": 44.38993,
    "lat": 12.22159,
    "poi": [
        {
            "type": "node",
            "id": 269604393,
            "lat": 44.4391911,
            "lon": 12.2903665,
            "timestamp": "2024-12-30T22:34:03Z",
            "version": 3,
            "changeset": 160812837,
            "user": "mpbin",
            "uid": 21850090,
            "tags": {
                "addr:city": "Ravenna",
                "addr:housenumber": "88",
                "addr:postcode": "48122",
                "addr:street": "Viale dei Navigatori",
                "branch": "I Cigni",
                "brand": "Conad",
                "brand:wikidata": "Q639075",
                "name": "Conad",
                "operator": "Conad",
                "shop": "supermarket"
            }
        },
        {
            "type": "node",
            "id": 2323216819,
            "lat": 44.1379112,
            "lon": 12.2441762,
            "timestamp": "2024-12-30T19:10:13Z",
            "version": 8,
            "changeset": 160805147,
            "user": "DnaX",
            "uid": 69259,
            "tags": {
                "addr:city": "Cesena",
                "addr:housenumber": "9",
                "addr:postcode": "47521",
                "addr:street": "Corso Giuseppe Mazzini",
                "brand": "Doppelg\u00e4nger",
                "brand:wikidata": "Q117451227",
                "cesena:ref_id": "051130009000",
                "check_date": "2024-03-15",
                "clothes": "men",
                "currency:XBT": "yes",
                "name": "Doppelg\u00e4nger",
                "payment:lightning": "no",
                "payment:lightning_contactless": "no",
                "payment:onchain": "yes",
                "phone": "+39 054721467",
                "shop": "clothes",
                "website": "https://www.doppelganger.it/"
            }
        },
        {
            "type": "node",
            "id": 2529770201,
            "lat": 44.4697516,
            "lon": 11.6335825,
            "timestamp": "2020-03-03T17:32:39Z",
            "version": 3,
            "changeset": 81738669,
            "user": "Denisov21",
            "uid": 817066,
            "tags": {
                "brand": "Conad",
                "brand:wikidata": "Q639075",
                "brand:wikipedia": "it:Conad",
                "name": "Conad",
                "operator": "Conad",
                "shop": "supermarket"
            }
        },
        {
            "type": "node",
            "id": 2718103390,
            "lat": 44.0600462,
            "lon": 12.5677448,
            "timestamp": "2023-06-26T10:58:05Z",
            "version": 5,
            "changeset": 137786952,
            "user": "Chiarant",
            "uid": 18452174,
            "tags": {
                "addr:city": "Rimini",
                "addr:country": "IT",
                "addr:housenumber": "107",
                "addr:postcode": "47921",
                "addr:street": "Corso d'Augusto",
                "check_date": "2023-06-26",
                "clothes": "underwear",
                "currency:XBT": "yes",
                "description": "Negozio di intimo e accessori di grandi brand come Triumph e Sloggi.",
                "name": "Since 1886",
                "payment:lightning": "yes",
                "payment:onchain": "yes",
                "phone": "+390541783603",
                "shop": "clothes",
                "website": "https://www.ginevraunderwear.it"
            }
        },
        {
            "type": "node",
            "id": 2718109273,
            "lat": 44.0601434,
            "lon": 12.5676513,
            "timestamp": "2023-06-15T20:46:45Z",
            "version": 7,
            "changeset": 137389471,
            "user": "Chiarant",
            "uid": 18452174,
            "tags": {
                "addr:city": "Rimini",
                "addr:country": "IT",
                "addr:housenumber": "113",
                "addr:postcode": "47921",
                "addr:street": "Corso d'Augusto",
                "amenity": "cafe",
                "check_date": "2023-06-15",
                "currency:XBT": "yes",
                "description": "Colazioni e aperitivi.",
                "email": "mingo.mattia@gmail.com",
                "name": "Mythos cafe",
                "payment:lightning": "yes",
                "phone": "+39 3423284951",
                "source:wheelchair": "survey",
                "wheelchair": "yes"
            }
        },
        {
            "type": "node",
            "id": 2718119263,
            "lat": 44.0394683,
            "lon": 12.5664577,
            "timestamp": "2024-12-03T20:32:52Z",
            "version": 3,
            "changeset": 159896063,
            "user": "mpbin",
            "uid": 21850090,
            "tags": {
                "addr:city": "Rimini",
                "addr:country": "IT",
                "addr:housenumber": "15",
                "addr:postcode": "47923",
                "addr:street": "Via Consolare Rimini-San Marino",
                "brand": "Trony",
                "brand:wikidata": "Q3999692",
                "name": "Trony",
                "operator": "Trony",
                "phone": "+390541771605",
                "shop": "electronics",
                "website": "https://www.trony.it/online/store/TRO044_A"
            }
        },
        {
            "type": "node",
            "id": 2718136968,
            "lat": 44.039718,
            "lon": 12.5874819,
            "timestamp": "2024-12-04T09:46:54Z",
            "version": 6,
            "changeset": 159911573,
            "user": "Aluminum0173",
            "uid": 16035231,
            "tags": {
                "addr:city": "Rimini",
                "addr:country": "IT",
                "addr:housenumber": "20",
                "addr:postcode": "47924",
                "addr:street": "Via Caduti di Nassiriya",
                "branch": "c c  Le Befane",
                "brand": "Nuvolari",
                "brand:wikidata": "Q130702590",
                "check_date:currency:XBT": "2023-05-13",
                "clothes": "men",
                "currency:XBT": "yes",
                "name": "Nuvolari",
                "payment:lightning": "no",
                "payment:lightning_contactless": "no",
                "payment:onchain": "yes",
                "phone": "+39 05411491632",
                "shop": "clothes"
            }
        },
        {
            "type": "node",
            "id": 2718150316,
            "lat": 44.0420988,
            "lon": 12.5654896,
            "timestamp": "2023-07-31T14:23:33Z",
            "version": 3,
            "changeset": 139256906,
            "user": "BTC Map",
            "uid": 18545877,
            "tags": {
                "addr:city": "Rimini",
                "addr:country": "IT",
                "addr:housenumber": "28",
                "addr:postcode": "47924",
                "addr:street": "Via Pomposa",
                "brand": "Mondo Convenienza",
                "brand:wikidata": "Q55830962",
                "check_date:currency:XBT": "2023-07-31",
                "currency:XBT": "yes",
                "name": "Mondo Convenienza",
                "shop": "furniture",
                "website": "https://www.mondoconv.it/"
            }
        },
        {
            "type": "node",
            "id": 2718195221,
            "lat": 44.0521444,
            "lon": 12.5591925,
            "timestamp": "2024-11-10T15:57:46Z",
            "version": 5,
            "changeset": 158973340,
            "user": "mpbin",
            "uid": 21850090,
            "tags": {
                "addr:city": "Rimini",
                "addr:country": "IT",
                "addr:housenumber": "57a",
                "addr:postcode": "47923",
                "addr:street": "Via Covignano",
                "amenity": "restaurant",
                "check_date": "2023-11-27",
                "contact:facebook": "https://www.facebook.com/RainbowSushi2.0Rimini",
                "cuisine": "sushi",
                "currency:XBT": "yes",
                "email": "rimini@rainbowsushibar.com",
                "name": "Rainbow sushi 2.0",
                "payment:lightning": "yes",
                "phone": "+39 0541 772363",
                "website": "https://www.rainbowsushibar.com/"
            }
        },
        {
            "type": "node",
            "id": 3074007138,
            "lat": 44.1631031,
            "lon": 12.443792,
            "timestamp": "2024-07-11T20:55:12Z",
            "version": 9,
            "changeset": 153829634,
            "user": "mauropili",
            "uid": 1496865,
            "tags": {
                "addr:city": "San Mauro a Mare",
                "addr:housenumber": "16",
                "addr:postcode": "47030",
                "addr:street": "Via della Repubblica",
                "check_date:currency:XBT": "2023-07-17",
                "contact:facebook": "https://www.facebook.com/laplajahotel",
                "currency:XBT": "yes",
                "email": "info@hotellaplaja.it",
                "name": "Hotel La Plaja",
                "phone": "+39 0541 346154",
                "rooms": "37",
                "source": "Provincia di Forl\u00ec-Cesena",
                "stars": "3",
                "swimming_pool": "yes",
                "tourism": "hotel",
                "website": "http://hotellaplaja.it/"
            }
        },
        {
            "type": "node",
            "id": 4751588835,
            "lat": 44.2904897,
            "lon": 11.8751158,
            "timestamp": "2021-10-12T08:24:52Z",
            "version": 4,
            "changeset": 112406288,
            "user": "gabriele_sani",
            "uid": 7078274,
            "tags": {
                "addr:city": "Faenza",
                "addr:housenumber": "30",
                "addr:postcode": "48018",
                "addr:street": "Via Marcello Valgimigli",
                "brand": "Conad City",
                "brand:wikidata": "Q57543102",
                "name": "Conad City",
                "operator": "Conad",
                "shop": "supermarket"
            }
        },
        {
            "type": "node",
            "id": 4752694126,
            "lat": 44.3960161,
            "lon": 12.179645,
            "timestamp": "2024-01-25T09:47:25Z",
            "version": 4,
            "changeset": 146665333,
            "user": "Igor Bubelov",
            "uid": 2104834,
            "tags": {
                "addr:city": "Ravenna",
                "addr:housenumber": "74",
                "addr:postcode": "48124",
                "addr:street": "Via Marco Bussato",
                "check_date": "2023-03-27",
                "clothes": "men",
                "currency:XBT": "yes",
                "name": "DOPPELG\u00c4NGER",
                "payment:lightning": "no",
                "payment:lightning_contactless": "no",
                "payment:onchain": "yes",
                "shop": "clothes"
            }
        },
        {
            "type": "node",
            "id": 4752829351,
            "lat": 44.4182506,
            "lon": 12.2018907,
            "timestamp": "2024-10-29T21:22:39Z",
            "version": 6,
            "changeset": 158517504,
            "user": "mpbin",
            "uid": 21850090,
            "tags": {
                "addr:city": "Ravenna",
                "addr:housenumber": "28",
                "addr:postcode": "48121",
                "addr:street": "Via Armando Diaz",
                "check_date": "2024-10-29",
                "check_date:currency:XBT": "2024-10-29",
                "contact:linkedin": "https://www.linkedin.com/in/marika-maltoni/",
                "currency:XBT": "yes",
                "email": "marikamaltoni@gmail.com",
                "name": "Dottoressa Commercialista Maltoni Marika",
                "office": "accountant",
                "payment:lightning": "yes",
                "payment:lightning_contactless": "no",
                "payment:onchain": "yes",
                "shop": "yes",
                "survey:date": "2022-10-27"
            }
        },
        {
            "type": "node",
            "id": 4752889626,
            "lat": 44.4007549,
            "lon": 12.2148296,
            "timestamp": "2024-11-28T19:53:32Z",
            "version": 7,
            "changeset": 159717784,
            "user": "mpbin",
            "uid": 21850090,
            "tags": {
                "addr:city": "Ravenna",
                "addr:housenumber": "144",
                "addr:postcode": "48121",
                "addr:street": "Via Romea",
                "addr:unit": "e",
                "brand": "Viessmann;Daikin",
                "check_date": "2024-11-28",
                "check_date:currency:XBT": "2024-11-28",
                "contact:facebook": "https://www.facebook.com/tecnogasravenna.assistenzacaldaie/",
                "contact:phone": "0544 402300",
                "craft": "hvac",
                "currency:XBT": "yes",
                "email": "info@tecnogasravenna.it",
                "name": "Tecnogas Ravenna Srl",
                "payment:lightning": "yes",
                "payment:lightning_contactless": "yes",
                "payment:onchain": "yes",
                "service:heating_maintenance": "yes",
                "survey:date": "2023-06-27",
                "website": "https://tecnogasravenna.it/"
            }
        },
        {
            "type": "node",
            "id": 4762426943,
            "lat": 44.3536282,
            "lon": 11.7295042,
            "timestamp": "2024-11-04T13:55:01Z",
            "version": 8,
            "changeset": 158741752,
            "user": "Zio Pino",
            "uid": 511708,
            "tags": {
                "addr:city": "Imola",
                "addr:housenumber": "34",
                "addr:postcode": "40026",
                "addr:street": "Via Benedetto Croce",
                "brand": "Conad",
                "brand:wikidata": "Q639075",
                "brand:wikipedia": "it:Conad",
                "name": "Conad Imola via B.Croce",
                "opening_hours": "Mo-Sa 07:30-19:30; Su 08:30-12:30",
                "operator": "Conad",
                "payment:cash": "yes",
                "payment:credit_cards": "yes",
                "phone": "+39 0542 26198",
                "shop": "supermarket",
                "source": "ds4273",
                "website": "https://www.conad.it/ricerca-negozi/negozio.000301.html",
                "wheelchair": "yes"
            }
        },
        {
            "type": "node",
            "id": 4766288526,
            "lat": 44.1983594,
            "lon": 12.0329415,
            "timestamp": "2024-09-23T12:14:28Z",
            "version": 9,
            "changeset": 156992809,
            "user": "mpbin",
            "uid": 21850090,
            "tags": {
                "addr:city": "Forl\u00ec",
                "addr:housenumber": "277b",
                "addr:postcode": "47121",
                "addr:street": "Viale Risorgimento",
                "air_conditioning": "yes",
                "check_date": "2024-09-23",
                "check_date:currency:XBT": "2024-09-23",
                "currency:XBT": "yes",
                "description": "Agenzia di conto vendita per privati e aziende. Pubblichiamo sul nostro sito e sui principali marketplaces foto e descrizione dei vostri prodotti ponendoci come intermediari della vendita. Offriamo assistenza in transazioni online in vendita e in acquisto",
                "email": "info@unmilione.net",
                "fax": "+39 0543 091354",
                "image": "https://unmilione.net/img/servizio/logo-16521078511.jpg",
                "name": "unmilione agenzia d'affari",
                "opening_hours": "Mo-Sa 09:00-12:30, 15:30-19:30; Th off; Su off",
                "operator": "Luca Prestianni",
                "payment:cards": "yes",
                "payment:cash": "yes",
                "payment:lightning": "yes",
                "payment:onchain": "yes",
                "phone": "+39 0543 090105",
                "phone:mobile": "+39 3332826865",
                "ref:vatin": "02624250300",
                "second_hand": "yes",
                "shop": "second_hand",
                "stroller": "yes",
                "website": "https://www.unmilione.net",
                "wheelchair": "yes"
            }
        },
        {
            "type": "node",
            "id": 4794806657,
            "lat": 44.1052484,
            "lon": 12.42164,
            "timestamp": "2021-03-09T17:28:32Z",
            "version": 3,
            "changeset": 100725206,
            "user": "mascalzone67",
            "uid": 1861652,
            "tags": {
                "addr:city": "San Mauro Pascoli",
                "addr:housenumber": "95",
                "addr:postcode": "47030",
                "addr:street": "Via Sigismondo Malatesta",
                "brand": "Conad",
                "brand:wikidata": "Q639075",
                "brand:wikipedia": "it:Conad",
                "name": "Conad",
                "opening_hours": "Mo-Sa 07:30-20:00, Su 08:30-13:00",
                "operator": "Conad",
                "payment:bancomat": "yes",
                "payment:cash": "yes",
                "payment:credit_cards": "yes",
                "phone": "+39 0543 800111",
                "shop": "supermarket",
                "start_date": "2021-03-11",
                "website": "https://www.conad.it/ricerca-negozi/negozio.010207.html"
            }
        },
        {
            "type": "node",
            "id": 4816465921,
            "lat": 44.1792743,
            "lon": 11.9508878,
            "timestamp": "2020-01-30T19:59:48Z",
            "version": 2,
            "changeset": 80332586,
            "user": "GBAB",
            "uid": 3335899,
            "tags": {
                "addr:housenumber": "23",
                "addr:postcode": "47011",
                "addr:street": "Via del Lavoro",
                "email": "info@conadcastrocaro.com",
                "name": "Conad Castrocaro",
                "name:en": "Conad Supermarket",
                "name:fr": "Conad Supermarch\u00e9",
                "opening_hours": "Mo-Su 07:30-20:00",
                "operator": "Conad",
                "phone": "+39 0543767803",
                "shop": "supermarket",
                "website": "http://www.conadcastrocaro.com"
            }
        },
        {
            "type": "node",
            "id": 5592298921,
            "lat": 44.257607,
            "lon": 12.362007,
            "timestamp": "2024-07-16T22:16:34Z",
            "version": 3,
            "changeset": 154034554,
            "user": "Rockedf",
            "uid": 7522075,
            "tags": {
                "addr:city": "Cervia",
                "addr:housenumber": "191",
                "addr:postcode": "48015",
                "addr:street": "Lungomare Grazia Deledda",
                "check_date": "2024-07-16",
                "currency:XBT": "yes",
                "description": "Stabilimento balneare con ombrelloni e sdraio, ristorante e bar.",
                "email": "bagnoben191@libero.it",
                "leisure": "beach_resort",
                "name": "Bagno Ben 191",
                "opening_hours": "Mo-Su 08:00-20:00",
                "payment:lightning": "yes",
                "payment:lightning_contactless": "yes",
                "payment:onchain": "no",
                "phone": "+39 33 9813 5772"
            }
        },
        {
            "type": "node",
            "id": 6224686025,
            "lat": 44.2766438,
            "lon": 12.3444155,
            "timestamp": "2024-01-06T11:20:43Z",
            "version": 4,
            "changeset": 145952776,
            "user": "Chiarant",
            "uid": 18452174,
            "tags": {
                "addr:city": "Cervia",
                "addr:housenumber": "37",
                "addr:postcode": "48015",
                "addr:street": "Viale Ravenna",
                "check_date": "2024-01-06",
                "currency:XBT": "yes",
                "email": "mircobiondi@inlogica.it",
                "name": "inlogica",
                "office": "financial",
                "payment:bitcoin:operator": "inbitcoin.it",
                "phone": "+39 0544 71310",
                "website": "http://www.inlogica.it/"
            }
        },
        {
            "type": "node",
            "id": 6404069985,
            "lat": 44.3546356,
            "lon": 11.6897262,
            "timestamp": "2024-10-09T20:34:26Z",
            "version": 4,
            "changeset": 157689018,
            "user": "Danysan95",
            "uid": 4425563,
            "tags": {
                "addr:city": "Imola",
                "addr:housenumber": "5c",
                "addr:postcode": "40026",
                "addr:street": "Via Montericco",
                "amenity": "pharmacy",
                "brand": "Parafarmacia Conad",
                "check_date": "2024-10-09",
                "dispensing": "no",
                "healthcare": "pharmacy",
                "name": "Parafarmacia Conad",
                "operator": "Conad"
            }
        },
        {
            "type": "node",
            "id": 7506858048,
            "lat": 44.2454752,
            "lon": 12.083444,
            "timestamp": "2020-05-11T12:26:42Z",
            "version": 1,
            "changeset": 85025387,
            "user": "mascalzone67",
            "uid": 1861652,
            "tags": {
                "addr:city": "Forl\u00ec",
                "addr:housenumber": "2",
                "addr:postcode": "47122",
                "addr:street": "Piazzale della Cooperazione",
                "amenity": "pharmacy",
                "dispensing": "no",
                "healthcare": "pharmacy",
                "name": "Parafarmacia Conad",
                "operator": "Conad"
            }
        },
        {
            "type": "node",
            "id": 7509688555,
            "lat": 44.1445109,
            "lon": 12.2617856,
            "timestamp": "2020-05-12T06:53:56Z",
            "version": 1,
            "changeset": 85065741,
            "user": "mascalzone67",
            "uid": 1861652,
            "tags": {
                "addr:city": "Cesena",
                "addr:housenumber": "525",
                "addr:postcode": "47521",
                "addr:street": "Via Leopoldo Lucchi",
                "amenity": "pharmacy",
                "dispensing": "no",
                "healthcare": "pharmacy",
                "name": "Parafarmacia Conad",
                "operator": "Conad"
            }
        },
        {
            "type": "node",
            "id": 7509688670,
            "lat": 44.1444474,
            "lon": 12.2614476,
            "timestamp": "2020-05-12T06:55:52Z",
            "version": 1,
            "changeset": 85065885,
            "user": "mascalzone67",
            "uid": 1861652,
            "tags": {
                "addr:city": "Cesena",
                "addr:housenumber": "525",
                "addr:postcode": "47521",
                "addr:street": "Via Leopoldo Lucchi",
                "brand": "Conad",
                "brand:wikidata": "Q639075",
                "brand:wikipedia": "it:Conad",
                "name": "Conad",
                "opening_hours": "Mo-Sa 08:30-20:00; Su 09:00-19:30",
                "operator": "Conad",
                "payment:bancomat": "yes",
                "payment:cash": "yes",
                "payment:credit_cards": "yes",
                "phone": "+39 0547 385225",
                "shop": "supermarket",
                "website": "https://www.conad.it/ricerca-negozi/negozio.007226.html"
            }
        },
        {
            "type": "node",
            "id": 7512115514,
            "lat": 44.0490635,
            "lon": 12.5674352,
            "timestamp": "2024-09-01T09:03:13Z",
            "version": 3,
            "changeset": 156044668,
            "user": "Aluminum0173",
            "uid": 16035231,
            "tags": {
                "addr:city": "Rimini",
                "addr:housenumber": "50",
                "addr:postcode": "47923",
                "addr:street": "Via della Fiera",
                "amenity": "pharmacy",
                "dispensing": "no",
                "healthcare": "pharmacy",
                "name": "Parafarmacia Conad",
                "operator": "Conad"
            }
        },
        {
            "type": "node",
            "id": 7512127904,
            "lat": 44.0485178,
            "lon": 12.5670564,
            "timestamp": "2020-05-12T19:01:14Z",
            "version": 1,
            "changeset": 85102237,
            "user": "mascalzone67",
            "uid": 1861652,
            "tags": {
                "addr:city": "Rimini",
                "addr:housenumber": "50",
                "addr:postcode": "47923",
                "addr:street": "Via della Fiera",
                "brand": "Conad",
                "brand:wikidata": "Q639075",
                "brand:wikipedia": "it:Conad",
                "name": "Conad",
                "opening_hours": "Mo-Sa 08:00-20:30; Su 08:00-20:00",
                "operator": "Conad",
                "payment:bancomat": "yes",
                "payment:cash": "yes",
                "payment:credit_cards": "yes",
                "phone": "+39 0541 727256",
                "shop": "supermarket",
                "website": "https://www.conad.it/ricerca-negozi/negozio.009577.html"
            }
        },
        {
            "type": "node",
            "id": 7512158210,
            "lat": 43.9947565,
            "lon": 12.4175164,
            "timestamp": "2023-10-17T09:02:06Z",
            "version": 7,
            "changeset": 142702145,
            "user": "Aluminum0173",
            "uid": 16035231,
            "tags": {
                "addr:city": "Verucchio",
                "addr:housenumber": "38",
                "addr:postcode": "47826",
                "addr:street": "Via Statale Marecchia",
                "amenity": "pharmacy",
                "brand": "Parafarmacia Conad",
                "dispensing": "no",
                "drive_through": "no",
                "healthcare": "pharmacy",
                "name": "Parafarmacia Conad",
                "opening_hours": "Mo-Su 08:30-20:00",
                "operator": "Conad"
            }
        },
        {
            "type": "node",
            "id": 7512172489,
            "lat": 43.9947328,
            "lon": 12.4172392,
            "timestamp": "2023-03-02T15:41:43Z",
            "version": 7,
            "changeset": 133217264,
            "user": "Aluminum0173",
            "uid": 16035231,
            "tags": {
                "addr:city": "Verucchio",
                "addr:housenumber": "38",
                "addr:postcode": "47826",
                "addr:street": "Via Statale Marecchia",
                "brand": "Conad",
                "brand:wikidata": "Q639075",
                "brand:wikipedia": "it:Conad",
                "name": "Conad",
                "opening_hours": "Mo-Su 08:00-20:00",
                "operator": "Conad",
                "payment:bancomat": "yes",
                "payment:cash": "yes",
                "payment:credit_cards": "yes",
                "phone": "+390541678063",
                "shop": "supermarket",
                "website": "https://www.conad.it/ricerca-negozi/negozio.009655.html",
                "wheelchair": "yes"
            }
        },
        {
            "type": "node",
            "id": 7512177059,
            "lat": 44.039003,
            "lon": 12.5877744,
            "timestamp": "2020-05-12T19:17:59Z",
            "version": 1,
            "changeset": 85102790,
            "user": "mascalzone67",
            "uid": 1861652,
            "tags": {
                "addr:city": "Rimini",
                "addr:housenumber": "20",
                "addr:postcode": "47924",
                "addr:street": "Via Caduti di Nassiriya",
                "amenity": "pharmacy",
                "dispensing": "no",
                "healthcare": "pharmacy",
                "name": "Parafarmacia Conad",
                "operator": "Conad"
            }
        },
        {
            "type": "node",
            "id": 7512199305,
            "lat": 44.0395622,
            "lon": 12.5862428,
            "timestamp": "2024-12-01T21:03:28Z",
            "version": 2,
            "changeset": 159820219,
            "user": "sorcrosc",
            "uid": 160229,
            "tags": {
                "addr:city": "Rimini",
                "addr:housenumber": "20",
                "addr:postcode": "47924",
                "addr:street": "Via Caduti di Nassiriya",
                "brand": "Conad",
                "brand:wikidata": "Q639075",
                "brand:wikipedia": "it:Conad",
                "name": "Conad",
                "opening_hours": "Mo-Su 09:00-21:00",
                "operator": "Conad",
                "payment:bancomat": "yes",
                "payment:cash": "yes",
                "payment:credit_cards": "yes",
                "phone": "+39 0541 769611",
                "shop": "supermarket",
                "website": "https://www.conad.it/ricerca-negozi/negozio.006886.html"
            }
        },
        {
            "type": "node",
            "id": 7513054227,
            "lat": 44.2977378,
            "lon": 11.8864091,
            "timestamp": "2023-11-30T07:04:45Z",
            "version": 3,
            "changeset": 144613416,
            "user": "paulbrunner",
            "uid": 15541433,
            "tags": {
                "addr:city": "Faenza",
                "addr:housenumber": "28",
                "addr:postcode": "48018",
                "addr:street": "Via della Costituzione",
                "amenity": "pharmacy",
                "dispensing": "no",
                "healthcare": "pharmacy",
                "name": "Parafarmacia Conad",
                "operator": "Conad",
                "phone": "+39 0546 25808"
            }
        },
        {
            "type": "node",
            "id": 9407485099,
            "lat": 44.2964812,
            "lon": 11.8610237,
            "timestamp": "2022-01-10T12:56:22Z",
            "version": 1,
            "changeset": 115981134,
            "user": "gabriele_sani",
            "uid": 7078274,
            "tags": {
                "brand": "Conad",
                "brand:wikidata": "Q639075",
                "brand:wikipedia": "it:Conad",
                "name": "Conad",
                "operator": "Conad",
                "shop": "supermarket"
            }
        },
        {
            "type": "node",
            "id": 9962167198,
            "lat": 44.1344843,
            "lon": 12.0621317,
            "timestamp": "2024-05-02T21:19:52Z",
            "version": 3,
            "changeset": 150812326,
            "user": "MarcoR",
            "uid": 175882,
            "tags": {
                "amenity": "fuel",
                "brand": "Conad",
                "brand:wikidata": "Q639075",
                "fuel:diesel": "yes",
                "fuel:lpg": "yes",
                "fuel:octane_95": "yes",
                "name": "Conad",
                "opening_hours": "24/7",
                "operator": "Conad",
                "self_service": "yes"
            }
        },
        {
            "type": "node",
            "id": 10162799750,
            "lat": 44.3309194,
            "lon": 12.1329818,
            "timestamp": "2022-11-30T18:10:31Z",
            "version": 2,
            "changeset": 129571540,
            "user": "BSN21M",
            "uid": 17441326,
            "tags": {
                "addr:city": "Gambellara",
                "addr:housenumber": "44",
                "addr:postcode": "48124",
                "addr:street": "Via del Fabbro",
                "check_date:currency:XBT": "2022-11-30",
                "craft": "plumber",
                "currency:XBT": "yes",
                "email": "luca6854@gmail.com",
                "name": "Fantinelli Gabriele",
                "payment:lightning": "no",
                "payment:lightning_contactless": "no",
                "payment:onchain": "yes",
                "phone": "+39335390405",
                "survey:date": "2022-11-06",
                "website": "https://www.fantinelligabriele.it/"
            }
        },
        {
            "type": "node",
            "id": 10262254025,
            "lat": 44.6947524,
            "lon": 12.2202155,
            "timestamp": "2024-03-03T10:53:08Z",
            "version": 3,
            "changeset": 148160607,
            "user": "mascalzone67",
            "uid": 1861652,
            "tags": {
                "addr:city": "Comacchio",
                "addr:postcode": "44022",
                "addr:street": "Via della Collinara",
                "brand": "Conad",
                "brand:wikidata": "Q639075",
                "name": "Conad",
                "opening_hours": "Mo-Sa 08:30-20:30, Su 08:30-20:00",
                "operator": "Conad",
                "payment:bancomat": "yes",
                "payment:cash": "yes",
                "payment:credit_cards": "yes",
                "phone": "+39 0533 329296",
                "shop": "supermarket",
                "source": "https://www.gdonews.it/2024/03/01/a-comacchio-approda-il-nuovo-spazio-conad-allinterno-del-centro-commerciale-le-valli/",
                "start_date": "2024-03-02",
                "website": "https://www.conad.it/ricerca-negozi/spazio-conad-via-valle-isola-9-44022-comacchio--010562"
            }
        },
        {
            "type": "node",
            "id": 10648841302,
            "lat": 44.2428018,
            "lon": 12.3648022,
            "timestamp": "2024-07-23T06:27:07Z",
            "version": 5,
            "changeset": 154290259,
            "user": "Igor Bubelov",
            "uid": 2104834,
            "tags": {
                "addr:city": "Pinarella di Cervia",
                "addr:housenumber": "15",
                "addr:postcode": "48015",
                "addr:street": "Piazza della Repubblica",
                "amenity": "fast_food",
                "check_date:currency:XBT": "2023-02-11",
                "currency:XBT": "yes",
                "name": "Piadina da Giorgia",
                "payment:lightning": "yes",
                "payment:lightning_contactless": "no",
                "payment:onchain": "no",
                "phone": "+393490534667",
                "website": "https://www.piadinadagiorgia.it/it/"
            }
        },
        {
            "type": "node",
            "id": 10788250052,
            "lat": 44.1581639,
            "lon": 12.4294307,
            "timestamp": "2023-05-12T22:47:49Z",
            "version": 2,
            "changeset": 136036841,
            "user": "saunter",
            "uid": 10396321,
            "tags": {
                "addr:city": "Savignano sul Rubicone",
                "addr:housenumber": "3",
                "addr:postcode": "47039",
                "addr:street": "piazza colombo",
                "check_date:currency:XBT": "2023-05-13",
                "clothes": "men",
                "currency:XBT": "yes",
                "name": "DOPPELG\u00c4NGER",
                "payment:lightning": "no",
                "payment:lightning_contactless": "no",
                "payment:onchain": "yes",
                "phone": "0541347999",
                "shop": "clothes"
            }
        },
        {
            "type": "node",
            "id": 11014217449,
            "lat": 44.2793233,
            "lon": 12.3527166,
            "timestamp": "2024-10-10T21:08:07Z",
            "version": 3,
            "changeset": 157733468,
            "user": "mpbin",
            "uid": 21850090,
            "tags": {
                "addr:city": "Milano Marittima",
                "addr:housenumber": "274",
                "addr:postcode": "48015",
                "addr:street": "Lungomare Antonio Batani",
                "amenity": "restaurant",
                "check_date:currency:XBT": "2023-08-03",
                "contact:facebook": "https://www.facebook.com/laspiaggettamilanomarittima",
                "contact:instagram": "https://www.instagram.com/laspiaggetta_274/",
                "cuisine": "italian;italian_pizza",
                "currency:XBT": "yes",
                "currency:XBT:operator": "bitcoinpos.it",
                "email": "info@laspiaggetta274.it",
                "name": "La Spiaggetta 274",
                "payment:lightning": "yes",
                "payment:onchain": "yes",
                "phone": "+393313874666",
                "survey:date": "2023-06-27",
                "website": "http://www.laspiaggetta274.it/"
            }
        },
        {
            "type": "node",
            "id": 11540666657,
            "lat": 44.3196504,
            "lon": 11.7992835,
            "timestamp": "2024-01-22T18:36:13Z",
            "version": 1,
            "changeset": 146565122,
            "user": "Rockedf",
            "uid": 7522075,
            "tags": {
                "addr:city": "Castel Bolognese",
                "addr:housenumber": "59",
                "addr:postcode": "48014",
                "addr:street": "Via Emilia Interna",
                "addr:unit": "61",
                "check_date": "2024-01-22",
                "contact:email": "info@doctoramen.it",
                "currency:XBT": "yes",
                "name": "Doctoramen",
                "office": "graphic_design",
                "payment:lightning": "yes",
                "payment:lightning_contactless": "no",
                "payment:onchain": "yes",
                "phone": "+39 32 8448 2538",
                "website": "https://www.doctoramen.it/"
            }
        },
        {
            "type": "node",
            "id": 12147929280,
            "lat": 44.0590112,
            "lon": 12.5627959,
            "timestamp": "2024-08-31T15:19:00Z",
            "version": 1,
            "changeset": 156020066,
            "user": "Rockedf",
            "uid": 7522075,
            "tags": {
                "addr:city": "Rimini",
                "addr:housenumber": "1",
                "addr:postcode": "47922",
                "addr:street": "Via Dario Campana",
                "check_date": "2024-08-31",
                "contact:instagram": "https://www.instagram.com/orivel.moda/",
                "currency:XBT": "yes",
                "name": "Orivel Moda",
                "payment:lightning": "yes",
                "payment:lightning_contactless": "no",
                "payment:onchain": "yes",
                "shop": "clothes"
            }
        },
        {
            "type": "node",
            "id": 12329405780,
            "lat": 44.2800395,
            "lon": 12.3530336,
            "timestamp": "2024-11-10T21:20:25Z",
            "version": 1,
            "changeset": 158986108,
            "user": "mpbin",
            "uid": 21850090,
            "tags": {
                "addr:city": "Milano Marittima",
                "addr:housenumber": "274",
                "addr:postcode": "48015",
                "addr:street": "Viale Spalato",
                "currency:XBT": "yes",
                "email": "info@lecodelmare.it",
                "leisure": "beach_resort",
                "mobile": "+39 329 080 7760",
                "name": "La Spiaggetta 274"
            }
        },
        {
            "type": "node",
            "id": 12361647666,
            "lat": 44.2246763,
            "lon": 12.0494157,
            "timestamp": "2024-11-21T13:34:29Z",
            "version": 1,
            "changeset": 159410359,
            "user": "Rockedf",
            "uid": 7522075,
            "tags": {
                "addr:city": "Forl\u00ec",
                "addr:housenumber": "1",
                "addr:postcode": "47122",
                "addr:street": "Piazza Orsi Mangelli",
                "check_date": "2024-11-21",
                "contact:email": "alexsintoni@libero.it",
                "currency:XBT": "yes",
                "name": "DOTT. SINTONI ALEX",
                "office": "accountant",
                "payment:lightning": "yes",
                "payment:lightning_contactless": "yes",
                "payment:onchain": "yes",
                "phone": "+39 05 433 4716"
            }
        }
    ],
    "telegram": [
        {
            "telegram": "pb-ravenna"
        }
    ]
}