{
    "id": "rimini",
    "name": "Rimini",
    "lng": 44.0678288,
    "lat": 12.5695158,
    "poi": [
        {
            "type": "node",
            "id": 228170017,
            "lat": 44.1408866,
            "lon": 12.2284879,
            "timestamp": "2025-04-19T21:50:45Z",
            "version": 6,
            "changeset": 165172171,
            "user": "btcitnet",
            "uid": 22525435,
            "tags": {
                "addr:city": "Cesena",
                "addr:postcode": "47522",
                "addr:street": "Viale Giacomo Matteotti",
                "amenity": "fuel",
                "brand": "Q8",
                "brand:wikidata": "Q1634762",
                "name": "Q8",
                "operator": "Q8"
            }
        },
        {
            "type": "node",
            "id": 269604393,
            "lat": 44.4391911,
            "lon": 12.2903665,
            "timestamp": "2024-12-30T22:34:03Z",
            "version": 3,
            "changeset": 160812837,
            "user": "mpbin",
            "uid": 21850090,
            "tags": {
                "addr:city": "Ravenna",
                "addr:housenumber": "88",
                "addr:postcode": "48122",
                "addr:street": "Viale dei Navigatori",
                "branch": "I Cigni",
                "brand": "Conad",
                "brand:wikidata": "Q639075",
                "name": "Conad",
                "operator": "Conad",
                "shop": "supermarket"
            }
        },
        {
            "type": "node",
            "id": 281339878,
            "lat": 43.9987595,
            "lon": 12.6312577,
            "timestamp": "2024-12-30T22:50:18Z",
            "version": 8,
            "changeset": 160813222,
            "user": "mpbin",
            "uid": 21850090,
            "tags": {
                "addr:city": "Riccione",
                "addr:housenumber": "43",
                "addr:postcode": "47838",
                "addr:street": "Viale Veneto",
                "check_date": "2024-05-30",
                "name": "Conad Boschetto",
                "operator": "Conad",
                "shop": "supermarket"
            }
        },
        {
            "type": "node",
            "id": 365152244,
            "lat": 43.9620001,
            "lon": 12.4712187,
            "timestamp": "2013-01-03T12:52:28Z",
            "version": 3,
            "changeset": 14511576,
            "user": "nicorsm",
            "uid": 634768,
            "tags": {
                "amenity": "fuel",
                "brand": "Tamoil",
                "name": "Tamoil",
                "operator": "Tamoil",
                "wheelchair": "yes"
            }
        },
        {
            "type": "node",
            "id": 365152247,
            "lat": 43.9734472,
            "lon": 12.4847723,
            "timestamp": "2024-09-12T16:58:43Z",
            "version": 7,
            "changeset": 156538180,
            "user": "\u0110uro Ji\u0159\u00ed",
            "uid": 14617702,
            "tags": {
                "amenity": "fuel",
                "brand": "Tamoil",
                "compressed_air": "yes",
                "name": "Tamoil",
                "opening_hours": "24/7",
                "operator": "Tamoil",
                "wheelchair": "yes"
            }
        },
        {
            "type": "node",
            "id": 503495931,
            "lat": 43.9790769,
            "lon": 12.6960604,
            "timestamp": "2023-11-11T19:44:29Z",
            "version": 4,
            "changeset": 143912910,
            "user": "\u0110uro Ji\u0159\u00ed",
            "uid": 14617702,
            "tags": {
                "addr:city": "Misano Adriatico",
                "addr:housenumber": "21",
                "addr:postcode": "47843",
                "addr:street": "Via Romagna",
                "name": "Tuday Conad",
                "not:brand:wikidata": "Q639075",
                "opening_hours": "Mo-Sa 08:00-20:30, Su 08:00-13:00",
                "operator": "Conad",
                "payment:bancomat": "yes",
                "payment:cash": "yes",
                "payment:credit_cards": "yes",
                "phone": "+39 0541 613561",
                "shop": "supermarket",
                "source": "https://www.gdonews.it/2023/03/30/il-conad-rio-agina-di-misano-diventa-tuday-conad/",
                "website": "https://www.conad.it/ricerca-negozi/tuday-conad-via-romagna-21-47843-misano-adriatico--009772",
                "wheelchair": "yes"
            }
        },
        {
            "type": "node",
            "id": 1131541220,
            "lat": 44.2278004,
            "lon": 12.0436279,
            "timestamp": "2025-01-03T17:16:37Z",
            "version": 4,
            "changeset": 160958513,
            "user": "mpbin",
            "uid": 21850090,
            "tags": {
                "brand": "MediaWorld",
                "brand:wikidata": "Q2381223",
                "name": "MediaWorld",
                "operator": "MediaMarket S.p.A.",
                "shop": "electronics"
            }
        },
        {
            "type": "node",
            "id": 1766521593,
            "lat": 43.9085527,
            "lon": 12.9181644,
            "timestamp": "2025-04-19T09:13:26Z",
            "version": 2,
            "changeset": 165144173,
            "user": "btcitnet",
            "uid": 22525435,
            "tags": {
                "addr:city": "Pesaro",
                "addr:postcode": "61121",
                "operator": "Conad",
                "shop": "convenience"
            }
        },
        {
            "type": "node",
            "id": 2037705255,
            "lat": 43.7899762,
            "lon": 12.9987614,
            "timestamp": "2025-01-01T22:35:44Z",
            "version": 6,
            "changeset": 160887667,
            "user": "mpbin",
            "uid": 21850090,
            "tags": {
                "addr:city": "Fano",
                "addr:street": "Via Luigi Einaudi",
                "brand": "Trony",
                "brand:wikidata": "Q3999692",
                "brand:wikipedia": "it:Trony",
                "name": "Trony",
                "operator": "Trony",
                "phone": "+39 0721 855899",
                "ref:vatin": "IT02106250398",
                "shop": "electronics",
                "wheelchair": "yes"
            }
        },
        {
            "type": "node",
            "id": 2323216819,
            "lat": 44.1379112,
            "lon": 12.2441762,
            "timestamp": "2024-12-30T19:10:13Z",
            "version": 8,
            "changeset": 160805147,
            "user": "DnaX",
            "uid": 69259,
            "tags": {
                "addr:city": "Cesena",
                "addr:housenumber": "9",
                "addr:postcode": "47521",
                "addr:street": "Corso Giuseppe Mazzini",
                "brand": "Doppelg\u00e4nger",
                "brand:wikidata": "Q117451227",
                "cesena:ref_id": "051130009000",
                "check_date": "2024-03-15",
                "clothes": "men",
                "currency:XBT": "yes",
                "name": "Doppelg\u00e4nger",
                "payment:lightning": "no",
                "payment:lightning_contactless": "no",
                "payment:onchain": "yes",
                "phone": "+39 054721467",
                "shop": "clothes",
                "website": "https://www.doppelganger.it/"
            }
        },
        {
            "type": "node",
            "id": 2718103390,
            "lat": 44.0600462,
            "lon": 12.5677448,
            "timestamp": "2023-06-26T10:58:05Z",
            "version": 5,
            "changeset": 137786952,
            "user": "Chiarant",
            "uid": 18452174,
            "tags": {
                "addr:city": "Rimini",
                "addr:country": "IT",
                "addr:housenumber": "107",
                "addr:postcode": "47921",
                "addr:street": "Corso d'Augusto",
                "check_date": "2023-06-26",
                "clothes": "underwear",
                "currency:XBT": "yes",
                "description": "Negozio di intimo e accessori di grandi brand come Triumph e Sloggi.",
                "name": "Since 1886",
                "payment:lightning": "yes",
                "payment:onchain": "yes",
                "phone": "+390541783603",
                "shop": "clothes",
                "website": "https://www.ginevraunderwear.it"
            }
        },
        {
            "type": "node",
            "id": 2718109273,
            "lat": 44.0601434,
            "lon": 12.5676513,
            "timestamp": "2023-06-15T20:46:45Z",
            "version": 7,
            "changeset": 137389471,
            "user": "Chiarant",
            "uid": 18452174,
            "tags": {
                "addr:city": "Rimini",
                "addr:country": "IT",
                "addr:housenumber": "113",
                "addr:postcode": "47921",
                "addr:street": "Corso d'Augusto",
                "amenity": "cafe",
                "check_date": "2023-06-15",
                "currency:XBT": "yes",
                "description": "Colazioni e aperitivi.",
                "email": "mingo.mattia@gmail.com",
                "name": "Mythos cafe",
                "payment:lightning": "yes",
                "phone": "+39 3423284951",
                "source:wheelchair": "survey",
                "wheelchair": "yes"
            }
        },
        {
            "type": "node",
            "id": 2718119263,
            "lat": 44.0395994,
            "lon": 12.5666881,
            "timestamp": "2025-07-11T10:33:25Z",
            "version": 4,
            "changeset": 168788646,
            "user": "Mirko Ferrari",
            "uid": 10795314,
            "tags": {
                "addr:city": "Rimini",
                "addr:country": "IT",
                "addr:housenumber": "15;15a",
                "addr:postcode": "47923",
                "addr:street": "Via Consolare Rimini-San Marino",
                "brand": "Trony",
                "brand:wikidata": "Q3999692",
                "name": "Trony",
                "operator": "Trony",
                "phone": "+390541771605",
                "shop": "electronics",
                "website": "https://www.trony.it/online/store/TRO044_A"
            }
        },
        {
            "type": "node",
            "id": 2718136968,
            "lat": 44.039718,
            "lon": 12.5874819,
            "timestamp": "2024-12-04T09:46:54Z",
            "version": 6,
            "changeset": 159911573,
            "user": "Aluminum0173",
            "uid": 16035231,
            "tags": {
                "addr:city": "Rimini",
                "addr:country": "IT",
                "addr:housenumber": "20",
                "addr:postcode": "47924",
                "addr:street": "Via Caduti di Nassiriya",
                "branch": "c c  Le Befane",
                "brand": "Nuvolari",
                "brand:wikidata": "Q130702590",
                "check_date:currency:XBT": "2023-05-13",
                "clothes": "men",
                "currency:XBT": "yes",
                "name": "Nuvolari",
                "payment:lightning": "no",
                "payment:lightning_contactless": "no",
                "payment:onchain": "yes",
                "phone": "+39 05411491632",
                "shop": "clothes"
            }
        },
        {
            "type": "node",
            "id": 2718150316,
            "lat": 44.0420988,
            "lon": 12.5654896,
            "timestamp": "2023-07-31T14:23:33Z",
            "version": 3,
            "changeset": 139256906,
            "user": "BTC Map",
            "uid": 18545877,
            "tags": {
                "addr:city": "Rimini",
                "addr:country": "IT",
                "addr:housenumber": "28",
                "addr:postcode": "47924",
                "addr:street": "Via Pomposa",
                "brand": "Mondo Convenienza",
                "brand:wikidata": "Q55830962",
                "check_date:currency:XBT": "2023-07-31",
                "currency:XBT": "yes",
                "name": "Mondo Convenienza",
                "shop": "furniture",
                "website": "https://www.mondoconv.it/"
            }
        },
        {
            "type": "node",
            "id": 2718191192,
            "lat": 44.0290234,
            "lon": 12.6232892,
            "timestamp": "2024-09-23T12:20:05Z",
            "version": 3,
            "changeset": 156993043,
            "user": "mpbin",
            "uid": 21850090,
            "tags": {
                "addr:city": "Rimini",
                "addr:country": "IT",
                "addr:housenumber": "5",
                "addr:postcode": "47924",
                "addr:street": "Viale Brescia",
                "check_date": "2024-09-22",
                "check_date:currency:XBT": "2024-09-22",
                "contact:facebook": "HotelEliseoMiramare",
                "contact:whatsapp": "+39 333 858 2258",
                "currency:XBT": "yes",
                "description": "E se volete fare un tuffo nel passato... il mare dista solo 150mt!",
                "email": "eliseomiramare@gmail.com",
                "name": "Hotel Eliseo",
                "payment:lightning": "no",
                "payment:lightning_contactless": "no",
                "payment:onchain": "yes",
                "phone": "+39 333 858 2258",
                "survey:date": "2023-07-26",
                "tourism": "hotel",
                "website": "https://www.hoteleliseorimini.it"
            }
        },
        {
            "type": "node",
            "id": 2718195221,
            "lat": 44.0521444,
            "lon": 12.5591925,
            "timestamp": "2024-11-10T15:57:46Z",
            "version": 5,
            "changeset": 158973340,
            "user": "mpbin",
            "uid": 21850090,
            "tags": {
                "addr:city": "Rimini",
                "addr:country": "IT",
                "addr:housenumber": "57a",
                "addr:postcode": "47923",
                "addr:street": "Via Covignano",
                "amenity": "restaurant",
                "check_date": "2023-11-27",
                "contact:facebook": "https://www.facebook.com/RainbowSushi2.0Rimini",
                "cuisine": "sushi",
                "currency:XBT": "yes",
                "email": "rimini@rainbowsushibar.com",
                "name": "Rainbow sushi 2.0",
                "payment:lightning": "yes",
                "phone": "+39 0541 772363",
                "website": "https://www.rainbowsushibar.com/"
            }
        },
        {
            "type": "node",
            "id": 2718202304,
            "lat": 44.0582513,
            "lon": 12.5668867,
            "timestamp": "2025-01-03T14:02:49Z",
            "version": 4,
            "changeset": 160950605,
            "user": "mpbin",
            "uid": 21850090,
            "tags": {
                "addr:city": "Rimini",
                "addr:country": "IT",
                "addr:housenumber": "74",
                "addr:postcode": "47921",
                "addr:street": "Via Giuseppe Garibaldi",
                "brand": "OVS",
                "brand:wikidata": "Q2042514",
                "name": "OVS",
                "operator": "OVS",
                "shop": "clothes",
                "source:wheelchair": "survey",
                "wheelchair": "no"
            }
        },
        {
            "type": "node",
            "id": 3074007138,
            "lat": 44.1631031,
            "lon": 12.443792,
            "timestamp": "2024-07-11T20:55:12Z",
            "version": 9,
            "changeset": 153829634,
            "user": "mauropili",
            "uid": 1496865,
            "tags": {
                "addr:city": "San Mauro a Mare",
                "addr:housenumber": "16",
                "addr:postcode": "47030",
                "addr:street": "Via della Repubblica",
                "check_date:currency:XBT": "2023-07-17",
                "contact:facebook": "https://www.facebook.com/laplajahotel",
                "currency:XBT": "yes",
                "email": "info@hotellaplaja.it",
                "name": "Hotel La Plaja",
                "phone": "+39 0541 346154",
                "rooms": "37",
                "source": "Provincia di Forl\u00ec-Cesena",
                "stars": "3",
                "swimming_pool": "yes",
                "tourism": "hotel",
                "website": "http://hotellaplaja.it/"
            }
        },
        {
            "type": "node",
            "id": 3673083531,
            "lat": 43.8006487,
            "lon": 13.0118385,
            "timestamp": "2025-08-24T23:01:15Z",
            "version": 7,
            "changeset": 170948871,
            "user": "Max Ciaone",
            "uid": 3240268,
            "tags": {
                "addr:city": "Fano",
                "addr:housenumber": "30",
                "addr:postcode": "61032",
                "addr:street": "Via Luigi Einaudi",
                "brand": "OVS",
                "brand:wikidata": "Q2042514",
                "brand:wikipedia": "en:OVS (company)",
                "name": "OVS",
                "operator": "OVS",
                "phone": "+39 0721 860116",
                "shop": "clothes"
            }
        },
        {
            "type": "node",
            "id": 3673089754,
            "lat": 43.8007757,
            "lon": 13.0125703,
            "timestamp": "2025-01-01T17:42:00Z",
            "version": 6,
            "changeset": 160878384,
            "user": "mpbin",
            "uid": 21850090,
            "tags": {
                "addr:city": "Fano",
                "addr:postcode": "61032",
                "addr:street": "Via Luigi Einaudi",
                "brand": "Unieuro",
                "brand:wikidata": "Q4004687",
                "brand:wikipedia": "en:Unieuro",
                "name": "Unieuro",
                "operator": "Unieuro S.p.A.",
                "shop": "electronics"
            }
        },
        {
            "type": "node",
            "id": 4088983168,
            "lat": 43.6718719,
            "lon": 12.5165529,
            "timestamp": "2025-01-01T17:57:21Z",
            "version": 5,
            "changeset": 160878996,
            "user": "mpbin",
            "uid": 21850090,
            "tags": {
                "addr:city": "Urbania",
                "addr:housenumber": "75",
                "addr:postcode": "61049",
                "addr:street": "Via Roma",
                "brand": "Unieuro",
                "brand:wikidata": "Q4004687",
                "brand:wikipedia": "en:Unieuro",
                "description": "Grande catena di elettronica di consumo e di elettrodomestici.",
                "level": "0",
                "name": "Unieuro",
                "opening_hours": "Mo 15:30-19:30; Tu-Sa 08:30-12:30,15:30-19:30",
                "operator": "Unieuro S.p.A.",
                "shop": "electronics",
                "website": "https://www.unieuro.it/online/negozi/Unieuro-Urbania"
            }
        },
        {
            "type": "node",
            "id": 4238510841,
            "lat": 43.9054477,
            "lon": 12.8694387,
            "timestamp": "2025-01-03T14:07:20Z",
            "version": 6,
            "changeset": 160950793,
            "user": "mpbin",
            "uid": 21850090,
            "tags": {
                "addr:city": "Pesaro",
                "addr:postcode": "61122",
                "addr:street": "Via Yuri Gagarin",
                "brand": "OVS",
                "brand:wikidata": "Q2042514",
                "brand:wikipedia": "en:OVS (company)",
                "name": "OVS",
                "operator": "OVS",
                "phone": "+39 0721 405682",
                "shop": "clothes",
                "wheelchair": "yes"
            }
        },
        {
            "type": "node",
            "id": 4347589925,
            "lat": 43.9061157,
            "lon": 12.8667692,
            "timestamp": "2025-01-01T18:01:38Z",
            "version": 6,
            "changeset": 160879141,
            "user": "mpbin",
            "uid": 21850090,
            "tags": {
                "addr:city": "Pesaro",
                "addr:housenumber": "16",
                "addr:street": "Via Icaro",
                "brand": "Unieuro",
                "brand:wikidata": "Q4004687",
                "name": "Unieuro",
                "opening_hours": "Mo-Sa 09:30-13:00,15:00-20:00; Su 10:00-13:00,15:00-20:00",
                "operator": "Unieuro S.p.A.",
                "shop": "electronics",
                "website": "https://www.unieuro.it/online/negozi/Unieuro-Pesaro",
                "wheelchair": "yes"
            }
        },
        {
            "type": "node",
            "id": 4495188701,
            "lat": 44.0022953,
            "lon": 12.6599613,
            "timestamp": "2025-08-06T21:50:06Z",
            "version": 7,
            "changeset": 170079964,
            "user": "Samuele Battarra",
            "uid": 51179,
            "tags": {
                "addr:city": "Riccione",
                "addr:housenumber": "36",
                "addr:postcode": "47838",
                "addr:street": "Viale Maria Boorman Ceccarini",
                "brand": "OVS",
                "brand:wikidata": "Q2042514",
                "check_date": "2025-08-06",
                "name": "OVS",
                "operator": "OVS",
                "shop": "clothes"
            }
        },
        {
            "type": "node",
            "id": 4495480088,
            "lat": 44.063513,
            "lon": 12.4562914,
            "timestamp": "2025-01-01T18:10:29Z",
            "version": 3,
            "changeset": 160879410,
            "user": "mpbin",
            "uid": 21850090,
            "tags": {
                "addr:city": "Santarcengelo di Romagna",
                "addr:housenumber": "10",
                "addr:postcode": "47822",
                "addr:street": "Via Ca' Fabbri",
                "brand": "Unieuro",
                "brand:wikidata": "Q4004687",
                "name": "Unieuro",
                "operator": "Unieuro S.p.A.",
                "shop": "electronics"
            }
        },
        {
            "type": "node",
            "id": 4502403689,
            "lat": 44.1576015,
            "lon": 12.4276275,
            "timestamp": "2025-01-09T09:43:42Z",
            "version": 7,
            "changeset": 161162461,
            "user": "DnaX",
            "uid": 69259,
            "tags": {
                "brand": "MediaWorld",
                "brand:wikidata": "Q2381223",
                "name": "MediaWorld",
                "name:it": "Mediaworld",
                "opening_hours": "Mo-Sa 09:00-22:00; Su 09:00-20:30",
                "operator": "MediaMarket S.p.A.",
                "phone": "+39 0541335111",
                "shop": "electronics",
                "website": "https://romagna-shoppingvalley.klepierre.it/Shopping/MediaWorld",
                "wheelchair": "yes"
            }
        },
        {
            "type": "node",
            "id": 4752694126,
            "lat": 44.3960161,
            "lon": 12.179645,
            "timestamp": "2025-01-09T09:30:44Z",
            "version": 5,
            "changeset": 161162069,
            "user": "DnaX",
            "uid": 69259,
            "tags": {
                "addr:city": "Ravenna",
                "addr:housenumber": "74",
                "addr:postcode": "48124",
                "addr:street": "Via Marco Bussato",
                "brand": "Doppelg\u00e4nger",
                "brand:wikidata": "Q117451227",
                "check_date": "2023-03-27",
                "clothes": "men",
                "currency:XBT": "yes",
                "name": "Doppelg\u00e4nger",
                "payment:lightning": "no",
                "payment:lightning_contactless": "no",
                "payment:onchain": "yes",
                "shop": "clothes"
            }
        },
        {
            "type": "node",
            "id": 4752829351,
            "lat": 44.4182506,
            "lon": 12.2018907,
            "timestamp": "2024-10-29T21:22:39Z",
            "version": 6,
            "changeset": 158517504,
            "user": "mpbin",
            "uid": 21850090,
            "tags": {
                "addr:city": "Ravenna",
                "addr:housenumber": "28",
                "addr:postcode": "48121",
                "addr:street": "Via Armando Diaz",
                "check_date": "2024-10-29",
                "check_date:currency:XBT": "2024-10-29",
                "contact:linkedin": "https://www.linkedin.com/in/marika-maltoni/",
                "currency:XBT": "yes",
                "email": "marikamaltoni@gmail.com",
                "name": "Dottoressa Commercialista Maltoni Marika",
                "office": "accountant",
                "payment:lightning": "yes",
                "payment:lightning_contactless": "no",
                "payment:onchain": "yes",
                "shop": "yes",
                "survey:date": "2022-10-27"
            }
        },
        {
            "type": "node",
            "id": 4752889626,
            "lat": 44.4007549,
            "lon": 12.2148296,
            "timestamp": "2024-11-28T19:53:32Z",
            "version": 7,
            "changeset": 159717784,
            "user": "mpbin",
            "uid": 21850090,
            "tags": {
                "addr:city": "Ravenna",
                "addr:housenumber": "144",
                "addr:postcode": "48121",
                "addr:street": "Via Romea",
                "addr:unit": "e",
                "brand": "Viessmann;Daikin",
                "check_date": "2024-11-28",
                "check_date:currency:XBT": "2024-11-28",
                "contact:facebook": "https://www.facebook.com/tecnogasravenna.assistenzacaldaie/",
                "contact:phone": "0544 402300",
                "craft": "hvac",
                "currency:XBT": "yes",
                "email": "info@tecnogasravenna.it",
                "name": "Tecnogas Ravenna Srl",
                "payment:lightning": "yes",
                "payment:lightning_contactless": "yes",
                "payment:onchain": "yes",
                "service:heating_maintenance": "yes",
                "survey:date": "2023-06-27",
                "website": "https://tecnogasravenna.it/"
            }
        },
        {
            "type": "node",
            "id": 4766288526,
            "lat": 44.1983594,
            "lon": 12.0329415,
            "timestamp": "2025-05-27T09:45:47Z",
            "version": 10,
            "changeset": 166816450,
            "user": "Comino",
            "uid": 6794624,
            "tags": {
                "addr:city": "Forl\u00ec",
                "addr:housenumber": "277b",
                "addr:postcode": "47121",
                "addr:street": "Viale Risorgimento",
                "air_conditioning": "yes",
                "check_date": "2025-05-27",
                "check_date:currency:XBT": "2025-05-27",
                "currency:XBT": "yes",
                "description": "Agenzia di conto vendita per privati e aziende. Pubblichiamo sul nostro sito e sui principali marketplaces foto e descrizione dei vostri prodotti ponendoci come intermediari della vendita. Offriamo assistenza in transazioni online in vendita e in acquisto",
                "email": "info@unmilione.net",
                "fax": "+39 543 091 354",
                "image": "https://unmilione.net/img/servizio/logo-16521078511.jpg",
                "name": "Unmilione",
                "opening_hours": "Mo-Sa 09:00-12:30, 15:30-19:30; Th off; Su off",
                "operator": "Luca Prestianni",
                "payment:cards": "yes",
                "payment:cash": "yes",
                "payment:lightning": "yes",
                "payment:lightning_contactless": "no",
                "payment:onchain": "yes",
                "phone": "+39 543 090 105",
                "phone:mobile": "+39 3332826865",
                "ref:vatin": "02624250300",
                "second_hand": "yes",
                "shop": "second_hand",
                "stroller": "yes",
                "website": "https://www.unmilione.net",
                "wheelchair": "yes"
            }
        },
        {
            "type": "node",
            "id": 4766291563,
            "lat": 44.2226304,
            "lon": 12.038789,
            "timestamp": "2025-01-03T14:09:29Z",
            "version": 3,
            "changeset": 160950901,
            "user": "mpbin",
            "uid": 21850090,
            "tags": {
                "addr:city": "Forl\u00ec",
                "addr:housenumber": "26",
                "addr:street": "Corso Giuseppe Garibaldi",
                "brand": "OVS",
                "brand:wikidata": "Q2042514",
                "brand:wikipedia": "en:OVS (company)",
                "building:levels": "2",
                "name": "OVS",
                "operator": "OVS",
                "shop": "clothes"
            }
        },
        {
            "type": "node",
            "id": 4766326938,
            "lat": 44.2250206,
            "lon": 12.0375184,
            "timestamp": "2025-01-01T18:21:09Z",
            "version": 3,
            "changeset": 160879719,
            "user": "mpbin",
            "uid": 21850090,
            "tags": {
                "addr:city": "Forl\u00ec",
                "addr:housenumber": "10",
                "addr:postcode": "47121",
                "addr:street": "Via Piero Maroncelli",
                "brand": "Unieuro",
                "brand:wikidata": "Q4004687",
                "brand:wikipedia": "en:Unieuro",
                "name": "Unieuro",
                "office": "company",
                "operator": "Unieuro S.p.A."
            }
        },
        {
            "type": "node",
            "id": 4794806657,
            "lat": 44.1052484,
            "lon": 12.42164,
            "timestamp": "2021-03-09T17:28:32Z",
            "version": 3,
            "changeset": 100725206,
            "user": "mascalzone67",
            "uid": 1861652,
            "tags": {
                "addr:city": "San Mauro Pascoli",
                "addr:housenumber": "95",
                "addr:postcode": "47030",
                "addr:street": "Via Sigismondo Malatesta",
                "brand": "Conad",
                "brand:wikidata": "Q639075",
                "brand:wikipedia": "it:Conad",
                "name": "Conad",
                "opening_hours": "Mo-Sa 07:30-20:00, Su 08:30-13:00",
                "operator": "Conad",
                "payment:bancomat": "yes",
                "payment:cash": "yes",
                "payment:credit_cards": "yes",
                "phone": "+39 0543 800111",
                "shop": "supermarket",
                "start_date": "2021-03-11",
                "website": "https://www.conad.it/ricerca-negozi/negozio.010207.html"
            }
        },
        {
            "type": "node",
            "id": 5122058024,
            "lat": 43.769602,
            "lon": 12.608906,
            "timestamp": "2023-07-14T17:24:09Z",
            "version": 5,
            "changeset": 138517152,
            "user": "saunter",
            "uid": 10396321,
            "tags": {
                "addr:city": "Urbino",
                "addr:housenumber": "1",
                "addr:postcode": "61029",
                "addr:street": "Via della Valle",
                "check_date:currency:XBT": "2023-07-14",
                "currency:XBT": "yes",
                "description": "Bed and breakfast vicino ad Urbino, immerso nella verde campagna del Montefeltro.",
                "email": "prenotazioni@bblavalle.com",
                "guest_house": "bed_and_breakfast",
                "name": "B&B La Valle",
                "phone": "+39 3406747644",
                "tourism": "guest_house",
                "website": "https://www.bblavalle.com/"
            }
        },
        {
            "type": "node",
            "id": 5592298921,
            "lat": 44.257607,
            "lon": 12.362007,
            "timestamp": "2025-09-18T09:37:07Z",
            "version": 4,
            "changeset": 172102845,
            "user": "Comino",
            "uid": 6794624,
            "tags": {
                "addr:city": "Cervia",
                "addr:housenumber": "191",
                "addr:postcode": "48015",
                "addr:street": "Lungomare Grazia Deledda",
                "check_date": "2025-09-18",
                "check_date:currency:XBT": "2025-09-18",
                "contact:email": "info@ben191.it",
                "contact:facebook": "BagnoBen191",
                "contact:instagram": "bagno_ben191",
                "contact:website": "https://www.ben191.it/",
                "currency:XBT": "yes",
                "description": "Beach club with umbrellas and sun loungers, a restaurant, and a bar.",
                "leisure": "beach_resort",
                "name": "Bagno Ben 191",
                "opening_hours": "Mo-Su 08:00-20:00",
                "payment:lightning": "yes",
                "payment:lightning_contactless": "yes",
                "payment:onchain": "no",
                "phone": "+39 339 813 5772"
            }
        },
        {
            "type": "node",
            "id": 6224686025,
            "lat": 44.2766438,
            "lon": 12.3444155,
            "timestamp": "2024-01-06T11:20:43Z",
            "version": 4,
            "changeset": 145952776,
            "user": "Chiarant",
            "uid": 18452174,
            "tags": {
                "addr:city": "Cervia",
                "addr:housenumber": "37",
                "addr:postcode": "48015",
                "addr:street": "Viale Ravenna",
                "check_date": "2024-01-06",
                "currency:XBT": "yes",
                "email": "mircobiondi@inlogica.it",
                "name": "inlogica",
                "office": "financial",
                "payment:bitcoin:operator": "inbitcoin.it",
                "phone": "+39 0544 71310",
                "website": "http://www.inlogica.it/"
            }
        },
        {
            "type": "node",
            "id": 6307924420,
            "lat": 44.2189084,
            "lon": 12.0472957,
            "timestamp": "2025-01-01T19:40:22Z",
            "version": 7,
            "changeset": 160882817,
            "user": "mpbin",
            "uid": 21850090,
            "tags": {
                "addr:city": "Forl\u00ec",
                "addr:housenumber": "144",
                "addr:postcode": "47121",
                "addr:street": "Corso della Repubblica",
                "brand": "Unieuro",
                "brand:wikidata": "Q4004687",
                "brand:wikipedia": "en:Unieuro",
                "name": "Unieuro",
                "opening_hours": "Mo-Sa 09:00-13:00,15:30-20:00; Su 10:00-13:00,16:00-20:00",
                "operator": "Unieuro S.p.A.",
                "phone": "+39 0543 36683",
                "ref:vatin": "IT00876320409",
                "shop": "electronics"
            }
        },
        {
            "type": "node",
            "id": 7506858048,
            "lat": 44.2454752,
            "lon": 12.083444,
            "timestamp": "2020-05-11T12:26:42Z",
            "version": 1,
            "changeset": 85025387,
            "user": "mascalzone67",
            "uid": 1861652,
            "tags": {
                "addr:city": "Forl\u00ec",
                "addr:housenumber": "2",
                "addr:postcode": "47122",
                "addr:street": "Piazzale della Cooperazione",
                "amenity": "pharmacy",
                "dispensing": "no",
                "healthcare": "pharmacy",
                "name": "Parafarmacia Conad",
                "operator": "Conad"
            }
        },
        {
            "type": "node",
            "id": 7509688555,
            "lat": 44.1445109,
            "lon": 12.2617856,
            "timestamp": "2020-05-12T06:53:56Z",
            "version": 1,
            "changeset": 85065741,
            "user": "mascalzone67",
            "uid": 1861652,
            "tags": {
                "addr:city": "Cesena",
                "addr:housenumber": "525",
                "addr:postcode": "47521",
                "addr:street": "Via Leopoldo Lucchi",
                "amenity": "pharmacy",
                "dispensing": "no",
                "healthcare": "pharmacy",
                "name": "Parafarmacia Conad",
                "operator": "Conad"
            }
        },
        {
            "type": "node",
            "id": 7509688670,
            "lat": 44.1444474,
            "lon": 12.2614476,
            "timestamp": "2020-05-12T06:55:52Z",
            "version": 1,
            "changeset": 85065885,
            "user": "mascalzone67",
            "uid": 1861652,
            "tags": {
                "addr:city": "Cesena",
                "addr:housenumber": "525",
                "addr:postcode": "47521",
                "addr:street": "Via Leopoldo Lucchi",
                "brand": "Conad",
                "brand:wikidata": "Q639075",
                "brand:wikipedia": "it:Conad",
                "name": "Conad",
                "opening_hours": "Mo-Sa 08:30-20:00; Su 09:00-19:30",
                "operator": "Conad",
                "payment:bancomat": "yes",
                "payment:cash": "yes",
                "payment:credit_cards": "yes",
                "phone": "+39 0547 385225",
                "shop": "supermarket",
                "website": "https://www.conad.it/ricerca-negozi/negozio.007226.html"
            }
        },
        {
            "type": "node",
            "id": 7512115514,
            "lat": 44.0490635,
            "lon": 12.5674352,
            "timestamp": "2025-02-26T18:36:16Z",
            "version": 4,
            "changeset": 162984043,
            "user": "wheelmap_visitor",
            "uid": 290680,
            "tags": {
                "addr:city": "Rimini",
                "addr:housenumber": "50",
                "addr:postcode": "47923",
                "addr:street": "Via della Fiera",
                "amenity": "pharmacy",
                "dispensing": "no",
                "healthcare": "pharmacy",
                "name": "Parafarmacia Conad",
                "operator": "Conad",
                "wheelchair": "yes"
            }
        },
        {
            "type": "node",
            "id": 7512127904,
            "lat": 44.0485178,
            "lon": 12.5670564,
            "timestamp": "2020-05-12T19:01:14Z",
            "version": 1,
            "changeset": 85102237,
            "user": "mascalzone67",
            "uid": 1861652,
            "tags": {
                "addr:city": "Rimini",
                "addr:housenumber": "50",
                "addr:postcode": "47923",
                "addr:street": "Via della Fiera",
                "brand": "Conad",
                "brand:wikidata": "Q639075",
                "brand:wikipedia": "it:Conad",
                "name": "Conad",
                "opening_hours": "Mo-Sa 08:00-20:30; Su 08:00-20:00",
                "operator": "Conad",
                "payment:bancomat": "yes",
                "payment:cash": "yes",
                "payment:credit_cards": "yes",
                "phone": "+39 0541 727256",
                "shop": "supermarket",
                "website": "https://www.conad.it/ricerca-negozi/negozio.009577.html"
            }
        },
        {
            "type": "node",
            "id": 7512158210,
            "lat": 43.9947565,
            "lon": 12.4175164,
            "timestamp": "2023-10-17T09:02:06Z",
            "version": 7,
            "changeset": 142702145,
            "user": "Aluminum0173",
            "uid": 16035231,
            "tags": {
                "addr:city": "Verucchio",
                "addr:housenumber": "38",
                "addr:postcode": "47826",
                "addr:street": "Via Statale Marecchia",
                "amenity": "pharmacy",
                "brand": "Parafarmacia Conad",
                "dispensing": "no",
                "drive_through": "no",
                "healthcare": "pharmacy",
                "name": "Parafarmacia Conad",
                "opening_hours": "Mo-Su 08:30-20:00",
                "operator": "Conad"
            }
        },
        {
            "type": "node",
            "id": 7512172489,
            "lat": 43.9947233,
            "lon": 12.4172696,
            "timestamp": "2025-08-01T07:46:53Z",
            "version": 8,
            "changeset": 169802750,
            "user": "Aluminum0173",
            "uid": 16035231,
            "tags": {
                "addr:city": "Verucchio",
                "addr:housenumber": "38",
                "addr:postcode": "47826",
                "addr:street": "Via Statale Marecchia",
                "brand": "Conad",
                "brand:wikidata": "Q639075",
                "brand:wikipedia": "it:Conad",
                "name": "Conad",
                "opening_hours": "Mo-Su 08:00-20:00",
                "operator": "Conad",
                "payment:bancomat": "yes",
                "payment:cash": "yes",
                "payment:credit_cards": "yes",
                "phone": "+39 0541 67 8063",
                "shop": "supermarket",
                "website": "https://www.conad.it/ricerca-negozi/negozio.009655.html",
                "wheelchair": "yes"
            }
        },
        {
            "type": "node",
            "id": 7512177059,
            "lat": 44.039003,
            "lon": 12.5877744,
            "timestamp": "2020-05-12T19:17:59Z",
            "version": 1,
            "changeset": 85102790,
            "user": "mascalzone67",
            "uid": 1861652,
            "tags": {
                "addr:city": "Rimini",
                "addr:housenumber": "20",
                "addr:postcode": "47924",
                "addr:street": "Via Caduti di Nassiriya",
                "amenity": "pharmacy",
                "dispensing": "no",
                "healthcare": "pharmacy",
                "name": "Parafarmacia Conad",
                "operator": "Conad"
            }
        },
        {
            "type": "node",
            "id": 7512199305,
            "lat": 44.0395622,
            "lon": 12.5862428,
            "timestamp": "2024-12-01T21:03:28Z",
            "version": 2,
            "changeset": 159820219,
            "user": "sorcrosc",
            "uid": 160229,
            "tags": {
                "addr:city": "Rimini",
                "addr:housenumber": "20",
                "addr:postcode": "47924",
                "addr:street": "Via Caduti di Nassiriya",
                "brand": "Conad",
                "brand:wikidata": "Q639075",
                "brand:wikipedia": "it:Conad",
                "name": "Conad",
                "opening_hours": "Mo-Su 09:00-21:00",
                "operator": "Conad",
                "payment:bancomat": "yes",
                "payment:cash": "yes",
                "payment:credit_cards": "yes",
                "phone": "+39 0541 769611",
                "shop": "supermarket",
                "website": "https://www.conad.it/ricerca-negozi/negozio.006886.html"
            }
        },
        {
            "type": "node",
            "id": 7518377976,
            "lat": 43.8004905,
            "lon": 13.0118826,
            "timestamp": "2021-03-26T09:59:56Z",
            "version": 4,
            "changeset": 101781332,
            "user": "totera",
            "uid": 123412,
            "tags": {
                "addr:city": "Fano",
                "addr:housenumber": "30",
                "addr:postcode": "61032",
                "addr:street": "Via Luigi Einaudi",
                "amenity": "pharmacy",
                "brand": "Parafarmacia Conad",
                "dispensing": "no",
                "healthcare": "pharmacy",
                "name": "Parafarmacia Conad",
                "operator": "Conad",
                "ref:msal": "005201",
                "ref:vatin": "IT01170560419"
            }
        },
        {
            "type": "node",
            "id": 7518395807,
            "lat": 43.9042396,
            "lon": 12.8685293,
            "timestamp": "2023-11-14T08:26:00Z",
            "version": 5,
            "changeset": 143999768,
            "user": "\u0110uro Ji\u0159\u00ed",
            "uid": 14617702,
            "tags": {
                "addr:city": "Pesaro",
                "addr:postcode": "61122",
                "addr:street": "Via Yuri Gagarin",
                "amenity": "pharmacy",
                "brand": "Parafarmacia Conad",
                "dispensing": "no",
                "healthcare": "pharmacy",
                "name": "Parafarmacia Conad",
                "operator": "Conad",
                "ref:msal": "004629",
                "ref:vatin": "IT02675680413",
                "wheelchair": "yes"
            }
        },
        {
            "type": "node",
            "id": 9685993832,
            "lat": 44.1458438,
            "lon": 12.2200233,
            "timestamp": "2025-01-02T22:01:44Z",
            "version": 3,
            "changeset": 160927794,
            "user": "mpbin",
            "uid": 21850090,
            "tags": {
                "addr:city": "Cesena",
                "addr:housenumber": "200",
                "addr:postcode": "47023",
                "addr:street": "Via Annalena Tonelli",
                "brand": "Trony",
                "brand:wikidata": "Q3999692",
                "name": "Trony",
                "operator": "Trony",
                "shop": "electronics"
            }
        },
        {
            "type": "node",
            "id": 9962167198,
            "lat": 44.1344843,
            "lon": 12.0621317,
            "timestamp": "2025-05-24T15:34:38Z",
            "version": 4,
            "changeset": 166702848,
            "user": "Danysan95",
            "uid": 4425563,
            "tags": {
                "amenity": "fuel",
                "brand": "Conad",
                "brand:wikidata": "Q639075",
                "check_date": "2025-05-24",
                "fuel:diesel": "yes",
                "fuel:lpg": "yes",
                "fuel:octane_95": "yes",
                "name": "Conad",
                "opening_hours": "24/7",
                "operator": "Conad",
                "self_service": "yes"
            }
        },
        {
            "type": "node",
            "id": 10162799750,
            "lat": 44.3309194,
            "lon": 12.1329818,
            "timestamp": "2022-11-30T18:10:31Z",
            "version": 2,
            "changeset": 129571540,
            "user": "BSN21M",
            "uid": 17441326,
            "tags": {
                "addr:city": "Gambellara",
                "addr:housenumber": "44",
                "addr:postcode": "48124",
                "addr:street": "Via del Fabbro",
                "check_date:currency:XBT": "2022-11-30",
                "craft": "plumber",
                "currency:XBT": "yes",
                "email": "luca6854@gmail.com",
                "name": "Fantinelli Gabriele",
                "payment:lightning": "no",
                "payment:lightning_contactless": "no",
                "payment:onchain": "yes",
                "phone": "+39335390405",
                "survey:date": "2022-11-06",
                "website": "https://www.fantinelligabriele.it/"
            }
        },
        {
            "type": "node",
            "id": 10586735224,
            "lat": 44.1597198,
            "lon": 12.4300591,
            "timestamp": "2025-01-01T21:08:13Z",
            "version": 2,
            "changeset": 160885499,
            "user": "mpbin",
            "uid": 21850090,
            "tags": {
                "brand": "Unieuro",
                "brand:wikidata": "Q4004687",
                "name": "Unieuro",
                "operator": "Unieuro S.p.A.",
                "shop": "electronics"
            }
        },
        {
            "type": "node",
            "id": 10648841302,
            "lat": 44.2428018,
            "lon": 12.3648022,
            "timestamp": "2025-05-26T17:20:38Z",
            "version": 6,
            "changeset": 166790285,
            "user": "Comino",
            "uid": 6794624,
            "tags": {
                "addr:city": "Pinarella di Cervia",
                "addr:housenumber": "15",
                "addr:postcode": "48015",
                "addr:street": "Piazza della Repubblica",
                "amenity": "fast_food",
                "check_date": "2025-05-26",
                "check_date:currency:XBT": "2025-05-26",
                "contact:facebook": "piadinadagiorgia",
                "contact:instagram": "piadinadagiorgia",
                "cuisine": "pizza",
                "currency:XBT": "yes",
                "name": "Piadina da Giorgia",
                "payment:lightning": "yes",
                "payment:lightning_contactless": "no",
                "payment:onchain": "no",
                "phone": "+39 349 053 4667",
                "website": "https://www.piadinadagiorgia.it/"
            }
        },
        {
            "type": "node",
            "id": 10738853174,
            "lat": 44.3953353,
            "lon": 12.1798846,
            "timestamp": "2025-01-01T21:10:36Z",
            "version": 2,
            "changeset": 160885569,
            "user": "mpbin",
            "uid": 21850090,
            "tags": {
                "addr:city": "Ravenna",
                "addr:housenumber": "86",
                "addr:postcode": "48124",
                "addr:street": "Via Marco Bussato",
                "brand": "Unieuro",
                "brand:wikidata": "Q4004687",
                "name": "Unieuro",
                "operator": "Unieuro S.p.A.",
                "shop": "electronics"
            }
        },
        {
            "type": "node",
            "id": 10788250052,
            "lat": 44.1581639,
            "lon": 12.4294307,
            "timestamp": "2025-01-09T09:43:42Z",
            "version": 3,
            "changeset": 161162461,
            "user": "DnaX",
            "uid": 69259,
            "tags": {
                "addr:city": "Savignano sul Rubicone",
                "addr:housenumber": "3",
                "addr:postcode": "47039",
                "addr:street": "piazza colombo",
                "brand": "Doppelg\u00e4nger",
                "brand:wikidata": "Q117451227",
                "check_date:currency:XBT": "2023-05-13",
                "clothes": "men",
                "currency:XBT": "yes",
                "name": "Doppelg\u00e4nger",
                "payment:lightning": "no",
                "payment:lightning_contactless": "no",
                "payment:onchain": "yes",
                "phone": "0541347999",
                "shop": "clothes"
            }
        },
        {
            "type": "node",
            "id": 10788254893,
            "lat": 43.9091098,
            "lon": 12.9115822,
            "timestamp": "2024-12-30T19:02:28Z",
            "version": 6,
            "changeset": 160804903,
            "user": "DnaX",
            "uid": 69259,
            "tags": {
                "addr:city": "Pesaro",
                "addr:housenumber": "42",
                "addr:postcode": "61121",
                "addr:street": "Via Giovanni Branca",
                "brand": "Doppelg\u00e4nger",
                "brand:wikidata": "Q117451227",
                "check_date": "2024-09-09",
                "check_date:opening_hours": "2024-09-09",
                "clothes": "men",
                "currency:XBT": "yes",
                "name": "Doppelg\u00e4nger",
                "opening_hours:signed": "no",
                "payment:lightning": "no",
                "payment:lightning_contactless": "no",
                "payment:onchain": "yes",
                "phone": "+39 0721 31511",
                "shop": "clothes"
            }
        },
        {
            "type": "node",
            "id": 11014217449,
            "lat": 44.2793233,
            "lon": 12.3527166,
            "timestamp": "2024-10-10T21:08:07Z",
            "version": 3,
            "changeset": 157733468,
            "user": "mpbin",
            "uid": 21850090,
            "tags": {
                "addr:city": "Milano Marittima",
                "addr:housenumber": "274",
                "addr:postcode": "48015",
                "addr:street": "Lungomare Antonio Batani",
                "amenity": "restaurant",
                "check_date:currency:XBT": "2023-08-03",
                "contact:facebook": "https://www.facebook.com/laspiaggettamilanomarittima",
                "contact:instagram": "https://www.instagram.com/laspiaggetta_274/",
                "cuisine": "italian;italian_pizza",
                "currency:XBT": "yes",
                "currency:XBT:operator": "bitcoinpos.it",
                "email": "info@laspiaggetta274.it",
                "name": "La Spiaggetta 274",
                "payment:lightning": "yes",
                "payment:onchain": "yes",
                "phone": "+393313874666",
                "survey:date": "2023-06-27",
                "website": "http://www.laspiaggetta274.it/"
            }
        },
        {
            "type": "node",
            "id": 11215124982,
            "lat": 43.7296723,
            "lon": 12.6354835,
            "timestamp": "2025-01-01T21:18:15Z",
            "version": 4,
            "changeset": 160885785,
            "user": "mpbin",
            "uid": 21850090,
            "tags": {
                "addr:city": "Urbino",
                "addr:postcode": "61029",
                "addr:street": "Viale Antonio Gramsci",
                "brand": "Unieuro",
                "brand:wikidata": "Q4004687",
                "level": "7",
                "name": "Unieuro",
                "opening_hours": "Mo-Sa 10:00-19:30; Su 10:00-12:30,16:00-19:30",
                "operator": "Unieuro S.p.A.",
                "shop": "electronics",
                "survey:date": "2023-09-24"
            }
        },
        {
            "type": "node",
            "id": 12147929280,
            "lat": 44.0590112,
            "lon": 12.5627959,
            "timestamp": "2024-08-31T15:19:00Z",
            "version": 1,
            "changeset": 156020066,
            "user": "Rockedf",
            "uid": 7522075,
            "tags": {
                "addr:city": "Rimini",
                "addr:housenumber": "1",
                "addr:postcode": "47922",
                "addr:street": "Via Dario Campana",
                "check_date": "2024-08-31",
                "contact:instagram": "https://www.instagram.com/orivel.moda/",
                "currency:XBT": "yes",
                "name": "Orivel Moda",
                "payment:lightning": "yes",
                "payment:lightning_contactless": "no",
                "payment:onchain": "yes",
                "shop": "clothes"
            }
        },
        {
            "type": "node",
            "id": 12329405780,
            "lat": 44.2800395,
            "lon": 12.3530336,
            "timestamp": "2024-11-10T21:20:25Z",
            "version": 1,
            "changeset": 158986108,
            "user": "mpbin",
            "uid": 21850090,
            "tags": {
                "addr:city": "Milano Marittima",
                "addr:housenumber": "274",
                "addr:postcode": "48015",
                "addr:street": "Viale Spalato",
                "currency:XBT": "yes",
                "email": "info@lecodelmare.it",
                "leisure": "beach_resort",
                "mobile": "+39 329 080 7760",
                "name": "La Spiaggetta 274"
            }
        },
        {
            "type": "node",
            "id": 12361647666,
            "lat": 44.2246763,
            "lon": 12.0494157,
            "timestamp": "2025-08-27T20:57:43Z",
            "version": 2,
            "changeset": 171104389,
            "user": "Comino",
            "uid": 6794624,
            "tags": {
                "addr:city": "Forl\u00ec",
                "addr:housenumber": "1",
                "addr:postcode": "47122",
                "addr:street": "Piazza Orsi Mangelli",
                "check_date": "2024-11-21",
                "contact:email": "alexsintoni@libero.it",
                "currency:XBT": "yes",
                "name": "Dott. Sintoni Alex",
                "office": "accountant",
                "payment:lightning": "yes",
                "payment:lightning_contactless": "yes",
                "payment:onchain": "yes",
                "phone": "+39 05 433 4716"
            }
        },
        {
            "type": "node",
            "id": 12512352402,
            "lat": 43.9077569,
            "lon": 12.8669878,
            "timestamp": "2025-06-17T09:29:53Z",
            "version": 7,
            "changeset": 167729245,
            "user": "Comino",
            "uid": 6794624,
            "tags": {
                "addr:city": "Pesaro",
                "addr:housenumber": "23",
                "addr:postcode": "61122",
                "addr:street": "Strada di Montefeltro",
                "check_date": "2025-01-20",
                "check_date:currency:XBT": "2025-06-17",
                "contact:facebook": "https://www.facebook.com/profile.php?id=61550805761894",
                "contact:instagram": "lorenzo.fratesi.menopancia",
                "currency:XBT": "yes",
                "leisure": "fitness_centre",
                "name": "Lorenzo Fratesi - MenoPancia",
                "payment:cash": "yes",
                "payment:lightning": "yes",
                "payment:lightning_contactless": "yes",
                "payment:onchain": "yes",
                "personal_trainer": "yes",
                "phone": "+39 320 557 5343",
                "survey:date": "2025-01-18",
                "website": "https://www.menopancia.com/"
            }
        },
        {
            "type": "node",
            "id": 12512835970,
            "lat": 44.0898966,
            "lon": 12.5330797,
            "timestamp": "2025-01-18T19:39:15Z",
            "version": 1,
            "changeset": 161503767,
            "user": "Rockedf",
            "uid": 7522075,
            "tags": {
                "addr:city": "Rimini",
                "addr:housenumber": "3",
                "addr:postcode": "47922",
                "addr:street": "Viale Celso Botteghi",
                "check_date": "2025-01-18",
                "currency:XBT": "yes",
                "email": "info@hotelsusanna.com",
                "name": "Hotel Susanna",
                "payment:lightning": "yes",
                "payment:lightning_contactless": "no",
                "payment:onchain": "yes",
                "phone": "+39 05 4173 2305",
                "tourism": "hotel",
                "website": "https://www.hotelsusanna.com/"
            }
        },
        {
            "type": "node",
            "id": 12525719779,
            "lat": 43.8009971,
            "lon": 13.011687,
            "timestamp": "2025-01-23T06:20:29Z",
            "version": 1,
            "changeset": 161661389,
            "user": "sorcrosc",
            "uid": 160229,
            "tags": {
                "amenity": "vending_machine",
                "operator": "Conad",
                "recycling:plastic_bottles": "yes",
                "vending": "bottle_return"
            }
        },
        {
            "type": "node",
            "id": 12701801168,
            "lat": 43.967739,
            "lon": 12.7318539,
            "timestamp": "2025-05-29T18:51:36Z",
            "version": 3,
            "changeset": 166938410,
            "user": "Comino",
            "uid": 6794624,
            "tags": {
                "addr:city": "Cattolica",
                "addr:housenumber": "115",
                "addr:postcode": "47841",
                "addr:street": "Via Giosu\u00e8 Carducci",
                "air_conditioning": "yes",
                "bar": "yes",
                "currency:XBT": "yes",
                "email": "info@hboston.it",
                "internet_access": "yes",
                "internet_access:fee": "no",
                "name": "Hotel Boston",
                "payment:lightning": "yes",
                "payment:onchain": "yes",
                "phone": "+39 0541 961152",
                "survey:date": "2025-03-26",
                "tourism": "hotel",
                "website": "https://www.hboston.it"
            }
        },
        {
            "type": "node",
            "id": 13036877299,
            "lat": 43.8958288,
            "lon": 12.9097443,
            "timestamp": "2025-08-11T16:46:58Z",
            "version": 4,
            "changeset": 170303388,
            "user": "Rockedf",
            "uid": 7522075,
            "tags": {
                "addr:city": "Pesaro",
                "addr:housenumber": "5",
                "addr:postcode": "61122",
                "addr:street": "Via Giovanni Giolitti",
                "air_conditioning": "yes",
                "check_date:currency:XBT": "2025-08-11",
                "contact:facebook": "https://www.facebook.com/Paradiso.Pesaro",
                "currency:XBT": "yes",
                "name": "Bella Estetica",
                "opening_hours": "Mo-Fr 09:00-19:30",
                "operator": "Dayse Araujo",
                "payment:lightning": "yes",
                "payment:lightning_contactless": "no",
                "payment:onchain": "no",
                "phone": "+39 349 7874953",
                "shop": "beauty",
                "toilets": "yes"
            }
        },
        {
            "type": "node",
            "id": 13086295941,
            "lat": 44.0603342,
            "lon": 12.5657068,
            "timestamp": "2025-08-21T07:15:37Z",
            "version": 2,
            "changeset": 170760746,
            "user": "Comino",
            "uid": 6794624,
            "tags": {
                "addr:city": "Rimini",
                "addr:housenumber": "16",
                "addr:postcode": "47921",
                "addr:street": "Piazza Cavour",
                "check_date": "2025-08-21",
                "check_date:currency:XBT": "2025-08-21",
                "contact:email": "acasacavour@gmail.com",
                "currency:XBT": "yes",
                "name": "A Casa Cavour",
                "payment:lightning": "yes",
                "payment:lightning_contactless": "no",
                "payment:onchain": "yes",
                "phone": "+39 370 123 1230",
                "tourism": "chalet",
                "website": "https://www.booking.com/hotel/it/appartamento-in-piazza-cavour-rimini.it.html"
            }
        },
        {
            "type": "node",
            "id": 13116770288,
            "lat": 43.8977366,
            "lon": 12.9098829,
            "timestamp": "2025-09-05T20:03:58Z",
            "version": 2,
            "changeset": 171515728,
            "user": "Comino",
            "uid": 6794624,
            "tags": {
                "addr:city": "Pesaro",
                "addr:housenumber": "173",
                "addr:postcode": "61122",
                "addr:street": "Via Ettore Mancini",
                "check_date": "2025-09-05",
                "check_date:currency:XBT": "2025-09-05",
                "contact:email": "fisioesteticapesaro@gmail.com",
                "contact:facebook": "FisioesteticaPesaro",
                "currency:XBT": "yes",
                "healthcare": "physiotherapist",
                "healthcare:speciality": "physiatry",
                "name": "Fisioterapia Personal Trainer Fisioestetica",
                "opening_hours": "Mo-Fr 09:00-19:00",
                "operator": "Fisioestetica",
                "payment:lightning": "yes",
                "payment:lightning_contactless": "yes",
                "payment:onchain": "yes",
                "phone": "+39 393 1211 395"
            }
        },
        {
            "type": "way",
            "id": 157925839,
            "timestamp": "2023-12-21T17:06:12Z",
            "version": 3,
            "changeset": 145378957,
            "user": "Rockedf",
            "uid": 7522075,
            "nodes": [
                1701548011,
                1701548028,
                1701547906,
                1701547888,
                1701548011
            ],
            "tags": {
                "addr:city": "Ravenna",
                "addr:housenumber": "29",
                "addr:postcode": "48124",
                "addr:street": "Via Chiarissimo Falconieri",
                "amenity": "restaurant",
                "building": "yes",
                "check_date:currency:XBT": "2023-12-21",
                "cuisine": "regional;italian;piadina",
                "currency:XBT": "yes",
                "diet:lactose_free": "yes",
                "diet:local": "yes",
                "diet:meat": "yes",
                "diet:non-vegetarian": "yes",
                "diet:omnivore": "yes",
                "diet:organic": "yes",
                "diet:vegan": "yes",
                "diet:vegetarian": "yes",
                "name": "Bottega della Piadina",
                "payment:lightning": "yes",
                "payment:lightning_contactless": "yes",
                "payment:onchain": "yes",
                "phone": "3887523137",
                "source": "Regione Emilia Romagna",
                "survey:date": "2023-12-21",
                "website": "bottegadellapiadina.eatbu.com"
            }
        },
        {
            "type": "way",
            "id": 162973898,
            "timestamp": "2025-06-09T19:31:47Z",
            "version": 6,
            "changeset": 167415395,
            "user": "Mateusz Konieczny",
            "uid": 1722488,
            "nodes": [
                1747608665,
                1747608667,
                1747608668,
                1747608666,
                1747608664,
                1747608657,
                1747608656,
                2313381860,
                1747608658,
                2313381870,
                1747608662,
                1747608665
            ],
            "tags": {
                "amenity": "fuel",
                "brand": "Q8",
                "building": "yes",
                "operator": "Q8",
                "source": "Regione Emilia Romagna"
            }
        },
        {
            "type": "way",
            "id": 181544421,
            "timestamp": "2023-11-10T13:25:18Z",
            "version": 5,
            "changeset": 143862742,
            "user": "\u0110uro Ji\u0159\u00ed",
            "uid": 14617702,
            "nodes": [
                1919551729,
                1919551767,
                646472373,
                1919551349,
                1919551594,
                1919551729
            ],
            "tags": {
                "addr:housenumber": "56",
                "addr:street": "Via Caduti per la Libert\u00e0",
                "branch": "Cervia",
                "brand": "Conad",
                "brand:wikidata": "Q639075",
                "building": "industrial",
                "name": "Conad",
                "opening_hours": "Mo-Sa 07:30-20:00; Su 08:00-13:00",
                "operator": "Conad",
                "shop": "supermarket",
                "source": "Regione Emilia Romagna",
                "wheelchair": "yes"
            }
        },
        {
            "type": "way",
            "id": 215944377,
            "timestamp": "2021-09-29T07:21:26Z",
            "version": 6,
            "changeset": 111850628,
            "user": "damianeue",
            "uid": 10124288,
            "nodes": [
                2253476976,
                2253487143,
                1960315014,
                1960313824,
                2253476948,
                2253476967,
                2253476946,
                2253476976
            ],
            "tags": {
                "addr:city": "Forl\u00ec",
                "addr:housenumber": "2",
                "addr:postcode": "47122",
                "addr:street": "Piazzale della Cooperazione",
                "brand": "Conad",
                "brand:wikidata": "Q639075",
                "brand:wikipedia": "it:Conad",
                "building": "retail",
                "layer": "1",
                "name": "Conad",
                "opening_hours": "Mo-Su 09:00-21:00",
                "operator": "Conad",
                "payment:bancomat": "yes",
                "payment:cash": "yes",
                "payment:credit_cards": "yes",
                "phone": "+39 0543 039111",
                "ref:vatin": "IT04297560403",
                "shop": "supermarket",
                "website": "https://www.conad.it/ricerca-negozi/negozio.006892.html"
            }
        },
        {
            "type": "way",
            "id": 223648945,
            "timestamp": "2025-08-27T18:13:48Z",
            "version": 5,
            "changeset": 171096811,
            "user": "Mateusz Konieczny - bot account - ATP import",
            "uid": 22544915,
            "nodes": [
                2325305532,
                2325305762,
                2325305750,
                2325305843,
                2325305757,
                2325305610,
                2325305597,
                2325305634,
                2325305615,
                2325305518,
                2325305530,
                2325305366,
                2325305348,
                2325305327,
                2325305342,
                2325305234,
                2325305415,
                2325305513,
                2325305532
            ],
            "tags": {
                "addr:city": "Rimini",
                "addr:housenumber": "140",
                "addr:street": "Via Tolemaide",
                "brand": "IKEA",
                "brand:wikidata": "Q54078",
                "building": "yes",
                "name": "IKEA",
                "operator": "Ikea Italia Retail S.r.l.",
                "shop": "furniture",
                "website": "https://www.ikea.com/it/it/stores/rimini/"
            }
        },
        {
            "type": "way",
            "id": 223741461,
            "timestamp": "2014-10-13T21:08:27Z",
            "version": 2,
            "changeset": 26059719,
            "user": "Samuele Battarra",
            "uid": 51179,
            "nodes": [
                2326058876,
                2326059132,
                2326059074,
                2326058850,
                2326058876
            ],
            "tags": {
                "amenity": "car_wash",
                "building": "yes",
                "operator": "Tamoil",
                "rer_edi_id:ref": "3eac9f0f-0716-43c6-9773-8ea1aa297f61",
                "source": "Regione Emilia Romagna"
            }
        },
        {
            "type": "way",
            "id": 223752445,
            "timestamp": "2025-08-31T20:55:08Z",
            "version": 4,
            "changeset": 171287695,
            "user": "Samuele Battarra",
            "uid": 51179,
            "nodes": [
                2326232555,
                2326232879,
                2326232149,
                2326232092,
                2326231999,
                2326231920,
                2326232014,
                2326231967,
                2326232555
            ],
            "tags": {
                "building": "yes",
                "check_date": "2025-08-31",
                "name": "Conad City",
                "operator": "Conad",
                "rer_edi_id:ref": "2da41d69-6a52-472e-888b-57e004e656ae",
                "shop": "supermarket",
                "source": "Regione Emilia Romagna"
            }
        },
        {
            "type": "way",
            "id": 510855174,
            "timestamp": "2023-11-10T18:05:48Z",
            "version": 4,
            "changeset": 143873876,
            "user": "\u0110uro Ji\u0159\u00ed",
            "uid": 14617702,
            "nodes": [
                4998480685,
                4998480686,
                4998480687,
                4998480688,
                11338903813,
                4998480685
            ],
            "tags": {
                "brand": "Conad City",
                "brand:wikidata": "Q57543102",
                "building": "yes",
                "name": "Conad City",
                "operator": "Conad",
                "shop": "supermarket",
                "wheelchair": "yes"
            }
        }
    ],
    "telegram": [
        {
            "telegram": "ss-rimini"
        }
    ]
}