{
    "id": "romagna",
    "name": "Romagna",
    "lng": 44.3641,
    "lat": 11.9538,
    "poi": [
        {
            "type": "node",
            "id": 1704363751,
            "lat": 44.4684069,
            "lon": 11.3734421,
            "timestamp": "2024-07-20T20:19:31Z",
            "version": 6,
            "changeset": 154194718,
            "user": "mauropili",
            "uid": 1496865,
            "tags": {
                "addr:city": "Bologna",
                "addr:country": "IT",
                "addr:district": "Savena",
                "addr:housenumber": "3/2",
                "addr:postcode": "40141",
                "addr:street": "Via della Foscherara",
                "check_date": "2022-12-12",
                "currency:XBT": "yes",
                "email": "info@nonsolofumo.it",
                "name": "Tabaccheria Non Solo Fumo Di Mutti Claudia",
                "opening_hours": "Mo-Fr 07:30-19:30, Sa 08:00-19:30",
                "payment:lightning": "yes",
                "payment:onchain": "yes",
                "phone": "+39051472843",
                "shop": "tobacco",
                "source": "Comune di Bologna",
                "website": "https://www.nonsolofumo242.it/"
            }
        },
        {
            "type": "node",
            "id": 2323216819,
            "lat": 44.1379112,
            "lon": 12.2441762,
            "timestamp": "2024-03-15T12:19:30Z",
            "version": 6,
            "changeset": 148685607,
            "user": "Danysan95",
            "uid": 4425563,
            "tags": {
                "addr:city": "Cesena",
                "addr:housenumber": "9",
                "addr:postcode": "47521",
                "addr:street": "Corso Giuseppe Mazzini",
                "cesena:ref_id": "051130009000",
                "check_date": "2024-03-15",
                "clothes": "men",
                "currency:XBT": "yes",
                "name": "Doppelg\u00e4nger",
                "payment:lightning": "no",
                "payment:lightning_contactless": "no",
                "payment:onchain": "yes",
                "phone": "054721467",
                "shop": "clothes",
                "website": "https://www.doppelganger.it/"
            }
        },
        {
            "type": "node",
            "id": 2505963021,
            "lat": 44.2884029,
            "lon": 11.8721888,
            "timestamp": "2023-12-10T10:32:37Z",
            "version": 6,
            "changeset": 144959823,
            "user": "Chiarant",
            "uid": 18452174,
            "tags": {
                "addr:city": "Faenza",
                "addr:housenumber": "4",
                "addr:postcode": "48018",
                "addr:street": "Via Giovanni da Oriolo",
                "amenity": "fast_food",
                "check_date": "2023-12-10",
                "contact:facebook": "https://www.facebook.com/lovastreetfoodfaenza/",
                "cuisine": "ramen;japanese;piadina",
                "currency:XBT": "yes",
                "drive_through": "no",
                "name": "Lova street food - Ramen",
                "opening_hours": "Th-Tu 18:30-00:00",
                "phone": "+393280448481",
                "takeaway": "yes",
                "website": "https://lovastreetfood.it/",
                "website:menu": "https://lovastreetfood.it/menu/"
            }
        },
        {
            "type": "node",
            "id": 3074007138,
            "lat": 44.1631031,
            "lon": 12.443792,
            "timestamp": "2024-07-11T20:55:12Z",
            "version": 9,
            "changeset": 153829634,
            "user": "mauropili",
            "uid": 1496865,
            "tags": {
                "addr:city": "San Mauro a Mare",
                "addr:housenumber": "16",
                "addr:postcode": "47030",
                "addr:street": "Via della Repubblica",
                "check_date:currency:XBT": "2023-07-17",
                "contact:facebook": "https://www.facebook.com/laplajahotel",
                "currency:XBT": "yes",
                "email": "info@hotellaplaja.it",
                "name": "Hotel La Plaja",
                "phone": "+39 0541 346154",
                "rooms": "37",
                "source": "Provincia di Forl\u00ec-Cesena",
                "stars": "3",
                "swimming_pool": "yes",
                "tourism": "hotel",
                "website": "http://hotellaplaja.it/"
            }
        },
        {
            "type": "node",
            "id": 4752694126,
            "lat": 44.3960161,
            "lon": 12.179645,
            "timestamp": "2024-01-25T09:47:25Z",
            "version": 4,
            "changeset": 146665333,
            "user": "Igor Bubelov",
            "uid": 2104834,
            "tags": {
                "addr:city": "Ravenna",
                "addr:housenumber": "74",
                "addr:postcode": "48124",
                "addr:street": "Via Marco Bussato",
                "check_date": "2023-03-27",
                "clothes": "men",
                "currency:XBT": "yes",
                "name": "DOPPELG\u00c4NGER",
                "payment:lightning": "no",
                "payment:lightning_contactless": "no",
                "payment:onchain": "yes",
                "shop": "clothes"
            }
        },
        {
            "type": "node",
            "id": 4752829351,
            "lat": 44.4182506,
            "lon": 12.2018907,
            "timestamp": "2024-08-31T10:34:53Z",
            "version": 5,
            "changeset": 156008547,
            "user": "mauropili",
            "uid": 1496865,
            "tags": {
                "addr:city": "Ravenna",
                "addr:housenumber": "28",
                "addr:postcode": "48121",
                "addr:street": "Via Armando Diaz",
                "check_date:currency:XBT": "2023-01-02",
                "contact:linkedin": "https://www.linkedin.com/in/marika-maltoni/",
                "currency:XBT": "yes",
                "name": "Dottoressa Commercialista Maltoni Marika",
                "office": "accountant",
                "payment:lightning": "yes",
                "payment:lightning_contactless": "no",
                "payment:onchain": "yes",
                "shop": "yes",
                "survey:date": "2022-10-27"
            }
        },
        {
            "type": "node",
            "id": 4752889626,
            "lat": 44.4007549,
            "lon": 12.2148296,
            "timestamp": "2023-10-17T03:50:06Z",
            "version": 6,
            "changeset": 142691390,
            "user": "Igor Bubelov",
            "uid": 2104834,
            "tags": {
                "addr:city": "Ravenna",
                "addr:housenumber": "144",
                "addr:postcode": "48121",
                "addr:street": "Via Romea",
                "addr:unit": "e",
                "check_date:currency:XBT": "2023-10-05",
                "contact:phone": "0544 402300",
                "currency:XBT": "yes",
                "email": "info@tecnogasravenna.it",
                "name": "Tecnogas",
                "payment:lightning": "yes",
                "payment:lightning_contactless": "yes",
                "payment:onchain": "yes",
                "shop": "repair",
                "survey:date": "2023-06-27",
                "website": "https://tecnogasravenna.it/"
            }
        },
        {
            "type": "node",
            "id": 4766288526,
            "lat": 44.1983594,
            "lon": 12.0329415,
            "timestamp": "2024-09-23T12:14:28Z",
            "version": 9,
            "changeset": 156992809,
            "user": "mpbin",
            "uid": 21850090,
            "tags": {
                "addr:city": "Forl\u00ec",
                "addr:housenumber": "277b",
                "addr:postcode": "47121",
                "addr:street": "Viale Risorgimento",
                "air_conditioning": "yes",
                "check_date": "2024-09-23",
                "check_date:currency:XBT": "2024-09-23",
                "currency:XBT": "yes",
                "description": "Agenzia di conto vendita per privati e aziende. Pubblichiamo sul nostro sito e sui principali marketplaces foto e descrizione dei vostri prodotti ponendoci come intermediari della vendita. Offriamo assistenza in transazioni online in vendita e in acquisto",
                "email": "info@unmilione.net",
                "fax": "+39 0543 091354",
                "image": "https://unmilione.net/img/servizio/logo-16521078511.jpg",
                "name": "unmilione agenzia d'affari",
                "opening_hours": "Mo-Sa 09:00-12:30, 15:30-19:30; Th off; Su off",
                "operator": "Luca Prestianni",
                "payment:cards": "yes",
                "payment:cash": "yes",
                "payment:lightning": "yes",
                "payment:onchain": "yes",
                "phone": "+39 0543 090105",
                "phone:mobile": "+39 3332826865",
                "ref:vatin": "02624250300",
                "second_hand": "yes",
                "shop": "second_hand",
                "stroller": "yes",
                "website": "https://www.unmilione.net",
                "wheelchair": "yes"
            }
        },
        {
            "type": "node",
            "id": 4782380198,
            "lat": 44.46688,
            "lon": 11.4088448,
            "timestamp": "2023-12-17T14:53:36Z",
            "version": 3,
            "changeset": 145217974,
            "user": "Rockedf",
            "uid": 7522075,
            "tags": {
                "addr:city": "San Lazzaro di Savena",
                "addr:housenumber": "34",
                "addr:postcode": "40068",
                "addr:street": "Via Carlo Iussi",
                "amenity": "restaurant",
                "check_date": "2023-11-21",
                "check_date:currency:XBT": "2023-12-17",
                "cuisine": "pizza;italian;bistro",
                "currency:XBT": "yes",
                "email": "info@40068pizzaemore.com",
                "name": "40068 Pizza & More",
                "opening_hours": "Mo-Su 18:00-01:00",
                "payment:lightning": "yes",
                "phone": "+39 051 2842005",
                "website": "https://40068pizzaemore.com/"
            }
        },
        {
            "type": "node",
            "id": 5301076558,
            "lat": 44.4913946,
            "lon": 11.5579672,
            "timestamp": "2023-10-30T03:53:55Z",
            "version": 4,
            "changeset": 143341615,
            "user": "b-jazz-bot",
            "uid": 9451067,
            "tags": {
                "addr:city": "Medicina",
                "addr:housenumber": "611",
                "addr:postcode": "40059",
                "addr:street": "Via Sabbionara",
                "check_date": "2023-04-26",
                "currency:XBT": "yes",
                "email": "commerciale@cnika.it",
                "name": "CNIKA",
                "office": "engineer",
                "phone": "051853172",
                "website": "https://www.cnika.it/"
            }
        },
        {
            "type": "node",
            "id": 5592298921,
            "lat": 44.257607,
            "lon": 12.362007,
            "timestamp": "2024-07-16T22:16:34Z",
            "version": 3,
            "changeset": 154034554,
            "user": "Rockedf",
            "uid": 7522075,
            "tags": {
                "addr:city": "Cervia",
                "addr:housenumber": "191",
                "addr:postcode": "48015",
                "addr:street": "Lungomare Grazia Deledda",
                "check_date": "2024-07-16",
                "currency:XBT": "yes",
                "description": "Stabilimento balneare con ombrelloni e sdraio, ristorante e bar.",
                "email": "bagnoben191@libero.it",
                "leisure": "beach_resort",
                "name": "Bagno Ben 191",
                "opening_hours": "Mo-Su 08:00-20:00",
                "payment:lightning": "yes",
                "payment:lightning_contactless": "yes",
                "payment:onchain": "no",
                "phone": "+39 33 9813 5772"
            }
        },
        {
            "type": "node",
            "id": 6224686025,
            "lat": 44.2766438,
            "lon": 12.3444155,
            "timestamp": "2024-01-06T11:20:43Z",
            "version": 4,
            "changeset": 145952776,
            "user": "Chiarant",
            "uid": 18452174,
            "tags": {
                "addr:city": "Cervia",
                "addr:housenumber": "37",
                "addr:postcode": "48015",
                "addr:street": "Viale Ravenna",
                "check_date": "2024-01-06",
                "currency:XBT": "yes",
                "email": "mircobiondi@inlogica.it",
                "name": "inlogica",
                "office": "financial",
                "payment:bitcoin:operator": "inbitcoin.it",
                "phone": "+39 0544 71310",
                "website": "http://www.inlogica.it/"
            }
        },
        {
            "type": "node",
            "id": 10162799750,
            "lat": 44.3309194,
            "lon": 12.1329818,
            "timestamp": "2022-11-30T18:10:31Z",
            "version": 2,
            "changeset": 129571540,
            "user": "BSN21M",
            "uid": 17441326,
            "tags": {
                "addr:city": "Gambellara",
                "addr:housenumber": "44",
                "addr:postcode": "48124",
                "addr:street": "Via del Fabbro",
                "check_date:currency:XBT": "2022-11-30",
                "craft": "plumber",
                "currency:XBT": "yes",
                "email": "luca6854@gmail.com",
                "name": "Fantinelli Gabriele",
                "payment:lightning": "no",
                "payment:lightning_contactless": "no",
                "payment:onchain": "yes",
                "phone": "+39335390405",
                "survey:date": "2022-11-06",
                "website": "https://www.fantinelligabriele.it/"
            }
        },
        {
            "type": "node",
            "id": 10253175451,
            "lat": 44.4003562,
            "lon": 11.5885832,
            "timestamp": "2024-01-17T00:26:52Z",
            "version": 3,
            "changeset": 146342972,
            "user": "Igor Bubelov",
            "uid": 2104834,
            "tags": {
                "addr:city": "Castel San Pietro Terme",
                "addr:housenumber": "4",
                "addr:postcode": "40024",
                "addr:street": "Via Fratelli Cervi",
                "check_date": "2023-04-26",
                "currency:XBT": "yes",
                "name": "Studio Gualandi Di Gualandi Alessandra",
                "office": "consulting",
                "phone": "+390516958704"
            }
        },
        {
            "type": "node",
            "id": 10648841302,
            "lat": 44.2428018,
            "lon": 12.3648022,
            "timestamp": "2024-07-23T06:27:07Z",
            "version": 5,
            "changeset": 154290259,
            "user": "Igor Bubelov",
            "uid": 2104834,
            "tags": {
                "addr:city": "Pinarella di Cervia",
                "addr:housenumber": "15",
                "addr:postcode": "48015",
                "addr:street": "Piazza della Repubblica",
                "amenity": "fast_food",
                "check_date:currency:XBT": "2023-02-11",
                "currency:XBT": "yes",
                "name": "Piadina da Giorgia",
                "payment:lightning": "yes",
                "payment:lightning_contactless": "no",
                "payment:onchain": "no",
                "phone": "+393490534667",
                "website": "https://www.piadinadagiorgia.it/it/"
            }
        },
        {
            "type": "node",
            "id": 10766444254,
            "lat": 44.4787868,
            "lon": 11.3815956,
            "timestamp": "2023-11-17T18:41:45Z",
            "version": 5,
            "changeset": 144150734,
            "user": "toponomastica_comune_arenzano",
            "uid": 14257573,
            "tags": {
                "addr:city": "Bologna",
                "addr:housenumber": "4a",
                "addr:postcode": "40139",
                "addr:street": "Via Friuli Venezia Giulia",
                "check_date": "2023-03-27",
                "contact:facebook": "https://www.facebook.com/kickboxingbologna/",
                "currency:XBT": "yes",
                "description": "Specialized in ring and cage sports",
                "email": "megathai@hotmail.com",
                "leisure": "sports_hall",
                "name": "Rainbow team Bologna - Boxe club",
                "payment:lightning": "no",
                "payment:lightning_contactless": "no",
                "payment:onchain": "yes",
                "sport": "boxing;kickboxing;muay_thai;thaibox"
            }
        },
        {
            "type": "node",
            "id": 10788250052,
            "lat": 44.1581639,
            "lon": 12.4294307,
            "timestamp": "2023-05-12T22:47:49Z",
            "version": 2,
            "changeset": 136036841,
            "user": "saunter",
            "uid": 10396321,
            "tags": {
                "addr:city": "Savignano sul Rubicone",
                "addr:housenumber": "3",
                "addr:postcode": "47039",
                "addr:street": "piazza colombo",
                "check_date:currency:XBT": "2023-05-13",
                "clothes": "men",
                "currency:XBT": "yes",
                "name": "DOPPELG\u00c4NGER",
                "payment:lightning": "no",
                "payment:lightning_contactless": "no",
                "payment:onchain": "yes",
                "phone": "0541347999",
                "shop": "clothes"
            }
        },
        {
            "type": "node",
            "id": 11014217449,
            "lat": 44.2793233,
            "lon": 12.3527166,
            "timestamp": "2023-08-03T23:59:52Z",
            "version": 2,
            "changeset": 139416334,
            "user": "Rockedf",
            "uid": 7522075,
            "tags": {
                "addr:city": "Milano Marittima",
                "addr:housenumber": "274",
                "addr:postcode": "48015",
                "addr:street": "Lungomare Antonio Batani",
                "amenity": "restaurant",
                "check_date:currency:XBT": "2023-08-03",
                "cuisine": "italian;italian_pizza",
                "currency:XBT": "yes",
                "currency:XBT:operator": "bitcoinpos.it",
                "name": "La Spiaggetta 274",
                "payment:lightning": "yes",
                "payment:onchain": "yes",
                "phone": "+393313874666",
                "survey:date": "2023-06-27",
                "website": "http://www.laspiaggetta274.it/"
            }
        },
        {
            "type": "node",
            "id": 11200140615,
            "lat": 44.2520768,
            "lon": 11.4329193,
            "timestamp": "2024-08-30T19:41:15Z",
            "version": 8,
            "changeset": 155989423,
            "user": "Resist2020",
            "uid": 20644993,
            "tags": {
                "addr:city": "Monterenzio",
                "addr:housenumber": "1",
                "addr:postcode": "40050",
                "addr:street": "Via Casoni di Romagna",
                "check_date": "2023-09-18",
                "check_date:currency:XBT": "2024-07-27",
                "currency:EUR": "yes",
                "currency:XBT": "yes",
                "delivery": "yes",
                "delivery:zone": "IT",
                "name": "Azienda Agricola Ca' dei Signori",
                "organic": "only",
                "payment:cash": "yes",
                "payment:coins": "yes",
                "payment:cryptocurrencies": "yes",
                "payment:lightning": "yes",
                "payment:lightning_contactless": "no",
                "payment:notes": "yes",
                "payment:onchain": "yes",
                "payment:paypal": "yes",
                "payment:satispay": "yes",
                "produce": "honey,plants,aromatics",
                "shop": "farm",
                "website": "https://www.aziendacadeisignori.it/"
            }
        },
        {
            "type": "node",
            "id": 11462836650,
            "lat": 44.5065792,
            "lon": 11.471508,
            "timestamp": "2023-12-28T14:10:39Z",
            "version": 1,
            "changeset": 145621752,
            "user": "Rockedf",
            "uid": 7522075,
            "tags": {
                "addr:city": "Castenaso",
                "addr:housenumber": "46",
                "addr:postcode": "40055",
                "addr:street": "Via Publio Cornelio Scipione Nasica",
                "check_date": "2023-12-28",
                "currency:XBT": "yes",
                "name": "Architetto Giampaolo Bertuzzi",
                "office": "architect",
                "payment:lightning": "yes",
                "payment:lightning_contactless": "no",
                "payment:onchain": "yes",
                "phone": "+39 33 9183 7132",
                "website": "https://www.architettobertuzzi.com/"
            }
        },
        {
            "type": "node",
            "id": 11540666657,
            "lat": 44.3196504,
            "lon": 11.7992835,
            "timestamp": "2024-01-22T18:36:13Z",
            "version": 1,
            "changeset": 146565122,
            "user": "Rockedf",
            "uid": 7522075,
            "tags": {
                "addr:city": "Castel Bolognese",
                "addr:housenumber": "59",
                "addr:postcode": "48014",
                "addr:street": "Via Emilia Interna",
                "addr:unit": "61",
                "check_date": "2024-01-22",
                "contact:email": "info@doctoramen.it",
                "currency:XBT": "yes",
                "name": "Doctoramen",
                "office": "graphic_design",
                "payment:lightning": "yes",
                "payment:lightning_contactless": "no",
                "payment:onchain": "yes",
                "phone": "+39 32 8448 2538",
                "website": "https://www.doctoramen.it/"
            }
        },
        {
            "type": "node",
            "id": 11665770786,
            "lat": 44.3361454,
            "lon": 11.4042206,
            "timestamp": "2024-03-29T21:58:21Z",
            "version": 6,
            "changeset": 149331897,
            "user": "pajero982",
            "uid": 638396,
            "tags": {
                "addr:city": "Monterenzio",
                "addr:housenumber": "159",
                "addr:postcode": "40050",
                "addr:street": "Via Idice",
                "check_date": "2024-02-26",
                "currency:EUR": "yes",
                "currency:XBT": "yes",
                "name": "Autofficina Monterenzio Snc",
                "opening_hours": "Mo-Fr 08:00-18:00",
                "operator": "Autoriparazioni Gommista Elettrauto",
                "payment:apple_pay": "yes",
                "payment:cash": "yes",
                "payment:contactless": "yes",
                "payment:credit_cards": "yes",
                "payment:cryptocurrencies": "yes",
                "payment:debit_cards": "yes",
                "payment:google_pay": "yes",
                "payment:maestro": "yes",
                "payment:mastercard": "yes",
                "payment:notes": "yes",
                "payment:paypal": "yes",
                "payment:visa": "yes",
                "phone": "+39051929155",
                "service:vehicle:air_conditioning": "yes",
                "service:vehicle:alignment": "yes",
                "service:vehicle:batteries": "yes",
                "service:vehicle:brakes": "yes",
                "service:vehicle:car_parts": "yes",
                "service:vehicle:car_repair": "yes",
                "service:vehicle:diagnostics": "yes",
                "service:vehicle:electrical": "yes",
                "service:vehicle:glass": "yes",
                "service:vehicle:inspection": "yes",
                "service:vehicle:muffler": "yes",
                "service:vehicle:oil_change": "yes",
                "service:vehicle:transmission": "yes",
                "service:vehicle:tyres": "yes",
                "shop": "car_repair"
            }
        },
        {
            "type": "node",
            "id": 12168280526,
            "lat": 44.2100373,
            "lon": 11.490843,
            "timestamp": "2024-09-10T14:47:48Z",
            "version": 1,
            "changeset": 156444546,
            "user": "mpbin",
            "uid": 21850090,
            "tags": {
                "addr:city": "Castel del Rio",
                "addr:housenumber": "1229",
                "addr:postcode": "40022",
                "addr:street": "Via della Casaccia",
                "contact:telegram": "https://t.me/VincoCdR",
                "currency:XBT": "yes",
                "description": "Appartamento ammobiliato ad uso turistico",
                "email": "leobetta.vinco@gmail.com",
                "name": "Vinco",
                "payment:lightning": "yes",
                "phone": "+39 349 368 0615",
                "tourism": "apartment",
                "website": "http://vinco.altervista.org/"
            }
        }
    ],
    "telegram": [
        {
            "telegram": "romagna-hub"
        }
    ]
}