{
    "id": "rovereto",
    "name": "Rovereto",
    "lng": 46.065088,
    "lat": 11.123858,
    "poi": [
        {
            "type": "node",
            "id": 288938675,
            "lat": 46.0647594,
            "lon": 11.1504525,
            "timestamp": "2024-10-12T13:50:59Z",
            "version": 17,
            "changeset": 157796764,
            "user": "mpbin",
            "uid": 21850090,
            "tags": {
                "addr:city": "Trento",
                "addr:housenumber": "10",
                "addr:postcode": "38123",
                "addr:street": "Via Sommarive",
                "amenity": "restaurant",
                "check_date": "2024-10-12",
                "check_date:currency:XBT": "2024-10-12",
                "contact:facebook": "https://www.facebook.com/orostube/",
                "cuisine": "pizza",
                "currency:XBT": "yes",
                "email": "INFO@OROSTUBE.IT",
                "name": "Pizzeria OroStube",
                "opening_hours": "Mo-Fr 11:45-14:00, 18:30-22:00; Sa 18:30-22:00",
                "payment:bitcoin:operator": "inbitcoin.it",
                "phone": "+39 0461 816073",
                "website": "https://orostube.it/",
                "wheelchair": "yes"
            }
        },
        {
            "type": "node",
            "id": 417856704,
            "lat": 45.8751426,
            "lon": 11.0335673,
            "timestamp": "2024-07-10T19:39:42Z",
            "version": 5,
            "changeset": 153798421,
            "user": "mauropili",
            "uid": 1496865,
            "tags": {
                "addr:city": "Rovereto",
                "addr:housenumber": "76",
                "addr:postcode": "38068",
                "addr:street": "Corso Verona",
                "amenity": "restaurant",
                "check_date:currency:XBT": "2024-03-24",
                "contact:facebook": "https://www.facebook.com/profile.php?id=100063761882346",
                "cuisine": "pizza",
                "currency:XBT": "yes",
                "name": "Pizzeria Botti",
                "opening_hours": "Tu-Su 08:30-23:30",
                "payment:XBT:operator": "bitcoinpos.it",
                "payment:lightning": "yes",
                "phone": "0464 432521",
                "website": "https://www.pizzeriabotti.it/",
                "wheelchair": "yes"
            }
        },
        {
            "type": "node",
            "id": 427547582,
            "lat": 46.1427735,
            "lon": 10.9665101,
            "timestamp": "2014-07-14T19:04:53Z",
            "version": 5,
            "changeset": 24147026,
            "user": "dvdzero",
            "uid": 351361,
            "tags": {
                "addr:city": "Molveno",
                "addr:country": "IT",
                "addr:housenumber": "1",
                "addr:postcode": "38018",
                "addr:street": "Via Paganella",
                "contact:phone": "+39 0461 586917",
                "name": "Central Market",
                "operator": "Conad",
                "shop": "supermarket",
                "source": "survey"
            }
        },
        {
            "type": "node",
            "id": 427963798,
            "lat": 46.0445347,
            "lon": 11.1290602,
            "timestamp": "2024-12-03T20:31:27Z",
            "version": 12,
            "changeset": 159896016,
            "user": "mpbin",
            "uid": 21850090,
            "tags": {
                "addr:city": "Trento",
                "addr:housenumber": "10",
                "addr:postcode": "38123",
                "addr:street": "Centro direzionale Trento Sud",
                "branch": "Elettrocasa",
                "brand": "Trony",
                "brand:wikidata": "Q3999692",
                "level": "0",
                "name": "Trony",
                "opening_hours": "Mo 15:00-19:15; Tu-Sa 09:00-12:00,15:00-19:15; Su off",
                "operator": "Trony",
                "shop": "electronics",
                "website": "https://www.trony.it/"
            }
        },
        {
            "type": "node",
            "id": 768593714,
            "lat": 46.3859813,
            "lon": 11.2589603,
            "timestamp": "2024-09-01T20:09:37Z",
            "version": 11,
            "changeset": 156070825,
            "user": "MrTukan",
            "uid": 6449972,
            "tags": {
                "addr:city": "Kaltern an der Weinstra\u00dfe - Caldaro sulla Strada del Vino",
                "addr:city:de": "Kaltern an der Weinstra\u00dfe",
                "addr:housenumber": "12",
                "addr:postcode": "39052",
                "addr:street": "Localit\u00e0 San Giuseppe al Lago - St. Josef am See",
                "addr:street:de": "St. Josef am See",
                "air_conditioning": "yes",
                "amenity": "restaurant",
                "check_date": "2023-06-16",
                "cuisine": "noodle;pizza",
                "currency:XBT": "yes",
                "indoor_seating": "yes",
                "internet_access": "no",
                "name": "Geier",
                "name:de": "Geier",
                "opening_hours": "Jul 1-Sep 15 Mo,We-Su 10:00-23:00; Sep 16-Oct 27 Mo,Th-Su 10:00-23:00",
                "opening_hours:kitchen": "Mo,We-Su 12:00-14:30,17:00-23:00",
                "outdoor_seating": "yes",
                "payment:cash": "yes",
                "payment:coins": "yes",
                "payment:contactless": "yes",
                "payment:cryptocurrencies": "yes",
                "payment:notes": "yes",
                "payment:onchain": "yes",
                "phone": "0471 960156",
                "reservation": "recommended",
                "smoking": "outside",
                "takeaway": "yes",
                "toilets": "yes",
                "toilets:wheelchair": "yes",
                "website": "https://www.pizzeriageier.it/",
                "wheelchair": "yes"
            }
        },
        {
            "type": "node",
            "id": 835169406,
            "lat": 46.4882226,
            "lon": 11.3172253,
            "timestamp": "2025-04-20T08:04:53Z",
            "version": 5,
            "changeset": 165181185,
            "user": "btcitnet",
            "uid": 22525435,
            "tags": {
                "addr:city": "Bolzano - Bozen",
                "addr:postcode": "39100",
                "addr:street": "Via Resia - Reschenstra\u00dfe",
                "brand": "Eurospar",
                "brand:wikidata": "Q12309283",
                "name": "Eurospar",
                "operator": "Despar",
                "shop": "supermarket",
                "wheelchair": "no"
            }
        },
        {
            "type": "node",
            "id": 853801236,
            "lat": 46.065984,
            "lon": 11.131204,
            "timestamp": "2024-07-10T19:44:42Z",
            "version": 12,
            "changeset": 153798550,
            "user": "mauropili",
            "uid": 1496865,
            "tags": {
                "addr:city": "Trento",
                "addr:country": "IT",
                "addr:housenumber": "104",
                "addr:postcode": "38122",
                "addr:street": "Via Giuseppe Grazioli",
                "beauty": "hair,_cosmerics",
                "check_date": "2024-03-06",
                "contact:facebook": "https://www.facebook.com/BellezzaStudioItalia",
                "contact:instagram": "https://www.instagram.com/bellezzastudio.official/",
                "currency:XBT": "yes",
                "description": "Parrucchiere e Studio Estetico",
                "name": "Bellezza Studio",
                "opening_hours": "08:00-19:00",
                "payment:bitcoin:operator": "inbitcoin.it",
                "shop": "beauty",
                "website": "https://www.bellezzastudio.eu/"
            }
        },
        {
            "type": "node",
            "id": 867377482,
            "lat": 46.0678365,
            "lon": 11.1207305,
            "timestamp": "2025-01-11T19:33:22Z",
            "version": 12,
            "changeset": 161251554,
            "user": "Rockedf",
            "uid": 7522075,
            "tags": {
                "addr:city": "Trento",
                "addr:country": "IT",
                "addr:housenumber": "40",
                "addr:postcode": "38122",
                "addr:street": "Via Camillo Benso Cavour",
                "amenity": "bar",
                "check_date": "2024-06-30",
                "check_date:currency:XBT": "2025-01-11",
                "currency:XBT": "yes",
                "name": "Locanda del Gatto Gordo",
                "operator": "KIKI S.N.C. di Carlo Villotti & C.",
                "outdoor_seating": "yes",
                "payment:XBT:operator": "Bitcoinpos.it",
                "payment:lightning": "yes",
                "ref:vatin": "IT02431310222",
                "wheelchair": "limited"
            }
        },
        {
            "type": "node",
            "id": 906968501,
            "lat": 46.0671884,
            "lon": 11.1222426,
            "timestamp": "2023-11-23T14:00:06Z",
            "version": 10,
            "changeset": 144370880,
            "user": "baprischka",
            "uid": 974272,
            "tags": {
                "addr:city": "Trento",
                "addr:country": "IT",
                "addr:housenumber": "25",
                "addr:postcode": "38122",
                "addr:street": "Via Giuseppe Garibaldi",
                "check_date": "2023-11-23",
                "currency:XBT": "yes",
                "name": "Meroni",
                "opening_hours": "Mo-Sa 15:15-19:15, Tu-Sa 09:15-12:15, Su 10:00-13:00,14:30-19:15",
                "payment:bitcoin:operator": "inbitcoin.it",
                "shop": "clothes",
                "wheelchair": "limited"
            }
        },
        {
            "type": "node",
            "id": 945430413,
            "lat": 46.36519,
            "lon": 11.0330302,
            "timestamp": "2024-03-21T13:42:54Z",
            "version": 6,
            "changeset": 148964454,
            "user": "Chiarant",
            "uid": 18452174,
            "tags": {
                "addr:city": "Cles",
                "addr:country": "IT",
                "addr:housenumber": "5",
                "addr:postcode": "38023",
                "addr:street": "Piazza Granda",
                "amenity": "bar",
                "check_date": "2024-03-21",
                "contact:instagram": "https://www.instagram.com/bar_nik5/",
                "currency:XBT": "yes",
                "name": "Bar Nik 5 - Enoteca Birreria",
                "payment:lightning": "yes",
                "payment:onchain": "no"
            }
        },
        {
            "type": "node",
            "id": 963712306,
            "lat": 46.0688508,
            "lon": 11.12012,
            "timestamp": "2024-04-10T08:47:00Z",
            "version": 13,
            "changeset": 149808574,
            "user": "yhic4uw",
            "uid": 2104834,
            "tags": {
                "addr:city": "Trento",
                "addr:country": "IT",
                "addr:housenumber": "23",
                "addr:postcode": "38122",
                "addr:street": "Via delle Orfane",
                "check_date": "2024-04-10",
                "contact:fax": "+39 0461 1920370",
                "contact:phone": "+39 0461 1920371",
                "contact:website": "https://www.cec.com/negozi-apple/trento",
                "currency:XBT": "yes",
                "name": "C&C Trento",
                "opening_hours": "Mo-Sa 09:30-13:00,14:30-19:00; Su off",
                "payment:bitcoin:operator": "inbitcoin.it",
                "shop": "computer"
            }
        },
        {
            "type": "node",
            "id": 983735426,
            "lat": 46.0698171,
            "lon": 11.1236723,
            "timestamp": "2023-05-12T22:47:37Z",
            "version": 14,
            "changeset": 136036834,
            "user": "saunter",
            "uid": 10396321,
            "tags": {
                "addr:city": "Trento",
                "addr:country": "IT",
                "addr:housenumber": "58",
                "addr:postcode": "38122",
                "addr:street": "Via Giannantonio Manci",
                "check_date:currency:XBT": "2023-05-13",
                "clothes": "men",
                "currency:XBT": "yes",
                "name": "Doppleg\u00e4nger",
                "opening_hours": "Mo-Fr 10:00-19:00; Sa 10:00-19:30; Su 10:00-13:00,15:00-19:00",
                "payment:lightning": "no",
                "payment:lightning_contactless": "no",
                "payment:onchain": "yes",
                "phone": "0461521650",
                "shop": "clothes",
                "wheelchair": "yes"
            }
        },
        {
            "type": "node",
            "id": 1119292972,
            "lat": 45.7101621,
            "lon": 11.3701638,
            "timestamp": "2025-01-01T22:32:03Z",
            "version": 4,
            "changeset": 160887580,
            "user": "mpbin",
            "uid": 21850090,
            "tags": {
                "addr:city": "Schio",
                "addr:housenumber": "42",
                "addr:postcode": "36015",
                "addr:street": "Via Paraiso",
                "brand": "Trony",
                "brand:wikidata": "Q3999692",
                "email": "schio@trony.it",
                "fax": "+39 0445 670979",
                "name": "Trony",
                "opening_hours": "Mo 15:00-19:30; Tu-Sa 09:00-12:30,15:00-19:30",
                "operator": "Trony",
                "payment:cards": "yes",
                "payment:cash": "yes",
                "phone": "+39 0445 670963",
                "shop": "electronics",
                "website": "https://www.trony.it/online",
                "wheelchair": "yes"
            }
        },
        {
            "type": "node",
            "id": 1300835964,
            "lat": 46.0940985,
            "lon": 11.1151259,
            "timestamp": "2024-12-03T20:31:49Z",
            "version": 7,
            "changeset": 159896033,
            "user": "mpbin",
            "uid": 21850090,
            "tags": {
                "addr:city": "Trento",
                "addr:country": "IT",
                "addr:housename": "Bren Center",
                "addr:housenumber": "16",
                "addr:postcode": "38121",
                "addr:street": "Via Giovanni Battista Trener",
                "brand": "Trony",
                "brand:wikidata": "Q3999692",
                "level": "0;1",
                "name": "Trony",
                "operator": "Trony",
                "ref:vatin": "IT00927290221",
                "shop": "electronics"
            }
        },
        {
            "type": "node",
            "id": 1318116512,
            "lat": 46.0384428,
            "lon": 11.1230431,
            "timestamp": "2024-01-20T03:20:03Z",
            "version": 15,
            "changeset": 146464250,
            "user": "yhic4uw",
            "uid": 2104834,
            "tags": {
                "addr:city": "Trento",
                "amenity": "fuel",
                "brand": "Agip Eni",
                "check_date": "2022-12-20",
                "currency:XBT": "yes",
                "email": "info@petrol-airport.it",
                "fuel:GTL_diesel": "yes",
                "fuel:cng": "yes",
                "fuel:diesel": "yes",
                "fuel:diesel:class2": "yes",
                "fuel:octane_100": "yes",
                "fuel:octane_95": "yes",
                "name": "Area di Servizio Petrol-Airport",
                "operator": "Petrol-Airport S.A.S. di Degasperi Diego, Tomasi Luca & C.",
                "payment:bitcoin:operator": "inbitcoin.it",
                "payment:onchain": "yes",
                "ref:mise": "8259",
                "source": "MISE - Ministero Sviluppo Economico",
                "website": "http://petrol-airport.it/"
            }
        },
        {
            "type": "node",
            "id": 1351488951,
            "lat": 46.0931109,
            "lon": 11.1121903,
            "timestamp": "2024-10-25T20:10:11Z",
            "version": 6,
            "changeset": 158353468,
            "user": "mpbin",
            "uid": 21850090,
            "tags": {
                "addr:city": "Trento",
                "addr:country": "IT",
                "addr:housenumber": "26",
                "addr:postcode": "38121",
                "addr:street": "Via Giancarlo Maroni",
                "check_date": "2024-10-25",
                "check_date:currency:XBT": "2024-10-25",
                "contact:facebook": "https://www.facebook.com/selleriaonline/",
                "contact:mobile": "+39  349 181 7640",
                "currency:XBT": "yes",
                "description": "e-commerce articoli equitazione e sportivi",
                "email": "info@laselleriaonline.it",
                "name": "La selleria on line",
                "payment:bitcoin:operator": "inbitcoin.it",
                "payment:onchain": "yes",
                "phone": "+39 0461 418082",
                "shop": "sports",
                "sport": "equestrian",
                "website": "https://www.laselleriaonline.it/"
            }
        },
        {
            "type": "node",
            "id": 1374813273,
            "lat": 45.884284,
            "lon": 11.0686961,
            "timestamp": "2024-02-04T12:00:18Z",
            "version": 3,
            "changeset": 147050888,
            "user": "mueschel",
            "uid": 616774,
            "tags": {
                "addr:city": "Rovereto",
                "addr:housenumber": "27",
                "addr:postcode": "38068",
                "addr:street": "Via Fontani",
                "alt_name": "Bar Circolo ENAL",
                "amenity": "bar",
                "check_date:currency:XBT": "2024-01-31",
                "currency:XBT": "yes",
                "currency:XBT:discount": "10%",
                "name": "Circolo ENAL",
                "payment:XBT:operator": "bitcoinpos.it",
                "payment:lightning": "yes",
                "payment:lightning_contactless": "no",
                "payment:onchain": "no"
            }
        },
        {
            "type": "node",
            "id": 1405084833,
            "lat": 46.1662322,
            "lon": 11.0048515,
            "timestamp": "2025-04-20T08:05:26Z",
            "version": 5,
            "changeset": 165181201,
            "user": "btcitnet",
            "uid": 22525435,
            "tags": {
                "addr:city": "Andalo",
                "addr:postcode": "38010",
                "addr:street": "Via Fovo",
                "name": "Alimentari dal marcante",
                "operator": "Despar",
                "shop": "supermarket"
            }
        },
        {
            "type": "node",
            "id": 1405084840,
            "lat": 46.1636906,
            "lon": 11.002146,
            "timestamp": "2023-08-21T06:53:03Z",
            "version": 6,
            "changeset": 140164379,
            "user": "RaelZero",
            "uid": 2701091,
            "tags": {
                "addr:city": "Andalo",
                "addr:housenumber": "6",
                "addr:postcode": "38010",
                "addr:street": "Via Ponte Lambin",
                "brand": "Conad City",
                "brand:wikidata": "Q57543102",
                "name": "Conad City",
                "opening_hours": "Mo-Su 08:00-19:30",
                "operator": "Conad",
                "phone": "+39 0461 585909",
                "shop": "supermarket",
                "website": "https://www.conad.it/conad/home/puntivendita/dettaglio.html?idPdv=2938"
            }
        },
        {
            "type": "node",
            "id": 1462173437,
            "lat": 46.0944532,
            "lon": 11.1157558,
            "timestamp": "2025-01-03T13:58:45Z",
            "version": 7,
            "changeset": 160950387,
            "user": "mpbin",
            "uid": 21850090,
            "tags": {
                "addr:city": "Trento",
                "addr:country": "IT",
                "addr:housename": "Bren Center",
                "addr:housenumber": "16",
                "addr:postcode": "38121",
                "addr:street": "Via Giovanni Battista Trener",
                "branch": "industry",
                "brand": "OVS",
                "brand:wikidata": "Q2042514",
                "contact:fax": "+39 0461 830420",
                "contact:phone": "+39 0461 820682",
                "level": "0;1",
                "name": "OVS",
                "opening_hours": "Mo 14:00-19:30; Tu-Sa 09:00-19:30",
                "operator": "OVS",
                "ref:vatin": "IT03147990273",
                "shop": "clothes"
            }
        },
        {
            "type": "node",
            "id": 1529563174,
            "lat": 45.8886103,
            "lon": 11.0353744,
            "timestamp": "2024-07-05T19:09:46Z",
            "version": 11,
            "changeset": 153601355,
            "user": "mauropili",
            "uid": 1496865,
            "tags": {
                "addr:city": "Rovereto",
                "addr:housenumber": "10",
                "addr:postcode": "38068",
                "addr:street": "Via Campagnole",
                "brand": "Aprilia;Peugeot",
                "check_date": "2024-04-12",
                "clothes": "yes",
                "currency:XBT": "yes",
                "name": "Motorsport Gennaro",
                "operator": "inbitcoin.it",
                "parts": "yes",
                "payment:bitcoin:operator": "inbitcoin.it",
                "repair": "yes",
                "shop": "motorcycle"
            }
        },
        {
            "type": "node",
            "id": 1536632550,
            "lat": 45.8894885,
            "lon": 11.0422969,
            "timestamp": "2024-09-27T06:43:21Z",
            "version": 7,
            "changeset": 157156253,
            "user": "mpbin",
            "uid": 21850090,
            "tags": {
                "addr:city": "Rovereto",
                "addr:country": "IT",
                "addr:housenumber": "41",
                "addr:postcode": "38068",
                "addr:street": "Via Roma",
                "alt_name": "Bar La Piazzetta",
                "amenity": "bar",
                "check_date": "2024-09-27",
                "check_date:currency:XBT": "2024-09-27",
                "contact:facebook": "https://www.facebook.com/BarLaPiazzetta2020/",
                "currency:XBT": "yes",
                "currency:XBT:discount": "10%",
                "email": "dema.dema890@yahoo.it",
                "name": "Piazzetta",
                "operator": "Davide Dematt\u00e8",
                "payment:XBT:operator": "bitcoinpos.it",
                "payment:lightning": "yes",
                "payment:lightning_contactless": "no",
                "payment:onchain": "yes",
                "phone": "+39 334 292 8972",
                "ref:vatin": "IT02567540220"
            }
        },
        {
            "type": "node",
            "id": 1602626066,
            "lat": 45.9093192,
            "lon": 10.8706119,
            "timestamp": "2025-01-03T15:44:47Z",
            "version": 5,
            "changeset": 160954883,
            "user": "mpbin",
            "uid": 21850090,
            "tags": {
                "addr:city": "Arco",
                "addr:postcode": "38062",
                "addr:street": "Via Cima Tofino",
                "brand": "OVS",
                "brand:wikidata": "Q2042514",
                "brand:wikipedia": "en:OVS (company)",
                "name": "OVS",
                "opening_hours": "Mo-Sa 09:00-19:30; Su 09:30-13:00,15:00-19:00",
                "operator": "OVS",
                "shop": "clothes"
            }
        },
        {
            "type": "node",
            "id": 1737540231,
            "lat": 45.9151736,
            "lon": 11.0343647,
            "timestamp": "2024-07-31T08:17:54Z",
            "version": 10,
            "changeset": 154636567,
            "user": "Geopartner",
            "uid": 19593521,
            "tags": {
                "addr:city": "Villa Lagarina",
                "addr:housenumber": "17",
                "addr:postcode": "38060",
                "addr:street": "Via Salisburgo",
                "amenity": "bar",
                "check_date": "2024-04-23",
                "check_date:currency:XBT": "2024-04-23",
                "contact:facebook": "https://www.facebook.com/MillenniumCaffe",
                "contact:instagram": "https://www.instagram.com/millenniumcaffe_daciro/",
                "currency:XBT": "yes",
                "email": "millenniumcaffebar@gmail.com",
                "name": "Ciro Caff\u00e8",
                "payment:bitcoin:operator": "inbitcoin.it",
                "payment:lightning": "yes",
                "payment:onchain": "yes",
                "phone": "+390464490383",
                "website": "https://www.millenniumcaffedaciro.it/"
            }
        },
        {
            "type": "node",
            "id": 1765153159,
            "lat": 46.0645024,
            "lon": 11.1234463,
            "timestamp": "2025-01-03T13:59:30Z",
            "version": 5,
            "changeset": 160950428,
            "user": "mpbin",
            "uid": 21850090,
            "tags": {
                "addr:city": "Trento",
                "addr:country": "IT",
                "addr:housenumber": "21",
                "addr:postcode": "38122",
                "addr:street": "Via Santa Croce",
                "branch": "Kids",
                "brand": "OVS",
                "brand:wikidata": "Q2042514",
                "name": "OVS",
                "opening_hours": "Mo-Sa 09:00-19:00",
                "operator": "OVS",
                "shop": "clothes"
            }
        },
        {
            "type": "node",
            "id": 1818174095,
            "lat": 46.0435595,
            "lon": 11.7479118,
            "timestamp": "2024-07-24T16:52:40Z",
            "version": 5,
            "changeset": 154359693,
            "user": "RaelZero",
            "uid": 2701091,
            "tags": {
                "addr:city": "Lamon",
                "addr:housenumber": "132",
                "addr:postcode": "32033",
                "addr:street": "Via Roma",
                "check_date": "2024-07-24",
                "name": "Conad Margherita",
                "old_name": "CRAI da Gaio",
                "opening_hours": "Mo-Sa 07:30-12:30,15:30-19:30; Su 08:00-12:00",
                "operator": "Conad",
                "payment:bancomat": "yes",
                "payment:cash": "yes",
                "payment:maestro": "yes",
                "payment:mastercard": "yes",
                "payment:visa": "yes",
                "shop": "convenience"
            }
        },
        {
            "type": "node",
            "id": 2110552737,
            "lat": 45.6907277,
            "lon": 11.4824478,
            "timestamp": "2024-12-31T18:11:08Z",
            "version": 3,
            "changeset": 160843872,
            "user": "mpbin",
            "uid": 21850090,
            "tags": {
                "addr:city": "Thiene",
                "addr:housenumber": "18",
                "addr:postcode": "36016",
                "addr:street": "Via Gombe",
                "brand": "Unieuro",
                "brand:wikidata": "Q4004687",
                "name": "Unieuro",
                "opening_hours": "Mo-Sa 09:30-12:30,15:00-19:30; Su 15:30-19:30",
                "operator": "Unieuro S.p.A.",
                "phone": "+39 0445 367611",
                "shop": "electronics"
            }
        },
        {
            "type": "node",
            "id": 2150998976,
            "lat": 45.8754508,
            "lon": 11.0332189,
            "timestamp": "2024-03-16T23:19:06Z",
            "version": 8,
            "changeset": 148753551,
            "user": "loop_btc",
            "uid": 20522504,
            "tags": {
                "addr:city": "Rovereto",
                "addr:country": "IT",
                "addr:housenumber": "17",
                "addr:postcode": "38068",
                "addr:street": "Piazza Sant'Antonio",
                "amenity": "pub",
                "brewery": "various",
                "check_date": "2024-03-17",
                "check_date:currency:XBT": "2024-03-17",
                "contact:phone": "+39 0464 437724",
                "currency:XBT": "yes",
                "currency:XBT:discount": "10%",
                "name": "Il Druido",
                "operator": "Angheben Ivan",
                "payment:XBT:operator": "bitcoinpos.it",
                "payment:lightning": "yes",
                "ref:vatin": "IT02433800220",
                "wheelchair": "yes",
                "wifi": "no"
            }
        },
        {
            "type": "node",
            "id": 2151018561,
            "lat": 45.8881405,
            "lon": 11.0443447,
            "timestamp": "2022-11-15T08:41:25Z",
            "version": 13,
            "changeset": 128926101,
            "user": "BSN21M",
            "uid": 17441326,
            "tags": {
                "addr:city": "Rovereto",
                "addr:country": "IT",
                "addr:housenumber": "27",
                "addr:postcode": "38068",
                "addr:street": "Piazza Malfatti",
                "amenity": "bar",
                "currency:XBT": "yes",
                "name": "Mani Al Cielo",
                "operator": "Giampaolo Rossi",
                "outdoor_seating": "yes",
                "payment:bitcoin:operator": "inbitcoin.it",
                "payment:lightning": "yes",
                "payment:lightning_contactless": "no",
                "payment:onchain": "no",
                "phone": "+39 340 5998774",
                "survey:date": "2022-11-15",
                "website": "https://www.facebook.com/barmanialcielo/",
                "wheelchair": "yes"
            }
        },
        {
            "type": "node",
            "id": 2151019684,
            "lat": 45.8885794,
            "lon": 11.0445839,
            "timestamp": "2024-11-15T21:05:03Z",
            "version": 11,
            "changeset": 159187296,
            "user": "mpbin",
            "uid": 21850090,
            "tags": {
                "addr:city": "Rovereto",
                "addr:housenumber": "10",
                "addr:postcode": "38068",
                "addr:street": "Piazza delle Erbe",
                "amenity": "bar",
                "check_date": "2024-11-15",
                "check_date:currency:XBT": "2024-11-15",
                "contact:email": "stellaitalia@icloud.com",
                "contact:facebook": "https://www.facebook.com/snackbarstellaitalia/",
                "contact:mobile": "+39 347 2411070",
                "currency:XBT": "yes",
                "currency:XBT:discount": "10%",
                "name": "Stella d'Italia",
                "outdoor_seating": "yes",
                "payment:bitcoin:operator": "bitcoinpos.it",
                "payment:lightning": "yes",
                "payment:onchain": "yes",
                "ref:vatin": "IT01809640228",
                "survey:date": "2023-09-19",
                "wheelchair": "yes"
            }
        },
        {
            "type": "node",
            "id": 2159355797,
            "lat": 45.8892273,
            "lon": 11.0439306,
            "timestamp": "2024-08-31T15:07:21Z",
            "version": 8,
            "changeset": 156019531,
            "user": "Rockedf",
            "uid": 7522075,
            "tags": {
                "addr:city": "Rovereto",
                "addr:country": "IT",
                "addr:housenumber": "34",
                "addr:postcode": "38068",
                "addr:street": "Via Mercerie",
                "amenity": "bar",
                "brewery": "Kwak;Guinness",
                "check_date:currency:XBT": "2024-08-31",
                "currency:XBT": "yes",
                "currency:XBT:discount": "15%",
                "mobile": "+39 345 638 3417",
                "name": "Tentazioni",
                "operator": "Elisa Zenatti",
                "payment:XBT:operator": "bitcoinpos.it",
                "payment:lightning": "yes",
                "ref:vatin": "IT02397850229"
            }
        },
        {
            "type": "node",
            "id": 2170989194,
            "lat": 45.890793,
            "lon": 11.0359581,
            "timestamp": "2024-07-20T20:33:04Z",
            "version": 13,
            "changeset": 154195060,
            "user": "mauropili",
            "uid": 1496865,
            "tags": {
                "addr:city": "Rovereto",
                "addr:housenumber": "92",
                "addr:postcode": "38068",
                "addr:street": "Corso Antonio Rosmini",
                "check_date": "2024-03-06",
                "contact:facebook": "https://www.facebook.com/BellezzaStudioItalia",
                "contact:instagram": "https://www.instagram.com/bellezzastudio.official/",
                "currency:XBT": "yes",
                "description": "Parrucchiere e Studio Estetico",
                "name": "Bellezza Studio",
                "opening_hours": "Mo-Sa 08:00-19:00",
                "payment:bitcoin:operator": "inbitcoin.it",
                "phone": "+39 0464 486314",
                "shop": "beauty",
                "website": "https://www.bellezzastudio.eu/"
            }
        },
        {
            "type": "node",
            "id": 2486092346,
            "lat": 45.8907625,
            "lon": 11.0378818,
            "timestamp": "2024-02-06T05:48:05Z",
            "version": 10,
            "changeset": 147119342,
            "user": "yhic4uw",
            "uid": 2104834,
            "tags": {
                "addr:city": "Rovereto",
                "addr:housename": "Ristorante Novecento dell'Hotel Rovereto",
                "addr:housenumber": "82/d",
                "addr:postcode": "38068",
                "addr:street": "Corso Antonio Rosmini",
                "amenity": "restaurant",
                "check_date:currency:XBT": "2023-08-10",
                "cuisine": "regional;pizza",
                "currency:XBT": "yes",
                "currency:XBT:operator": "bitcoinpos.it",
                "diet:vegan": "yes",
                "diet:vegetarian": "yes",
                "name": "Ristorante Novecento dell'Hotel Rovereto",
                "payment:lightning": "yes",
                "payment:onchain": "yes",
                "phone": "+39 0464 435454",
                "wheelchair": "yes"
            }
        },
        {
            "type": "node",
            "id": 2487884675,
            "lat": 45.8892382,
            "lon": 11.0420632,
            "timestamp": "2024-11-10T16:12:42Z",
            "version": 5,
            "changeset": 158973923,
            "user": "mpbin",
            "uid": 21850090,
            "tags": {
                "addr:city": "Rovereto",
                "addr:postcode": "38068",
                "addr:street": "Via Girolamo Tartarotti",
                "check_date:currency:XBT": "2024-04-23",
                "currency:XBT": "yes",
                "email": "store@100-onestore.com",
                "name": "100-ONE Freeride Shop",
                "payment:lightning": "yes",
                "phone": "+390464436936",
                "shop": "sports"
            }
        },
        {
            "type": "node",
            "id": 2507632569,
            "lat": 45.7582135,
            "lon": 11.4185566,
            "timestamp": "2024-12-02T14:46:46Z",
            "version": 10,
            "changeset": 159846219,
            "user": "Chiarant",
            "uid": 18452174,
            "tags": {
                "addr:city": "Piovene Rocchette (VI)",
                "addr:postcode": "36013",
                "addr:street": "Via dell'Angelo, 105",
                "amenity": "restaurant",
                "contact:email": "info@trattoria-allangelo.it",
                "contact:instagram": "https://www.instagram.com/maurocanaglia/",
                "currency:XBT": "yes",
                "description": "Aperto dal Mercoled\u00ec al Sabato per cena; Domenica a pranzo. Orari aggiornati su google maps.",
                "diet:lactose_free": "yes",
                "diet:local": "yes",
                "diet:meat": "yes",
                "diet:natural_foods": "yes",
                "diet:vegan": "yes",
                "diet:vegetarian": "yes",
                "name": "Trattoria All'Angelo",
                "payment:lightning": "yes",
                "payment:lightning_contactless": "no",
                "payment:onchain": "no",
                "phone": "0445 651181",
                "survey:date": "2024-11-22",
                "website": "https://www.trattoria-allangelo.it"
            }
        },
        {
            "type": "node",
            "id": 2534783919,
            "lat": 46.2908465,
            "lon": 11.461814,
            "timestamp": "2024-11-25T00:16:43Z",
            "version": 11,
            "changeset": 159553602,
            "user": "descubrebitcoin",
            "uid": 17565129,
            "tags": {
                "addr:city": "Cavalese",
                "addr:housenumber": "24",
                "addr:postcode": "38033",
                "addr:street": "Via Fratelli Bronzetti",
                "currency:EUR": "yes",
                "currency:XBT": "yes",
                "male": "yes",
                "name": "Barbieria Boschetto",
                "opening_hours": "Tu-Sa 08:30-12:00,15:00-19:00",
                "payment:lightning": "yes",
                "payment:lightning_contactless": "yes",
                "payment:onchain": "yes",
                "phone": "+39 330 521 556",
                "shop": "hairdresser",
                "website": "https://www.barbieriaboschetto.it/",
                "wheelchair": "yes"
            }
        },
        {
            "type": "node",
            "id": 2748239833,
            "lat": 46.0947719,
            "lon": 11.1096204,
            "timestamp": "2024-04-17T12:49:44Z",
            "version": 7,
            "changeset": 150128186,
            "user": "yhic4uw",
            "uid": 2104834,
            "tags": {
                "addr:city": "Trento",
                "addr:country": "IT",
                "addr:housenumber": "7",
                "addr:postcode": "38121",
                "addr:street": "Via Giambattista Unterveger",
                "check_date": "2024-04-17",
                "contact:website": "http://www.laselleriaonline.it/",
                "currency:XBT": "yes",
                "description": "Negozio specializzato in articolo per equitazione",
                "name": "La Selleria",
                "payment:bitcoin:operator": "inbitcoin.it",
                "shop": "sports",
                "sport": "equestrian"
            }
        },
        {
            "type": "node",
            "id": 2749772773,
            "lat": 46.4150124,
            "lon": 11.2490804,
            "timestamp": "2024-10-17T21:28:38Z",
            "version": 6,
            "changeset": 158026977,
            "user": "Claudius Henrichs",
            "uid": 18069,
            "tags": {
                "addr:city": "Kaltern an der Weinstra\u00dfe - Caldaro sulla Strada del Vino",
                "addr:city:de": "Kaltern an der Weinstra\u00dfe",
                "addr:city:it": "Caldaro sulla Strada del Vino",
                "addr:housenumber": "1",
                "addr:postcode": "39052",
                "addr:street": "Weinstra\u00dfe - Strada del Vino",
                "addr:street:de": "Weinstra\u00dfe",
                "addr:street:it": "Strada del Vino",
                "amenity": "restaurant",
                "check_date": "2024-01-05",
                "contact:facebook": "https://www.facebook.com/ritterhof.kaltern",
                "cuisine": "south_tyrolean",
                "currency:XBT": "yes",
                "name": "Restaurant Ritterhof",
                "opening_hours": "11:30 - 15:30, 18:30 - 24:00",
                "payment:lightning": "yes",
                "payment:onchain": "yes",
                "phone": "+39 0471 96 33 30",
                "website": "https://www.restaurant-ritterhof.it"
            }
        },
        {
            "type": "node",
            "id": 2749773047,
            "lat": 46.4078349,
            "lon": 11.2384105,
            "timestamp": "2023-07-18T14:37:59Z",
            "version": 4,
            "changeset": 138673094,
            "user": "saunter",
            "uid": 10396321,
            "tags": {
                "addr:city": "Kaltern an der Weinstra\u00dfe - Caldaro sulla Strada del Vino",
                "addr:city:de": "Kaltern an der Weinstra\u00dfe",
                "addr:city:it": "Caldaro sulla Strada del Vino",
                "addr:housenumber": "13",
                "addr:postcode": "39052",
                "addr:street": "Europastra\u00dfe - Via Europa",
                "addr:street:de": "Europastra\u00dfe",
                "addr:street:it": "Via Europa",
                "check_date:currency:XBT": "2023-07-18",
                "currency:XBT": "yes",
                "description": "Cosmolife, nata nel 1994, offre ai propri clienti ed amici prodotti naturali, biologici ed energetici per prevenire malattie e rafforzare il proprio sistema immunitario.",
                "email": "info@cosmolife.it",
                "name": "Cosmo Life S.r.l.",
                "phone": "+39 0471964096",
                "shop": "nutrition_supplements",
                "website": "https://www.cosmolife.it/"
            }
        },
        {
            "type": "node",
            "id": 2749774355,
            "lat": 46.4116673,
            "lon": 11.243861,
            "timestamp": "2024-10-09T19:53:11Z",
            "version": 8,
            "changeset": 157687688,
            "user": "mpbin",
            "uid": 21850090,
            "tags": {
                "addr:city": "Kaltern an der Weinstra\u00dfe - Caldaro sulla Strada del Vino",
                "addr:city:de": "Kaltern an der Weinstra\u00dfe",
                "addr:city:it": "Caldaro sulla Strada del Vino",
                "addr:housenumber": "28",
                "addr:postcode": "39052",
                "addr:street": "Goldgasse - Via D'Oro",
                "addr:street:de": "Goldgasse",
                "addr:street:it": "Via D'Oro",
                "check_date:currency:XBT": "2024-10-09",
                "contact:facebook": "https://www.facebook.com/flaimoptic",
                "currency:XBT": "yes",
                "email": "info@flaim.bz",
                "name": "Flaim Optic",
                "payment:bitcoin:operator": "inbitcoin.it",
                "phone": "+39 0471 963087",
                "shop": "optician",
                "website": "https://www.optikflaim.com/"
            }
        },
        {
            "type": "node",
            "id": 2872848040,
            "lat": 45.8777732,
            "lon": 10.8908323,
            "timestamp": "2024-02-06T05:23:27Z",
            "version": 10,
            "changeset": 147118892,
            "user": "yhic4uw",
            "uid": 2104834,
            "tags": {
                "addr:city": "Nago-Torbole",
                "addr:housenumber": "82",
                "addr:postcode": "38069",
                "addr:street": "Via San Vigilio",
                "check_date:currency:XBT": "2023-08-08",
                "currency:EUR": "yes",
                "currency:XBT": "yes",
                "email": "conadnago@gmail.com",
                "name": "Margherita Conad",
                "opening_hours": "Mo-Sa 08:00-12:30,16:00-19:30; Su 08:00-12:30",
                "payment:bitcoin:operator": "inbitcoin.it",
                "payment:lightning": "yes",
                "payment:onchain": "yes",
                "phone": "+390464506218",
                "shop": "supermarket"
            }
        },
        {
            "type": "node",
            "id": 3124213640,
            "lat": 46.0169997,
            "lon": 10.8202816,
            "timestamp": "2021-07-04T20:09:18Z",
            "version": 2,
            "changeset": 107405345,
            "user": "zancloud",
            "uid": 8766366,
            "tags": {
                "addr:city": "Bleggio Superiore",
                "addr:postcode": "38071",
                "addr:street": "Frazione Cavrasto",
                "name": "Margherita Conad Cavrasto",
                "operator": "Conad",
                "phone": "+39 0465 779818",
                "shop": "supermarket",
                "website": "https://www.conad.it/ricerca-negozi/negozio.006728.html"
            }
        },
        {
            "type": "node",
            "id": 3139832281,
            "lat": 46.0883337,
            "lon": 11.1185284,
            "timestamp": "2025-01-03T09:53:59Z",
            "version": 8,
            "changeset": 160940576,
            "user": "mpbin",
            "uid": 21850090,
            "tags": {
                "addr:city": "Trento",
                "addr:housenumber": "5",
                "addr:postcode": "38121",
                "addr:street": "Via Gemma de Gresti",
                "brand": "Decathlon",
                "brand:wikidata": "Q509349",
                "check_date": "2024-04-08",
                "contact:website": "https://www.decathlon.it/store-view/negozio-sport-trento-0070313203132",
                "entrance": "main",
                "name": "Decathlon",
                "opening_hours": "09:00-20:00",
                "operator": "Decathlon",
                "shop": "sports"
            }
        },
        {
            "type": "node",
            "id": 3253606468,
            "lat": 45.8900918,
            "lon": 11.0411369,
            "timestamp": "2024-04-23T12:53:24Z",
            "version": 5,
            "changeset": 150394331,
            "user": "saunter",
            "uid": 10396321,
            "tags": {
                "addr:city": "Rovereto",
                "addr:country": "IT",
                "addr:housenumber": "30",
                "addr:postcode": "38068",
                "addr:province": "TN",
                "addr:state": "IA",
                "addr:street": "Via Giuseppe Garibaldi",
                "check_date:currency:XBT": "2024-04-23",
                "currency:XBT": "yes",
                "name": "Dr.Sax calzature e pelletterie",
                "payment:onchain": "yes",
                "shop": "shoes"
            }
        },
        {
            "type": "node",
            "id": 3359576846,
            "lat": 45.9080621,
            "lon": 11.0409184,
            "timestamp": "2024-07-20T20:45:07Z",
            "version": 9,
            "changeset": 154195434,
            "user": "mauropili",
            "uid": 1496865,
            "tags": {
                "addr:city": "Rovereto",
                "addr:housenumber": "77",
                "addr:postcode": "38068",
                "addr:street": "Viale Trento",
                "check_date:currency:XBT": "2023-10-20",
                "contact:facebook": "https://www.facebook.com/fantasiastore.it",
                "contact:instagram": "https://www.instagram.com/fantasiastore.it",
                "currency:XBT": "yes",
                "description": "Fant\u00e0sia \u00e8 il punto di riferimento per tutti gli appassionati di giochi da tavolo, di ruolo, di carte, di miniature e di tutto ci\u00f2 che riguarda il mondo nerd.",
                "description:it": "Fant\u00e0sia \u00e8 il punto di riferimento per tutti gli appassionati di giochi da tavolo, di ruolo, di carte, di miniature e di tutto ci\u00f2 che riguarda il mondo nerd.",
                "email": "servizioclienti@fantasiastore.it",
                "name": "Fant\u00e0sia Games Store",
                "opening_hours": "Tu-Sa 15:00-19:00",
                "payment:XBT:operator": "bitcoinpos.it",
                "payment:bitcoin:operator": "inbitcoin.it",
                "payment:lightning": "yes",
                "payment:onchain": "no",
                "shop": "toys",
                "website": "https://fantasiastore.it/"
            }
        },
        {
            "type": "node",
            "id": 3444507460,
            "lat": 45.8990073,
            "lon": 11.0368457,
            "timestamp": "2023-07-19T11:14:41Z",
            "version": 5,
            "changeset": 138711574,
            "user": "saunter",
            "uid": 10396321,
            "tags": {
                "addr:city": "Rovereto",
                "addr:housenumber": "28/6",
                "addr:postcode": "38068",
                "addr:street": "Via Pasqui",
                "check_date:currency:XBT": "2023-07-19",
                "contact:fax": "+39 0464 498714",
                "contact:phone": "+39 0464 490557",
                "contact:website": "http://www.studiocarollo.com/",
                "currency:XBT": "yes",
                "description": "Studio Legale e Commercialistico",
                "name": "Studio Carollo",
                "office": "accountant"
            }
        },
        {
            "type": "node",
            "id": 3488750202,
            "lat": 46.0445702,
            "lon": 11.1208798,
            "timestamp": "2024-11-07T13:47:09Z",
            "version": 7,
            "changeset": 158856771,
            "user": "mueschel",
            "uid": 616774,
            "tags": {
                "addr:city": "Trento",
                "addr:country": "IT",
                "addr:housenumber": "21",
                "addr:postcode": "38123",
                "addr:street": "Via Fersina",
                "amenity": "restaurant",
                "contact:facebook": "ristorantecontrobreak",
                "contact:instagram": "controbreak_trento",
                "cuisine": "coffee_shop;italian",
                "currency:XBT": "yes",
                "email": "info@controbreak.it",
                "name": "Contro Break",
                "payment:XBT:operator": "Bitcoinpos.it",
                "payment:lightning": "yes",
                "phone": "+39 046 1525 950",
                "website": "https://controbreak.it/"
            }
        },
        {
            "type": "node",
            "id": 3597774093,
            "lat": 46.4765,
            "lon": 11.33377,
            "timestamp": "2025-01-01T17:41:27Z",
            "version": 5,
            "changeset": 160878366,
            "user": "mpbin",
            "uid": 21850090,
            "tags": {
                "addr:city": "Bolzano - Bozen",
                "addr:housenumber": "3",
                "addr:postcode": "39100",
                "addr:street": "Via Luigi Galvani - Luigi-Galvani-Stra\u00dfe",
                "brand": "Unieuro",
                "brand:wikidata": "Q4004687",
                "brand:wikipedia": "en:Unieuro",
                "name": "Unieuro",
                "operator": "Unieuro S.p.A.",
                "shop": "electronics"
            }
        },
        {
            "type": "node",
            "id": 3867121603,
            "lat": 46.4863726,
            "lon": 11.3353938,
            "timestamp": "2025-01-03T10:25:36Z",
            "version": 4,
            "changeset": 160941704,
            "user": "mpbin",
            "uid": 21850090,
            "tags": {
                "addr:city": "Bolzano - Bozen",
                "addr:housenumber": "20",
                "addr:postcode": "39100",
                "addr:street": "Via Galileo Galilei - Galileo-Galilei-Stra\u00dfe",
                "brand": "Decathlon",
                "brand:wikidata": "Q509349",
                "brand:wikipedia": "en:Decathlon Group",
                "name": "Decathlon",
                "operator": "Decathlon",
                "shop": "sports",
                "website": "https://www.decathlon.it/"
            }
        },
        {
            "type": "node",
            "id": 4218284559,
            "lat": 46.4913076,
            "lon": 11.3145909,
            "timestamp": "2024-12-03T20:32:13Z",
            "version": 4,
            "changeset": 159896045,
            "user": "mpbin",
            "uid": 21850090,
            "tags": {
                "addr:city": "Bolzano - Bozen",
                "addr:housenumber": "12r",
                "addr:postcode": "39100",
                "addr:street": "Via Resia - Reschenstra\u00dfe",
                "brand": "Trony",
                "brand:wikidata": "Q3999692",
                "brand:wikipedia": "it:Trony",
                "email": "bolzano2@trony.it",
                "fax": "+39 0471 054541",
                "name": "Trony",
                "opening_hours": "Mo-Fr 09:00-12:00, 15:00-19:00; Sa 09:00-12:00, 15:00-18:00",
                "operator": "Trony",
                "phone": "+39 0471 054540",
                "shop": "electronics"
            }
        },
        {
            "type": "node",
            "id": 4650320954,
            "lat": 46.0068646,
            "lon": 11.1264895,
            "timestamp": "2024-03-12T09:32:06Z",
            "version": 12,
            "changeset": 148539973,
            "user": "Chiarant",
            "uid": 18452174,
            "tags": {
                "addr:city": "Mattarello",
                "addr:housenumber": "7",
                "addr:postcode": "38123",
                "addr:street": "Via della Stazione",
                "check_date": "2024-03-12",
                "currency:XBT": "yes",
                "email": "info@patiflex.it",
                "name": "Patiflex",
                "operator": "inbitcoin.it",
                "payment:bitcoin:operator": "inbitcoin.it",
                "payment:lightning": "yes",
                "payment:onchain": "yes",
                "phone": "+39 0461 945726",
                "shop": "bed",
                "website": "https://www.patiflex.it/"
            }
        },
        {
            "type": "node",
            "id": 4860505213,
            "lat": 45.9138611,
            "lon": 11.0325982,
            "timestamp": "2024-09-27T06:46:58Z",
            "version": 7,
            "changeset": 157156374,
            "user": "mpbin",
            "uid": 21850090,
            "tags": {
                "addr:city": "Villa Lagarina",
                "addr:housenumber": "90",
                "addr:postcode": "38060",
                "addr:street": "Via Damiano Chiesa",
                "amenity": "driving_school",
                "check_date": "2024-09-27",
                "check_date:currency:XBT": "2024-09-27",
                "currency:XBT": "yes",
                "email": "amadori.destraadige@gmail.com",
                "name": "Amadori snc",
                "payment:bitcoin:operator": "inbitcoin.it",
                "phone": "+39 0464 462334"
            }
        },
        {
            "type": "node",
            "id": 5055574394,
            "lat": 45.8915854,
            "lon": 11.0374276,
            "timestamp": "2024-11-10T19:36:39Z",
            "version": 7,
            "changeset": 158982839,
            "user": "mpbin",
            "uid": 21850090,
            "tags": {
                "addr:city": "Rovereto",
                "addr:housenumber": "4",
                "addr:postcode": "38068",
                "addr:street": "Via Savioli",
                "check_date": "2024-08-16",
                "currency:XBT": "yes",
                "email": "info@mondocasa.biz",
                "name": "Mondo Casa",
                "office": "estate_agent",
                "opening_hours": "Mo-Fr 09:00-12:30,15:00-19:00; Sa 09:00-12:00",
                "payment:bitcoin:operator": "inbitcoin.it",
                "phone": "+390464486626",
                "website": "https://mondocasa.biz/"
            }
        },
        {
            "type": "node",
            "id": 5069371904,
            "lat": 45.8875765,
            "lon": 11.0450566,
            "timestamp": "2024-08-31T15:02:23Z",
            "version": 7,
            "changeset": 156019224,
            "user": "Rockedf",
            "uid": 7522075,
            "tags": {
                "access:wheelchair": "no",
                "addr:city": "Rovereto",
                "addr:housenumber": "4",
                "addr:postcode": "38068",
                "addr:street": "Scala del Redentore",
                "amenity": "restaurant",
                "capacity": "50/60",
                "check_date:currency:XBT": "2024-08-31",
                "currency:XBT": "yes",
                "email": "ildogerovereto@gmail.com",
                "name": "Il Doge",
                "opening_hours": "Mo-Su 12:00-14:00, 19:00-22:00",
                "payment:bitcoin:operator": "inbitcoin.it",
                "phone": "+390464480854",
                "smoking": "outside",
                "takeaway": "no",
                "wheelchair": "no"
            }
        },
        {
            "type": "node",
            "id": 6091712990,
            "lat": 45.8782009,
            "lon": 11.0337639,
            "timestamp": "2020-12-01T16:32:51Z",
            "version": 2,
            "changeset": 95105374,
            "user": "scratera",
            "uid": 76312,
            "tags": {
                "addr:housenumber": "50",
                "addr:street": "Via Benacense",
                "amenity": "cafe",
                "door": "sliding",
                "entrance": "yes",
                "name": "Buonissimo",
                "operator": "Conad",
                "wheelchair": "yes"
            }
        },
        {
            "type": "node",
            "id": 6209967055,
            "lat": 45.8815431,
            "lon": 11.0394002,
            "timestamp": "2023-11-19T10:47:25Z",
            "version": 4,
            "changeset": 144202926,
            "user": "mueschel",
            "uid": 616774,
            "tags": {
                "addr:city": "Rovereto",
                "addr:housenumber": "2",
                "addr:postcode": "38068",
                "addr:street": "Via Fiume",
                "amenity": "bar",
                "check_date:currency:XBT": "2023-10-27",
                "currency:XBT": "yes",
                "currency:XBT:discount": "10%",
                "email": "gelateriariver@gmail.com",
                "name": "River Bar Gelateria",
                "outdoor_seating": "yes",
                "payment:XBT:operator": "bitcoinpos.it",
                "payment:lightning": "yes",
                "payment:onchain": "yes",
                "phone": "+390464400507"
            }
        },
        {
            "type": "node",
            "id": 6210020202,
            "lat": 45.8891534,
            "lon": 11.043912,
            "timestamp": "2025-03-19T10:00:55Z",
            "version": 9,
            "changeset": 163809392,
            "user": "Mandux",
            "uid": 3776588,
            "tags": {
                "addr:city": "Rovereto",
                "addr:housenumber": "24",
                "addr:postcode": "38068",
                "addr:street": "Via Mercerie",
                "amenity": "fast_food",
                "check_date": "2024-09-27",
                "check_date:currency:XBT": "2024-09-27",
                "cuisine": "piadina",
                "currency:XBT": "yes",
                "currency:XBT:discount": "10%",
                "delivery": "no",
                "drive_through": "no",
                "email": "rosaria.miorandi@tin.it",
                "name": "Piadinamore",
                "payment:XBT:operator": "bitcoinpos.it",
                "payment:lightning": "yes",
                "payment:onchain": "yes",
                "phone": "+393298597519",
                "takeaway": "yes"
            }
        },
        {
            "type": "node",
            "id": 6867227781,
            "lat": 45.8871755,
            "lon": 11.0308428,
            "timestamp": "2023-12-26T10:53:56Z",
            "version": 5,
            "changeset": 145528273,
            "user": "mueschel",
            "uid": 616774,
            "tags": {
                "addr:city": "Rovereto",
                "addr:housenumber": "1",
                "addr:postcode": "38068",
                "addr:street": "Viale della Vittoria",
                "check_date:currency:XBT": "2023-12-06",
                "currency:XBT": "yes",
                "leisure": "fitness_centre",
                "name": "Life Rovereto A.S.D",
                "payment:XBT:operator": "bitcoinpos.it",
                "payment:lightning": "yes",
                "payment:onchain": "no",
                "phone": "+39 389 622 1837",
                "sport": "dance;fitness;pole_dance",
                "website": "https://www.liferovereto.com/"
            }
        },
        {
            "type": "node",
            "id": 7678479142,
            "lat": 45.8897032,
            "lon": 11.0440531,
            "timestamp": "2024-11-29T16:26:20Z",
            "version": 7,
            "changeset": 159748714,
            "user": "mpbin",
            "uid": 21850090,
            "tags": {
                "addr:city": "Rovereto",
                "addr:country": "IT",
                "addr:housenumber": "16",
                "addr:postcode": "38068",
                "addr:street": "Via Rialto",
                "check_date": "2024-11-29",
                "check_date:currency:XBT": "2024-11-24",
                "contact:facebook": "https://www.facebook.com/comproeuro.official/",
                "currency:XBT": "yes",
                "email": "info@comproeuro.it",
                "name": "Comproeuro\u00ae",
                "operator": "bmanity srl",
                "payment:bitcoin:operator": "inbitcoin.it",
                "payment:lightning": "yes",
                "payment:onchain": "yes",
                "shop": "bitcoin",
                "website": "https://comproeuro.it"
            }
        },
        {
            "type": "node",
            "id": 8453126219,
            "lat": 46.0577331,
            "lon": 10.7511012,
            "timestamp": "2022-08-10T11:22:48Z",
            "version": 2,
            "changeset": 124726267,
            "user": "Martino Scaglione",
            "uid": 10901495,
            "tags": {
                "addr:city": "Tre Ville",
                "addr:housenumber": "15",
                "addr:postcode": "38070",
                "addr:street": "Via Papa Giovanni Ventitreesimo",
                "brand": "Conad",
                "brand:wikidata": "Q639075",
                "name": "Margherita",
                "operator": "Conad",
                "shop": "convenience"
            }
        },
        {
            "type": "node",
            "id": 8485016740,
            "lat": 46.0402716,
            "lon": 10.7476873,
            "timestamp": "2025-01-01T20:04:43Z",
            "version": 3,
            "changeset": 160883564,
            "user": "mpbin",
            "uid": 21850090,
            "tags": {
                "addr:city": "Borgo Lares",
                "addr:housenumber": "11",
                "addr:postcode": "38095",
                "addr:street": "Loc. Campo di Prati",
                "brand": "Unieuro",
                "brand:wikidata": "Q4004687",
                "brand:wikipedia": "en:Unieuro",
                "name": "Unieuro",
                "operator": "Unieuro S.p.A.",
                "shop": "electronics"
            }
        },
        {
            "type": "node",
            "id": 8701286579,
            "lat": 45.9622358,
            "lon": 10.9116349,
            "timestamp": "2024-09-23T17:25:27Z",
            "version": 12,
            "changeset": 157006265,
            "user": "mpbin",
            "uid": 21850090,
            "tags": {
                "addr:city": "Dro",
                "addr:housenumber": "6",
                "addr:postcode": "38074",
                "addr:street": "Via Torre",
                "check_date": "2024-09-23",
                "check_date:currency:XBT": "2024-09-23",
                "cuisine": "italian;regional;international",
                "currency:XBT": "yes",
                "diet:gluten_free": "yes",
                "diet:vegan": "yes",
                "email": "info@untempoperte.it",
                "guest_house": "bed_and_breakfast",
                "internet_access": "wlan",
                "internet_access:fee": "no",
                "name": "Un tempo per Te",
                "opening_hours": "\"su prenotazione\"",
                "payment:cash": "yes",
                "payment:dash": "yes",
                "payment:ethereum": "yes",
                "payment:lightning": "yes",
                "phone": "+39 333 364 9554",
                "tourism": "guest_house",
                "website": "https://www.untempoperte.it"
            }
        },
        {
            "type": "node",
            "id": 10719030750,
            "lat": 45.8905371,
            "lon": 11.0407686,
            "timestamp": "2024-10-11T20:56:44Z",
            "version": 8,
            "changeset": 157773346,
            "user": "mpbin",
            "uid": 21850090,
            "tags": {
                "addr:city": "Rovereto",
                "addr:housenumber": "54",
                "addr:street": "Corso Antonio Rosmini",
                "amenity": "restaurant",
                "check_date:currency:XBT": "2024-06-19",
                "cuisine": "sushi",
                "currency:XBT": "yes",
                "currency:XBT:discount": "10%",
                "currency:XBT:operator": "bitcoinpos.it",
                "email": "rovereto.rainbowsushi20rv@gmail.com",
                "name": "Rainbow Sushi 2.0",
                "payment:lightning": "yes",
                "payment:onchain": "yes",
                "phone": "+390464666998",
                "survey:date": "2024-03-21",
                "website": "https://rovereto.rainbowsushibar.com/"
            }
        },
        {
            "type": "node",
            "id": 10743394069,
            "lat": 45.8643599,
            "lon": 11.028332,
            "timestamp": "2025-01-01T20:06:49Z",
            "version": 2,
            "changeset": 160883634,
            "user": "mpbin",
            "uid": 21850090,
            "tags": {
                "addr:city": "rovereto",
                "addr:housenumber": "18",
                "addr:postcode": "38068",
                "addr:street": "viale del lavoro",
                "brand": "Unieuro",
                "brand:wikidata": "Q4004687",
                "name": "Unieuro",
                "operator": "Unieuro S.p.A.",
                "phone": "+390464430176",
                "shop": "electronics"
            }
        },
        {
            "type": "node",
            "id": 10830054226,
            "lat": 46.3611734,
            "lon": 11.0295258,
            "timestamp": "2024-10-28T20:47:35Z",
            "version": 3,
            "changeset": 158473766,
            "user": "mpbin",
            "uid": 21850090,
            "tags": {
                "addr:city": "Cles",
                "addr:housenumber": "6b",
                "addr:postcode": "38023",
                "addr:street": "Via Armando Diaz",
                "check_date": "2024-10-28",
                "check_date:currency:XBT": "2024-10-28",
                "contact:facebook": "https://www.facebook.com/groups/720342775336544",
                "contact:instagram": "https://www.instagram.com/vivishare.campingpro/",
                "contact:pinterest": "https://it.pinterest.com/vivishare/maggiolina-e-altre-tende-da-auto/",
                "currency:XBT": "yes",
                "email": "vivishare.it@gmail.com",
                "name": "Vivishare",
                "opening_hours": "\"on appointment\"",
                "payment:lightning": "yes",
                "payment:lightning_contactless": "no",
                "payment:onchain": "yes",
                "phone": "+39 334 86 41 598",
                "shop": "yes",
                "website": "https://vivishare.net/"
            }
        },
        {
            "type": "node",
            "id": 11056859447,
            "lat": 45.8885269,
            "lon": 11.0448286,
            "timestamp": "2025-03-19T10:00:55Z",
            "version": 10,
            "changeset": 163809392,
            "user": "Mandux",
            "uid": 3776588,
            "tags": {
                "addr:city": "Rovereto",
                "addr:housenumber": "7",
                "addr:postcode": "38068",
                "addr:street": "Scala della Torre",
                "amenity": "bar",
                "check_date:currency:XBT": "2024-08-31",
                "contact:facebook": "https://www.facebook.com/leradicirovereto/",
                "contact:instagram": "https://www.instagram.com/le_radici/",
                "currency:XBT": "yes",
                "currency:XBT:discount": "22%",
                "name": "Le Radici",
                "opening_hours": "Tu-Sa 18:00-24:00",
                "outdoor_seating": "yes",
                "payment:XBT:operator": "bitcoinpos.it",
                "payment:lightning": "yes",
                "payment:onchain": "yes",
                "phone": "+39 389 816 8820"
            }
        },
        {
            "type": "node",
            "id": 11275477472,
            "lat": 45.9080063,
            "lon": 11.0409278,
            "timestamp": "2024-08-31T15:09:08Z",
            "version": 5,
            "changeset": 156019611,
            "user": "Rockedf",
            "uid": 7522075,
            "tags": {
                "addr:city": "Rovereto",
                "addr:housenumber": "77",
                "addr:postcode": "38068",
                "addr:street": "Viale Trento",
                "check_date:currency:XBT": "2024-08-31",
                "currency:XBT": "yes",
                "description": "Fant\u00e0sia \u00e8 il punto di riferimento per tutti gli appassionati di giochi da tavolo, di ruolo, di carte, di miniature e di tutto ci\u00f2 che riguarda il mondo nerd.",
                "email": "servizioclienti@fantasiastore.it",
                "name": "Fantasia Store",
                "payment:XBT:operator": "bitcoinpos.it",
                "payment:lightning": "yes",
                "payment:onchain": "no",
                "shop": "anime",
                "website": "https://fantasiastore.it/"
            }
        },
        {
            "type": "node",
            "id": 11349072079,
            "lat": 45.8873071,
            "lon": 11.06153,
            "timestamp": "2023-11-19T10:47:25Z",
            "version": 2,
            "changeset": 144202926,
            "user": "mueschel",
            "uid": 616774,
            "tags": {
                "addr:city": "Rovereto",
                "addr:housenumber": "2",
                "addr:postcode": "38068",
                "addr:street": "Via Campolongo",
                "addr:unit": "bis",
                "check_date:currency:XBT": "2023-11-14",
                "currency:XBT": "yes",
                "email": "ing.ericafait@gmail.com",
                "name": "Studio tecnico ing. Erica Fait",
                "office": "studio_tecnico",
                "payment:XBT:operator": "bitcoinpos.it",
                "payment:lightning": "yes",
                "phone": "+393463369955"
            }
        },
        {
            "type": "node",
            "id": 11494464513,
            "lat": 45.7244835,
            "lon": 11.3641751,
            "timestamp": "2024-12-19T21:10:39Z",
            "version": 8,
            "changeset": 160410887,
            "user": "saunter",
            "uid": 10396321,
            "tags": {
                "addr:city": "Schio",
                "addr:housenumber": "13",
                "addr:postcode": "36015",
                "addr:street": "Via Giarette",
                "amenity": "restaurant",
                "check_date": "2024-10-12",
                "check_date:currency:XBT": "2024-12-19",
                "contact:instagram": "https://www.instagram.com/ajiosteriagiapponese/",
                "cuisine": "japanese",
                "currency:XBT": "yes",
                "email": "osteriagiapponese@gmail.com",
                "name": "Aji Osteria Giapponese",
                "opening_hours": "Tu-Sa 19:00-22:00",
                "payment:lightning": "yes",
                "payment:lightning_contactless": "yes",
                "phone": "+39 351 911 5569",
                "website": "https://osteriagiapponese.wixsite.com/ajiosteriagiapponese"
            }
        },
        {
            "type": "node",
            "id": 11503445235,
            "lat": 45.7245094,
            "lon": 11.3640987,
            "timestamp": "2024-10-12T18:06:13Z",
            "version": 4,
            "changeset": 157807879,
            "user": "mpbin",
            "uid": 21850090,
            "tags": {
                "addr:city": "Schio",
                "addr:housenumber": "13",
                "addr:postcode": "36015",
                "addr:street": "Via Giarette",
                "check_date": "2024-10-12",
                "check_date:currency:XBT": "2024-10-12",
                "contact:email": "info@artigianatogiapponese.it",
                "contact:facebook": "https://www.facebook.com/www.artigianatogiapponese.it",
                "contact:instagram": "https://www.instagram.com/artigianatogiapponese/",
                "currency:XBT": "yes",
                "name": "Artigianato Giapponese",
                "payment:lightning": "yes",
                "payment:lightning_contactless": "yes",
                "payment:onchain": "yes",
                "phone": "+39 32 8376 1399",
                "shop": "yes",
                "website": "https://www.artigianatogiapponese.it/"
            }
        },
        {
            "type": "node",
            "id": 11573964908,
            "lat": 45.9157088,
            "lon": 11.0314209,
            "timestamp": "2024-01-31T18:40:58Z",
            "version": 1,
            "changeset": 146916753,
            "user": "inbitcoin",
            "uid": 4533749,
            "tags": {
                "addr:city": "Villa Lagarina",
                "addr:housenumber": "8",
                "addr:postcode": "38060",
                "addr:street": "Via Venticinque Aprile",
                "check_date:currency:XBT": "2024-01-31",
                "currency:XBT": "yes",
                "name": "Edicola - Riv. Tabacchi n. 9 - Ric. Lotto n. TN437",
                "payment:XBT:operator": "bitcoinpos.it",
                "payment:lightning": "yes",
                "payment:onchain": "no",
                "phone": "+390464412950",
                "shop": "newsagent"
            }
        },
        {
            "type": "node",
            "id": 11841224509,
            "lat": 45.8838122,
            "lon": 11.0202464,
            "timestamp": "2024-04-30T14:57:18Z",
            "version": 2,
            "changeset": 150712877,
            "user": "b-jazz-bot",
            "uid": 9451067,
            "tags": {
                "addr:city": "Rovereto",
                "addr:postcode": "38068",
                "addr:street": "Piazza della Manifattura",
                "check_date:currency:XBT": "2024-04-23",
                "currency:XBT": "yes",
                "name": "Floricoltura Alberta",
                "payment:lightning": "yes",
                "phone": "+390464437856",
                "shop": "florist",
                "website": "https://www.floricolturaalberta.it/"
            }
        },
        {
            "type": "node",
            "id": 11841224510,
            "lat": 45.8894927,
            "lon": 11.0414087,
            "timestamp": "2024-04-30T14:57:19Z",
            "version": 2,
            "changeset": 150712877,
            "user": "b-jazz-bot",
            "uid": 9451067,
            "tags": {
                "addr:city": "Rovereto",
                "addr:housenumber": "62",
                "addr:postcode": "38060",
                "addr:street": "Via Girolamo Tartarotti",
                "check_date:currency:XBT": "2024-04-23",
                "currency:XBT": "yes",
                "name": "Moschini Advcom",
                "office": "advertising_agency",
                "payment:onchain": "yes",
                "phone": "+390464421276",
                "website": "https://www.moschiniadv.com/"
            }
        },
        {
            "type": "node",
            "id": 11841224513,
            "lat": 45.9159607,
            "lon": 11.0271675,
            "timestamp": "2024-04-23T12:53:24Z",
            "version": 1,
            "changeset": 150394331,
            "user": "saunter",
            "uid": 10396321,
            "tags": {
                "addr:city": "Rovereto",
                "addr:postcode": "38060",
                "addr:street": "Viale dei Tigli",
                "check_date:currency:XBT": "2024-04-23",
                "currency:XBT": "yes",
                "name": "Energie Alternative",
                "office": "yes",
                "payment:onchain": "yes",
                "website": "https://energiealternativetn.it/"
            }
        },
        {
            "type": "node",
            "id": 11876751567,
            "lat": 45.7178276,
            "lon": 11.3883769,
            "timestamp": "2024-08-30T08:14:45Z",
            "version": 5,
            "changeset": 155961109,
            "user": "Ferrigato Srlu",
            "uid": 4774728,
            "tags": {
                "addr:city": "Schio (VI)",
                "addr:country": "IT",
                "addr:postcode": "36015",
                "addr:street": "Via Veneto 2/c",
                "currency:XBT": "yes",
                "healthcare": "yes",
                "name": "Ferrigato Srlu",
                "note": "Health and Safety Consultants",
                "payment:lightning": "yes",
                "payment:onchain": "yes",
                "survey:date": "2024-08-30"
            }
        },
        {
            "type": "node",
            "id": 11902287309,
            "lat": 45.6684186,
            "lon": 11.395146,
            "timestamp": "2024-10-11T21:00:49Z",
            "version": 6,
            "changeset": 157773469,
            "user": "mpbin",
            "uid": 21850090,
            "tags": {
                "addr:city": "Malo",
                "addr:housenumber": "26",
                "addr:postcode": "36034",
                "addr:street": "Via VIII Marzo",
                "contact:email": "info@saloneniko.it",
                "contact:facebook": "https://www.facebook.com/saloneniko.malo",
                "contact:instagram": "https://www.instagram.com/saloneniko/",
                "currency:XBT": "yes",
                "email": "info@saloneniko.it",
                "name": "SALONE NIKO",
                "note": "Taglio, Tecniche del colore, Permanente e stiratura, Asciugatura, Acconciatura, extension. E' gradito l'appuntamento",
                "payment:lightning": "yes",
                "payment:lightning_contactless": "yes",
                "payment:onchain": "no",
                "phone": "+39 0445 602518",
                "shop": "hairdresser",
                "survey:date": "2024-05-11",
                "website": "https://saloneniko.it/"
            }
        },
        {
            "type": "node",
            "id": 12086793785,
            "lat": 45.8894595,
            "lon": 11.0433693,
            "timestamp": "2024-08-04T12:12:06Z",
            "version": 3,
            "changeset": 154809509,
            "user": "mueschel",
            "uid": 616774,
            "tags": {
                "addr:city": "Rovereto",
                "addr:housenumber": "24",
                "addr:postcode": "38068",
                "addr:street": "Via Roma",
                "amenity": "ice_cream",
                "currency:XBT": "yes",
                "currency:XBT:discount": "10%",
                "name": "Cherry",
                "opening_hours": "12:00-22:30",
                "outdoor_seating": "yes",
                "payment:XBT:operator": "Bitcoinpos.it",
                "payment:lightning": "yes",
                "phone": "+39 335 834 2500"
            }
        },
        {
            "type": "node",
            "id": 12189271278,
            "lat": 46.0013815,
            "lon": 11.2626476,
            "timestamp": "2024-09-21T02:03:23Z",
            "version": 1,
            "changeset": 156893114,
            "user": "Rockedf",
            "uid": 7522075,
            "tags": {
                "addr:city": "Caldonazzo",
                "addr:housenumber": "30",
                "addr:postcode": "38052",
                "addr:street": "Via Andanta",
                "check_date": "2024-09-21",
                "contact:facebook": "https://www.facebook.com/machevitadacani/",
                "contact:instagram": "https://instagram.com/machevitadacani/",
                "currency:XBT": "yes",
                "email": "info@machevitadacani.it",
                "guest_house": "bed_and_breakfast",
                "name": "Caldonazzo Dog Sport & Wellness",
                "payment:lightning": "no",
                "payment:lightning_contactless": "no",
                "payment:onchain": "yes",
                "phone": "+39 35 1976 4443",
                "tourism": "guest_house",
                "website": "https://www.machevitadacani.it/bed-breakfast/struttura-ed-esperienze"
            }
        },
        {
            "type": "node",
            "id": 12351513547,
            "lat": 45.6890029,
            "lon": 11.3735438,
            "timestamp": "2024-11-23T22:35:57Z",
            "version": 6,
            "changeset": 159516485,
            "user": "PagoInBitcoin",
            "uid": 22211788,
            "tags": {
                "addr:city": "San Vito Di Leguzzano",
                "addr:postcode": "36030",
                "addr:street": "Via Schio, 58",
                "amenity": "driving_school",
                "contact:email": "autoscuolasanvito@gmail.com",
                "contact:whatsapp": "+393477628784",
                "currency:XBT": "yes",
                "description": "Puoi chiamarci per urgenze anche la domenica.",
                "name": "AUTOSCUOLA SAN VITO",
                "payment:lightning": "yes",
                "payment:lightning_contactless": "yes",
                "payment:onchain": "yes",
                "phone": "+390445510783",
                "survey:date": "2024-11-11"
            }
        },
        {
            "type": "node",
            "id": 12443668087,
            "lat": 46.0557177,
            "lon": 11.1159314,
            "timestamp": "2025-01-07T01:43:54Z",
            "version": 4,
            "changeset": 161079992,
            "user": "Rockedf",
            "uid": 7522075,
            "tags": {
                "addr:city": "Trento",
                "addr:housenumber": "18",
                "addr:postcode": "38122",
                "addr:street": "Via delle Ghiaie",
                "addr:unit": "A",
                "branch": "Trento",
                "brand": "Orange Pill Company",
                "check_date": "2025-01-07",
                "contact:email": "info@orangepillcompany.com",
                "currency:XBT": "yes",
                "name": "Orange Pill Company",
                "not:brand:wikidata": "Q1431486",
                "opening_hours": "Mo-Fr 09:00-18:00",
                "operator": "c/o SCREEN STUDIO Srl",
                "payment:cash": "yes",
                "payment:credit_cards": "yes",
                "payment:debit_cards": "yes",
                "payment:lightning": "yes",
                "payment:lightning_contactless": "yes",
                "payment:onchain": "yes",
                "phone": "+39 3761285505",
                "shop": "computer",
                "website": "https://orangepillcompany.com/"
            }
        },
        {
            "type": "node",
            "id": 12654209778,
            "lat": 45.7344385,
            "lon": 10.7925298,
            "timestamp": "2025-03-12T01:25:30Z",
            "version": 1,
            "changeset": 163507879,
            "user": "Rockedf",
            "uid": 7522075,
            "tags": {
                "addr:city": "Malcesine",
                "addr:housenumber": "2",
                "addr:postcode": "37010",
                "addr:street": "Via la Piana",
                "check_date": "2025-03-12",
                "currency:XBT": "yes",
                "email": "info@architectslodge.com",
                "guest_house": "bed_and_breakfast",
                "name": "Pierina Art Paradise B&B",
                "opening_hours": "\"By appointment\"",
                "payment:lightning": "yes",
                "payment:lightning_contactless": "no",
                "payment:onchain": "yes",
                "phone": "+39 32 9023 6683",
                "tourism": "guest_house",
                "website": "https://architectslodge.kross.travel/malcesine/art-paradise-gard-lake"
            }
        },
        {
            "type": "way",
            "id": 63222690,
            "timestamp": "2023-11-05T04:46:58Z",
            "version": 13,
            "changeset": 143637413,
            "user": "b-jazz-bot",
            "uid": 9451067,
            "nodes": [
                2486096668,
                784790016,
                6389408648,
                2485383978,
                2485383983,
                4200616704,
                4200616703,
                4200616699,
                4200616697,
                4200616698,
                4200616700,
                4200616701,
                4200616702,
                2486096668
            ],
            "tags": {
                "building": "yes",
                "currency:XBT": "yes",
                "currency:XBT:operator": "bitcoinpos.it",
                "name": "Hotel Rovereto",
                "payment:lightning": "yes",
                "payment:onchain": "yes",
                "phone": "+39 0464435222",
                "source": "PCN ortofoto_colore 2006 - autorizzazione 10687/TRI",
                "stars": "3",
                "survey:date": "2023-08-08",
                "tourism": "hotel",
                "website": "https://www.hotelrovereto.it/",
                "wheelchair": "yes"
            }
        },
        {
            "type": "way",
            "id": 68991982,
            "timestamp": "2020-06-11T22:20:52Z",
            "version": 2,
            "changeset": 86535820,
            "user": "CCCGGG",
            "uid": 6098724,
            "nodes": [
                828094196,
                828094182,
                828094192,
                828094194,
                828094196
            ],
            "tags": {
                "amenity": "car_wash",
                "automated": "yes",
                "building": "yes",
                "name": "Q8",
                "operator": "Q8",
                "self_service": "yes"
            }
        },
        {
            "type": "way",
            "id": 71520579,
            "timestamp": "2024-07-12T12:16:22Z",
            "version": 13,
            "changeset": 153853154,
            "user": "xtronix",
            "uid": 2892364,
            "nodes": [
                850786771,
                2232004982,
                850790692,
                2232004970,
                2232004965,
                850790624,
                850786771
            ],
            "tags": {
                "addr:city": "Trento",
                "addr:country": "IT",
                "addr:housenumber": "95",
                "addr:postcode": "38123",
                "addr:street": "Via Roberto da Sanseverino",
                "brand": "Impact Hub",
                "brand:wikidata": "Q25205858",
                "building": "yes",
                "check_date": "2024-04-24",
                "contact:phone": "+39 0461 1583407",
                "contact:website": "https://trento.impacthub.net",
                "currency:XBT": "yes",
                "name": "Impact Hub",
                "office": "coworking",
                "opening_hours": "Mo-Fr 08:00-18:00",
                "operator": "inbitcoin.it",
                "payment:bitcoin:operator": "inbitcoin.it"
            }
        },
        {
            "type": "way",
            "id": 146079237,
            "timestamp": "2022-12-29T18:21:21Z",
            "version": 7,
            "changeset": 130658027,
            "user": "saunter",
            "uid": 10396321,
            "nodes": [
                1593717871,
                1593717868,
                1593717860,
                1593717865,
                1593717871
            ],
            "tags": {
                "addr:city": "Rovereto",
                "addr:country": "IT",
                "addr:housenumber": "23",
                "addr:postcode": "38068",
                "addr:street": "Piazza Antonio Rosmini",
                "building": "yes",
                "check_date:currency:XBT": "2022-12-20",
                "currency:XBT": "yes",
                "height": "3",
                "name": "Edicola e Tabacchi Turri",
                "payment:bitcoin:operator": "inbitcoin.it",
                "payment:lightning": "yes",
                "payment:lightning_contactless": "no",
                "payment:onchain": "yes",
                "shop": "kiosk"
            }
        },
        {
            "type": "way",
            "id": 440493762,
            "timestamp": "2024-04-23T12:53:24Z",
            "version": 13,
            "changeset": 150394331,
            "user": "saunter",
            "uid": 10396321,
            "nodes": [
                4382328618,
                4382328615,
                4382328616,
                791726786,
                6036936505,
                6770334012,
                6066692326,
                4382328618
            ],
            "tags": {
                "building:levels": "1",
                "building:part": "yes",
                "check_date:currency:XBT": "2024-04-23",
                "currency:XBT": "yes",
                "height": "5",
                "indoor": "room",
                "level": "0",
                "name": "MC Mondo Casa",
                "office": "estate_agent",
                "payment:lightning": "no",
                "payment:onchain": "yes",
                "room": "office",
                "wheelchair": "yes"
            }
        },
        {
            "type": "way",
            "id": 588233834,
            "timestamp": "2024-04-23T12:53:24Z",
            "version": 7,
            "changeset": 150394331,
            "user": "saunter",
            "uid": 10396321,
            "nodes": [
                5618474481,
                5618474482,
                836512787,
                5618474483,
                8804706646,
                5618474481
            ],
            "tags": {
                "addr:city": "Villa Lagarina",
                "addr:housenumber": "12",
                "addr:postcode": "38060",
                "addr:street": "Via degli Alpini",
                "amenity": "restaurant",
                "building": "yes",
                "check_date": "2024-04-23",
                "check_date:currency:XBT": "2024-04-23",
                "cuisine": "pizza",
                "currency:XBT": "yes",
                "delivery": "no",
                "layer": "-1",
                "name": "Pizzeria Ristorante ai Giardini",
                "payment:bitcoin:operator": "inbitcoin.it",
                "payment:onchain": "yes",
                "takeaway": "yes"
            }
        },
        {
            "type": "way",
            "id": 688209677,
            "timestamp": "2023-11-08T18:56:42Z",
            "version": 5,
            "changeset": 143794026,
            "user": "b-jazz-bot",
            "uid": 9451067,
            "nodes": [
                6452764234,
                6447123685,
                6447123384,
                6447123383,
                6447123382,
                298401535,
                752760002,
                752760000,
                6452764230,
                6459090495,
                6452817162,
                6452764235,
                6452764234
            ],
            "tags": {
                "indoor": "room",
                "level": "1",
                "name": "OVS",
                "opening_hours": "09:00-20:00",
                "operator": "OVS",
                "phone": "+39 0464 423029",
                "room": "shop",
                "shop": "clothes",
                "website": "https://www.ovs.it/",
                "wheelchair": "yes"
            }
        },
        {
            "type": "way",
            "id": 688209685,
            "timestamp": "2019-05-13T16:46:26Z",
            "version": 4,
            "changeset": 70201013,
            "user": "scratera",
            "uid": 76312,
            "nodes": [
                6446131479,
                6452764252,
                6452817157,
                6452764251,
                6452764250,
                6436035211,
                6459088674,
                6446131479
            ],
            "tags": {
                "amenity": "bar",
                "area": "amenity",
                "indoor": "area",
                "level": "0",
                "name": "RistoBar",
                "opening_hours": "09:00-20:00",
                "operator": "Despar",
                "wheelchair": "yes"
            }
        },
        {
            "type": "way",
            "id": 688209686,
            "timestamp": "2021-02-20T19:54:37Z",
            "version": 9,
            "changeset": 99658056,
            "user": "CCCGGG",
            "uid": 6098724,
            "nodes": [
                6435339003,
                6447118211,
                6447118210,
                6470501610,
                6470501608,
                6447118209,
                752760004,
                6447118207,
                6447118206,
                4083083466,
                6438759204,
                6470820709,
                6470820711,
                6470501602,
                8441451507,
                6470501601,
                6470501615,
                6470501619,
                6435339009,
                6470501618,
                6435339008,
                6435339007,
                6459088679,
                6459088677,
                6446251394,
                6459088675,
                6459088670,
                6446131479,
                6452764252,
                6452817157,
                6452764251,
                6452764250,
                6452764249,
                6435415929,
                6435415930,
                6458845544,
                6459088660,
                6435339003
            ],
            "tags": {
                "indoor": "room",
                "level": "0",
                "name": "INTERSPAR",
                "opening_hours": "09:00-20:00",
                "operator": "Despar",
                "phone": "+39 0464 423510",
                "room": "shop",
                "shop": "supermarket",
                "website": "https://www.despar.it/it/",
                "wheelchair": "yes"
            }
        },
        {
            "type": "way",
            "id": 689738888,
            "timestamp": "2024-01-31T16:42:27Z",
            "version": 6,
            "changeset": 146912371,
            "user": "Puffi_fp",
            "uid": 12188124,
            "nodes": [
                6470820704,
                6470820691,
                6470820693,
                6470820690,
                6470820692,
                6470501624,
                298401537,
                6447118213,
                752760016,
                6440124970,
                6440124971,
                6440124972,
                6443877414,
                6452764254,
                752760018,
                6470501623,
                6470501622,
                6470820703,
                6470820704
            ],
            "tags": {
                "brand": "Trony",
                "brand:wikidata": "Q3999692",
                "brand:wikipedia": "it:Trony",
                "indoor": "room",
                "level": "1",
                "name": "Trony",
                "opening_hours": "09:00-20:00",
                "operator": "Trony",
                "phone": "+39 0464 480358",
                "room": "shop",
                "shop": "electronics",
                "website": "https://www.trony.it/"
            }
        },
        {
            "type": "way",
            "id": 758218973,
            "timestamp": "2025-01-04T14:30:54Z",
            "version": 5,
            "changeset": 160988058,
            "user": "Xadim Faye",
            "uid": 22339324,
            "nodes": [
                783829241,
                7080808029,
                7080808034,
                7080808031,
                7080808032,
                7080808033,
                783829338,
                4885718465,
                783829241
            ],
            "tags": {
                "addr:city": "Rovereto TN",
                "addr:housenumber": "3",
                "addr:postcode": "38068",
                "addr:street": "Via Matteo del Ben",
                "amenity": "driving_school",
                "check_date": "2025-01-04",
                "currency:XBT": "yes",
                "description": "Un'impresa famigliare con sede a Rovereto in Trentino, nata nel 1968 dall'idea del capostipite Ugo Amadori. L'avventura \u00e8 cominciata con un piccolo ufficio e una segretaria per poi espandersi anche nelle cittadine di Arco sul Lago di Garda.",
                "email": "rovereto@autoscuoleamadori.info",
                "image": "https://lh5.googleusercontent.com/p/AF1QipO6k3xfIeQxTllQTborJI-MCdsnpjtawjfdVwz5=w408-h306-k-no",
                "name": "Autoscuola e Agenzia Pratiche Auto Amadori",
                "payment:bancomat": "yes",
                "payment:bitcoin:operator": "inbitcoin.it",
                "payment:pos": "yes",
                "phone": "+39 046 443 1551",
                "website": "https://www.autoscuoleamadori.info/"
            }
        },
        {
            "type": "way",
            "id": 1005681158,
            "timestamp": "2024-03-27T04:19:59Z",
            "version": 3,
            "changeset": 149203601,
            "user": "yhic4uw",
            "uid": 2104834,
            "nodes": [
                9278842677,
                812014952,
                812014922,
                9278842667,
                9278842674,
                9278842676,
                9278842673,
                9278842677
            ],
            "tags": {
                "amenity": "restaurant",
                "check_date:currency:XBT": "2024-03-22",
                "cuisine": "pizza",
                "currency:XBT": "yes",
                "indoor": "room",
                "level": "0",
                "name": "Pizzeria Fucine",
                "payment:XBT:operator": "bitcoinpos.it",
                "payment:lightning": "yes",
                "room": "amenity",
                "wheelchair": "yes"
            }
        }
    ],
    "telegram": [
        {
            "telegram": "ss-rovereto-e-trento"
        }
    ]
}