{
    "id": "savona",
    "name": "Savona",
    "lng": 44.2975603,
    "lat": 8.4645,
    "poi": [
        {
            "type": "node",
            "id": 610543489,
            "lat": 44.4081634,
            "lon": 8.930681,
            "timestamp": "2024-07-05T18:27:30Z",
            "version": 6,
            "changeset": 153600027,
            "user": "mauropili",
            "uid": 1496865,
            "tags": {
                "addr:city": "Genova",
                "addr:housenumber": "16",
                "addr:postcode": "16123",
                "addr:street": "Piazza di San Lorenzo",
                "check_date": "2023-10-14",
                "contact:email": "gabriele.minoggio@gmail.com",
                "currency:XBT": "yes",
                "name": "Locanda di Palazzo Cicala",
                "opening_hours": "24/7",
                "payment:lightning": "yes",
                "payment:lightning_contactless": "no",
                "payment:onchain": "yes",
                "phone": "+39 34 8584 8481",
                "stars": "4",
                "tourism": "hotel",
                "website": "https://www.palazzocicala.it/"
            }
        },
        {
            "type": "node",
            "id": 3472684803,
            "lat": 44.3439635,
            "lon": 8.5441201,
            "timestamp": "2023-04-19T11:08:47Z",
            "version": 7,
            "changeset": 135097744,
            "user": "saunter",
            "uid": 10396321,
            "tags": {
                "addr:city": "Celle Ligure",
                "addr:housenumber": "48",
                "addr:postcode": "17015",
                "addr:street": "Via Federico Colla",
                "check_date:currency:XBT": "2023-04-19",
                "currency:XBT": "yes",
                "description": "Ferramenta e casalinghi.",
                "name": "Ferramenta Chiodo Scaccia Chiodo",
                "phone": "+39 019 990219",
                "shop": "hardware"
            }
        },
        {
            "type": "node",
            "id": 5256602087,
            "lat": 44.4766016,
            "lon": 8.9182544,
            "timestamp": "2023-07-21T12:49:04Z",
            "version": 6,
            "changeset": 138811977,
            "user": "Chiarant",
            "uid": 18452174,
            "tags": {
                "addr:city": "Sant'Olcese",
                "addr:housenumber": "3",
                "addr:postcode": "16010",
                "addr:street": "Via Giacomo Poir\u00e8",
                "check_date": "2023-07-21",
                "contact:facebook": "https://www.facebook.com/agogo.manesseno/",
                "contact:twitter": "@AgogoOttica",
                "currency:XBT": "yes",
                "email": "agogo.manesseno@gmail.com",
                "name": "Ottica Agogo Manesseno",
                "payment:lightning": "yes",
                "payment:onchain": "yes",
                "phone": "+39 010714790;+39 3770831389",
                "shop": "optician"
            }
        },
        {
            "type": "node",
            "id": 5347077322,
            "lat": 44.6759598,
            "lon": 8.4694221,
            "timestamp": "2024-06-06T10:30:01Z",
            "version": 5,
            "changeset": 152324704,
            "user": "Mauro Lovato",
            "uid": 21592754,
            "tags": {
                "addr:city": "Acqui Terme",
                "addr:housenumber": "19",
                "addr:postcode": "15011",
                "addr:street": "Via Giacomo Bove",
                "contact:facebook": "https://m.facebook.com/GastronomiaMiraggio/",
                "currency:XBT": "yes",
                "description": "Vasta selezione di piatti pronti d'asporto, specialit\u00e0 nazionali ed internazionali.",
                "email": "info@gastronomiamiraggio.it",
                "name": "Gastronomia Miraggio",
                "opening_hours": "Mo,Tu,Th-Sa 09:00-13:00,16:30-19:30; Su 09:30-13:00; We off",
                "payment:onchain": "yes",
                "phone": "+39 0144 470629",
                "shop": "deli",
                "website": "http://www.gastronomiamiraggio.it"
            }
        },
        {
            "type": "node",
            "id": 5429215821,
            "lat": 44.424849,
            "lon": 8.814021,
            "timestamp": "2023-11-04T21:20:43Z",
            "version": 4,
            "changeset": 143630277,
            "user": "toponomastica_comune_arenzano",
            "uid": 14257573,
            "tags": {
                "addr:city": "Genova",
                "addr:housenumber": "235r",
                "addr:postcode": "16156",
                "addr:street": "Lungomare di Pegli",
                "check_date": "2023-06-27",
                "currency:XBT": "yes",
                "description": "Negozio di occhiali e lenti a contatto con visita.",
                "email": "fabio.rattaro@gmail.com",
                "name": "Ottico Rattaro Camillo",
                "phone": "+39 010 697 5004",
                "shop": "optician",
                "website": "https://www.otticorattaro.it/"
            }
        },
        {
            "type": "node",
            "id": 6283604849,
            "lat": 44.3059573,
            "lon": 8.482731,
            "timestamp": "2023-11-21T18:18:14Z",
            "version": 4,
            "changeset": 144298302,
            "user": "Chiarant",
            "uid": 18452174,
            "tags": {
                "addr:city": "Savona",
                "addr:housenumber": "32r",
                "addr:postcode": "17100",
                "addr:street": "Via Untoria",
                "amenity": "pub",
                "check_date": "2023-11-21",
                "contact:facebook": "https://www.facebook.com/RetrobottegaSV/",
                "currency:XBT": "yes",
                "description": "Locale specializzato nella preparazione di cocktails",
                "email": "retrobottega32@gmail.com",
                "name": "Retrobottega",
                "payment:lightning": "yes",
                "phone": "+39 375 782 8174",
                "website": "https://linktr.ee/retrobottega"
            }
        },
        {
            "type": "node",
            "id": 6832770546,
            "lat": 44.4097027,
            "lon": 8.9375801,
            "timestamp": "2023-08-26T09:38:23Z",
            "version": 4,
            "changeset": 140403381,
            "user": "Chiarant",
            "uid": 18452174,
            "tags": {
                "addr:city": "Genova",
                "addr:housenumber": "87 rosso",
                "addr:postcode": "16121",
                "addr:street": "Via Roma",
                "check_date": "2023-08-26",
                "clothes": "men",
                "currency:XBT": "yes",
                "name": "DOPPELG\u00c4NGER",
                "phone": "+39 0102925215",
                "shop": "clothes"
            }
        },
        {
            "type": "node",
            "id": 7041809206,
            "lat": 44.6844961,
            "lon": 8.5882942,
            "timestamp": "2024-09-23T09:54:06Z",
            "version": 5,
            "changeset": 156986847,
            "user": "mpbin",
            "uid": 21850090,
            "tags": {
                "addr:city": "Montaldo Bormida",
                "addr:housenumber": "27",
                "addr:postcode": "15010",
                "addr:street": "Via Guglielmo Marconi",
                "check_date": "2024-09-23",
                "check_date:currency:XBT": "2024-09-23",
                "craft": "photographer",
                "currency:XBT": "yes",
                "description": "Studio di produzioni fotografiche e video riprese. Pilota certificato Enac per l'utilizzo di droni. Consulenze e realizzazioni web,",
                "email": "progettoimmagine@gmail.com",
                "name": "Andrea Chiesa \u00e8 Progetto Immagine",
                "opening_hours": "su appuntamento telefonico",
                "operator": "Andrea Chiesa",
                "payment:lightning": "yes",
                "payment:onchain": "yes",
                "phone": "+39 360460306",
                "product": "fotografia;video_riprese;siti_web;consulenza_web;web_design;web_marketing;video_marketing",
                "website": "https://www.andreachiesa.it/"
            }
        },
        {
            "type": "node",
            "id": 7889635660,
            "lat": 44.424844,
            "lon": 8.814064,
            "timestamp": "2024-04-14T08:09:44Z",
            "version": 5,
            "changeset": 149980582,
            "user": "Chiarant",
            "uid": 18452174,
            "tags": {
                "addr:city": "Genova",
                "addr:housenumber": "235r",
                "addr:postcode": "16156",
                "addr:street": "Lungomare di Pegli",
                "amenity": "atm",
                "check_date": "2024-04-14",
                "currency:XBT": "yes",
                "description": "Bitcoin ATM che permette di acquistare Bitcoin, Ethereum, Litecoin, Dogecoin, Bitcoin Cash, Dash, Monero. L'ATM \u00e8 situato all'interno del negozio Ottico Rattaro.",
                "email": "support@cryptolocalatm.com",
                "name": "CryptoLocalATM C/o Ottico Rattaro",
                "website": "https://cryptolocalatm.com"
            }
        },
        {
            "type": "node",
            "id": 8482436005,
            "lat": 44.4274761,
            "lon": 8.7785353,
            "timestamp": "2023-10-16T12:47:00Z",
            "version": 5,
            "changeset": 142664664,
            "user": "Igor Bubelov",
            "uid": 2104834,
            "tags": {
                "addr:city": "Genova",
                "addr:housenumber": "1",
                "addr:postcode": "16100",
                "addr:street": "Via Taggia",
                "check_date": "2023-06-25",
                "consulting": "marketing",
                "currency:XBT": "yes",
                "description": "Digital marketing e comunicazione, web design, grafica, social media, SEO e SEM.",
                "email": "info@managerads.it",
                "name": "Manager Ads",
                "office": "advertising_agency",
                "phone": "+39 010 84 802 95",
                "website": "https://managerads.it"
            }
        },
        {
            "type": "node",
            "id": 9757907692,
            "lat": 44.4090541,
            "lon": 8.9557045,
            "timestamp": "2024-02-19T04:19:45Z",
            "version": 4,
            "changeset": 147632629,
            "user": "Igor Bubelov",
            "uid": 2104834,
            "tags": {
                "addr:city": "Genova",
                "addr:housenumber": "165",
                "addr:postcode": "16142",
                "addr:street": "Corso Sardegna",
                "amenity": "fast_food",
                "check_date": "2023-11-17",
                "cuisine": "kebab",
                "currency:XBT": "yes",
                "diet:vegan": "yes",
                "diet:vegetarian": "yes",
                "name": "Kebhouze",
                "payment:lightning": "yes",
                "payment:lightning_contactless": "yes",
                "payment:onchain": "yes",
                "website": "https://kebhouze.com/"
            }
        },
        {
            "type": "node",
            "id": 10116684680,
            "lat": 44.4097991,
            "lon": 8.9400911,
            "timestamp": "2024-02-17T10:54:53Z",
            "version": 4,
            "changeset": 147565309,
            "user": "Igor Bubelov",
            "uid": 2104834,
            "tags": {
                "addr:city": "Genova",
                "addr:housenumber": "20r",
                "addr:postcode": "16121",
                "addr:street": "Via dei Santi Giacomo e Filippo",
                "check_date": "2022-10-20",
                "currency:XBT": "yes",
                "description": "Negozio per animali a Genova, in centro. Mangimi e accessori per cani e gatti.",
                "email": "lacucciadileo@libero.it",
                "name": "La cuccia di Leo",
                "phone": "+39 010581970",
                "shop": "pet"
            }
        },
        {
            "type": "node",
            "id": 10748802636,
            "lat": 44.3638834,
            "lon": 8.2062393,
            "timestamp": "2024-08-14T06:29:26Z",
            "version": 4,
            "changeset": 155223782,
            "user": "mauropili",
            "uid": 1496865,
            "tags": {
                "addr:city": "Millesimo",
                "addr:housenumber": "52",
                "addr:postcode": "17017",
                "addr:street": "Piazza Italia",
                "amenity": "restaurant",
                "contact:facebook": "https://www.facebook.com/pantareicucinamillesimo/",
                "cuisine": "italian",
                "currency:XBT": "yes",
                "email": "info@pantareicucina.it",
                "name": "Pantarei Cucina",
                "opening_hours": "Fr-We 12:00-14:30,19:30-22:00",
                "payment:lightning": "yes",
                "payment:lightning_contactless": "no",
                "payment:onchain": "yes",
                "phone": "+39019565968",
                "survey:date": "2023-03-28"
            }
        },
        {
            "type": "node",
            "id": 10758549586,
            "lat": 43.9503526,
            "lon": 8.1399516,
            "timestamp": "2023-08-01T11:53:55Z",
            "version": 4,
            "changeset": 139296647,
            "user": "Igor Bubelov",
            "uid": 2104834,
            "tags": {
                "addr:city": "Andora",
                "addr:housenumber": "54",
                "addr:postcode": "17051",
                "addr:street": "Via Carminati",
                "air_conditioning": "yes",
                "check_date": "2023-03-24",
                "consulting": "contabilit\u00e0;paghe;marketing;comunicazione;consulenza;bitcoin;digitalizzazione",
                "currency:XBT": "yes",
                "description": "Lo Studio Vanaude \u00e8 il centro elaborazione dati nato nel 1998 da Roberto Vandini e Cristina Vottero.\nLo Studio Vanaude offre servizi professionali di contabilit\u00e0, paghe, marketing, comunicazione, consulenza Bitcoin e digitalizzazione aziendale.",
                "email": "studiovanaude@gmail.com",
                "internet_access": "wlan",
                "name": "Studio Vanaude",
                "office": "accountant",
                "opening_hours": "Mo-Fr 09:00-19:00",
                "payment:lightning": "yes",
                "payment:lightning_contactless": "no",
                "payment:onchain": "yes",
                "phone": "+39 334 671 0703",
                "website": "https://twitter.com/studiovanaude"
            }
        },
        {
            "type": "node",
            "id": 10766224644,
            "lat": 44.4125762,
            "lon": 8.8831936,
            "timestamp": "2023-08-01T12:12:04Z",
            "version": 3,
            "changeset": 139297484,
            "user": "Igor Bubelov",
            "uid": 2104834,
            "tags": {
                "addr:city": "Genova",
                "addr:housenumber": "15",
                "addr:postcode": "16149",
                "addr:street": "Via Fiumara",
                "check_date": "2023-03-27",
                "clothes": "men",
                "currency:XBT": "yes",
                "name": "DOPPELG\u00c4NGER",
                "phone": "0106454980",
                "shop": "clothes",
                "website": "https://www.doppelganger.it/it/"
            }
        },
        {
            "type": "node",
            "id": 10788363560,
            "lat": 44.4125457,
            "lon": 8.8822408,
            "timestamp": "2023-08-04T04:51:48Z",
            "version": 3,
            "changeset": 139421792,
            "user": "Igor Bubelov",
            "uid": 2104834,
            "tags": {
                "addr:city": "Genova",
                "addr:housenumber": "15/16",
                "addr:postcode": "16149",
                "addr:street": "Via Fiumara",
                "check_date": "2023-04-05",
                "clothes": "men",
                "currency:XBT": "yes",
                "name": "Nuvolari c.c. Fiumara",
                "phone": "0107980042",
                "shop": "clothes"
            }
        },
        {
            "type": "node",
            "id": 10844335675,
            "lat": 44.4119347,
            "lon": 8.9395141,
            "timestamp": "2023-04-26T17:06:20Z",
            "version": 1,
            "changeset": 135395767,
            "user": "Chiarant",
            "uid": 18452174,
            "tags": {
                "addr:city": "Genova",
                "addr:housenumber": "10",
                "addr:postcode": "16122",
                "addr:street": "Via Palestro",
                "check_date": "2023-04-26",
                "currency:XBT": "yes",
                "name": "Studio Sciandra & Associati - Genova",
                "office": "accountant",
                "phone": "010 856 8243",
                "website": "https://www.studiosciandra.com"
            }
        },
        {
            "type": "node",
            "id": 11005606809,
            "lat": 44.4519155,
            "lon": 8.3824973,
            "timestamp": "2023-06-26T11:02:12Z",
            "version": 2,
            "changeset": 137787152,
            "user": "Chiarant",
            "uid": 18452174,
            "tags": {
                "addr:city": "Giusvalla",
                "addr:housenumber": "2",
                "addr:postcode": "17010",
                "addr:street": "Localit\u00e0 Vicari",
                "check_date": "2023-06-26",
                "currency:XBT": "yes",
                "description": "Vendita cosmetici artigianali",
                "email": "info@bagnisliguria.it",
                "name": "Azienda Agricola Daniela Bagnis",
                "note": "Presente e-commerce",
                "payment:lightning": "yes",
                "phone": "+39 333 2471926",
                "shop": "cosmetics",
                "website": "https://www.bagnisliguria.it/"
            }
        },
        {
            "type": "node",
            "id": 11037816659,
            "lat": 44.4043076,
            "lon": 8.9480556,
            "timestamp": "2024-02-17T05:55:55Z",
            "version": 3,
            "changeset": 147557614,
            "user": "Igor Bubelov",
            "uid": 2104834,
            "tags": {
                "addr:city": "Genova",
                "addr:housenumber": "40",
                "addr:postcode": "16129",
                "addr:street": "Piazza Borgo Pila",
                "check_date": "2023-07-10",
                "currency:XBT": "yes",
                "name": "ABIRK ITALIA",
                "office": "it",
                "website": "https://www.abirk.com/"
            }
        },
        {
            "type": "node",
            "id": 11137206877,
            "lat": 44.0544817,
            "lon": 8.1947679,
            "timestamp": "2024-08-31T17:12:13Z",
            "version": 3,
            "changeset": 156025065,
            "user": "mpbin",
            "uid": 21850090,
            "tags": {
                "addr:city": "Albenga",
                "addr:housenumber": "70",
                "addr:postcode": "17031",
                "addr:street": "Via Martiri della Foce",
                "amenity": "fast_food",
                "check_date": "2023-08-22",
                "contact:facebook": "https://www.facebook.com/caffetteriadasancio/",
                "contact:instagram": "https://www.instagram.com/sancio_official/",
                "cuisine": "hamburger;streetfood",
                "currency:XBT": "yes",
                "description": "Piccola ed accogliente caffetteria tavola fredda nella quale verrete accompagnati dalla prima colazione,al pranzo per arrivare ad un particolare aperitivo",
                "email": "ilariasangineto@gmail.com",
                "fast_food": "cafeteria",
                "name": "Caffetteria Da Sancio",
                "payment:lightning": "yes",
                "phone": "+39 3298521111"
            }
        },
        {
            "type": "node",
            "id": 11293357224,
            "lat": 43.9821205,
            "lon": 8.1319208,
            "timestamp": "2023-10-27T14:57:54Z",
            "version": 1,
            "changeset": 143215884,
            "user": "Chiarant",
            "uid": 18452174,
            "tags": {
                "addr:city": "Andora",
                "addr:housenumber": "32",
                "addr:street": "Via Giovanni Molineri",
                "amenity": "studio",
                "check_date": "2023-10-27",
                "currency:XBT": "yes",
                "description": "Servizio DJ, intrattenimento e registrazione audio in studio.",
                "name": "GEGE DeeJay",
                "payment:lightning": "yes",
                "payment:onchain": "yes",
                "phone": "+39 334 378 8217",
                "studio": "audio"
            }
        },
        {
            "type": "node",
            "id": 11379308458,
            "lat": 43.9512429,
            "lon": 8.1516771,
            "timestamp": "2023-11-27T10:29:47Z",
            "version": 1,
            "changeset": 144502151,
            "user": "Chiarant",
            "uid": 18452174,
            "tags": {
                "addr:city": "Marina di Andora",
                "addr:postcode": "17051",
                "addr:street": "Passeggiata Quaglia",
                "check_date": "2023-11-27",
                "currency:XBT": "yes",
                "leisure": "beach_resort",
                "name": "Bagni Garden",
                "payment:lightning": "yes",
                "payment:onchain": "yes",
                "phone": "+39 331 415 1692"
            }
        },
        {
            "type": "node",
            "id": 11384652694,
            "lat": 43.9772622,
            "lon": 8.1277016,
            "timestamp": "2023-11-29T22:36:42Z",
            "version": 1,
            "changeset": 144606147,
            "user": "Chiarant",
            "uid": 18452174,
            "tags": {
                "addr:city": "Andora",
                "addr:housenumber": "19",
                "addr:postcode": "17051",
                "addr:street": "Strada Comunale di Conna",
                "check_date": "2023-11-29",
                "currency:XBT": "yes",
                "description": "Interior Design and Home Couture.\nProgettazione di spazi residenziali e commerciali, prodotti per aziende e mobili su misura.",
                "email": "info@abretiodesign.it",
                "name": "Abretio Design",
                "office": "architect",
                "payment:lightning": "yes",
                "payment:onchain": "yes",
                "phone": "+39 333 766 2857",
                "website": "https://casainteriordesign.it/"
            }
        },
        {
            "type": "node",
            "id": 11425579746,
            "lat": 44.0031156,
            "lon": 8.070929,
            "timestamp": "2023-12-17T20:36:34Z",
            "version": 2,
            "changeset": 145228667,
            "user": "Rockedf",
            "uid": 7522075,
            "tags": {
                "addr:city": "Stellanello",
                "addr:housenumber": "68",
                "addr:place": "Frazione Costa",
                "addr:postcode": "17020",
                "check_date": "2023-12-17",
                "contact:email": "ambiente.giardini@gmail.com",
                "craft": "gardener",
                "currency:XBT": "yes",
                "name": "Ambiente & Giardini Srl",
                "opening_hours": "Mo-Sa 08:00-18:00",
                "payment:lightning": "yes",
                "payment:lightning_contactless": "yes",
                "payment:onchain": "yes",
                "phone": "+39 33 1909 5272",
                "website": "https://www.ambientegiardini.it/"
            }
        },
        {
            "type": "node",
            "id": 11561421743,
            "lat": 43.9509527,
            "lon": 8.1481815,
            "timestamp": "2024-01-28T22:21:12Z",
            "version": 1,
            "changeset": 146797065,
            "user": "Chiarant",
            "uid": 18452174,
            "tags": {
                "addr:city": "Andora",
                "addr:housenumber": "2",
                "addr:postcode": "17051",
                "addr:street": "Via Marco Polo",
                "addr:unit": "b",
                "amenity": "fast_food",
                "check_date": "2024-01-28",
                "cuisine": "pizza;kebab;farinata;focaccia",
                "currency:XBT": "yes",
                "description": "Asporto e consegne a domicilio",
                "name": "Pig\u00eea e P\u00f6rta A C\u00e1",
                "payment:lightning": "yes",
                "payment:onchain": "yes",
                "phone": "+39 334 251 7173",
                "website": "https://pigiaeportaaca.it/"
            }
        },
        {
            "type": "node",
            "id": 11564196741,
            "lat": 43.9573842,
            "lon": 8.1403823,
            "timestamp": "2024-01-29T13:11:05Z",
            "version": 1,
            "changeset": 146821426,
            "user": "Rockedf",
            "uid": 7522075,
            "tags": {
                "addr:city": "Marina di Andora SV",
                "addr:postcode": "17051",
                "addr:street": "Via Risorgimento",
                "check_date": "2024-01-29",
                "currency:XBT": "yes",
                "name": "Frutta e Verdura Nicoletta",
                "opening_hours": "We 08:30-12:00; Sa 08:30-12:00",
                "payment:lightning": "yes",
                "payment:lightning_contactless": "no",
                "payment:onchain": "yes",
                "phone": "+39 34 5415 4886",
                "shop": "greengrocer"
            }
        },
        {
            "type": "node",
            "id": 11925827361,
            "lat": 44.4051032,
            "lon": 8.9492792,
            "timestamp": "2024-08-18T21:25:16Z",
            "version": 5,
            "changeset": 155435113,
            "user": "Som",
            "uid": 80203,
            "tags": {
                "amenity": "atm",
                "cash_in": "yes",
                "cash_out": "yes",
                "cash_withdrawal": "yes",
                "check_date": "2024-05-22",
                "contact:email": "support@shitcoins.club",
                "contact:facebook": "https://www.facebook.com/shitcoins.club",
                "contact:instagram": "https://www.instagram.com/shitcoinsclub",
                "contact:telegram": "https://t.me/shitcoinsclub",
                "contact:twitter": "https://twitter.com/BitomatCom",
                "currency:CHF": "yes",
                "currency:DASH": "yes",
                "currency:ETH": "yes",
                "currency:EUR": "yes",
                "currency:GBP": "yes",
                "currency:HUF": "yes",
                "currency:LTC": "yes",
                "currency:RON": "yes",
                "currency:USD": "yes",
                "currency:USDC": "yes",
                "currency:USDT": "yes",
                "currency:XBT": "yes",
                "indoor": "yes",
                "name": "Bitcoin ATM - Shitcoins.club",
                "opening_hours": "24/7",
                "operator": "Shitcoins.club",
                "payment:cash": "yes",
                "payment:lightning": "no",
                "payment:lightning_contactless": "no",
                "payment:onchain": "yes",
                "phone": "+39 34 8048 7308",
                "website": "https://shitcoins.club/localizzazione-atm/atm-bitcoin-genova-via-giovanni-tommaso-invrea"
            }
        },
        {
            "type": "node",
            "id": 11967062960,
            "lat": 44.1475624,
            "lon": 8.2788506,
            "timestamp": "2024-06-09T16:52:25Z",
            "version": 1,
            "changeset": 152463713,
            "user": "Ale_Mj",
            "uid": 21640589,
            "tags": {
                "addr:city": "Pietra Ligure",
                "addr:housenumber": "24",
                "addr:postcode": "17027",
                "addr:street": "Via Suor Maria Giuseppa Rossello",
                "amenity": "dojo",
                "currency:XBT": "yes",
                "name": "Scuola Orientale Pietra Ligure",
                "opening_hours": "24/7",
                "payment:bancomat": "yes",
                "payment:credit_cards": "yes",
                "payment:lightning": "yes",
                "payment:lightning_contactless": "yes",
                "payment:mastercard": "yes",
                "payment:onchain": "yes",
                "payment:visa": "yes",
                "sport": "taijiquan;wing_chun;kung_fu;tai_chi",
                "survey:date": "2024-06-09"
            }
        },
        {
            "type": "node",
            "id": 11968251407,
            "lat": 44.1277711,
            "lon": 8.2501129,
            "timestamp": "2024-06-10T12:53:48Z",
            "version": 3,
            "changeset": 152496740,
            "user": "Ale_Mj",
            "uid": 21640589,
            "tags": {
                "addr:city": "Loano",
                "addr:housenumber": "23",
                "addr:postcode": "17025",
                "addr:street": "Via Dante Alighieri",
                "currency:XBT": "yes",
                "male": "yes",
                "name": "Parrucchiere Massimo",
                "payment:lightning": "yes",
                "payment:lightning_contactless": "yes",
                "payment:onchain": "yes",
                "shop": "hairdresser",
                "survey:date": "2024-06-10"
            }
        },
        {
            "type": "node",
            "id": 11969571995,
            "lat": 44.1220695,
            "lon": 8.252502,
            "timestamp": "2024-06-10T16:53:39Z",
            "version": 1,
            "changeset": 152506813,
            "user": "Ale_Mj",
            "uid": 21640589,
            "tags": {
                "addr:city": "Loano",
                "addr:housenumber": "19",
                "addr:postcode": "17025",
                "addr:street": "Via Genova",
                "currency:XBT": "yes",
                "name": "Kaos - L'Origine delle idee",
                "office": "advertising_agency",
                "payment:lightning": "yes",
                "payment:lightning_contactless": "yes",
                "payment:onchain": "yes",
                "survey:date": "2024-06-10",
                "website": "https://www.kaosgrafica.com"
            }
        },
        {
            "type": "node",
            "id": 12167696380,
            "lat": 44.4212485,
            "lon": 8.9491796,
            "timestamp": "2024-09-29T17:07:57Z",
            "version": 5,
            "changeset": 157263966,
            "user": "mpbin",
            "uid": 21850090,
            "tags": {
                "addr:city": "Genova",
                "addr:housenumber": "221-223-225R",
                "addr:postcode": "16139",
                "addr:street": "Corso Alessandro De Stefanis",
                "check_date": "2024-09-29",
                "check_date:currency:XBT": "2024-09-29",
                "craft": "window_construction",
                "currency:XBT": "yes",
                "description": "\ud83d\udfe0Accettiamo pagamenti BITCOIN\ud83d\udfe0\nSiamo specializzati nella vendita su misura di finestre, portefinestre, porte interne, porte blindate, persiane, tapparelle, zanzariere e molto altro ancora.  \nOffriamo servizi di riparazioni e di pronto intervento.",
                "email": "info@franzoiserramenti.it",
                "mobile": "+39 3471052170",
                "name": "FRANZOI SERRAMENTI",
                "opening_hours": "Mo-Fr 09:00-19:00",
                "payment:lightning": "yes",
                "payment:lightning_contactless": "no",
                "payment:onchain": "yes",
                "phone": "+39 010 8196900",
                "survey:date": "2024-09-10"
            }
        }
    ],
    "telegram": [
        {
            "telegram": "ss-savona"
        }
    ]
}