{
    "id": "treviso",
    "name": "Treviso",
    "lng": 45.6675457,
    "lat": 12.24507364,
    "poi": [
        {
            "type": "node",
            "id": 334511575,
            "lat": 45.412015,
            "lon": 11.9082358,
            "timestamp": "2023-06-05T14:36:32Z",
            "version": 7,
            "changeset": 136976080,
            "user": "Friendly_Ghost",
            "uid": 10875409,
            "tags": {
                "addr:city": "Padova",
                "addr:housenumber": "61",
                "addr:postcode": "35131",
                "addr:street": "Via Venezia",
                "brand": "Conad",
                "brand:wikidata": "Q639075",
                "brand:wikipedia": "it:Conad",
                "level": "0",
                "name": "Conad",
                "opening_hours": "Mo-Su 08:30-21:00",
                "operator": "Conad",
                "payment:bancomat": "yes",
                "payment:cash": "yes",
                "payment:credit_cards": "yes",
                "phone": "+39 049 8690111",
                "shop": "supermarket",
                "website": "https://www.conad.it/ricerca-negozi/negozio.009946.html",
                "wheelchair": "yes"
            }
        },
        {
            "type": "node",
            "id": 626923862,
            "lat": 45.4339856,
            "lon": 12.3240736,
            "timestamp": "2023-09-23T08:00:49Z",
            "version": 14,
            "changeset": 141632516,
            "user": "Tresho",
            "uid": 6178157,
            "tags": {
                "addr:city": "Venezia",
                "addr:housenumber": "3017",
                "addr:postcode": "30123",
                "addr:street": "Rio Ter\u00e0 Canal",
                "brand": "Conad City",
                "brand:wikidata": "Q57543102",
                "name": "Conad City",
                "opening_hours": "Mo-Sa 07:30-20:30; Su 09:00-14:00,16:00-19:30",
                "operator": "Conad",
                "shop": "supermarket",
                "website": "https://www.conad.it",
                "wheelchair": "yes"
            }
        },
        {
            "type": "node",
            "id": 805049064,
            "lat": 45.4478832,
            "lon": 12.3252243,
            "timestamp": "2024-02-14T19:00:06Z",
            "version": 15,
            "changeset": 147463120,
            "user": "MA_Mapper",
            "uid": 341454,
            "tags": {
                "addr:housenumber": "3027",
                "addr:postcode": "30121",
                "addr:street": "Calle della Fornasa Vecia",
                "brand": "Conad City",
                "brand:wikidata": "Q57543102",
                "check_date:opening_hours": "2024-02-13",
                "name": "Conad City",
                "opening_hours": "Mo-Sa 07:00-21:00; Su 08:00-21:00",
                "operator": "Conad",
                "shop": "supermarket",
                "wheelchair": "yes"
            }
        },
        {
            "type": "node",
            "id": 1592597102,
            "lat": 45.729348,
            "lon": 11.7598676,
            "timestamp": "2024-10-18T16:52:25Z",
            "version": 5,
            "changeset": 158060087,
            "user": "mpbin",
            "uid": 21850090,
            "tags": {
                "addr:city": "Ros\u00e0",
                "addr:housenumber": "5-1",
                "addr:postcode": "36027",
                "addr:street": "Via IV Armata",
                "address": "Via quarta Armata 5/1 Ros\u00e0",
                "check_date": "2024-10-18",
                "check_date:currency:XBT": "2024-10-18",
                "contact:email": "info@descasa.it",
                "contact:phone": "+393496863495",
                "currency:XBT": "yes",
                "description": "Progettiamo la ristrutturazione della tua casa. E se vuoi, possiamo anche occuparci di eseguire tutti i lavori necessari con formula chiavi in mano.",
                "name": "Descasa STP",
                "office": "architect",
                "payment:lightning": "no",
                "payment:lightning_contactless": "no"
            }
        },
        {
            "type": "node",
            "id": 1917449873,
            "lat": 45.4371379,
            "lon": 12.3281171,
            "timestamp": "2023-04-27T20:28:53Z",
            "version": 6,
            "changeset": 135443020,
            "user": "McCio",
            "uid": 16146608,
            "tags": {
                "addr:city": "Venezia",
                "addr:housenumber": "2605a/b",
                "addr:place": "San Polo",
                "addr:postcode": "30125",
                "brand": "Conad City",
                "brand:wikidata": "Q57543102",
                "name": "Conad City",
                "opening_hours": "Mo-Su 08:30-21:00",
                "operator": "Conad",
                "shop": "supermarket"
            }
        },
        {
            "type": "node",
            "id": 1996026168,
            "lat": 45.4307253,
            "lon": 12.3214646,
            "timestamp": "2021-02-18T15:39:11Z",
            "version": 7,
            "changeset": 99534523,
            "user": "emilio-millepiani",
            "uid": 12045653,
            "tags": {
                "addr:housenumber": "1491/1492",
                "addr:street": "Fondamenta Zattere al Ponte Longo",
                "brand": "Conad City",
                "brand:wikidata": "Q57543102",
                "name": "Conad City",
                "opening_hours": "Mo-Su 08:30-21:00",
                "operator": "Conad",
                "shop": "supermarket",
                "website": "https://www.conad.it",
                "wheelchair": "no"
            }
        },
        {
            "type": "node",
            "id": 2800768123,
            "lat": 45.371839,
            "lon": 11.7913317,
            "timestamp": "2024-10-06T08:30:00Z",
            "version": 7,
            "changeset": 157528611,
            "user": "mpbin",
            "uid": 21850090,
            "tags": {
                "addr:city": "Abano Terme",
                "addr:housenumber": "129",
                "addr:postcode": "35031",
                "addr:street": "Via Cesare Battisti",
                "check_date": "2024-10-06",
                "check_date:currency:XBT": "2024-10-06",
                "contact:facebook": "https://www.facebook.com/www.autofesiocom/",
                "currency:XBT": "yes",
                "email": "info@autofesio.com",
                "landuse": "commercial",
                "name": "AutoFesio Salone Auto",
                "phone": "+39 329 6876517",
                "shop": "car",
                "website": "https://www.autofesio.com/"
            }
        },
        {
            "type": "node",
            "id": 2997490524,
            "lat": 45.4398648,
            "lon": 12.3247297,
            "timestamp": "2024-11-03T12:30:51Z",
            "version": 8,
            "changeset": 158696853,
            "user": "dromedar61",
            "uid": 542047,
            "tags": {
                "addr:housenumber": "892",
                "addr:street": "Fondamenta del Rio Marin o dei Garzoti",
                "air_conditioning": "yes",
                "brand": "Conad City",
                "brand:wikidata": "Q57543102",
                "check_date": "2024-09-11",
                "name": "Conad City",
                "opening_hours": "Mo-Sa 08:30-21:00; Su 08:30-20:00",
                "operator": "Conad",
                "payment:cash": "yes",
                "payment:credit_cards": "yes",
                "payment:debit_cards": "yes",
                "shop": "supermarket",
                "source": "local knowledge",
                "toilets": "no"
            }
        },
        {
            "type": "node",
            "id": 3010651735,
            "lat": 45.4385355,
            "lon": 12.3214867,
            "timestamp": "2024-11-04T09:46:40Z",
            "version": 17,
            "changeset": 158732472,
            "user": "mpbin",
            "uid": 21850090,
            "tags": {
                "addr:city": "Venezia",
                "addr:housenumber": "220",
                "addr:postcode": "30135",
                "addr:street": "Fondamenta dei Tolentini",
                "amenity": "fast_food",
                "check_date": "2024-10-23",
                "check_date:currency:XBT": "2024-10-17",
                "contact:facebook": "https://www.facebook.com/atledmeatlab/",
                "contact:instagram": "https://www.instagram.com/atled_meatlab/",
                "contact:pinterest": "https://it.pinterest.com/AtledMeatLab/",
                "cuisine": "burger;sandwich",
                "currency:XBT": "yes",
                "diet:meat": "yes",
                "email": "info@atledmeatlab.it",
                "name": "Atled Meat Lab",
                "payment:lightning": "yes",
                "phone": "+39 041 458 8914",
                "website": "https://www.atledmeatlab.it/"
            }
        },
        {
            "type": "node",
            "id": 3396925558,
            "lat": 45.4386847,
            "lon": 12.3213929,
            "timestamp": "2024-10-17T16:16:44Z",
            "version": 7,
            "changeset": 158016334,
            "user": "Rockedf",
            "uid": 7522075,
            "tags": {
                "addr:city": "Venezia",
                "addr:housenumber": "225",
                "addr:postcode": "30135",
                "addr:street": "Fondamenta dei Tolentini",
                "amenity": "restaurant",
                "check_date:currency:XBT": "2024-10-17",
                "currency:XBT": "yes",
                "currency:XBT:operator": "bitcoinpos.it",
                "name": "Hostaria Vecio Biavarol",
                "payment:lightning": "yes"
            }
        },
        {
            "type": "node",
            "id": 3765116375,
            "lat": 45.9582864,
            "lon": 12.6622506,
            "timestamp": "2024-07-20T20:53:38Z",
            "version": 7,
            "changeset": 154195679,
            "user": "mauropili",
            "uid": 1496865,
            "tags": {
                "addr:city": "Pordenone",
                "addr:housenumber": "5",
                "addr:postcode": "33170",
                "addr:street": "Piazzetta dei Domenicani",
                "check_date:currency:XBT": "2023-03-03",
                "contact:facebook": "https://www.facebook.com/FrancoPadovanZETA",
                "contact:linkedin": "https://www.linkedin.com/in/franco-padovan-0b232b107/",
                "currency:XBT": "yes",
                "name": "Zeta Gold Banco Metalli",
                "shop": "gold_buyer",
                "website": "https://www.francopadovan.com/"
            }
        },
        {
            "type": "node",
            "id": 4234614970,
            "lat": 45.4362405,
            "lon": 12.3357088,
            "timestamp": "2024-12-30T19:21:16Z",
            "version": 8,
            "changeset": 160805504,
            "user": "DnaX",
            "uid": 69259,
            "tags": {
                "addr:city": "Venezia",
                "addr:housenumber": "4558",
                "addr:postcode": "30124",
                "addr:street": "Campo San Luca",
                "brand": "Doppelg\u00e4nger",
                "brand:wikidata": "Q117451227",
                "check_date": "2023-08-26",
                "clothes": "men",
                "currency:XBT": "yes",
                "name": "Doppelg\u00e4nger",
                "opening_hours": "Mo-Sa 09:30-19:30; Su 11:00-19:30",
                "phone": "0415209251",
                "shop": "clothes"
            }
        },
        {
            "type": "node",
            "id": 4377025289,
            "lat": 45.5475583,
            "lon": 12.3039652,
            "timestamp": "2023-07-31T14:23:33Z",
            "version": 2,
            "changeset": 139256906,
            "user": "BTC Map",
            "uid": 18545877,
            "tags": {
                "check_date:currency:XBT": "2023-07-31",
                "currency:XBT": "yes",
                "name": "Mondo Convenienza",
                "name:it": "Mondo Convenienza",
                "shop": "furniture"
            }
        },
        {
            "type": "node",
            "id": 4531889985,
            "lat": 45.6851608,
            "lon": 12.2466798,
            "timestamp": "2024-06-14T12:39:05Z",
            "version": 5,
            "changeset": 152676259,
            "user": "Rockedf",
            "uid": 7522075,
            "tags": {
                "addr:city": "Treviso",
                "addr:country": "IT",
                "addr:housenumber": "24",
                "addr:postcode": "31100",
                "addr:street": "Via dei Da Prata",
                "amenity": "restaurant",
                "check_date": "2022-12-12",
                "check_date:currency:XBT": "2024-06-14",
                "currency:XBT": "yes",
                "name": "Bastian Osteria",
                "opening_hours": "Mo-Fr 12:00-15:00,18:00-26:00; Sa 18:00-26:00; Su 16:30-26:00",
                "payment:lightning": "no",
                "payment:lightning_contactless": "no",
                "payment:onchain": "yes",
                "phone": "+390422424391",
                "website": "https://bastianosteria.it/"
            }
        },
        {
            "type": "node",
            "id": 4727745918,
            "lat": 45.4090126,
            "lon": 11.8788211,
            "timestamp": "2024-12-30T18:55:58Z",
            "version": 6,
            "changeset": 160804689,
            "user": "DnaX",
            "uid": 69259,
            "tags": {
                "addr:city": "Padova",
                "addr:housenumber": "9",
                "addr:postcode": "35121",
                "addr:street": "Via Altinate",
                "brand": "Doppelg\u00e4nger",
                "brand:wikidata": "Q117451227",
                "check_date": "2023-08-26",
                "clothes": "men",
                "currency:XBT": "yes",
                "name": "Doppelg\u00e4nger",
                "phone": "+39 0498757916",
                "shop": "clothes"
            }
        },
        {
            "type": "node",
            "id": 5248441042,
            "lat": 45.6545355,
            "lon": 11.9084338,
            "timestamp": "2024-11-20T11:42:34Z",
            "version": 8,
            "changeset": 159362068,
            "user": "mpbin",
            "uid": 21850090,
            "tags": {
                "addr:city": "Castelfranco Veneto",
                "addr:housenumber": "17",
                "addr:postcode": "31033",
                "addr:street": "Via Castellana",
                "amenity": "restaurant",
                "check_date:currency:XBT": "2023-09-25",
                "contact:facebook": "https://www.facebook.com/people/Pizzeria-da-Gennaro/100070875489802/",
                "cuisine": "pizza;italian;seafood;mediterranean;european",
                "currency:XBT": "yes",
                "description": "Storico ristorante pizzeria dal 1890.",
                "email": "info@pizzeriabriangennaro.it",
                "indoor_seating": "yes",
                "name": "Pizzeria da Gennaro",
                "outdoor_seating": "yes",
                "phone": "+39 0423 482188",
                "website": "http://www.pizzeriabriangennaro.it"
            }
        },
        {
            "type": "node",
            "id": 5329671480,
            "lat": 45.6409686,
            "lon": 12.3422169,
            "timestamp": "2024-11-11T16:54:06Z",
            "version": 7,
            "changeset": 159017250,
            "user": "mpbin",
            "uid": 21850090,
            "tags": {
                "addr:city": "Roncade",
                "addr:housenumber": "2",
                "addr:postcode": "31056",
                "addr:street": "Via Treviso Mare",
                "check_date": "2018-01-09",
                "craft": "winery",
                "currency:XBT": "yes",
                "email": "info@47annodomini.it",
                "name": "47 Anno Domini",
                "payment:bitcoin:operator": "inbitcoin.it",
                "website": "https://www.47annodomini.it/"
            }
        },
        {
            "type": "node",
            "id": 5333027525,
            "lat": 45.780744,
            "lon": 11.889103,
            "timestamp": "2023-07-18T22:00:14Z",
            "version": 4,
            "changeset": 138689431,
            "user": "saunter",
            "uid": 10396321,
            "tags": {
                "addr:city": "Fonte",
                "addr:housenumber": "53",
                "addr:postcode": "31010",
                "addr:street": "Via delle Industrie",
                "check_date:currency:XBT": "2023-07-18",
                "craft": "carpenter",
                "currency:XBT": "yes",
                "description": "Produzione di mobili e arredamenti di alta gamma, anche personalizzati.",
                "email": "faber@fabermobili.com",
                "name": "Faber Mobili srl",
                "phone": "+39 0423410000",
                "website": "https://www.fabermobili.com/"
            }
        },
        {
            "type": "node",
            "id": 5770912521,
            "lat": 45.989237,
            "lon": 12.29552,
            "timestamp": "2023-07-19T13:50:49Z",
            "version": 5,
            "changeset": 138719050,
            "user": "saunter",
            "uid": 10396321,
            "tags": {
                "addr:city": "Vittorio Veneto",
                "addr:housenumber": "2",
                "addr:postcode": "31029",
                "addr:street": "Largo Felice Cavallotti",
                "check_date:currency:XBT": "2023-07-19",
                "currency:XBT": "yes",
                "description": "Rivendita sali e tabacchi, articoli da fumo e lotto.",
                "email": "sasakiperin@gmail.com",
                "name": "Tabaccheria al Quadrilatero",
                "shop": "tobacco",
                "website": "https://www.facebook.com/tabaccheriaquadrilatero"
            }
        },
        {
            "type": "node",
            "id": 5948417988,
            "lat": 45.4452147,
            "lon": 12.3303437,
            "timestamp": "2024-11-04T23:06:03Z",
            "version": 5,
            "changeset": 158759773,
            "user": "mpbin",
            "uid": 21850090,
            "tags": {
                "addr:city": "Venezia",
                "addr:housenumber": "2625",
                "addr:postcode": "30121",
                "addr:street": "Fondamenta de la Misericordia",
                "check_date": "2024-11-05",
                "check_date:currency:XBT": "2024-11-05",
                "contact:facebook": "https://www.facebook.com/mariangelavenice/",
                "contact:mobile": "+39 320 492 6698",
                "currency:XBT": "yes",
                "description": "B&B",
                "email": "petrasasso@yahoo.it",
                "name": "Mariangela Artist's Lodge B&B",
                "tourism": "guest_house",
                "website": "https://www.venice-lodge.com/"
            }
        },
        {
            "type": "node",
            "id": 6477573230,
            "lat": 46.0489313,
            "lon": 12.0524223,
            "timestamp": "2024-04-17T10:38:51Z",
            "version": 4,
            "changeset": 150122040,
            "user": "Igor Bubelov",
            "uid": 2104834,
            "tags": {
                "addr:city": "Mel",
                "addr:housenumber": "65",
                "addr:postcode": "32026",
                "addr:street": "Via Campo San Pietro",
                "check_date": "2024-04-17",
                "currency:XBT": "yes",
                "email": "info@ramcomputers.org",
                "name": "RAM Computers",
                "payment:bitcoin:operator": "inbitcoin.it",
                "phone": "+390437552344",
                "shop": "computer",
                "website": "https://ramcomputers.org"
            }
        },
        {
            "type": "node",
            "id": 6503288231,
            "lat": 45.435037,
            "lon": 12.340914,
            "timestamp": "2024-02-19T04:27:46Z",
            "version": 13,
            "changeset": 147632766,
            "user": "Igor Bubelov",
            "uid": 2104834,
            "tags": {
                "addr:city": "Venezia",
                "addr:housenumber": "4318",
                "addr:place": "Castello",
                "addr:postcode": "30122",
                "addr:street": "Rugheta Sant'Apollonia",
                "check_date": "2023-11-17",
                "currency:XBT": "yes",
                "description": "Negozio laboratorio di produzione gioielli in oro e pietre preziose: moretti ed altri gioielli esclusivi personalizzati realizzati a mano, teschi vanitas, corniole incise, gioielli con opali e molto altro.",
                "email": "info@webjewels.it",
                "name": "Oreficeria Gioielleria Dogale",
                "note": "Domenica chiuso (luglio e agosto chiuso anche il sabato pomeriggio) Sunday closed (July and August also closed on Saturday afternoons)",
                "opening_hours": "Mo-Sa 09:40-12:40,15:30-18:40",
                "payment:cash": "yes",
                "payment:credit_cards": "yes",
                "payment:lightning": "yes",
                "payment:onchain": "yes",
                "phone": "+39 0415287549",
                "shop": "jewelry",
                "start_date": "1952",
                "website": "https://www.gioiellivenezia.com/"
            }
        },
        {
            "type": "node",
            "id": 7486775140,
            "lat": 45.6769831,
            "lon": 12.3374559,
            "timestamp": "2020-05-05T18:12:38Z",
            "version": 1,
            "changeset": 84712215,
            "user": "mascalzone67",
            "uid": 1861652,
            "tags": {
                "addr:city": "San Biagio di Callalta",
                "addr:housenumber": "76",
                "addr:postcode": "31048",
                "addr:street": "Via Postumia Ovest",
                "brand": "Conad",
                "brand:wikidata": "Q639075",
                "brand:wikipedia": "it:Conad",
                "name": "Conad",
                "opening_hours": "Mo-Su 08:30-20:30",
                "operator": "Conad",
                "payment:bancomat": "yes",
                "payment:cash": "yes",
                "payment:credit_cards": "yes",
                "phone": "+39 0422 794911",
                "shop": "supermarket",
                "website": "https://www.conad.it/ricerca-negozi/negozio.008747.html"
            }
        },
        {
            "type": "node",
            "id": 7486778502,
            "lat": 45.6771424,
            "lon": 12.3373781,
            "timestamp": "2020-05-05T18:07:20Z",
            "version": 1,
            "changeset": 84712027,
            "user": "mascalzone67",
            "uid": 1861652,
            "tags": {
                "addr:city": "San Biagio di Callalta",
                "addr:housenumber": "76",
                "addr:postcode": "31048",
                "addr:street": "Via Postumia Ovest",
                "amenity": "pharmacy",
                "dispensing": "no",
                "healthcare": "pharmacy",
                "name": "Parafarmacia Conad",
                "operator": "Conad"
            }
        },
        {
            "type": "node",
            "id": 7486842471,
            "lat": 45.7909397,
            "lon": 12.8163105,
            "timestamp": "2023-10-16T15:39:57Z",
            "version": 10,
            "changeset": 142672213,
            "user": "\u0110uro Ji\u0159\u00ed",
            "uid": 14617702,
            "tags": {
                "brand": "Spazio Conad",
                "brand:wikidata": "Q118130063",
                "brand:wikipedia": "it:Conad",
                "name": "Spazio Conad",
                "opening_hours": "Mo-Sa 08:30-20:30; Su 09:00-20:30",
                "operator": "Conad",
                "payment:bancomat": "yes",
                "payment:cash": "yes",
                "payment:credit_cards": "yes",
                "phone": "+39 0421 283711",
                "shop": "supermarket",
                "survey:date": "2023-10-16",
                "website": "https://www.conad.it/ricerca-negozi/negozio.009947.html",
                "wheelchair": "yes"
            }
        },
        {
            "type": "node",
            "id": 7486851688,
            "lat": 45.790985,
            "lon": 12.8157526,
            "timestamp": "2024-01-12T16:02:31Z",
            "version": 5,
            "changeset": 146186918,
            "user": "\u0110uro Ji\u0159\u00ed",
            "uid": 14617702,
            "tags": {
                "amenity": "pharmacy",
                "brand": "Parafarmacia Conad",
                "dispensing": "no",
                "healthcare": "pharmacy",
                "name": "Parafarmacia Conad",
                "operator": "Conad",
                "survey:date": "2023-10-16",
                "wheelchair": "yes"
            }
        },
        {
            "type": "node",
            "id": 7486874106,
            "lat": 45.4177654,
            "lon": 11.86183,
            "timestamp": "2024-08-10T14:39:32Z",
            "version": 2,
            "changeset": 155065448,
            "user": "voschix",
            "uid": 305001,
            "tags": {
                "addr:city": "Padova",
                "addr:housenumber": "8",
                "addr:postcode": "35139",
                "addr:street": "Ostiala Gallenia",
                "amenity": "pharmacy",
                "dispensing": "no",
                "healthcare": "pharmacy",
                "name": "Parafarmacia Conad",
                "operator": "Conad"
            }
        },
        {
            "type": "node",
            "id": 7486909410,
            "lat": 45.4119799,
            "lon": 11.9077824,
            "timestamp": "2023-06-05T14:36:32Z",
            "version": 4,
            "changeset": 136976080,
            "user": "Friendly_Ghost",
            "uid": 10875409,
            "tags": {
                "addr:city": "Padova",
                "addr:housenumber": "61",
                "addr:postcode": "35131",
                "addr:street": "Via Venezia",
                "amenity": "pharmacy",
                "dispensing": "no",
                "healthcare": "pharmacy",
                "level": "0",
                "name": "Parafarmacia Conad",
                "operator": "Conad"
            }
        },
        {
            "type": "node",
            "id": 7500992493,
            "lat": 45.9725403,
            "lon": 12.6144979,
            "timestamp": "2020-05-09T14:12:26Z",
            "version": 1,
            "changeset": 84939424,
            "user": "mascalzone67",
            "uid": 1861652,
            "tags": {
                "addr:city": "Porcia",
                "addr:housenumber": "52",
                "addr:postcode": "33080",
                "addr:street": "Via Roveredo",
                "amenity": "pharmacy",
                "dispensing": "no",
                "healthcare": "pharmacy",
                "name": "Parafarmacia Conad",
                "operator": "Conad"
            }
        },
        {
            "type": "node",
            "id": 7834164182,
            "lat": 45.4175724,
            "lon": 11.8247384,
            "timestamp": "2024-12-30T16:37:10Z",
            "version": 5,
            "changeset": 160799972,
            "user": "mpbin",
            "uid": 21850090,
            "tags": {
                "addr:city": "Rubano",
                "addr:housenumber": "1",
                "addr:postcode": "35030",
                "addr:street": "Via della Provvidenza",
                "brand": "Trony",
                "brand:wikidata": "Q3999692",
                "email": "sarmeola@trony.it",
                "facebook": "https://www.facebook.com/TronySarmeolaViaDellaProvvidenza/",
                "level": "1",
                "name": "Trony",
                "opening_hours": "Mo-Sa 09:30-20:30; Su 10:00-20:30",
                "operator": "Trony",
                "phone": "+39 049 897 9275",
                "shop": "electronics",
                "website": "https://www.trony.it/online/store/TRO477_A",
                "wheelchair": "yes"
            }
        },
        {
            "type": "node",
            "id": 9391569155,
            "lat": 45.6688905,
            "lon": 12.2412925,
            "timestamp": "2024-04-14T08:44:34Z",
            "version": 4,
            "changeset": 149981812,
            "user": "Chiarant",
            "uid": 18452174,
            "tags": {
                "addr:city": "Treviso",
                "addr:housenumber": "54",
                "addr:postcode": "31100",
                "addr:street": "Viale Bartolomeo D'Alviano",
                "amenity": "atm",
                "check_date": "2024-04-14",
                "currency:XBT": "yes",
                "description": "Bitcoin ATM che permette di acquistare Bitcoin, Ethereum, Litecoin, Dogecoin, Bitcoin Cash, Dash, Monero. L'ATM \u00e8 situato all'interno del BAR 98.",
                "email": "support@cryptolocalatm.com",
                "name": "CryptoLocalATM c/o BAR 98",
                "payment:onchain": "yes",
                "phone": "+447894438974",
                "website": "https://cryptolocalatm.com"
            }
        },
        {
            "type": "node",
            "id": 9483808945,
            "lat": 45.4358531,
            "lon": 12.3351141,
            "timestamp": "2024-10-29T20:47:46Z",
            "version": 5,
            "changeset": 158516366,
            "user": "mpbin",
            "uid": 21850090,
            "tags": {
                "addr:city": "Venezia",
                "addr:housenumber": "4590",
                "addr:postcode": "30124",
                "addr:street": "Campo San Luca",
                "check_date": "2024-10-29",
                "check_date:currency:XBT": "2024-10-29",
                "check_date:opening_hours": "2024-08-21",
                "contact:facebook": "https://www.facebook.com/DestinationVenice",
                "contact:instagram": "https://www.instagram.com/destination_venice/",
                "currency:XBT": "yes",
                "email": "info@destination-venice.com",
                "flag:type": "municipal",
                "name": "Destination Venice",
                "opening_hours:signed": "no",
                "phone": "+39 041 528 3547",
                "shop": "travel_agency",
                "tourism": "travel_agent;information",
                "website": "https://destination-venice.com/"
            }
        },
        {
            "type": "node",
            "id": 9961635885,
            "lat": 45.7915148,
            "lon": 12.8154246,
            "timestamp": "2024-02-15T03:32:45Z",
            "version": 7,
            "changeset": 147473116,
            "user": "Igor Bubelov",
            "uid": 2104834,
            "tags": {
                "addr:city": "Portogruaro",
                "addr:housenumber": "29",
                "addr:postcode": "30026",
                "addr:street": "Via Prati Guori",
                "addr:unit": "12",
                "check_date": "2023-05-12",
                "clothes": "men",
                "currency:XBT": "yes",
                "name": "Nuvolari",
                "opening_hours": "Mo-Fr 09:30-20:00; Sa 09:00-20:00; Su 10:00-20:00",
                "payment:lightning": "no",
                "payment:lightning_contactless": "no",
                "payment:onchain": "yes",
                "phone": "+39 0421 280343",
                "shop": "clothes",
                "website": "https://www.nuvolari.biz/",
                "wheelchair": "yes"
            }
        },
        {
            "type": "node",
            "id": 10035938701,
            "lat": 45.4542033,
            "lon": 12.3510493,
            "timestamp": "2022-09-22T06:09:00Z",
            "version": 2,
            "changeset": 126489243,
            "user": "Igor Bubelov",
            "uid": 2104834,
            "tags": {
                "addr:city": "Murano",
                "addr:housenumber": "6",
                "addr:postcode": "30141",
                "addr:street": "Ramo Domenico Gisberti",
                "currency:XBT": "yes",
                "name": "Sunset Yogurt",
                "phone": "+39 3703689211",
                "shop": "jewelry",
                "survey:date": "2022-09-22",
                "website": "https://sunsetyogurt.com/"
            }
        },
        {
            "type": "node",
            "id": 10155200041,
            "lat": 45.3915973,
            "lon": 11.8928962,
            "timestamp": "2024-07-05T19:47:53Z",
            "version": 6,
            "changeset": 153602587,
            "user": "mauropili",
            "uid": 1496865,
            "tags": {
                "addr:city": "Padova",
                "addr:housenumber": "1",
                "addr:postcode": "35127",
                "addr:street": "Via Giuseppe Perin",
                "amenity": "cafe",
                "check_date:currency:XBT": "2023-08-09",
                "cuisine": "coffee_shop",
                "currency:XBT": "yes",
                "name": "20quadricafe'",
                "payment:lightning": "yes",
                "survey:date": "2022-11-03"
            }
        },
        {
            "type": "node",
            "id": 10222087379,
            "lat": 45.4770977,
            "lon": 12.2016531,
            "timestamp": "2024-11-23T17:30:03Z",
            "version": 4,
            "changeset": 159508823,
            "user": "mpbin",
            "uid": 21850090,
            "tags": {
                "addr:city": "Venezia",
                "addr:housenumber": "14",
                "addr:postcode": "30175",
                "addr:street": "Via Bottenigo",
                "check_date": "2024-11-23",
                "check_date:currency:XBT": "2024-11-23",
                "currency:XBT": "yes",
                "email": "artigianafoto@mail.com",
                "name": "Artigiana Foto",
                "operator": "Artigiana Foto",
                "payment:lightning": "yes",
                "payment:lightning_contactless": "yes",
                "payment:onchain": "yes",
                "phone": "+39 041 923438",
                "shop": "photo",
                "website": "https://www.a-foto.net/"
            }
        },
        {
            "type": "node",
            "id": 10561952509,
            "lat": 45.4314612,
            "lon": 12.3561868,
            "timestamp": "2024-01-24T10:46:46Z",
            "version": 2,
            "changeset": 146624011,
            "user": "Igor Bubelov",
            "uid": 2104834,
            "tags": {
                "addr:city": "Venezia",
                "addr:housenumber": "1044",
                "addr:postcode": "30122",
                "addr:street": "Calle de le Ancore",
                "check_date": "2023-01-17",
                "currency:XBT": "yes",
                "description": "Tre appartamenti distanti pochi metri dalla Biennale di Venezia e a 15 minuti a piedi da Piazza San Marco.",
                "email": "homeveniceapartments@gmail.com",
                "name": "Home Venice Apartments - Biennale",
                "phone": "+39 3423920076",
                "tourism": "apartment",
                "website": "https://www.homeveniceapartments.it"
            }
        },
        {
            "type": "node",
            "id": 10568121547,
            "lat": 45.4381785,
            "lon": 12.333332,
            "timestamp": "2024-04-29T14:05:02Z",
            "version": 3,
            "changeset": 150665455,
            "user": "MarcoZampiva",
            "uid": 238904,
            "tags": {
                "addr:city": "Venezia",
                "addr:housenumber": "977",
                "addr:place": "San Polo",
                "addr:postcode": "30125",
                "check_date": "2023-01-19",
                "currency:XBT": "yes",
                "description": "Appartamenti distanti pochi metri dal Ponte di Rialto e a 15 minuti a piedi da Piazza San Marco.",
                "email": "homeveniceapartments@gmail.com",
                "name": "Home Venice Apartments - Rialto",
                "phone": "+39 3423920076",
                "tourism": "apartment",
                "website": "https://www.homeveniceapartments.it"
            }
        },
        {
            "type": "node",
            "id": 10568157405,
            "lat": 45.4352777,
            "lon": 12.3307798,
            "timestamp": "2024-11-04T09:54:52Z",
            "version": 4,
            "changeset": 158732742,
            "user": "mpbin",
            "uid": 21850090,
            "tags": {
                "addr:city": "Venezia",
                "addr:housenumber": "3870",
                "addr:place": "San Marco",
                "addr:postcode": "30124",
                "check_date": "2023-09-06",
                "contact:mobile": "+39 370 124 9674",
                "currency:XBT": "yes",
                "description": "Servizi per la compravendita di immobili sia residenziali che commerciali; consulenze gestionali in tutte le fasi della trattativa.",
                "email": "agenziaquinvest@gmail.com",
                "name": "Quinvest Srl",
                "office": "estate_agent",
                "phone": "+39 041 8473628",
                "website": "https://www.quinvestagenzia.it"
            }
        },
        {
            "type": "node",
            "id": 10616413306,
            "lat": 45.6493422,
            "lon": 11.7884405,
            "timestamp": "2024-09-22T16:48:57Z",
            "version": 2,
            "changeset": 156960684,
            "user": "mpbin",
            "uid": 21850090,
            "tags": {
                "addr:city": "Cittadella",
                "addr:postcode": "35013",
                "addr:street": "Via Borgo Treviso",
                "check_date": "2024-09-22",
                "check_date:currency:XBT": "2024-09-22",
                "currency:XBT": "yes",
                "email": "leonardo@pegasodigitalstudio.com",
                "name": "Pegaso Digital Studio",
                "office": "advertising_agency",
                "opening_hours": "Mo-Sa 8:30-12:00, 15:00-19:00",
                "payment:lightning": "yes",
                "payment:lightning_contactless": "no",
                "payment:onchain": "yes",
                "phone": "+39 3478758148",
                "website": "https://www.pegasodigitalstudio.com/"
            }
        },
        {
            "type": "node",
            "id": 10718692223,
            "lat": 45.9584492,
            "lon": 12.6586746,
            "timestamp": "2024-02-19T21:10:46Z",
            "version": 2,
            "changeset": 147668334,
            "user": "Chiarant",
            "uid": 18452174,
            "tags": {
                "addr:city": "Pordenone",
                "addr:housenumber": "29",
                "addr:postcode": "33170",
                "addr:street": "Piazzale Venti Settembre",
                "check_date": "2024-02-19",
                "currency:XBT": "yes",
                "email": "info@valbershop.it",
                "name": "Valber Shop - Only Pordenone",
                "phone": "+39 0434 177 7825",
                "shop": "clothes",
                "website": "https://www.valbershop.it/"
            }
        },
        {
            "type": "node",
            "id": 10788160129,
            "lat": 45.4586063,
            "lon": 12.2134184,
            "timestamp": "2023-08-02T13:13:40Z",
            "version": 3,
            "changeset": 139347502,
            "user": "Igor Bubelov",
            "uid": 2104834,
            "tags": {
                "addr:city": "Venezia",
                "addr:housenumber": "1",
                "addr:postcode": "30175",
                "addr:street": "Via Pietro Arduino",
                "check_date": "2023-08-02",
                "clothes": "men",
                "currency:XBT": "yes",
                "name": "DOPPELG\u00c4NGER",
                "phone": "041924659",
                "shop": "clothes",
                "website": "https://www.doppelganger.it/"
            }
        },
        {
            "type": "node",
            "id": 10879354113,
            "lat": 45.370045,
            "lon": 11.922507,
            "timestamp": "2023-05-10T12:11:02Z",
            "version": 2,
            "changeset": 135933878,
            "user": "Chiarant",
            "uid": 18452174,
            "tags": {
                "addr:city": "Ponte San Nicol\u00f2",
                "addr:housenumber": "130",
                "addr:postcode": "35020",
                "addr:street": "Via Guglielmo Marconi",
                "addr:unit": "A",
                "amenity": "restaurant",
                "contact:facebook": "https://www.facebook.com/montenapoleonespaten/",
                "contact:instagram": "https://www.instagram.com/montenapoleonespaten/",
                "currency:XBT": "yes",
                "email": "ponte@ristorantimontenapoleone.com",
                "name": "SPATEN - BIRRERIA MONTENAPOLEONE",
                "payment:lightning": "yes",
                "payment:lightning_contactless": "yes",
                "payment:onchain": "no",
                "phone": "+39 0498882698",
                "survey:date": "2023-05-10",
                "website": "https://www.ristorantimontenapoleone.com/"
            }
        },
        {
            "type": "node",
            "id": 10945938353,
            "lat": 45.6366088,
            "lon": 11.7838331,
            "timestamp": "2024-10-08T19:02:44Z",
            "version": 7,
            "changeset": 157642146,
            "user": "mpbin",
            "uid": 21850090,
            "tags": {
                "addr:city": "Cittadella",
                "addr:housenumber": "56",
                "addr:postcode": "35013",
                "addr:street": "Via Beltramina",
                "addr:unit": "3",
                "check_date": "2024-10-08",
                "check_date:currency:XBT": "2024-10-08",
                "contact:facebook": "https://www.facebook.com/profile.php?id=100083076879992",
                "currency:XBT": "yes",
                "email": "m.beltramello@proton.me",
                "guest_house": "landlords_-_affittacamere",
                "internet_access": "wlan",
                "internet_access:fee": "customers",
                "name": "B&B - Beltramina Bedroom - Affitta Camere",
                "payment:cash": "yes",
                "payment:lightning": "yes",
                "payment:lightning_contactless": "yes",
                "payment:onchain": "yes",
                "phone": "+393498444285",
                "rooms": "3",
                "survey:date": "2023-06-03",
                "tourism": "guest_house",
                "website": "https://airbnb.com/h/beltraminabedroom1"
            }
        },
        {
            "type": "node",
            "id": 11080635396,
            "lat": 45.9639713,
            "lon": 12.273031,
            "timestamp": "2024-12-20T13:16:03Z",
            "version": 4,
            "changeset": 160433148,
            "user": "Rockedf",
            "uid": 7522075,
            "tags": {
                "addr:city": "Cozzuolo, Vittorio Veneto",
                "addr:housenumber": "13",
                "addr:postcode": "31020",
                "addr:street": "Via San Mor",
                "amenity": "restaurant",
                "check_date:currency:XBT": "2024-12-20",
                "cuisine": "regional;italian",
                "currency:XBT": "yes",
                "diet:healthy": "yes",
                "diet:local": "yes",
                "diet:meat": "yes",
                "diet:vegetarian": "yes",
                "internet_access": "wlan",
                "name": "Agriturismo Le Colline",
                "payment:lightning": "yes",
                "payment:onchain": "yes",
                "phone": "0438560282",
                "website": "lecollinecozzuolo.it"
            }
        },
        {
            "type": "node",
            "id": 11144535811,
            "lat": 45.4115379,
            "lon": 11.9084568,
            "timestamp": "2023-08-25T18:39:05Z",
            "version": 1,
            "changeset": 140384840,
            "user": "Friendly_Ghost",
            "uid": 10875409,
            "tags": {
                "amenity": "trolley_bay",
                "covered": "yes",
                "operator": "Conad"
            }
        },
        {
            "type": "node",
            "id": 11241833922,
            "lat": 45.4111335,
            "lon": 11.9071442,
            "timestamp": "2023-10-05T17:16:51Z",
            "version": 1,
            "changeset": 142199524,
            "user": "Friendly_Ghost",
            "uid": 10875409,
            "tags": {
                "amenity": "trolley_bay",
                "covered": "yes",
                "operator": "Conad"
            }
        },
        {
            "type": "node",
            "id": 11331183190,
            "lat": 45.4583868,
            "lon": 12.2127619,
            "timestamp": "2023-11-07T14:04:09Z",
            "version": 1,
            "changeset": 143738826,
            "user": "Chiarant",
            "uid": 18452174,
            "tags": {
                "addr:city": "Venezia",
                "addr:housenumber": "20",
                "addr:postcode": "30175",
                "addr:street": "Via Pietro Arduino",
                "amenity": "fast_food",
                "check_date": "2023-11-07",
                "cuisine": "kebab",
                "currency:XBT": "yes",
                "name": "Kebhouze - Nave de Vero",
                "payment:lightning": "yes",
                "payment:lightning_contactless": "yes",
                "payment:onchain": "yes",
                "website": "https://kebhouze.com"
            }
        },
        {
            "type": "node",
            "id": 11404313408,
            "lat": 45.4451233,
            "lon": 12.3290784,
            "timestamp": "2024-07-06T07:04:13Z",
            "version": 5,
            "changeset": 153612433,
            "user": "mauropili",
            "uid": 1496865,
            "tags": {
                "addr:city": "Venezia",
                "addr:housenumber": "2690/A",
                "addr:postcode": "30121",
                "addr:street": "Sestiere Cannaregio",
                "amenity": "restaurant",
                "check_date:currency:XBT": "2024-02-28",
                "cuisine": "regional;italian",
                "currency:XBT": "yes",
                "currency:XBT:operator": "walletofsatoshi.com",
                "name": "Osteria Marcianino",
                "payment:lightning": "yes",
                "payment:onchain": "yes",
                "phone": "+39 041 476 7531",
                "survey:date": "2024-02-28"
            }
        },
        {
            "type": "node",
            "id": 11600298458,
            "lat": 45.7886513,
            "lon": 12.6778123,
            "timestamp": "2024-02-09T00:49:18Z",
            "version": 1,
            "changeset": 147237744,
            "user": "Carlofrc",
            "uid": 588899,
            "tags": {
                "addr:city": "Annone Veneto",
                "addr:housenumber": "30/A",
                "addr:postcode": "30020",
                "addr:street": "Via Oltrefossa",
                "check_date:currency:XBT": "2023-02-21",
                "currency:XBT": "yes",
                "email": "netwir@netwir.com",
                "fax": "+39 0422 868437",
                "name": "Network & Wireless SRL",
                "office": "telecommunication",
                "opening_hours": "09:00-12:00,15:00-19:00",
                "operator": "INFORMATION & COMMUNICATIONS TECHNOLOGY",
                "payment:cash": "yes",
                "payment:coins": "yes",
                "payment:debit_cards": "no",
                "payment:litecoin": "yes",
                "payment:maestro": "no",
                "payment:mastercard": "yes",
                "payment:visa": "yes",
                "phone": "+39 0422 868082",
                "website": "https://www.netwir.com",
                "wheelchair": "limited"
            }
        },
        {
            "type": "node",
            "id": 11812265884,
            "lat": 45.384531,
            "lon": 11.7844921,
            "timestamp": "2024-07-05T20:00:22Z",
            "version": 2,
            "changeset": 153602990,
            "user": "mauropili",
            "uid": 1496865,
            "tags": {
                "addr:city": "Selvazzano Dentro",
                "addr:housenumber": "151",
                "addr:postcode": "35030",
                "addr:street": "Via Euganea",
                "amenity": "pub",
                "check_date": "2024-04-12",
                "currency:XBT": "yes",
                "name": "Dalle Canaglie",
                "payment:lightning": "yes",
                "payment:lightning_contactless": "no",
                "payment:onchain": "no",
                "phone": "+39 04 9261 5718"
            }
        },
        {
            "type": "node",
            "id": 11866142243,
            "lat": 45.8231284,
            "lon": 12.2537163,
            "timestamp": "2024-11-11T12:15:44Z",
            "version": 2,
            "changeset": 159006130,
            "user": "Rockedf",
            "uid": 7522075,
            "tags": {
                "addr:city": "Ponte della Priula",
                "addr:housenumber": "79",
                "addr:postcode": "31010",
                "addr:street": "Via Quattro Novembre",
                "addr:unit": "b",
                "check_date": "2024-11-11",
                "currency:XBT": "yes",
                "name": "Il chicco di grano",
                "opening_hours": "Mo-Sa 06:30-12:30,15:30-19:00",
                "payment:lightning": "yes",
                "payment:lightning_contactless": "no",
                "payment:onchain": "yes",
                "shop": "bakery"
            }
        },
        {
            "type": "node",
            "id": 11980863518,
            "lat": 45.9058678,
            "lon": 12.3362754,
            "timestamp": "2024-06-14T13:29:12Z",
            "version": 1,
            "changeset": 152679049,
            "user": "Rockedf",
            "uid": 7522075,
            "tags": {
                "addr:city": "San Fior",
                "addr:housenumber": "86",
                "addr:postcode": "31020",
                "addr:street": "Via Nazionale",
                "amenity": "car_wash",
                "check_date": "2024-06-14",
                "currency:XBT": "yes",
                "name": "Ip San Fior Autolavaggio e Noleggio",
                "payment:lightning": "yes",
                "payment:lightning_contactless": "no",
                "payment:onchain": "yes",
                "phone": "+39 37 6176 3526"
            }
        },
        {
            "type": "node",
            "id": 11980916898,
            "lat": 46.0301992,
            "lon": 12.5164386,
            "timestamp": "2024-06-14T14:15:47Z",
            "version": 2,
            "changeset": 152681319,
            "user": "Maarmolada Art",
            "uid": 21657162,
            "tags": {
                "addr:city": "Polcenigo",
                "addr:housenumber": "17",
                "addr:postcode": "33070",
                "addr:street": "Via Pizzoch",
                "currency:XBT": "yes",
                "name": "Maarmolada Art",
                "opening_hours": "Mo-Su 10:00-22:00",
                "payment:contactless": "no",
                "payment:lightning": "yes",
                "payment:onchain": "no",
                "survey:date": "2024-01-01",
                "tourism": "gallery",
                "website": "https://linktr.ee/Ma.armoladaArt?fbclid=PAZXh0bgNhZW0CMTEAAab21UrFK8GPO9qQpBG1sLHqZAghQhylICmYogHy_rvxFkkjjHose8qtG74_aem_ZmFrZWR1bW15MTZieXRlcw"
            }
        },
        {
            "type": "node",
            "id": 12102810313,
            "lat": 45.4177936,
            "lon": 11.8618561,
            "timestamp": "2024-08-10T14:39:32Z",
            "version": 1,
            "changeset": 155065448,
            "user": "voschix",
            "uid": 305001,
            "tags": {
                "addr:city": "Padova",
                "addr:housenumber": "8",
                "addr:postcode": "35139",
                "addr:street": "Ostiala Gallenia",
                "brand": "Conad",
                "brand:wikidata": "Q639075",
                "brand:wikipedia": "it:Conad",
                "name": "Conad",
                "opening_hours": "Mo-Sa 08:00-20:30; Su 09:00-20:00",
                "operator": "Conad",
                "payment:bancomat": "yes",
                "payment:cash": "yes",
                "payment:credit_cards": "yes",
                "phone": "+39 049 723073",
                "shop": "supermarket",
                "website": "https://www.conad.it/ricerca-negozi/negozio.009282.html"
            }
        },
        {
            "type": "node",
            "id": 12124193046,
            "lat": 45.5869419,
            "lon": 12.853504,
            "timestamp": "2024-08-21T11:39:46Z",
            "version": 1,
            "changeset": 155553209,
            "user": "Chiarant",
            "uid": 18452174,
            "tags": {
                "addr:city": "Caorle",
                "addr:housenumber": "33",
                "addr:postcode": "30021",
                "addr:street": "Corso Genova",
                "amenity": "bar",
                "currency:XBT": "yes",
                "name": "Bar Carillon",
                "payment:onchain": "yes"
            }
        },
        {
            "type": "node",
            "id": 12146085710,
            "lat": 45.6599593,
            "lon": 12.2534554,
            "timestamp": "2024-08-30T12:37:48Z",
            "version": 1,
            "changeset": 155972100,
            "user": "mpbin",
            "uid": 21850090,
            "tags": {
                "addr:city": "Treviso",
                "addr:housenumber": "31",
                "addr:postcode": "31100",
                "addr:street": "Via Sebastiano Venier",
                "consulting": "bitcoin",
                "contact:telegram": "https://t.me/Suhaci",
                "currency:XBT": "yes",
                "description": "Consulenza Aziendale",
                "email": "consulting@suhaci.com",
                "name": "Suhaci Consulting",
                "office": "consulting",
                "payment:lightning": "no",
                "phone": "+39 340 389 3512",
                "website": "https://www.suhaci.com/"
            }
        }
    ],
    "telegram": [
        {
            "telegram": "b-veneto"
        },
        {
            "telegram": "ss-treviso"
        }
    ]
}