{
    "id": "umbria",
    "name": "Umbria",
    "lng": 43.110717,
    "lat": 12.390828,
    "poi": [
        {
            "type": "node",
            "id": 228031244,
            "lat": 43.1310362,
            "lon": 11.856523,
            "timestamp": "2025-09-30T21:22:04Z",
            "version": 6,
            "changeset": 172679864,
            "user": "btcitnet",
            "uid": 22525435,
            "tags": {
                "addr:city": "Montepulciano Stazione",
                "addr:housenumber": "17",
                "addr:postcode": "53045",
                "addr:street": "Via Caserta",
                "amenity": "fuel",
                "brand": "Tamoil",
                "brand:wikidata": "Q706793",
                "name": "Tamoil",
                "operator": "Bernardi Elisa",
                "ref:mise": "17232"
            }
        },
        {
            "type": "node",
            "id": 703630909,
            "lat": 43.4722698,
            "lon": 12.2312359,
            "timestamp": "2020-05-14T09:28:32Z",
            "version": 6,
            "changeset": 85191456,
            "user": "mascalzone67",
            "uid": 1861652,
            "tags": {
                "addr:city": "Citt\u00e0 di Castello",
                "addr:postcode": "06012",
                "addr:street": "Via Piero della Francesca",
                "brand": "Conad",
                "brand:wikidata": "Q639075",
                "brand:wikipedia": "it:Conad",
                "name": "Conad",
                "opening_hours": "Mo-Su 08:30-20:00",
                "operator": "Conad",
                "payment:bancomat": "yes",
                "payment:cash": "yes",
                "payment:credit_cards": "yes",
                "phone": "+39 075 8521893",
                "shop": "supermarket",
                "website": "https://www.conad.it/ricerca-negozi/negozio.004294.html"
            }
        },
        {
            "type": "node",
            "id": 960404165,
            "lat": 42.7302633,
            "lon": 12.1393101,
            "timestamp": "2025-10-05T15:47:40Z",
            "version": 6,
            "changeset": 172874310,
            "user": "btcitnet",
            "uid": 22525435,
            "tags": {
                "addr:city": "Orvieto",
                "addr:postcode": "05018",
                "addr:street": "Via delle Querce",
                "amenity": "fuel",
                "brand": "Tamoil",
                "brand:wikidata": "Q706793",
                "name": "Tamoil",
                "operator": "Porcari Ivano",
                "ref:mise": "20231",
                "self_service": "yes"
            }
        },
        {
            "type": "node",
            "id": 980297672,
            "lat": 43.1099484,
            "lon": 12.3885797,
            "timestamp": "2024-05-28T18:29:49Z",
            "version": 8,
            "changeset": 151958457,
            "user": "baprischka",
            "uid": 974272,
            "tags": {
                "addr:city": "Perugia",
                "addr:country": "IT",
                "addr:housenumber": "78/82",
                "addr:postcode": "06121",
                "addr:street": "Corso Vannucci",
                "brand": "La Feltrinelli",
                "brand:wikidata": "Q96311190",
                "check_date": "2024-05-28",
                "name": "La Feltrinelli",
                "payment:cash": "yes",
                "payment:mastercard": "yes",
                "payment:visa": "yes",
                "second_hand": "no",
                "shop": "books",
                "wheelchair": "yes"
            }
        },
        {
            "type": "node",
            "id": 1101268943,
            "lat": 43.0021346,
            "lon": 11.9559254,
            "timestamp": "2025-10-05T15:48:55Z",
            "version": 4,
            "changeset": 172874349,
            "user": "btcitnet",
            "uid": 22525435,
            "tags": {
                "addr:city": "Chiusi Scalo",
                "addr:housenumber": "21",
                "addr:postcode": "53043",
                "addr:street": "Via Fabio Filzi",
                "brand": "Carrefour",
                "brand:wikidata": "Q217599",
                "name": "Carrefour",
                "old_name": "Punto",
                "shop": "supermarket"
            }
        },
        {
            "type": "node",
            "id": 1296858198,
            "lat": 43.3368823,
            "lon": 12.9033748,
            "timestamp": "2025-10-05T15:50:22Z",
            "version": 3,
            "changeset": 172874398,
            "user": "btcitnet",
            "uid": 22525435,
            "tags": {
                "addr:city": "Fabriano",
                "addr:postcode": "60044",
                "brand": "Intimissimi",
                "brand:wikidata": "Q305404",
                "brand:wikipedia": "en:Intimissimi",
                "clothes": "underwear",
                "name": "Intimissimi",
                "shop": "clothes"
            }
        },
        {
            "type": "node",
            "id": 1456840227,
            "lat": 43.4706174,
            "lon": 12.230791,
            "timestamp": "2025-10-08T18:07:45Z",
            "version": 3,
            "changeset": 173017561,
            "user": "btcitnet",
            "uid": 22525435,
            "tags": {
                "addr:city": "Citt\u00e0 di Castello",
                "addr:postcode": "06012",
                "addr:street": "Via Achille Grandi",
                "brand": "United Colors of Benetton",
                "brand:wikidata": "Q817139",
                "name": "United Colors of Benetton",
                "shop": "clothes",
                "short_name": "Benetton"
            }
        },
        {
            "type": "node",
            "id": 1470733330,
            "lat": 43.3403327,
            "lon": 12.8989415,
            "timestamp": "2022-12-23T00:03:13Z",
            "version": 8,
            "changeset": 130396623,
            "user": "totera",
            "uid": 123412,
            "tags": {
                "addr:city": "Fabriano",
                "addr:postcode": "60044",
                "addr:street": "Viale Martiri della Libert\u00e0",
                "amenity": "fuel",
                "brand": "Tamoil",
                "brand:wikidata": "Q706793",
                "brand:wikipedia": "en:Tamoil",
                "fuel:diesel": "yes",
                "fuel:octane_95": "yes",
                "name": "Tamoil",
                "nohousenumber": "yes",
                "operator": "Pad Multienergy S.P.A",
                "ref:mise": "37232"
            }
        },
        {
            "type": "node",
            "id": 1545562345,
            "lat": 43.4627371,
            "lon": 12.2524005,
            "timestamp": "2021-06-23T15:49:47Z",
            "version": 6,
            "changeset": 106848284,
            "user": "damianeue",
            "uid": 10124288,
            "tags": {
                "addr:city": "Citt\u00e0 di Castello",
                "addr:country": "IT",
                "addr:postcode": "06012",
                "addr:street": "Via Palmiro Togliatti",
                "amenity": "fuel",
                "brand": "Tamoil",
                "brand:wikidata": "Q706793",
                "brand:wikipedia": "en:Tamoil",
                "fuel:diesel": "yes",
                "fuel:octane_95": "yes",
                "name": "Tamoil",
                "operator": "P. & L. di Pietosi F. & Landi R. S.N.C.",
                "ref:mise": "15147"
            }
        },
        {
            "type": "node",
            "id": 1645678804,
            "lat": 43.1321902,
            "lon": 12.3606292,
            "timestamp": "2025-10-05T15:51:07Z",
            "version": 4,
            "changeset": 172874440,
            "user": "btcitnet",
            "uid": 22525435,
            "tags": {
                "addr:city": "Perugia",
                "addr:housenumber": "1",
                "addr:postcode": "06131",
                "addr:street": "Via Raimondo Van Marle",
                "brand": "Carrefour",
                "brand:wikidata": "Q217599",
                "name": "Carrefour",
                "shop": "supermarket"
            }
        },
        {
            "type": "node",
            "id": 1650173308,
            "lat": 43.100778,
            "lon": 12.3674887,
            "timestamp": "2024-10-30T20:05:06Z",
            "version": 6,
            "changeset": 158557578,
            "user": "mpbin",
            "uid": 21850090,
            "tags": {
                "addr:city": "Perugia",
                "addr:housenumber": "21",
                "addr:postcode": "06128",
                "addr:street": "Via Enrico Toti",
                "amenity": "cafe",
                "check_date": "2023-09-27",
                "currency:XBT": "yes",
                "name": "Tux Caff\u00e9",
                "phone": "+39 075 505 1358"
            }
        },
        {
            "type": "node",
            "id": 1672495351,
            "lat": 43.3594664,
            "lon": 12.2369096,
            "timestamp": "2025-10-05T15:51:59Z",
            "version": 5,
            "changeset": 172874489,
            "user": "btcitnet",
            "uid": 22525435,
            "tags": {
                "addr:city": "Umbertide",
                "addr:housenumber": "45",
                "addr:postcode": "06019",
                "addr:street": "Via Nestore",
                "brand": "Conad",
                "brand:wikidata": "Q639075",
                "name": "Conad",
                "shop": "supermarket"
            }
        },
        {
            "type": "node",
            "id": 1895154140,
            "lat": 43.1927082,
            "lon": 12.1250628,
            "timestamp": "2025-10-05T15:52:59Z",
            "version": 5,
            "changeset": 172874530,
            "user": "btcitnet",
            "uid": 22525435,
            "tags": {
                "addr:city": "Passignano Sul Trasimeno",
                "addr:housenumber": "1",
                "addr:postcode": "06065",
                "addr:street": "Via di Valle Romana",
                "brand": "Conad",
                "brand:wikidata": "Q639075",
                "name": "Conad",
                "shop": "supermarket"
            }
        },
        {
            "type": "node",
            "id": 1908035079,
            "lat": 43.3648354,
            "lon": 12.2682139,
            "timestamp": "2024-02-29T10:55:22Z",
            "version": 2,
            "changeset": 148046682,
            "user": "simonefranchi",
            "uid": 3169382,
            "tags": {
                "brand": "Spar",
                "brand:wikidata": "Q610492",
                "name": "Despar",
                "shop": "supermarket"
            }
        },
        {
            "type": "node",
            "id": 1912476956,
            "lat": 43.0853122,
            "lon": 12.3679351,
            "timestamp": "2025-09-28T06:16:54Z",
            "version": 6,
            "changeset": 172552446,
            "user": "btcitnet",
            "uid": 22525435,
            "tags": {
                "addr:city": "Perugia",
                "addr:housenumber": "326/A",
                "addr:postcode": "06129",
                "addr:street": "Via Settevalli",
                "brand": "Unieuro",
                "brand:wikidata": "Q4004687",
                "brand:wikipedia": "en:Unieuro",
                "name": "Unieuro",
                "operator": "Unieuro S.p.A.",
                "shop": "electronics"
            }
        },
        {
            "type": "node",
            "id": 2151778910,
            "lat": 42.7468822,
            "lon": 12.7441598,
            "timestamp": "2024-08-05T17:06:46Z",
            "version": 7,
            "changeset": 154860460,
            "user": "dieterdreist",
            "uid": 26139,
            "tags": {
                "addr:street": "Via Flaminia Vecchia",
                "brand": "Conad",
                "brand:wikidata": "Q639075",
                "check_date": "2024-05-19",
                "name": "Conad",
                "opening_hours": "Mo-Sa 08:30-20:00; Su 09:00-20:00",
                "operator": "Gespac Srl.",
                "phone": "+39 0743 224029",
                "ref:vatin": "IT02518490541",
                "shop": "supermarket"
            }
        },
        {
            "type": "node",
            "id": 2177833946,
            "lat": 43.1053772,
            "lon": 12.3483056,
            "timestamp": "2021-01-03T17:45:05Z",
            "version": 2,
            "changeset": 96857889,
            "user": "evfiresh",
            "uid": 678925,
            "tags": {
                "brand": "Conad City",
                "brand:wikidata": "Q57543102",
                "name": "Conad City",
                "shop": "supermarket"
            }
        },
        {
            "type": "node",
            "id": 2247871938,
            "lat": 43.3311351,
            "lon": 12.7415062,
            "timestamp": "2024-11-06T11:01:11Z",
            "version": 3,
            "changeset": 158812845,
            "user": "Zio Pino",
            "uid": 511708,
            "tags": {
                "brand": "Conad City",
                "brand:wikidata": "Q57543102",
                "name": "Conad City",
                "payment:cash": "yes",
                "payment:coins": "yes",
                "payment:credit_cards": "yes",
                "shop": "supermarket"
            }
        },
        {
            "type": "node",
            "id": 2259823461,
            "lat": 43.2899137,
            "lon": 12.7441063,
            "timestamp": "2024-05-27T18:21:39Z",
            "version": 2,
            "changeset": 151913406,
            "user": "Flynn_",
            "uid": 21081459,
            "tags": {
                "brand": "Conad",
                "brand:wikidata": "Q639075",
                "name": "Conad",
                "shop": "supermarket"
            }
        },
        {
            "type": "node",
            "id": 2264245018,
            "lat": 43.1306846,
            "lon": 12.4474557,
            "timestamp": "2024-03-16T13:02:53Z",
            "version": 4,
            "changeset": 148730255,
            "user": "PietroB995",
            "uid": 17327715,
            "tags": {
                "addr:city": "Ponte Felcino",
                "addr:postcode": "06134",
                "addr:street": "Via dell'Ala",
                "brand": "Conad",
                "brand:wikidata": "Q639075",
                "brand:wikipedia": "it:Conad",
                "name": "Conad",
                "nohousenumber": "yes",
                "phone": "+390755913505",
                "shop": "supermarket",
                "survey:date": "2024-03-16"
            }
        },
        {
            "type": "node",
            "id": 2265544713,
            "lat": 43.1803693,
            "lon": 12.5090262,
            "timestamp": "2025-09-11T19:13:30Z",
            "version": 3,
            "changeset": 171799812,
            "user": "Latisana992",
            "uid": 4179361,
            "tags": {
                "brand": "Conad",
                "brand:wikidata": "Q639075",
                "check_date": "2024-05-15",
                "name": "Conad",
                "shop": "supermarket"
            }
        },
        {
            "type": "node",
            "id": 2272473695,
            "lat": 43.1144167,
            "lon": 12.4384989,
            "timestamp": "2024-05-26T11:28:38Z",
            "version": 2,
            "changeset": 151846918,
            "user": "baprischka",
            "uid": 974272,
            "tags": {
                "brand": "Conad City",
                "brand:wikidata": "Q57543102",
                "check_date": "2024-05-26",
                "name": "Conad City",
                "shop": "supermarket"
            }
        },
        {
            "type": "node",
            "id": 2299862276,
            "lat": 43.0166299,
            "lon": 12.4227402,
            "timestamp": "2025-10-16T18:35:02Z",
            "version": 6,
            "changeset": 173379797,
            "user": "btcitnet",
            "uid": 22525435,
            "tags": {
                "addr:city": "Torgiano",
                "addr:housenumber": "KM. 60 + 815",
                "addr:postcode": "06089",
                "addr:street": "Strada Statale 3 bis Tiberina",
                "amenity": "fuel",
                "brand": "Tamoil",
                "brand:wikidata": "Q706793",
                "brand:wikipedia": "en:Tamoil",
                "fuel:diesel": "yes",
                "fuel:octane_95": "yes",
                "name": "Tamoil",
                "operator": "Sigismondi S.A.S. di Sigismondi Carlo e Fausto",
                "ref:mise": "30991"
            }
        },
        {
            "type": "node",
            "id": 2304860191,
            "lat": 43.0535438,
            "lon": 12.5640787,
            "timestamp": "2025-10-07T20:42:16Z",
            "version": 3,
            "changeset": 172977229,
            "user": "btcitnet",
            "uid": 22525435,
            "tags": {
                "addr:city": "Assisi",
                "addr:housenumber": "1",
                "addr:postcode": "06081",
                "addr:street": "Via dei Mugnai",
                "brand": "OVS Kids",
                "brand:wikidata": "Q2042514",
                "clothes": "children",
                "name": "OVS Kids",
                "shop": "clothes"
            }
        },
        {
            "type": "node",
            "id": 2365511396,
            "lat": 43.0650757,
            "lon": 12.3028323,
            "timestamp": "2024-07-08T07:42:18Z",
            "version": 4,
            "changeset": 153690172,
            "user": "damianeue",
            "uid": 10124288,
            "tags": {
                "brand": "Conad",
                "brand:wikidata": "Q639075",
                "name": "Conad",
                "shop": "supermarket"
            }
        },
        {
            "type": "node",
            "id": 2373212483,
            "lat": 42.9930695,
            "lon": 12.5808272,
            "timestamp": "2024-07-29T22:22:53Z",
            "version": 4,
            "changeset": 154582717,
            "user": "zuicz",
            "uid": 10002090,
            "tags": {
                "brand": "Conad",
                "brand:wikidata": "Q639075",
                "brand:wikipedia": "it:Conad",
                "name": "Conad",
                "shop": "supermarket"
            }
        },
        {
            "type": "node",
            "id": 2429716502,
            "lat": 43.0670311,
            "lon": 12.5575583,
            "timestamp": "2020-05-14T13:24:45Z",
            "version": 2,
            "changeset": 85204686,
            "user": "mascalzone67",
            "uid": 1861652,
            "tags": {
                "addr:city": "Bastia Umbra",
                "addr:housenumber": "12",
                "addr:postcode": "06083",
                "addr:street": "Piazza del Tabacchificio",
                "brand": "Conad",
                "brand:wikidata": "Q639075",
                "brand:wikipedia": "it:Conad",
                "name": "Conad",
                "opening_hours": "Mo-Sa 08:30-20:00; Su 09:00-13:00, 15:30-19:30",
                "operator": "Conad",
                "payment:bancomat": "yes",
                "payment:cash": "yes",
                "payment:credit_cards": "yes",
                "phone": "+39 075 8001774",
                "shop": "supermarket",
                "website": "https://www.conad.it/ricerca-negozi/negozio.008484.html"
            }
        },
        {
            "type": "node",
            "id": 2447986076,
            "lat": 42.877022,
            "lon": 12.7365606,
            "timestamp": "2023-07-18T14:54:23Z",
            "version": 2,
            "changeset": 138673950,
            "user": "DnaX",
            "uid": 69259,
            "tags": {
                "brand": "Conad",
                "brand:wikidata": "Q639075",
                "name": "Conad",
                "shop": "supermarket"
            }
        },
        {
            "type": "node",
            "id": 2616069740,
            "lat": 42.955288,
            "lon": 12.7070717,
            "timestamp": "2025-01-03T16:02:33Z",
            "version": 4,
            "changeset": 160955625,
            "user": "mpbin",
            "uid": 21850090,
            "tags": {
                "addr:city": "Foligno",
                "addr:housenumber": "68",
                "addr:postcode": "06034",
                "addr:street": "Via Umberto I",
                "brand": "OVS",
                "brand:wikidata": "Q2042514",
                "name": "OVS",
                "operator": "OVS",
                "phone": "+39 0742 351768",
                "ref:vatin": "IT04240010274",
                "shop": "clothes"
            }
        },
        {
            "type": "node",
            "id": 2616069741,
            "lat": 42.9554549,
            "lon": 12.7071696,
            "timestamp": "2023-08-23T13:19:32Z",
            "version": 3,
            "changeset": 140276328,
            "user": "totera",
            "uid": 123412,
            "tags": {
                "addr:city": "Foligno",
                "addr:housenumber": "68",
                "addr:postcode": "06034",
                "addr:street": "Via Umberto I",
                "brand": "Conad",
                "brand:wikidata": "Q639075",
                "name": "Conad",
                "operator": "Il Tulipano s.r.l.",
                "phone": "+39 0742 351449",
                "ref:vatin": "IT03108830542",
                "shop": "supermarket",
                "website": "https://www.conad.it/ricerca-negozi/conad-via-umberto-i-68-06034-foligno--000034"
            }
        },
        {
            "type": "node",
            "id": 2690769071,
            "lat": 42.9373491,
            "lon": 12.6137124,
            "timestamp": "2024-05-19T07:10:53Z",
            "version": 2,
            "changeset": 151521302,
            "user": "kr\u00e4ckel",
            "uid": 1092114,
            "tags": {
                "brand": "Conad",
                "brand:wikidata": "Q639075",
                "name": "Conad",
                "shop": "supermarket"
            }
        },
        {
            "type": "node",
            "id": 2691006367,
            "lat": 43.1422483,
            "lon": 12.2058542,
            "timestamp": "2025-10-08T18:10:19Z",
            "version": 3,
            "changeset": 173017659,
            "user": "btcitnet",
            "uid": 22525435,
            "tags": {
                "addr:city": "Magione",
                "addr:housenumber": "67",
                "addr:postcode": "06063",
                "addr:street": "Corso Abate Raffaele Marchesi",
                "brand": "Conad",
                "brand:wikidata": "Q639075",
                "name": "Conad",
                "shop": "supermarket"
            }
        },
        {
            "type": "node",
            "id": 2834832633,
            "lat": 43.0706562,
            "lon": 12.3509977,
            "timestamp": "2023-03-03T09:47:24Z",
            "version": 2,
            "changeset": 133244565,
            "user": "DnaX",
            "uid": 69259,
            "tags": {
                "brand": "Conad City",
                "brand:wikidata": "Q57543102",
                "name": "Conad City",
                "shop": "supermarket"
            }
        },
        {
            "type": "node",
            "id": 2944147371,
            "lat": 43.1109583,
            "lon": 12.3886706,
            "timestamp": "2025-10-16T08:49:48Z",
            "version": 5,
            "changeset": 173354304,
            "user": "btcitnet",
            "uid": 22525435,
            "tags": {
                "addr:city": "Perugia",
                "addr:housenumber": "38",
                "addr:postcode": "06121",
                "addr:street": "Corso Pietro Vannucci",
                "brand": "Calzedonia",
                "brand:wikidata": "Q1027874",
                "check_date": "2024-05-05",
                "name": "Calzedonia",
                "shop": "clothes",
                "wheelchair": "limited"
            }
        },
        {
            "type": "node",
            "id": 2944147374,
            "lat": 43.1105061,
            "lon": 12.3885379,
            "timestamp": "2024-10-22T11:30:22Z",
            "version": 5,
            "changeset": 158207259,
            "user": "BauerBank",
            "uid": 18371322,
            "tags": {
                "addr:city": "Perugia",
                "addr:country": "IT",
                "addr:housenumber": "58",
                "addr:postcode": "06121",
                "addr:street": "Corso Vannucci",
                "brand": "Intimissimi",
                "brand:wikidata": "Q305404",
                "clothes": "underwear",
                "name": "Intimissimi",
                "shop": "clothes",
                "wheelchair": "limited"
            }
        },
        {
            "type": "node",
            "id": 2944169659,
            "lat": 43.1098144,
            "lon": 12.3882927,
            "timestamp": "2023-08-14T13:52:54Z",
            "version": 6,
            "changeset": 139873213,
            "user": "arcanma",
            "uid": 1211510,
            "tags": {
                "addr:city": "Perugia",
                "addr:country": "IT",
                "addr:housenumber": "84/92",
                "addr:postcode": "06121",
                "addr:street": "Corso Vannucci",
                "brand": "United Colors of Benetton",
                "brand:wikidata": "Q817139",
                "brand:wikipedia": "en:Benetton Group",
                "name": "United Colors of Benetton",
                "shop": "clothes",
                "short_name": "Benetton",
                "wheelchair": "limited"
            }
        },
        {
            "type": "node",
            "id": 2944600977,
            "lat": 43.1110625,
            "lon": 12.3884464,
            "timestamp": "2023-07-17T17:35:49Z",
            "version": 4,
            "changeset": 138632281,
            "user": "DnaX",
            "uid": 69259,
            "tags": {
                "addr:city": "Perugia",
                "addr:country": "IT",
                "addr:housenumber": "29",
                "addr:postcode": "06121",
                "addr:street": "Corso Vannucci",
                "brand": "Foot Locker",
                "brand:wikidata": "Q63335",
                "name": "Foot Locker",
                "shop": "shoes",
                "wheelchair": "yes"
            }
        },
        {
            "type": "node",
            "id": 3081303564,
            "lat": 43.4714972,
            "lon": 12.2304155,
            "timestamp": "2025-01-03T16:08:14Z",
            "version": 5,
            "changeset": 160955867,
            "user": "mpbin",
            "uid": 21850090,
            "tags": {
                "addr:city": "Citt\u00e0 di Castello",
                "addr:postcode": "06012",
                "addr:street": "Via Giuseppe Di Vittorio",
                "brand": "OVS",
                "brand:wikidata": "Q2042514",
                "name": "OVS",
                "operator": "OVS",
                "shop": "clothes"
            }
        },
        {
            "type": "node",
            "id": 3096559969,
            "lat": 43.0995038,
            "lon": 12.3103115,
            "timestamp": "2023-09-15T15:09:24Z",
            "version": 3,
            "changeset": 141307681,
            "user": "arcanma",
            "uid": 1211510,
            "tags": {
                "addr:city": "Corciano",
                "addr:housenumber": "8",
                "addr:postcode": "06070",
                "addr:street": "Via Aldo Capitini",
                "brand": "Conad",
                "brand:wikidata": "Q639075",
                "brand:wikipedia": "it:Conad",
                "name": "Conad",
                "opening_hours": "Mo-Sa 09:00-20:00; Su 09:00-14:00",
                "operator": "Conad",
                "payment:bancomat": "yes",
                "payment:cash": "yes",
                "payment:credit_cards": "yes",
                "phone": "+39 075 518391",
                "shop": "supermarket",
                "website": "https://www.conad.it/ricerca-negozi/negozio.008990.html"
            }
        },
        {
            "type": "node",
            "id": 3426885534,
            "lat": 43.0480032,
            "lon": 12.6372221,
            "timestamp": "2023-06-05T13:14:50Z",
            "version": 3,
            "changeset": 136972585,
            "user": "Michele Aquilani",
            "uid": 3860151,
            "tags": {
                "brand": "Conad",
                "brand:wikidata": "Q639075",
                "name": "Conad",
                "opening_hours": "Mo-Sa 08:00-19:30; Su 09:00-13:00",
                "shop": "supermarket"
            }
        },
        {
            "type": "node",
            "id": 3668404409,
            "lat": 43.0823208,
            "lon": 12.3442517,
            "timestamp": "2024-11-06T10:30:56Z",
            "version": 4,
            "changeset": 158811638,
            "user": "Zio Pino",
            "uid": 511708,
            "tags": {
                "addr:city": "Perugia",
                "addr:housenumber": "6",
                "addr:postcode": "06132",
                "addr:street": "Via Tomaso Albinoni",
                "brand": "Conad",
                "brand:wikidata": "Q639075",
                "contact:facebook": "https://www.facebook.com/conadviatomasoalbinoni/",
                "email": "emmedue@portal.pac2000a.it",
                "name": "Conad",
                "phone": "+39 075 5280874",
                "shop": "supermarket"
            }
        },
        {
            "type": "node",
            "id": 4208072189,
            "lat": 42.7223767,
            "lon": 12.1327773,
            "timestamp": "2025-01-03T16:19:11Z",
            "version": 4,
            "changeset": 160956322,
            "user": "mpbin",
            "uid": 21850090,
            "tags": {
                "addr:city": "Orvieto",
                "addr:housenumber": "25 gh",
                "addr:postcode": "05018",
                "addr:street": "Via Monte Nibbio",
                "brand": "OVS",
                "brand:wikidata": "Q2042514",
                "name": "OVS",
                "opening_hours": "Mo-Sa 09:30-20:00",
                "operator": "OVS",
                "shop": "clothes"
            }
        },
        {
            "type": "node",
            "id": 4528337285,
            "lat": 43.110849,
            "lon": 12.3885932,
            "timestamp": "2024-05-05T17:44:27Z",
            "version": 4,
            "changeset": 150931937,
            "user": "baprischka",
            "uid": 974272,
            "tags": {
                "addr:city": "Perugia",
                "addr:housenumber": "44",
                "addr:postcode": "06121",
                "addr:street": "Corso Vannucci",
                "brand": "Tezenis",
                "brand:wikidata": "Q28056374",
                "check_date": "2024-05-05",
                "name": "Tezenis",
                "phone": "+39755730629",
                "shop": "clothes",
                "website": "https://it.tezenis.com/"
            }
        },
        {
            "type": "node",
            "id": 4536067502,
            "lat": 43.4244718,
            "lon": 12.5993535,
            "timestamp": "2025-09-05T20:35:55Z",
            "version": 3,
            "changeset": 171516923,
            "user": "Max Ciaone",
            "uid": 3240268,
            "tags": {
                "amenity": "fuel",
                "brand": "Tamoil",
                "brand:wikidata": "Q706793",
                "fuel:diesel": "yes",
                "fuel:octane_95": "yes",
                "name": "Tamoil",
                "operator": "Provvedi Sandro",
                "ref:mise": "59382"
            }
        },
        {
            "type": "node",
            "id": 4536067556,
            "lat": 43.4752093,
            "lon": 12.6270786,
            "timestamp": "2024-12-19T16:39:38Z",
            "version": 3,
            "changeset": 160402365,
            "user": "Alessandra Mercuri",
            "uid": 22299574,
            "tags": {
                "addr:city": "Cantiano",
                "addr:housenumber": "9",
                "addr:postcode": "61044",
                "addr:street": "Via Antonio Gramsci",
                "brand": "Conad",
                "brand:wikidata": "Q639075",
                "brand:wikipedia": "it:Conad",
                "name": "Conad",
                "phone": "0721783039",
                "shop": "supermarket",
                "website": "https://www.conad.it/ricerca-negozi/conad-city-via-antonio-gramsci-9-61044-cantiano--005634"
            }
        },
        {
            "type": "node",
            "id": 4561669405,
            "lat": 42.9637944,
            "lon": 12.6867401,
            "timestamp": "2022-10-09T14:15:14Z",
            "version": 3,
            "changeset": 127250637,
            "user": "wvdp",
            "uid": 436419,
            "tags": {
                "amenity": "fuel",
                "brand": "Q8",
                "brand:wikidata": "Q1634762",
                "name": "Q8",
                "operator": "2 M di Proietti Moreno",
                "ref:mise": "34884"
            }
        },
        {
            "type": "node",
            "id": 4729477939,
            "lat": 43.08175,
            "lon": 12.3383459,
            "timestamp": "2023-03-03T09:47:24Z",
            "version": 2,
            "changeset": 133244565,
            "user": "DnaX",
            "uid": 69259,
            "tags": {
                "brand": "Conad Superstore",
                "brand:wikidata": "Q639075",
                "level": "0",
                "name": "Conad Superstore",
                "shop": "supermarket"
            }
        },
        {
            "type": "node",
            "id": 5082471699,
            "lat": 42.7738279,
            "lon": 12.7211754,
            "timestamp": "2024-12-02T12:05:04Z",
            "version": 2,
            "changeset": 159840105,
            "user": "LorenzoPesci",
            "uid": 5328797,
            "tags": {
                "brand": "Conad",
                "brand:wikidata": "Q639075",
                "name": "Conad",
                "shop": "supermarket"
            }
        },
        {
            "type": "node",
            "id": 5116942322,
            "lat": 42.9541526,
            "lon": 12.7059373,
            "timestamp": "2024-05-04T12:40:50Z",
            "version": 3,
            "changeset": 150878123,
            "user": "baprischka",
            "uid": 974272,
            "tags": {
                "brand": "Intimissimi",
                "brand:wikidata": "Q305404",
                "check_date": "2024-05-04",
                "clothes": "underwear",
                "name": "Intimissimi",
                "shop": "clothes"
            }
        },
        {
            "type": "node",
            "id": 5163965034,
            "lat": 42.7389856,
            "lon": 12.7367041,
            "timestamp": "2024-05-19T08:53:35Z",
            "version": 4,
            "changeset": 151524177,
            "user": "baprischka",
            "uid": 974272,
            "tags": {
                "addr:city": "Spoleto",
                "addr:housenumber": "47",
                "addr:street": "Corso Giuseppe Garibaldi",
                "brand": "Intimissimi",
                "brand:wikidata": "Q305404",
                "check_date": "2024-05-19",
                "clothes": "underwear",
                "name": "Intimissimi",
                "shop": "clothes"
            }
        },
        {
            "type": "node",
            "id": 5163965037,
            "lat": 42.7396571,
            "lon": 12.7370784,
            "timestamp": "2020-02-27T09:19:36Z",
            "version": 3,
            "changeset": 81540896,
            "user": "LorenzoPesci",
            "uid": 5328797,
            "tags": {
                "addr:city": "Spoleto",
                "addr:housenumber": "6",
                "addr:street": "Corso Giuseppe Garibaldi",
                "brand": "Calzedonia",
                "brand:wikidata": "Q1027874",
                "brand:wikipedia": "en:Calzedonia",
                "clothes": "women",
                "name": "Calzedonia",
                "shop": "clothes"
            }
        },
        {
            "type": "node",
            "id": 5321719711,
            "lat": 43.0709153,
            "lon": 12.3469302,
            "timestamp": "2023-07-18T18:14:39Z",
            "version": 7,
            "changeset": 138682327,
            "user": "mueschel",
            "uid": 616774,
            "tags": {
                "addr:city": "Perugia",
                "addr:housenumber": "43",
                "addr:postcode": "06129",
                "addr:street": "Via Alessandro Monteneri",
                "check_date:currency:XBT": "2023-07-14",
                "currency:XBT": "yes",
                "description": "Servizi avanzati di Cloud Computing",
                "email": "info@levita.cloud",
                "name": "Levita srl",
                "office": "it",
                "payment:credit_cards": "yes",
                "phone": "+39 075 5755592",
                "website": "https://www.levita.cloud/"
            }
        },
        {
            "type": "node",
            "id": 5321719712,
            "lat": 43.0708703,
            "lon": 12.3469436,
            "timestamp": "2023-11-07T05:06:04Z",
            "version": 6,
            "changeset": 143719058,
            "user": "b-jazz-bot",
            "uid": 9451067,
            "tags": {
                "addr:city": "Perugia",
                "addr:housenumber": "43",
                "addr:postcode": "06129",
                "addr:street": "Via Alessandro Monteneri",
                "check_date:currency:XBT": "2023-07-14",
                "currency:XBT": "yes",
                "email": "info@levita.cloud",
                "name": "PCSNet Umbria",
                "office": "educational_institution",
                "phone": "+39 075 5755592",
                "website": "https://www.pcsnetumbria.it/"
            }
        },
        {
            "type": "node",
            "id": 5451975750,
            "lat": 42.8879358,
            "lon": 12.6503992,
            "timestamp": "2025-09-29T09:23:57Z",
            "version": 2,
            "changeset": 172602361,
            "user": "btcitnet",
            "uid": 22525435,
            "tags": {
                "addr:city": "Montefalco",
                "addr:street": "Via Ugo Foscolo",
                "brand": "Conad",
                "brand:wikidata": "Q639075",
                "brand:wikipedia": "it:Conad",
                "name": "Conad Montefalco",
                "operator": "Conad",
                "payment:cash": "yes",
                "payment:credit_cards": "yes",
                "payment:debit_cards": "yes",
                "shop": "supermarket"
            }
        },
        {
            "type": "node",
            "id": 5851831343,
            "lat": 42.944666,
            "lon": 12.6885867,
            "timestamp": "2025-10-17T20:39:16Z",
            "version": 3,
            "changeset": 173427999,
            "user": "btcitnet",
            "uid": 22525435,
            "tags": {
                "addr:city": "Foligno",
                "addr:housenumber": "8",
                "addr:postcode": "06034",
                "addr:street": "Via Daniele Manin",
                "amenity": "fuel",
                "brand": "Tamoil",
                "brand:wikidata": "Q706793",
                "name": "Tamoil",
                "operator": "Benedetti Giovanni",
                "ref:mise": "7989"
            }
        },
        {
            "type": "node",
            "id": 5939087025,
            "lat": 42.7428042,
            "lon": 12.7401607,
            "timestamp": "2025-01-15T23:10:32Z",
            "version": 10,
            "changeset": 161398803,
            "user": "DnaX",
            "uid": 69259,
            "tags": {
                "addr:housenumber": "68",
                "addr:street": "Via Flaminia",
                "branch": "kids",
                "brand": "OVS Kids",
                "brand:wikidata": "Q2042514",
                "clothes": "children",
                "name": "OVS Kids",
                "opening_hours": "Mo-Sa 09:30-13:00, 16:00-20:00",
                "phone": "+39074344985",
                "shop": "clothes"
            }
        },
        {
            "type": "node",
            "id": 6033771187,
            "lat": 42.755074,
            "lon": 12.7205082,
            "timestamp": "2025-10-17T19:37:24Z",
            "version": 4,
            "changeset": 173425833,
            "user": "btcitnet",
            "uid": 22525435,
            "tags": {
                "addr:city": "Spoleto",
                "addr:housenumber": "5",
                "addr:postcode": "06049",
                "addr:street": "Via Emanuela Setti Carraro",
                "brand": "OVS",
                "brand:wikidata": "Q2042514",
                "name": "OVS",
                "opening_hours": "Mo-Fr 09:30-13:00, 16:00-20:00; Sa 09:30-13:00, 15:30-20:00",
                "shop": "clothes",
                "website": "https://www.ovs.it/it/it/stores/italia/umbria/perugia/ovs-spoleto"
            }
        },
        {
            "type": "node",
            "id": 6123203063,
            "lat": 43.1022888,
            "lon": 12.3236787,
            "timestamp": "2025-01-03T09:47:49Z",
            "version": 3,
            "changeset": 160940323,
            "user": "mpbin",
            "uid": 21850090,
            "tags": {
                "addr:city": "Perugia",
                "addr:postcode": "06132",
                "addr:street": "Via Trattati di Roma",
                "branch": "Perugia",
                "brand": "Decathlon",
                "brand:wikidata": "Q509349",
                "name": "Decathlon",
                "nohousenumber": "yes",
                "opening_hours": "09:00-20:30",
                "operator": "Decathlon",
                "phone": "+39 0757983505",
                "shop": "sports",
                "website": "https://www.decathlon.it/store-view/negozio-sport-perugia-0070202802028"
            }
        },
        {
            "type": "node",
            "id": 6123203214,
            "lat": 43.0996657,
            "lon": 12.3215818,
            "timestamp": "2024-10-02T10:42:13Z",
            "version": 3,
            "changeset": 157373361,
            "user": "DnaX",
            "uid": 69259,
            "tags": {
                "brand": "Upim",
                "brand:wikidata": "Q1414836",
                "name": "Upim",
                "shop": "department_store"
            }
        },
        {
            "type": "node",
            "id": 6123203215,
            "lat": 43.099567,
            "lon": 12.321996,
            "timestamp": "2025-01-01T18:47:13Z",
            "version": 5,
            "changeset": 160880609,
            "user": "mpbin",
            "uid": 21850090,
            "tags": {
                "addr:city": "Perugia",
                "addr:housenumber": "22",
                "addr:postcode": "06132",
                "addr:street": "Via Trattati di Roma",
                "brand": "Unieuro",
                "brand:wikidata": "Q4004687",
                "name": "Unieuro",
                "operator": "Unieuro S.p.A.",
                "shop": "electronics"
            }
        },
        {
            "type": "node",
            "id": 6208609498,
            "lat": 42.9104256,
            "lon": 12.7283447,
            "timestamp": "2025-10-20T09:02:11Z",
            "version": 3,
            "changeset": 173525299,
            "user": "btcitnet",
            "uid": 22525435,
            "tags": {
                "addr:city": "Foligno",
                "addr:housenumber": "9",
                "addr:postcode": "06034",
                "addr:street": "Via Madrid",
                "brand": "Upim",
                "brand:wikidata": "Q1414836",
                "name": "Upim",
                "shop": "department_store"
            }
        },
        {
            "type": "node",
            "id": 6354555590,
            "lat": 43.4693381,
            "lon": 12.2282943,
            "timestamp": "2025-01-02T21:50:28Z",
            "version": 5,
            "changeset": 160927552,
            "user": "mpbin",
            "uid": 21850090,
            "tags": {
                "addr:city": "Citt\u00e0 di Castello",
                "addr:housenumber": "4a",
                "addr:postcode": "06012",
                "addr:street": "Via Rodolfo Morandi",
                "brand": "Trony",
                "brand:wikidata": "Q3999692",
                "brand:wikipedia": "it:Trony",
                "name": "Trony",
                "operator": "Trony",
                "shop": "electronics"
            }
        },
        {
            "type": "node",
            "id": 7321491678,
            "lat": 43.3370034,
            "lon": 12.5717793,
            "timestamp": "2025-01-09T20:31:02Z",
            "version": 3,
            "changeset": 161183714,
            "user": "Mannivu",
            "uid": 1950277,
            "tags": {
                "addr:city": "Gubbio",
                "addr:housenumber": "2",
                "addr:postcode": "06024",
                "addr:street": "Via Rita Atria",
                "brand": "Conad",
                "brand:wikidata": "Q639075",
                "brand:wikipedia": "it:Conad",
                "description": "procedura per spesa a domicilio su: https://www.facebook.com/ConadGubbioFerratelle/",
                "email": "CONADFERRATELLE@LIBERO.IT",
                "name": "Conad",
                "opening_hours": "Mo-Su 08:30-20:00",
                "operator": "Conad",
                "payment:bancomat": "yes",
                "payment:cash": "yes",
                "payment:credit_cards": "yes",
                "phone": "+39 075 927 3678",
                "shop": "supermarket",
                "website": "https://www.conad.it/ricerca-negozi/negozio.009574.html"
            }
        },
        {
            "type": "node",
            "id": 7321712428,
            "lat": 43.3481439,
            "lon": 12.5845929,
            "timestamp": "2025-01-09T20:31:02Z",
            "version": 2,
            "changeset": 161183714,
            "user": "Mannivu",
            "uid": 1950277,
            "tags": {
                "addr:city": "Gubbio",
                "addr:postcode": "06024",
                "addr:street": "Via Devoto",
                "brand": "Conad City",
                "brand:wikidata": "Q57543102",
                "delivery": "yes",
                "name": "Conad City",
                "phone": "+39 075 927 7020",
                "shop": "supermarket"
            }
        },
        {
            "type": "node",
            "id": 7321885241,
            "lat": 43.3268244,
            "lon": 12.612027,
            "timestamp": "2025-01-09T20:32:02Z",
            "version": 2,
            "changeset": 161183751,
            "user": "Mannivu",
            "uid": 1950277,
            "tags": {
                "addr:city": "Padule",
                "addr:postcode": "06024",
                "addr:street": "Via del Barco",
                "brand": "Conad City",
                "brand:wikidata": "Q57543102",
                "delivery": "yes",
                "name": "Conad City",
                "phone": "+39 075 929 3164",
                "shop": "supermarket"
            }
        },
        {
            "type": "node",
            "id": 7345773996,
            "lat": 43.3439178,
            "lon": 12.5844955,
            "timestamp": "2024-11-06T10:54:03Z",
            "version": 3,
            "changeset": 158812558,
            "user": "Zio Pino",
            "uid": 511708,
            "tags": {
                "brand": "Conad City",
                "brand:wikidata": "Q57543102",
                "name": "Conad City",
                "phone": "+39 0759276330",
                "shop": "supermarket"
            }
        },
        {
            "type": "node",
            "id": 7352620855,
            "lat": 42.7784431,
            "lon": 12.4104363,
            "timestamp": "2025-03-17T17:01:29Z",
            "version": 3,
            "changeset": 163741516,
            "user": "wheelmap_visitor",
            "uid": 290680,
            "tags": {
                "addr:city": "Todi",
                "addr:housenumber": "13",
                "addr:postcode": "06059",
                "addr:street": "Circonvallazione Orvietana",
                "brand": "Conad",
                "brand:wikidata": "Q639075",
                "brand:wikipedia": "it:Conad",
                "name": "Conad",
                "shop": "supermarket",
                "wheelchair": "yes"
            }
        },
        {
            "type": "node",
            "id": 7354482121,
            "lat": 43.3450765,
            "lon": 12.5804792,
            "timestamp": "2020-04-01T13:11:07Z",
            "version": 1,
            "changeset": 82925249,
            "user": "annalisapg",
            "uid": 398143,
            "tags": {
                "addr:city": "Gubbio",
                "addr:postcode": "06024",
                "addr:street": "Via Giosu\u00e8 Carducci",
                "brand": "Conad City",
                "brand:wikidata": "Q57543102",
                "name": "Conad City",
                "phone": "+39 075 927 4232",
                "shop": "supermarket"
            }
        },
        {
            "type": "node",
            "id": 7354482122,
            "lat": 43.3472602,
            "lon": 12.5761041,
            "timestamp": "2020-04-01T13:11:07Z",
            "version": 1,
            "changeset": 82925249,
            "user": "annalisapg",
            "uid": 398143,
            "tags": {
                "brand": "United Colors of Benetton",
                "brand:wikidata": "Q817139",
                "brand:wikipedia": "en:Benetton Group",
                "name": "United Colors of Benetton",
                "shop": "clothes",
                "short_name": "Benetton"
            }
        },
        {
            "type": "node",
            "id": 7411310230,
            "lat": 42.921317,
            "lon": 12.0560251,
            "timestamp": "2020-04-16T14:52:27Z",
            "version": 1,
            "changeset": 83655365,
            "user": "simoreds",
            "uid": 9754837,
            "tags": {
                "addr:city": "Monteleone d'Orvieto",
                "addr:housenumber": "36",
                "addr:postcode": "05017",
                "addr:street": "Via Sandro Pertini",
                "brand": "Conad City",
                "brand:wikidata": "Q57543102",
                "name": "Conad City",
                "shop": "supermarket"
            }
        },
        {
            "type": "node",
            "id": 7419532975,
            "lat": 43.1156122,
            "lon": 12.3629431,
            "timestamp": "2024-10-31T16:16:32Z",
            "version": 2,
            "changeset": 158588562,
            "user": "Zio Pino",
            "uid": 511708,
            "tags": {
                "addr:city": "Perugia",
                "addr:housenumber": "23",
                "addr:postcode": "06125",
                "addr:street": "Via Della Filanda",
                "brand": "Conad",
                "brand:wikidata": "Q639075",
                "brand:wikipedia": "it:Conad",
                "fax": "+39 075 5847432",
                "name": "Conad",
                "phone": "+39 075 5847432",
                "shop": "supermarket",
                "website": "https://www.conad.it/ricerca-negozi/negozio.004203.html"
            }
        },
        {
            "type": "node",
            "id": 7513686164,
            "lat": 43.2340775,
            "lon": 12.7650597,
            "timestamp": "2025-08-31T12:43:12Z",
            "version": 3,
            "changeset": 171267564,
            "user": "toponomastica_comune_arenzano",
            "uid": 14257573,
            "tags": {
                "addr:city": "Gualdo Tadino",
                "addr:postcode": "06023",
                "addr:street": "Via della Stazione",
                "brand": "Conad",
                "brand:wikidata": "Q639075",
                "brand:wikipedia": "it:Conad",
                "contact:phone": "+39 075 914 0609",
                "name": "Conad",
                "opening_hours": "Mo-Sa 08:00-20:00; Su 08:30-20:00",
                "operator": "Conad",
                "payment:bancomat": "yes",
                "payment:cash": "yes",
                "payment:credit_cards": "yes",
                "shop": "supermarket",
                "website": "https://www.conad.it/ricerca-negozi/negozio.007884.html"
            }
        },
        {
            "type": "node",
            "id": 7577111108,
            "lat": 43.2464869,
            "lon": 12.1433513,
            "timestamp": "2020-06-01T08:14:29Z",
            "version": 1,
            "changeset": 86035571,
            "user": "simoreds",
            "uid": 9754837,
            "tags": {
                "addr:city": "Lisciano Niccone",
                "addr:housenumber": "5",
                "addr:postcode": "06060",
                "addr:street": "Piazza della Repubblica",
                "brand": "Conad",
                "brand:wikidata": "Q639075",
                "brand:wikipedia": "it:Conad",
                "name": "Conad",
                "shop": "supermarket"
            }
        },
        {
            "type": "node",
            "id": 7646374531,
            "lat": 43.2573382,
            "lon": 11.9809042,
            "timestamp": "2024-03-14T04:46:01Z",
            "version": 3,
            "changeset": 148620769,
            "user": "b-jazz-bot",
            "uid": 9451067,
            "tags": {
                "addr:postcode": "52044",
                "addr:street": "Viale Antonio Gramsci",
                "brand": "Conad",
                "brand:wikidata": "Q639075",
                "brand:wikipedia": "it:Conad",
                "name": "Conad",
                "opening_hours": "Mo-Sa 07:30-21:00; Su 08:00-20:00",
                "phone": "+39 0575 604113",
                "shop": "supermarket",
                "website": "https://conad.it/"
            }
        },
        {
            "type": "node",
            "id": 8188739104,
            "lat": 43.4756369,
            "lon": 12.2012072,
            "timestamp": "2020-12-02T21:33:54Z",
            "version": 1,
            "changeset": 95178361,
            "user": "Ivana Cangi",
            "uid": 5535352,
            "tags": {
                "brand": "Conad City",
                "brand:wikidata": "Q57543102",
                "name": "Conad City",
                "shop": "supermarket"
            }
        },
        {
            "type": "node",
            "id": 8202442501,
            "lat": 43.0480175,
            "lon": 12.0105339,
            "timestamp": "2025-10-08T18:20:58Z",
            "version": 2,
            "changeset": 173018075,
            "user": "btcitnet",
            "uid": 22525435,
            "tags": {
                "addr:city": "Castiglione Del Lago",
                "addr:housenumber": "81",
                "addr:postcode": "06060",
                "addr:street": "Via dei Partigiani",
                "brand": "Conad City",
                "brand:wikidata": "Q57543102",
                "name": "Conad City",
                "shop": "supermarket"
            }
        },
        {
            "type": "node",
            "id": 8209028676,
            "lat": 42.835754,
            "lon": 12.0660383,
            "timestamp": "2020-12-09T10:20:22Z",
            "version": 1,
            "changeset": 95544992,
            "user": "Maurizio Melani (forwalk)",
            "uid": 1669056,
            "tags": {
                "addr:city": "Ficulle",
                "addr:street": "Via Elisabbetta Dominici",
                "brand": "Conad City",
                "brand:wikidata": "Q57543102",
                "name": "Conad City",
                "shop": "supermarket"
            }
        },
        {
            "type": "node",
            "id": 8209028678,
            "lat": 42.8313537,
            "lon": 12.0663996,
            "timestamp": "2020-12-09T10:20:22Z",
            "version": 1,
            "changeset": 95544992,
            "user": "Maurizio Melani (forwalk)",
            "uid": 1669056,
            "tags": {
                "addr:city": "ficulle",
                "addr:street": "via michelangelo buonarroti",
                "brand": "Conad City",
                "brand:wikidata": "Q57543102",
                "name": "Conad City",
                "shop": "supermarket"
            }
        },
        {
            "type": "node",
            "id": 9743876533,
            "lat": 43.0787031,
            "lon": 12.4219595,
            "timestamp": "2024-12-31T09:35:54Z",
            "version": 2,
            "changeset": 160824692,
            "user": "mpbin",
            "uid": 21850090,
            "tags": {
                "addr:city": "Perugia",
                "addr:housenumber": "13/C2",
                "addr:postcode": "06135",
                "addr:street": "Strada Tiberina Sud",
                "brand": "Conad",
                "brand:wikidata": "Q639075",
                "name": "Conad",
                "operator": "Conad",
                "shop": "supermarket"
            }
        },
        {
            "type": "node",
            "id": 9911884256,
            "lat": 43.2020909,
            "lon": 12.0762297,
            "timestamp": "2025-10-08T18:23:01Z",
            "version": 3,
            "changeset": 173018154,
            "user": "btcitnet",
            "uid": 22525435,
            "tags": {
                "addr:city": "Tuoro Sul Trasimeno",
                "addr:housenumber": "7",
                "addr:postcode": "06069",
                "addr:street": "Via Sette Martiri",
                "air_conditioning": "yes",
                "brand": "Conad",
                "brand:wikidata": "Q639075",
                "check_date": "2025-07-25",
                "name": "Conad",
                "shop": "supermarket"
            }
        },
        {
            "type": "node",
            "id": 9951107918,
            "lat": 43.3495307,
            "lon": 11.9073115,
            "timestamp": "2025-10-08T18:24:24Z",
            "version": 3,
            "changeset": 173018202,
            "user": "btcitnet",
            "uid": 22525435,
            "tags": {
                "addr:city": "Castiglion Fiorentino",
                "addr:housenumber": "29",
                "addr:postcode": "52043",
                "addr:street": "Via Martiri di Nassiriya",
                "brand": "Conad",
                "brand:wikidata": "Q639075",
                "name": "Conad",
                "shop": "supermarket"
            }
        },
        {
            "type": "node",
            "id": 9971157309,
            "lat": 42.7319436,
            "lon": 12.1412634,
            "timestamp": "2023-11-23T17:14:00Z",
            "version": 3,
            "changeset": 144377882,
            "user": "arcanma",
            "uid": 1211510,
            "tags": {
                "addr:city": "Orvieto",
                "addr:postcode": "05018",
                "addr:street": "Via dei Cedri",
                "brand": "Conad",
                "brand:wikidata": "Q639075",
                "name": "Conad",
                "nohousenumber": "yes",
                "opening_hours": "Mo-Sa 08:30-20:00; Su 09:00-13:00",
                "operator": "Supermercati MC3 S.r.l.",
                "phone": "+39 0763 393097",
                "ref:vatin": "IT13009131007",
                "shop": "supermarket"
            }
        },
        {
            "type": "node",
            "id": 10706426822,
            "lat": 43.0999629,
            "lon": 12.3095649,
            "timestamp": "2023-09-15T15:09:25Z",
            "version": 3,
            "changeset": 141307681,
            "user": "arcanma",
            "uid": 1211510,
            "tags": {
                "brand": "H&M",
                "brand:wikidata": "Q188326",
                "name": "H&M",
                "shop": "clothes"
            }
        },
        {
            "type": "node",
            "id": 10706426826,
            "lat": 43.0988242,
            "lon": 12.3091653,
            "timestamp": "2024-04-04T21:24:26Z",
            "version": 3,
            "changeset": 149588055,
            "user": "DnaX",
            "uid": 69259,
            "tags": {
                "brand": "Tezenis",
                "brand:wikidata": "Q28056374",
                "clothes": "women;underwear;swimwear;men;children",
                "name": "Tezenis",
                "shop": "clothes"
            }
        },
        {
            "type": "node",
            "id": 10706426827,
            "lat": 43.0989008,
            "lon": 12.3098528,
            "timestamp": "2025-10-06T13:11:41Z",
            "version": 3,
            "changeset": 172913742,
            "user": "btcitnet",
            "uid": 22525435,
            "tags": {
                "addr:city": "Corciano",
                "addr:housenumber": "8",
                "addr:postcode": "06073",
                "addr:street": "Via Aldo Capitini",
                "brand": "Bottega Verde",
                "brand:wikidata": "Q894870",
                "name": "Bottega Verde",
                "shop": "cosmetics"
            }
        },
        {
            "type": "node",
            "id": 10706426828,
            "lat": 43.099183,
            "lon": 12.309889,
            "timestamp": "2025-10-16T09:24:10Z",
            "version": 2,
            "changeset": 173355734,
            "user": "btcitnet",
            "uid": 22525435,
            "tags": {
                "addr:city": "Corciano",
                "addr:housenumber": "8",
                "addr:postcode": "06073",
                "addr:street": "Via Aldo Capitini",
                "brand": "Calzedonia",
                "brand:wikidata": "Q1027874",
                "name": "Calzedonia",
                "shop": "clothes"
            }
        },
        {
            "type": "node",
            "id": 10788303705,
            "lat": 43.111352,
            "lon": 12.3885493,
            "timestamp": "2025-01-09T09:45:21Z",
            "version": 3,
            "changeset": 161162537,
            "user": "DnaX",
            "uid": 69259,
            "tags": {
                "addr:city": "Perugia",
                "addr:housenumber": "21/22",
                "addr:postcode": "06121",
                "addr:street": "Corso Vannucci",
                "brand": "Doppelg\u00e4nger",
                "brand:wikidata": "Q117451227",
                "check_date:currency:XBT": "2023-05-13",
                "currency:XBT": "yes",
                "name": "Doppelg\u00e4nger",
                "payment:lightning": "no",
                "payment:lightning_contactless": "no",
                "payment:onchain": "yes",
                "phone": "0753753365",
                "shop": "clothes"
            }
        },
        {
            "type": "node",
            "id": 10788307405,
            "lat": 43.0999656,
            "lon": 12.3098025,
            "timestamp": "2025-01-09T09:45:29Z",
            "version": 4,
            "changeset": 161162543,
            "user": "DnaX",
            "uid": 69259,
            "tags": {
                "addr:city": "Corciano",
                "addr:housenumber": "8",
                "addr:postcode": "06073",
                "addr:street": "Via Aldo Capitini",
                "brand": "Doppelg\u00e4nger",
                "brand:wikidata": "Q117451227",
                "check_date:currency:XBT": "2023-05-13",
                "clothes": "men",
                "currency:XBT": "yes",
                "name": "Doppelg\u00e4nger",
                "payment:lightning": "no",
                "payment:lightning_contactless": "no",
                "payment:onchain": "yes",
                "phone": "0755173528",
                "shop": "clothes"
            }
        },
        {
            "type": "node",
            "id": 10802125610,
            "lat": 43.3329777,
            "lon": 12.7384967,
            "timestamp": "2023-04-11T16:23:46Z",
            "version": 1,
            "changeset": 134782183,
            "user": "Griphon",
            "uid": 461682,
            "tags": {
                "brand": "Conad",
                "brand:wikidata": "Q639075",
                "name": "Conad",
                "shop": "supermarket"
            }
        },
        {
            "type": "node",
            "id": 10862568804,
            "lat": 43.092672,
            "lon": 12.3580465,
            "timestamp": "2023-05-02T15:15:42Z",
            "version": 1,
            "changeset": 135621269,
            "user": "Griphon",
            "uid": 461682,
            "tags": {
                "amenity": "fuel",
                "brand": "Q8",
                "brand:wikidata": "Q1634762",
                "name": "Q8"
            }
        },
        {
            "type": "node",
            "id": 10864965853,
            "lat": 42.9778659,
            "lon": 12.8648308,
            "timestamp": "2023-05-06T14:24:04Z",
            "version": 2,
            "changeset": 135779257,
            "user": "mueschel",
            "uid": 616774,
            "tags": {
                "addr:city": "Foligno",
                "addr:housenumber": "SNC",
                "addr:postcode": "06034",
                "addr:street": "Strada provinciale di Volperino",
                "amenity": "bar",
                "check_date:currency:XBT": "2023-05-03",
                "currency:XBT": "yes",
                "name": "Bar Circolo Acli Volperino",
                "payment:lightning": "yes",
                "payment:lightning_contactless": "yes",
                "payment:onchain": "yes",
                "phone": "+39 334 366 6520"
            }
        },
        {
            "type": "node",
            "id": 10865013935,
            "lat": 42.9778241,
            "lon": 12.8648401,
            "timestamp": "2023-05-03T14:06:26Z",
            "version": 1,
            "changeset": 135662634,
            "user": "gianlock",
            "uid": 18347620,
            "tags": {
                "addr:city": "Foligno",
                "addr:housenumber": "SNC",
                "addr:postcode": "06034",
                "addr:street": "Strada provinciale di Volperino",
                "amenity": "restaurant",
                "check_date:currency:XBT": "2023-05-03",
                "currency:XBT": "yes",
                "description": "Uno dei bar pi\u00f9 panoramici d'Italia. Affacciato con una strepitosa balconata sui boschi sovrastanti Rasiglia, tramonti indimenticabili.",
                "name": "Volperino Punto Ristoro Acli",
                "payment:lightning": "yes",
                "payment:lightning_contactless": "yes",
                "payment:onchain": "yes",
                "phone": "+39 327 194 0704",
                "website": "https://www.google.com/maps/place/Volperino+Punto+Ristoro+Acli/@42.9781112,12.8645384,15z/data=!4m6!3m5!1s0x132e7d4f37f33393:0xf98f4df9541abbfe!8m2!3d42.9781112!4d12.8645384!16s%2Fg%2F11f6511kdd?hl=it"
            }
        },
        {
            "type": "node",
            "id": 11050800499,
            "lat": 43.1119709,
            "lon": 12.389949,
            "timestamp": "2023-07-17T10:26:01Z",
            "version": 1,
            "changeset": 138615299,
            "user": "Chiarant",
            "uid": 18452174,
            "tags": {
                "addr:city": "Perugia",
                "addr:housenumber": "2",
                "addr:street": "Via Galeazzo Alessi",
                "addr:unit": "a",
                "check_date": "2023-07-17",
                "currency:XBT": "yes",
                "name": "Spaccia Marija Hemp Shop",
                "payment:lightning": "yes",
                "payment:onchain": "yes",
                "shop": "cannabis"
            }
        },
        {
            "type": "node",
            "id": 11053194348,
            "lat": 42.9111069,
            "lon": 12.7313498,
            "timestamp": "2023-07-18T14:54:23Z",
            "version": 1,
            "changeset": 138673950,
            "user": "DnaX",
            "uid": 69259,
            "tags": {
                "brand": "Chicco",
                "brand:wikidata": "Q27897515",
                "name": "Chicco",
                "shop": "baby_goods"
            }
        },
        {
            "type": "node",
            "id": 11177860894,
            "lat": 42.9548924,
            "lon": 12.705288,
            "timestamp": "2025-10-08T20:41:55Z",
            "version": 3,
            "changeset": 173022889,
            "user": "btcitnet",
            "uid": 22525435,
            "tags": {
                "addr:city": "Foligno",
                "addr:housenumber": "33",
                "addr:postcode": "06034",
                "addr:street": "Corso Cavour",
                "brand": "Calzedonia",
                "brand:wikidata": "Q1027874",
                "check_date": "2024-05-04",
                "name": "Calzedonia",
                "shop": "clothes"
            }
        },
        {
            "type": "node",
            "id": 11240586255,
            "lat": 42.7395387,
            "lon": 12.7371261,
            "timestamp": "2023-10-05T07:29:44Z",
            "version": 1,
            "changeset": 142175519,
            "user": "LorenzoPesci",
            "uid": 5328797,
            "tags": {
                "brand": "Mondadori",
                "brand:wikidata": "Q85355",
                "name": "Mondadori",
                "shop": "books"
            }
        },
        {
            "type": "node",
            "id": 11409790158,
            "lat": 42.9983969,
            "lon": 12.4269567,
            "timestamp": "2025-10-17T13:47:55Z",
            "version": 2,
            "changeset": 173411974,
            "user": "btcitnet",
            "uid": 22525435,
            "tags": {
                "addr:city": "Deruta",
                "addr:housenumber": "44b",
                "addr:postcode": "06053",
                "addr:street": "Via Tiberina",
                "brand": "Conad",
                "brand:wikidata": "Q639075",
                "name": "Conad",
                "shop": "supermarket"
            }
        },
        {
            "type": "node",
            "id": 11530462099,
            "lat": 43.3425183,
            "lon": 12.5786013,
            "timestamp": "2025-10-20T09:00:42Z",
            "version": 2,
            "changeset": 173525250,
            "user": "btcitnet",
            "uid": 22525435,
            "tags": {
                "addr:city": "Gubbio",
                "addr:postcode": "06024",
                "addr:street": "Via della Piaggiola",
                "brand": "Upim",
                "brand:wikidata": "Q1414836",
                "name": "Upim",
                "shop": "department_store"
            }
        },
        {
            "type": "node",
            "id": 11691943880,
            "lat": 43.0980925,
            "lon": 11.7867591,
            "timestamp": "2024-03-04T21:55:46Z",
            "version": 1,
            "changeset": 148227006,
            "user": "DabMK",
            "uid": 17965418,
            "tags": {
                "addr:city": "Montepulciano",
                "addr:housenumber": "4",
                "addr:postcode": "53045",
                "addr:street": "Via Elio Bernabei",
                "addr:unit": "A",
                "brand": "Conad",
                "brand:wikidata": "Q639075",
                "name": "Conad",
                "opening_hours": "Mo-Su 08:00-20:00",
                "operator": "CO.RI.M. s.r.l.",
                "phone": "+39 0578 716731",
                "ref:vatin": "IT00268020526",
                "shop": "supermarket"
            }
        },
        {
            "type": "node",
            "id": 11843375794,
            "lat": 42.7455819,
            "lon": 12.7170401,
            "timestamp": "2025-10-17T13:40:16Z",
            "version": 2,
            "changeset": 173411612,
            "user": "btcitnet",
            "uid": 22525435,
            "tags": {
                "addr:city": "Spoleto",
                "addr:housenumber": "15",
                "addr:postcode": "06049",
                "addr:street": "Via dei Mestieri",
                "brand": "Conad",
                "brand:wikidata": "Q639075",
                "name": "Conad",
                "shop": "supermarket"
            }
        },
        {
            "type": "node",
            "id": 11878824628,
            "lat": 43.032835,
            "lon": 12.3634359,
            "timestamp": "2025-10-17T13:37:28Z",
            "version": 2,
            "changeset": 173411454,
            "user": "btcitnet",
            "uid": 22525435,
            "tags": {
                "addr:city": "Perugia",
                "addr:housenumber": "3",
                "addr:postcode": "06070",
                "addr:street": "Via Della Ninfa",
                "brand": "Conad",
                "brand:wikidata": "Q639075",
                "name": "Conad",
                "shop": "supermarket"
            }
        },
        {
            "type": "node",
            "id": 11883693980,
            "lat": 43.1005329,
            "lon": 12.3685798,
            "timestamp": "2025-10-16T20:11:27Z",
            "version": 2,
            "changeset": 173383184,
            "user": "btcitnet",
            "uid": 22525435,
            "tags": {
                "addr:city": "Perugia",
                "addr:housenumber": "15/31",
                "addr:postcode": "06128",
                "addr:street": "Via Luigi Rizzo",
                "brand": "OVS",
                "brand:wikidata": "Q2042514",
                "name": "OVS",
                "shop": "clothes"
            }
        },
        {
            "type": "node",
            "id": 11917376227,
            "lat": 43.0967266,
            "lon": 12.5652643,
            "timestamp": "2025-10-17T13:35:46Z",
            "version": 2,
            "changeset": 173411363,
            "user": "btcitnet",
            "uid": 22525435,
            "tags": {
                "addr:city": "Assisi",
                "addr:postcode": "06080",
                "addr:street": "Viale Michelangelo",
                "brand": "Conad",
                "brand:wikidata": "Q639075",
                "name": "Conad",
                "shop": "supermarket"
            }
        },
        {
            "type": "node",
            "id": 12176827653,
            "lat": 43.1114885,
            "lon": 12.3777029,
            "timestamp": "2024-09-14T14:32:12Z",
            "version": 1,
            "changeset": 156615277,
            "user": "laxandrea",
            "uid": 381486,
            "tags": {
                "brand": "Conad",
                "brand:wikidata": "Q639075",
                "name": "Conad",
                "shop": "supermarket"
            }
        },
        {
            "type": "node",
            "id": 12260816801,
            "lat": 42.9041791,
            "lon": 12.3466399,
            "timestamp": "2025-10-16T20:02:16Z",
            "version": 3,
            "changeset": 173382897,
            "user": "btcitnet",
            "uid": 22525435,
            "tags": {
                "addr:city": "Marsciano",
                "addr:postcode": "06055",
                "brand": "OVS",
                "brand:wikidata": "Q2042514",
                "name": "OVS",
                "shop": "clothes"
            }
        },
        {
            "type": "node",
            "id": 12504260821,
            "lat": 42.8645287,
            "lon": 12.7132202,
            "timestamp": "2025-01-15T11:28:35Z",
            "version": 1,
            "changeset": 161377040,
            "user": "pat-pat",
            "uid": 21372887,
            "tags": {
                "addr:city": "Cannaiola",
                "brand": "Spar",
                "brand:wikidata": "Q610492",
                "name": "Riccioli Despar",
                "shop": "supermarket"
            }
        },
        {
            "type": "node",
            "id": 12663183487,
            "lat": 43.0168902,
            "lon": 11.9052829,
            "timestamp": "2025-03-14T17:58:08Z",
            "version": 1,
            "changeset": 163620911,
            "user": "DabMK",
            "uid": 17965418,
            "tags": {
                "addr:city": "Chiusi",
                "brand": "OVS",
                "brand:wikidata": "Q2042514",
                "name": "OVS",
                "shop": "clothes"
            }
        },
        {
            "type": "node",
            "id": 12686962517,
            "lat": 43.338679,
            "lon": 12.899483,
            "timestamp": "2025-06-20T06:46:09Z",
            "version": 2,
            "changeset": 167854972,
            "user": "totera",
            "uid": 123412,
            "tags": {
                "addr:city": "Fabriano",
                "addr:housenumber": "42l",
                "addr:postcode": "60044",
                "addr:street": "Viale Martiri della Libert\u00e0",
                "brand": "Conad City",
                "brand:wikidata": "Q57543102",
                "name": "Conad City",
                "opening_hours": "Mo-Sa 07:30-20:00; Su 08:00-13:30",
                "operator": "Pagema supermercati snc",
                "phone": "+39 0732 22596",
                "shop": "supermarket",
                "start_date": "2025-03-21",
                "website": "https://www.conad.it/ricerca-negozi/conad-city-viale-martiri-della-liberta-42-60044-fabriano--010671"
            }
        },
        {
            "type": "node",
            "id": 12912181968,
            "lat": 42.717177,
            "lon": 12.1115855,
            "timestamp": "2025-06-13T08:46:02Z",
            "version": 1,
            "changeset": 167564840,
            "user": "Comino",
            "uid": 6794624,
            "tags": {
                "addr:city": "Orvieto",
                "addr:housenumber": "11",
                "addr:postcode": "05018",
                "addr:street": "Via dei Magoni",
                "check_date": "2025-06-13",
                "check_date:currency:XBT": "2025-06-13",
                "currency:XBT": "yes",
                "email": "patrisorvieto@gmail.com",
                "name": "Patris Orvieto",
                "opening_hours": "Mo-Su 09:00-18:00",
                "payment:lightning": "yes",
                "payment:lightning_contactless": "no",
                "payment:onchain": "no",
                "phone": "+39 340 055 0009",
                "shop": "yes",
                "source": "BTCmap add location form",
                "website": "https://ianbricaire.wixsite.com/patris"
            }
        },
        {
            "type": "node",
            "id": 13089261895,
            "lat": 43.3460597,
            "lon": 12.575022,
            "timestamp": "2025-08-27T08:57:25Z",
            "version": 4,
            "changeset": 171068131,
            "user": "Luca Lombardini",
            "uid": 23214482,
            "tags": {
                "addr:city": "Gubbio",
                "addr:postcode": "06024",
                "addr:street": "Via Don Giuseppe Diana",
                "check_date": "2025-08-22",
                "check_date:currency:XBT": "2025-08-22",
                "contact:email": "l.lombardini@primaconsulenze.com",
                "currency:XBT": "yes",
                "name": "Luca Lombardini Dottore Commercialista e Revisore Legale",
                "office": "accountant",
                "opening_hours": "Mo-Fr 09:00-13:00, 15:00-18:00",
                "payment:lightning": "yes",
                "payment:lightning_contactless": "no",
                "payment:onchain": "yes",
                "phone": "+39 393 207 2508"
            }
        },
        {
            "type": "node",
            "id": 13094279382,
            "lat": 42.9664216,
            "lon": 12.7171178,
            "timestamp": "2025-08-24T11:43:22Z",
            "version": 1,
            "changeset": 170919827,
            "user": "totera",
            "uid": 123412,
            "tags": {
                "addr:city": "Foligno",
                "addr:housenumber": "4",
                "addr:postcode": "06034",
                "addr:street": "Via Raffaello Sanzio",
                "brand": "Conad",
                "brand:wikidata": "Q639075",
                "check_date": "2025-08-24",
                "name": "Conad",
                "operator": "Camp Srl",
                "phone": "+39 0742 350987",
                "shop": "supermarket"
            }
        },
        {
            "type": "way",
            "id": 61890489,
            "timestamp": "2021-11-04T16:33:04Z",
            "version": 3,
            "changeset": 113377112,
            "user": "botein",
            "uid": 14405005,
            "nodes": [
                771296104,
                771296376,
                771296266,
                771296231,
                771296104
            ],
            "tags": {
                "brand": "Conad",
                "brand:wikidata": "Q639075",
                "brand:wikipedia": "it:Conad",
                "building": "yes",
                "name": "Conad",
                "shop": "supermarket"
            }
        },
        {
            "type": "way",
            "id": 61915136,
            "timestamp": "2024-07-10T10:41:48Z",
            "version": 4,
            "changeset": 153778042,
            "user": "Chiarant",
            "uid": 18452174,
            "nodes": [
                771752825,
                771752950,
                771752430,
                771752608,
                771752825
            ],
            "tags": {
                "addr:housenumber": "1",
                "addr:street": "Localit\u00e0 Castagni",
                "building": "hotel",
                "check_date": "2024-07-10",
                "currency:XBT": "yes",
                "email": "info@agriturismolapineta.com",
                "guest_house": "agritourism",
                "name": "Agriturismo La Pineta",
                "phone": "+39 0756 708017",
                "tourism": "guest_house",
                "website": "https://agriturismolapineta.com/"
            }
        },
        {
            "type": "way",
            "id": 85844629,
            "timestamp": "2025-10-01T07:39:08Z",
            "version": 4,
            "changeset": 172692313,
            "user": "Robot8A",
            "uid": 393359,
            "nodes": [
                996394146,
                996394132,
                996394148,
                996394162,
                996394118,
                996394146
            ],
            "tags": {
                "amenity": "fuel",
                "brand": "Q8",
                "brand:wikidata": "Q1634762",
                "check_date": "2025-10-01",
                "name": "Q8",
                "operator": "Servizi & Gestioni Italia S.R.L.",
                "ref:mise": "35902",
                "source:date": "2018-04-16"
            }
        },
        {
            "type": "way",
            "id": 116395275,
            "timestamp": "2024-06-01T10:10:55Z",
            "version": 8,
            "changeset": 152113975,
            "user": "baprischka",
            "uid": 974272,
            "nodes": [
                1312203120,
                6291781753,
                1312203137,
                1312203110,
                6291781752,
                1312203132,
                1312203120
            ],
            "tags": {
                "addr:city": "Perugia",
                "addr:country": "IT",
                "addr:housenumber": "35",
                "addr:postcode": "06126",
                "addr:street": "Via della Pallotta",
                "branch": "Fratelli Farinelli",
                "brand": "Conad",
                "brand:wikidata": "Q639075",
                "brand:wikipedia": "it:Conad",
                "building": "yes",
                "check_date": "2024-06-01",
                "name": "Conad",
                "shop": "supermarket"
            }
        },
        {
            "type": "way",
            "id": 199479651,
            "timestamp": "2024-03-23T10:43:28Z",
            "version": 4,
            "changeset": 149045483,
            "user": "DabMK",
            "uid": 17965418,
            "nodes": [
                2094678214,
                11098015249,
                11098015250,
                2094678200,
                2094678190,
                2094678201,
                2094678211,
                2094678214
            ],
            "tags": {
                "addr:city": "Chianciano Terme",
                "addr:postcode": "53042",
                "addr:street": "Viale Guido Baccelli",
                "amenity": "fuel",
                "brand": "Q8",
                "brand:wikidata": "Q1634762",
                "name": "Q8",
                "operator": "Servizi & Gestioni Italia S.R.L.",
                "ref:mise": "11833",
                "source:date": "2018-04-16"
            }
        },
        {
            "type": "way",
            "id": 220914652,
            "timestamp": "2024-01-03T15:57:48Z",
            "version": 5,
            "changeset": 145845543,
            "user": "laxandrea",
            "uid": 381486,
            "nodes": [
                2299862357,
                2299862347,
                2299862333,
                11483045849,
                11483045850,
                11483045858,
                11483045851,
                2299862318,
                11483045852,
                11483045853,
                11483045854,
                11483045855,
                11483045856,
                2299862320,
                2299862353,
                2299862357
            ],
            "tags": {
                "amenity": "fuel",
                "brand": "Q8",
                "brand:wikidata": "Q1634762",
                "fuel:diesel": "yes",
                "fuel:lpg": "yes",
                "fuel:octane_95": "yes",
                "fuel:octane_98": "yes",
                "name": "Q8",
                "operator": "Simonetti Mario S.R.L.",
                "ref:mise": "40766",
                "source:date": "2018-04-16",
                "wheelchair": "yes"
            }
        },
        {
            "type": "way",
            "id": 242382715,
            "timestamp": "2025-08-31T09:11:05Z",
            "version": 6,
            "changeset": 171258914,
            "user": "Emabarto",
            "uid": 10142223,
            "nodes": [
                2498655474,
                2498655476,
                2498655478,
                2498655479,
                2498655474
            ],
            "tags": {
                "amenity": "fuel",
                "brand": "Tamoil",
                "brand:wikidata": "Q706793",
                "fuel:diesel": "yes",
                "fuel:octane_95": "yes",
                "name": "Tamoil",
                "operator": "T.D.M. S.R.L.",
                "ref:mise": "34226",
                "source": "MISE - Ministero Sviluppo Economico",
                "source:date": "2018-04-16"
            }
        },
        {
            "type": "way",
            "id": 254887940,
            "timestamp": "2024-08-25T17:54:51Z",
            "version": 3,
            "changeset": 155749481,
            "user": "DabMK",
            "uid": 17965418,
            "nodes": [
                2606758959,
                2606758976,
                2606758973,
                2606758942,
                2606758959
            ],
            "tags": {
                "addr:city": "Citt\u00e0 della Pieve",
                "addr:postcode": "06062",
                "addr:street": "Strada Provinciale di Chianciano",
                "branch": "Chiusi",
                "brand": "Conad",
                "brand:wikidata": "Q639075",
                "brand:wikipedia": "it:Conad",
                "building": "commercial",
                "name": "Conad",
                "shop": "supermarket"
            }
        },
        {
            "type": "way",
            "id": 267663931,
            "timestamp": "2024-06-01T10:10:55Z",
            "version": 6,
            "changeset": 152113975,
            "user": "baprischka",
            "uid": 974272,
            "nodes": [
                6297698722,
                2730979065,
                10648889361,
                10648889362,
                2730979067,
                2730979069,
                2730979071,
                2730979073,
                2730979075,
                6297698723,
                6297698722
            ],
            "tags": {
                "amenity": "fuel",
                "brand": "Q8",
                "brand:wikidata": "Q1634762",
                "brand:wikipedia": "en:Kuwait Petroleum Corporation",
                "check_date": "2024-06-01",
                "fuel:diesel": "yes",
                "fuel:lpg": "yes",
                "fuel:octane_95": "yes",
                "name": "Q8",
                "operator": "Servizi & Gestioni Italia S.R.L.",
                "ref:mise": "6604",
                "source": "MISE - Ministero Sviluppo Economico"
            }
        },
        {
            "type": "way",
            "id": 286806891,
            "timestamp": "2023-07-31T14:41:06Z",
            "version": 6,
            "changeset": 139257764,
            "user": "BTC Map",
            "uid": 18545877,
            "nodes": [
                2904784013,
                2904784014,
                2904784015,
                2904790435,
                2904784016,
                2904784017,
                2904784018,
                2904784019,
                2904784020,
                2904784021,
                2904784022,
                2904784023,
                2904784013
            ],
            "tags": {
                "building": "yes",
                "check_date:currency:XBT": "2023-07-31",
                "currency:XBT": "yes",
                "name": "Mondo Convenienza",
                "opening_hours": "Mo-Su 09:30-20:00",
                "shop": "furniture",
                "wheelchair": "yes"
            }
        },
        {
            "type": "way",
            "id": 346950708,
            "timestamp": "2025-02-18T21:18:23Z",
            "version": 4,
            "changeset": 162677715,
            "user": "btcitnet",
            "uid": 22525435,
            "nodes": [
                3533932564,
                3533932560,
                3533932566,
                3533932563,
                3533932537,
                3533932542,
                3533932551,
                3533932550,
                3533932564
            ],
            "tags": {
                "addr:city": "Foligno",
                "addr:postcode": "06034",
                "addr:street": "Via delle Industrie",
                "brand": "Decathlon",
                "brand:wikidata": "Q509349",
                "brand:wikipedia": "en:Decathlon Group",
                "building": "commercial",
                "check_date": "2024-05-19",
                "name": "Decathlon",
                "nohousenumber": "yes",
                "operator": "Decathlon",
                "shop": "sports"
            }
        },
        {
            "type": "way",
            "id": 375632436,
            "timestamp": "2023-11-03T15:44:11Z",
            "version": 8,
            "changeset": 143580619,
            "user": "Baguette99",
            "uid": 19012526,
            "nodes": [
                4199018743,
                3789842373,
                11310021599,
                3789842374,
                4199018745,
                4199018747,
                4199018751,
                4199018752,
                4199018750,
                4199018748,
                4199018743
            ],
            "tags": {
                "addr:city": "Foligno",
                "addr:postcode": "06034",
                "addr:street": "Viale Cesare Battisti",
                "amenity": "fuel",
                "brand": "Q8",
                "brand:wikidata": "Q1634762",
                "brand:wikipedia": "en:Kuwait Petroleum Corporation",
                "fuel:diesel": "yes",
                "fuel:octane_95": "yes",
                "name": "Q8",
                "operator": "Servizi & Gestioni Italia S.R.L.",
                "ref:mise": "29807"
            }
        },
        {
            "type": "way",
            "id": 378154449,
            "timestamp": "2023-09-12T13:22:55Z",
            "version": 4,
            "changeset": 141163653,
            "user": "arcanma",
            "uid": 1211510,
            "nodes": [
                3815726335,
                11167112425,
                3815726336,
                3815726337,
                11185879977,
                3815726338,
                11185879978,
                3815726335
            ],
            "tags": {
                "amenity": "fuel",
                "brand": "Q8",
                "brand:wikidata": "Q1634762",
                "name": "Gaifana Nord",
                "operator": "Archema S.R.L.",
                "ref:mise": "33431",
                "source:date": "2018-04-16"
            }
        },
        {
            "type": "way",
            "id": 441172225,
            "timestamp": "2024-06-09T16:23:36Z",
            "version": 4,
            "changeset": 152462524,
            "user": "Zephlp",
            "uid": 8064978,
            "nodes": [
                6760810379,
                4389457556,
                4389457557,
                4389457558,
                6760810378,
                6760810379
            ],
            "tags": {
                "amenity": "fuel",
                "brand": "Tamoil",
                "brand:wikidata": "Q706793",
                "compressed_air": "yes",
                "name": "Tamoil",
                "operator": "T.D.M. S.R.L.",
                "ref:mise": "39827"
            }
        },
        {
            "type": "way",
            "id": 465751873,
            "timestamp": "2023-01-12T15:17:26Z",
            "version": 2,
            "changeset": 131193402,
            "user": "LorenzoPesci",
            "uid": 5328797,
            "nodes": [
                4606751830,
                4606751831,
                4606751832,
                4606751833,
                4606751830
            ],
            "tags": {
                "addr:city": "Foligno",
                "addr:street": "Via Umberto Nobile",
                "brand": "Conad",
                "brand:wikidata": "Q639075",
                "building": "commercial",
                "name": "Conad",
                "shop": "supermarket"
            }
        },
        {
            "type": "way",
            "id": 528266071,
            "timestamp": "2023-08-21T17:01:52Z",
            "version": 3,
            "changeset": 140192189,
            "user": "arcanma",
            "uid": 1211510,
            "nodes": [
                5134210773,
                5134213550,
                5134213521,
                5134213558,
                5134213624,
                11134641460,
                11134641458,
                11134641459,
                5134213564,
                5134213527,
                5134213614,
                5134213644,
                5134210773
            ],
            "tags": {
                "brand": "Conad",
                "brand:wikidata": "Q639075",
                "building": "yes",
                "name": "Conad",
                "shop": "supermarket"
            }
        },
        {
            "type": "way",
            "id": 549752427,
            "timestamp": "2023-07-18T14:54:23Z",
            "version": 4,
            "changeset": 138673950,
            "user": "DnaX",
            "uid": 69259,
            "nodes": [
                5310401830,
                5310401831,
                5310401836,
                5310401832,
                5310401833,
                5310401834,
                5310401858,
                5310456481,
                5310401859,
                5310401320,
                5310401821,
                5310401860,
                5310401830
            ],
            "tags": {
                "brand": "Tezenis",
                "brand:wikidata": "Q28056374",
                "indoor": "area",
                "level": "0",
                "name": "Tezenis",
                "opening_hours": "Mo-Sa 09:00-21:00; Su 10:00-21:00",
                "phone": "+39 0742 710040",
                "room": "shop",
                "shop": "clothes"
            }
        },
        {
            "type": "way",
            "id": 549758671,
            "timestamp": "2023-07-18T14:54:23Z",
            "version": 2,
            "changeset": 138673950,
            "user": "DnaX",
            "uid": 69259,
            "nodes": [
                5310456494,
                5310456520,
                5310456496,
                5310456498,
                5310456497,
                5310456495,
                5310456494
            ],
            "tags": {
                "brand": "Intimissimi",
                "brand:wikidata": "Q305404",
                "clothes": "underwear",
                "indoor": "room",
                "level": "0",
                "name": "Intimissimi",
                "room": "shop",
                "shop": "clothes"
            }
        },
        {
            "type": "way",
            "id": 549758674,
            "timestamp": "2023-07-18T14:54:23Z",
            "version": 2,
            "changeset": 138673950,
            "user": "DnaX",
            "uid": 69259,
            "nodes": [
                5310456502,
                5310459323,
                5310456504,
                5310456505,
                5310456503,
                5310456502
            ],
            "tags": {
                "brand": "Calzedonia",
                "brand:wikidata": "Q1027874",
                "indoor": "room",
                "level": "0",
                "name": "Calzedonia",
                "room": "shop",
                "shop": "clothes"
            }
        },
        {
            "type": "way",
            "id": 587660756,
            "timestamp": "2023-07-18T14:54:23Z",
            "version": 3,
            "changeset": 138673950,
            "user": "DnaX",
            "uid": 69259,
            "nodes": [
                5613250422,
                5613250423,
                5613250424,
                5613250425,
                5613250422
            ],
            "tags": {
                "addr:city": "Trevi",
                "addr:postcode": "06039",
                "addr:street": "Strada Statale Flaminia",
                "amenity": "fuel",
                "brand": "Tamoil",
                "brand:wikidata": "Q706793",
                "building": "roof",
                "name": "Tamoil",
                "operator": "Benedetti Giovanni",
                "ref:mise": "7982",
                "source:date": "2018-04-16"
            }
        },
        {
            "type": "way",
            "id": 693356448,
            "timestamp": "2019-05-29T16:31:11Z",
            "version": 1,
            "changeset": 70740182,
            "user": "delmol_",
            "uid": 9615356,
            "nodes": [
                6509249721,
                6509249722,
                6509249723,
                6509249724,
                6509249721
            ],
            "tags": {
                "brand": "Conad",
                "brand:wikidata": "Q639075",
                "brand:wikipedia": "it:Conad",
                "building": "yes",
                "name": "Conad",
                "shop": "supermarket"
            }
        },
        {
            "type": "way",
            "id": 918668111,
            "timestamp": "2023-08-04T14:07:11Z",
            "version": 3,
            "changeset": 139443770,
            "user": "Paolo Servili",
            "uid": 11500892,
            "nodes": [
                8531887142,
                8531887143,
                8531887144,
                8531887145,
                8531887146,
                8531887147,
                8531887148,
                8531887142
            ],
            "tags": {
                "addr:city": "Todi",
                "addr:postcode": "06059",
                "addr:street": "Localit\u00e0 Pian di Porto",
                "brand": "Conad City",
                "brand:wikidata": "Q57543102",
                "building": "yes",
                "name": "Conad City",
                "phone": "+39 075 885 2115",
                "shop": "supermarket"
            }
        },
        {
            "type": "way",
            "id": 1038333549,
            "timestamp": "2025-03-17T17:08:39Z",
            "version": 2,
            "changeset": 163741833,
            "user": "wheelmap_visitor",
            "uid": 290680,
            "nodes": [
                9563283701,
                9563283702,
                9563283703,
                9563283704,
                9563283705,
                9563283706,
                9563283701
            ],
            "tags": {
                "brand": "Upim",
                "brand:wikidata": "Q1414836",
                "brand:wikipedia": "it:UPIM",
                "building": "yes",
                "name": "Upim",
                "operator": "Upim SpA",
                "shop": "department_store",
                "wheelchair": "yes"
            }
        },
        {
            "type": "way",
            "id": 1190410684,
            "timestamp": "2023-07-18T14:54:23Z",
            "version": 1,
            "changeset": 138673950,
            "user": "DnaX",
            "uid": 69259,
            "nodes": [
                11053189868,
                11053189869,
                11053189870,
                11053189871,
                11053189868
            ],
            "tags": {
                "brand": "Trony",
                "brand:wikidata": "Q3999692",
                "building": "yes",
                "name": "Trony",
                "shop": "electronics"
            }
        },
        {
            "type": "way",
            "id": 1214839726,
            "timestamp": "2023-10-11T16:07:41Z",
            "version": 1,
            "changeset": 142443420,
            "user": "laxandrea",
            "uid": 381486,
            "nodes": [
                11255312266,
                11255312267,
                11255312268,
                11255312269,
                11255312266
            ],
            "tags": {
                "brand": "Conad",
                "brand:wikidata": "Q639075",
                "building": "commercial",
                "name": "Conad",
                "shop": "supermarket"
            }
        },
        {
            "type": "way",
            "id": 1272833227,
            "timestamp": "2024-04-15T16:36:56Z",
            "version": 1,
            "changeset": 150048247,
            "user": "DabMK",
            "uid": 17965418,
            "nodes": [
                228031466,
                11819591696,
                11819591697,
                11819591698,
                11819591699,
                228031466
            ],
            "tags": {
                "addr:city": "Gracciano",
                "amenity": "fuel",
                "brand": "Q8",
                "brand:wikidata": "Q1634762",
                "highway": "services",
                "name": "Q8",
                "operator": "Crm di Trincia Daniele & C. S.A.S.",
                "ref:mise": "37001",
                "self_service": "yes"
            }
        },
        {
            "type": "way",
            "id": 1311083075,
            "timestamp": "2024-08-25T17:54:51Z",
            "version": 1,
            "changeset": 155749481,
            "user": "DabMK",
            "uid": 17965418,
            "nodes": [
                228121078,
                12136192503,
                12136192504,
                12136192505,
                12136192506,
                12136192507,
                12136192508,
                12136192509,
                12136192510,
                228121078
            ],
            "tags": {
                "addr:city": "Chiusi",
                "amenity": "fuel",
                "brand": "Tamoil",
                "brand:wikidata": "Q706793",
                "highway": "services",
                "name": "Tamoil",
                "operator": "L'Oasi di Nappo S.R.L.",
                "ref:mise": "13545"
            }
        }
    ],
    "telegram": [
        {
            "telegram": "ss-umbria"
        }
    ]
}