{
    "id": "venezia",
    "name": "Venezia",
    "lng": 45.43352207,
    "lat": 12.33655237,
    "poi": [
        {
            "type": "node",
            "id": 2800768123,
            "lat": 45.371839,
            "lon": 11.7913317,
            "timestamp": "2024-10-06T08:30:00Z",
            "version": 7,
            "changeset": 157528611,
            "user": "mpbin",
            "uid": 21850090,
            "tags": {
                "addr:city": "Abano Terme",
                "addr:housenumber": "129",
                "addr:postcode": "35031",
                "addr:street": "Via Cesare Battisti",
                "check_date": "2024-10-06",
                "check_date:currency:XBT": "2024-10-06",
                "contact:facebook": "https://www.facebook.com/www.autofesiocom/",
                "currency:XBT": "yes",
                "email": "info@autofesio.com",
                "landuse": "commercial",
                "name": "AutoFesio Salone Auto",
                "phone": "+39 329 6876517",
                "shop": "car",
                "website": "https://www.autofesio.com/"
            }
        },
        {
            "type": "node",
            "id": 3010651735,
            "lat": 45.4385355,
            "lon": 12.3214867,
            "timestamp": "2024-11-04T09:46:40Z",
            "version": 17,
            "changeset": 158732472,
            "user": "mpbin",
            "uid": 21850090,
            "tags": {
                "addr:city": "Venezia",
                "addr:housenumber": "220",
                "addr:postcode": "30135",
                "addr:street": "Fondamenta dei Tolentini",
                "amenity": "fast_food",
                "check_date": "2024-10-23",
                "check_date:currency:XBT": "2024-10-17",
                "contact:facebook": "https://www.facebook.com/atledmeatlab/",
                "contact:instagram": "https://www.instagram.com/atled_meatlab/",
                "contact:pinterest": "https://it.pinterest.com/AtledMeatLab/",
                "cuisine": "burger;sandwich",
                "currency:XBT": "yes",
                "diet:meat": "yes",
                "email": "info@atledmeatlab.it",
                "name": "Atled Meat Lab",
                "payment:lightning": "yes",
                "phone": "+39 041 458 8914",
                "website": "https://www.atledmeatlab.it/"
            }
        },
        {
            "type": "node",
            "id": 3396925558,
            "lat": 45.4386847,
            "lon": 12.3213929,
            "timestamp": "2024-10-17T16:16:44Z",
            "version": 7,
            "changeset": 158016334,
            "user": "Rockedf",
            "uid": 7522075,
            "tags": {
                "addr:city": "Venezia",
                "addr:housenumber": "225",
                "addr:postcode": "30135",
                "addr:street": "Fondamenta dei Tolentini",
                "amenity": "restaurant",
                "check_date:currency:XBT": "2024-10-17",
                "currency:XBT": "yes",
                "currency:XBT:operator": "bitcoinpos.it",
                "name": "Hostaria Vecio Biavarol",
                "payment:lightning": "yes"
            }
        },
        {
            "type": "node",
            "id": 4234614970,
            "lat": 45.4362405,
            "lon": 12.3357088,
            "timestamp": "2023-08-26T09:45:56Z",
            "version": 7,
            "changeset": 140403740,
            "user": "Chiarant",
            "uid": 18452174,
            "tags": {
                "addr:city": "Venezia",
                "addr:housenumber": "4558",
                "addr:postcode": "30124",
                "addr:street": "Campo San Luca",
                "check_date": "2023-08-26",
                "clothes": "men",
                "currency:XBT": "yes",
                "name": "Doppelganger",
                "opening_hours": "Mo-Sa 09:30-19:30; Su 11:00-19:30",
                "phone": "0415209251",
                "shop": "clothes"
            }
        },
        {
            "type": "node",
            "id": 4377025289,
            "lat": 45.5475583,
            "lon": 12.3039652,
            "timestamp": "2023-07-31T14:23:33Z",
            "version": 2,
            "changeset": 139256906,
            "user": "BTC Map",
            "uid": 18545877,
            "tags": {
                "check_date:currency:XBT": "2023-07-31",
                "currency:XBT": "yes",
                "name": "Mondo Convenienza",
                "name:it": "Mondo Convenienza",
                "shop": "furniture"
            }
        },
        {
            "type": "node",
            "id": 4531889985,
            "lat": 45.6851608,
            "lon": 12.2466798,
            "timestamp": "2024-06-14T12:39:05Z",
            "version": 5,
            "changeset": 152676259,
            "user": "Rockedf",
            "uid": 7522075,
            "tags": {
                "addr:city": "Treviso",
                "addr:country": "IT",
                "addr:housenumber": "24",
                "addr:postcode": "31100",
                "addr:street": "Via dei Da Prata",
                "amenity": "restaurant",
                "check_date": "2022-12-12",
                "check_date:currency:XBT": "2024-06-14",
                "currency:XBT": "yes",
                "name": "Bastian Osteria",
                "opening_hours": "Mo-Fr 12:00-15:00,18:00-26:00; Sa 18:00-26:00; Su 16:30-26:00",
                "payment:lightning": "no",
                "payment:lightning_contactless": "no",
                "payment:onchain": "yes",
                "phone": "+390422424391",
                "website": "https://bastianosteria.it/"
            }
        },
        {
            "type": "node",
            "id": 4727745918,
            "lat": 45.4090126,
            "lon": 11.8788211,
            "timestamp": "2023-08-26T09:32:32Z",
            "version": 5,
            "changeset": 140403176,
            "user": "Chiarant",
            "uid": 18452174,
            "tags": {
                "addr:city": "Padova",
                "addr:housenumber": "9",
                "addr:postcode": "35121",
                "addr:street": "Via Altinate",
                "check_date": "2023-08-26",
                "clothes": "men",
                "currency:XBT": "yes",
                "name": "Doppelg\u00e4nger",
                "phone": "+39 0498757916",
                "shop": "clothes"
            }
        },
        {
            "type": "node",
            "id": 5248441042,
            "lat": 45.6545355,
            "lon": 11.9084338,
            "timestamp": "2024-04-30T09:31:08Z",
            "version": 7,
            "changeset": 150697110,
            "user": "\u0110uro Ji\u0159\u00ed",
            "uid": 14617702,
            "tags": {
                "addr:city": "Castelfranco Veneto",
                "addr:housenumber": "17",
                "addr:postcode": "31033",
                "addr:street": "Via Castellana",
                "amenity": "restaurant",
                "check_date:currency:XBT": "2023-09-25",
                "currency:XBT": "yes",
                "description": "Storico ristorante pizzeria dal 1890.",
                "email": "info@pizzeriabriangennaro.it",
                "indoor_seating": "yes",
                "name": "Pizzeria da Gennaro",
                "outdoor_seating": "yes",
                "phone": "+390423482188",
                "website": "http://www.pizzeriabriangennaro.it"
            }
        },
        {
            "type": "node",
            "id": 5948417988,
            "lat": 45.4452147,
            "lon": 12.3303437,
            "timestamp": "2024-11-04T14:37:17Z",
            "version": 4,
            "changeset": 158743598,
            "user": "mpbin",
            "uid": 21850090,
            "tags": {
                "addr:city": "Venezia",
                "addr:housenumber": "2625",
                "addr:postcode": "30121",
                "addr:street": "Fondamenta de la Misericordia",
                "contact:facebook": "https://www.facebook.com/mariangelavenice/",
                "contact:mobile": "+39 320 492 6698",
                "currency:XBT": "yes",
                "description": "B&B",
                "email": "petrasasso@yahoo.it",
                "name": "Mariangela Artist's Lodge B&B",
                "tourism": "guest_house",
                "website": "https://www.venice-lodge.com/"
            }
        },
        {
            "type": "node",
            "id": 6131287245,
            "lat": 45.354129,
            "lon": 11.772486,
            "timestamp": "2023-07-21T00:41:15Z",
            "version": 2,
            "changeset": 138788730,
            "user": "saunter",
            "uid": 10396321,
            "tags": {
                "addr:city": "Abano Terme",
                "addr:housenumber": "21",
                "addr:postcode": "35031",
                "addr:street": "Via Monteortone",
                "check_date:currency:XBT": "2023-07-21",
                "currency:XBT": "yes",
                "description": "Consulenza su criptovalute e blockchain, cambio critpovalute contro euro, messa in sicurezza, vendita gadget informatici, hardware wallet, T-shirt, corsi di formazione sul mondo cripto e bitcoin.",
                "email": "center@bitcoinveneto.it",
                "name": "Bitcoin Veneto Center",
                "office": "educational_institution",
                "phone": "+39 3405035130",
                "website": "https://www.bitcoinvenetocenter.it"
            }
        },
        {
            "type": "node",
            "id": 6503288231,
            "lat": 45.435037,
            "lon": 12.340914,
            "timestamp": "2024-02-19T04:27:46Z",
            "version": 13,
            "changeset": 147632766,
            "user": "Igor Bubelov",
            "uid": 2104834,
            "tags": {
                "addr:city": "Venezia",
                "addr:housenumber": "4318",
                "addr:place": "Castello",
                "addr:postcode": "30122",
                "addr:street": "Rugheta Sant'Apollonia",
                "check_date": "2023-11-17",
                "currency:XBT": "yes",
                "description": "Negozio laboratorio di produzione gioielli in oro e pietre preziose: moretti ed altri gioielli esclusivi personalizzati realizzati a mano, teschi vanitas, corniole incise, gioielli con opali e molto altro.",
                "email": "info@webjewels.it",
                "name": "Oreficeria Gioielleria Dogale",
                "note": "Domenica chiuso (luglio e agosto chiuso anche il sabato pomeriggio) Sunday closed (July and August also closed on Saturday afternoons)",
                "opening_hours": "Mo-Sa 09:40-12:40,15:30-18:40",
                "payment:cash": "yes",
                "payment:credit_cards": "yes",
                "payment:lightning": "yes",
                "payment:onchain": "yes",
                "phone": "+39 0415287549",
                "shop": "jewelry",
                "start_date": "1952",
                "website": "https://www.gioiellivenezia.com/"
            }
        },
        {
            "type": "node",
            "id": 9391569155,
            "lat": 45.6688905,
            "lon": 12.2412925,
            "timestamp": "2024-04-14T08:44:34Z",
            "version": 4,
            "changeset": 149981812,
            "user": "Chiarant",
            "uid": 18452174,
            "tags": {
                "addr:city": "Treviso",
                "addr:housenumber": "54",
                "addr:postcode": "31100",
                "addr:street": "Viale Bartolomeo D'Alviano",
                "amenity": "atm",
                "check_date": "2024-04-14",
                "currency:XBT": "yes",
                "description": "Bitcoin ATM che permette di acquistare Bitcoin, Ethereum, Litecoin, Dogecoin, Bitcoin Cash, Dash, Monero. L'ATM \u00e8 situato all'interno del BAR 98.",
                "email": "support@cryptolocalatm.com",
                "name": "CryptoLocalATM c/o BAR 98",
                "payment:onchain": "yes",
                "phone": "+447894438974",
                "website": "https://cryptolocalatm.com"
            }
        },
        {
            "type": "node",
            "id": 9483808945,
            "lat": 45.4358531,
            "lon": 12.3351141,
            "timestamp": "2024-10-29T20:47:46Z",
            "version": 5,
            "changeset": 158516366,
            "user": "mpbin",
            "uid": 21850090,
            "tags": {
                "addr:city": "Venezia",
                "addr:housenumber": "4590",
                "addr:postcode": "30124",
                "addr:street": "Campo San Luca",
                "check_date": "2024-10-29",
                "check_date:currency:XBT": "2024-10-29",
                "check_date:opening_hours": "2024-08-21",
                "contact:facebook": "https://www.facebook.com/DestinationVenice",
                "contact:instagram": "https://www.instagram.com/destination_venice/",
                "currency:XBT": "yes",
                "email": "info@destination-venice.com",
                "flag:type": "municipal",
                "name": "Destination Venice",
                "opening_hours:signed": "no",
                "phone": "+39 041 528 3547",
                "shop": "travel_agency",
                "tourism": "travel_agent;information",
                "website": "https://destination-venice.com/"
            }
        },
        {
            "type": "node",
            "id": 10035938701,
            "lat": 45.4542033,
            "lon": 12.3510493,
            "timestamp": "2022-09-22T06:09:00Z",
            "version": 2,
            "changeset": 126489243,
            "user": "Igor Bubelov",
            "uid": 2104834,
            "tags": {
                "addr:city": "Murano",
                "addr:housenumber": "6",
                "addr:postcode": "30141",
                "addr:street": "Ramo Domenico Gisberti",
                "currency:XBT": "yes",
                "name": "Sunset Yogurt",
                "phone": "+39 3703689211",
                "shop": "jewelry",
                "survey:date": "2022-09-22",
                "website": "https://sunsetyogurt.com/"
            }
        },
        {
            "type": "node",
            "id": 10155200041,
            "lat": 45.3915973,
            "lon": 11.8928962,
            "timestamp": "2024-07-05T19:47:53Z",
            "version": 6,
            "changeset": 153602587,
            "user": "mauropili",
            "uid": 1496865,
            "tags": {
                "addr:city": "Padova",
                "addr:housenumber": "1",
                "addr:postcode": "35127",
                "addr:street": "Via Giuseppe Perin",
                "amenity": "cafe",
                "check_date:currency:XBT": "2023-08-09",
                "cuisine": "coffee_shop",
                "currency:XBT": "yes",
                "name": "20quadricafe'",
                "payment:lightning": "yes",
                "survey:date": "2022-11-03"
            }
        },
        {
            "type": "node",
            "id": 10222087379,
            "lat": 45.4770977,
            "lon": 12.2016531,
            "timestamp": "2023-12-13T13:45:22Z",
            "version": 3,
            "changeset": 145076091,
            "user": "Rockedf",
            "uid": 7522075,
            "tags": {
                "addr:city": "Venezia",
                "addr:housenumber": "14",
                "addr:postcode": "30175",
                "addr:street": "Via Bottenigo",
                "check_date:currency:XBT": "2023-12-13",
                "currency:XBT": "yes",
                "email": "artigianafoto@mail.com",
                "name": "Artigiana Foto",
                "operator": "Artigiana Foto",
                "payment:lightning": "yes",
                "payment:lightning_contactless": "yes",
                "payment:onchain": "yes",
                "phone": "+39041923438",
                "shop": "photo"
            }
        },
        {
            "type": "node",
            "id": 10273264150,
            "lat": 45.2024965,
            "lon": 12.2981574,
            "timestamp": "2024-10-28T17:15:09Z",
            "version": 3,
            "changeset": 158465653,
            "user": "mpbin",
            "uid": 21850090,
            "tags": {
                "addr:city": "Chioggia",
                "addr:housenumber": "206",
                "addr:postcode": "30015",
                "addr:street": "Viale Cristoforo Colombo",
                "amenity": "restaurant",
                "check_date": "2024-10-28",
                "check_date:currency:XBT": "2024-10-28",
                "contact:facebook": "https://www.facebook.com/MammaMiaSottomarina/",
                "cuisine": "pizza",
                "currency:XBT": "yes",
                "email": "mammamiasottomarina@gmail.com",
                "name": "MammaMia",
                "opening_hours": "Fr 18:00-22:00; Sa-Su 10:00-02:00, 18:00-22:00",
                "payment:lightning": "yes",
                "payment:lightning_contactless": "no",
                "payment:onchain": "yes",
                "phone": "+390417792544"
            }
        },
        {
            "type": "node",
            "id": 10561952509,
            "lat": 45.4314612,
            "lon": 12.3561868,
            "timestamp": "2024-01-24T10:46:46Z",
            "version": 2,
            "changeset": 146624011,
            "user": "Igor Bubelov",
            "uid": 2104834,
            "tags": {
                "addr:city": "Venezia",
                "addr:housenumber": "1044",
                "addr:postcode": "30122",
                "addr:street": "Calle de le Ancore",
                "check_date": "2023-01-17",
                "currency:XBT": "yes",
                "description": "Tre appartamenti distanti pochi metri dalla Biennale di Venezia e a 15 minuti a piedi da Piazza San Marco.",
                "email": "homeveniceapartments@gmail.com",
                "name": "Home Venice Apartments - Biennale",
                "phone": "+39 3423920076",
                "tourism": "apartment",
                "website": "https://www.homeveniceapartments.it"
            }
        },
        {
            "type": "node",
            "id": 10568121547,
            "lat": 45.4381785,
            "lon": 12.333332,
            "timestamp": "2024-04-29T14:05:02Z",
            "version": 3,
            "changeset": 150665455,
            "user": "MarcoZampiva",
            "uid": 238904,
            "tags": {
                "addr:city": "Venezia",
                "addr:housenumber": "977",
                "addr:place": "San Polo",
                "addr:postcode": "30125",
                "check_date": "2023-01-19",
                "currency:XBT": "yes",
                "description": "Appartamenti distanti pochi metri dal Ponte di Rialto e a 15 minuti a piedi da Piazza San Marco.",
                "email": "homeveniceapartments@gmail.com",
                "name": "Home Venice Apartments - Rialto",
                "phone": "+39 3423920076",
                "tourism": "apartment",
                "website": "https://www.homeveniceapartments.it"
            }
        },
        {
            "type": "node",
            "id": 10568157405,
            "lat": 45.4352777,
            "lon": 12.3307798,
            "timestamp": "2024-11-04T09:54:52Z",
            "version": 4,
            "changeset": 158732742,
            "user": "mpbin",
            "uid": 21850090,
            "tags": {
                "addr:city": "Venezia",
                "addr:housenumber": "3870",
                "addr:place": "San Marco",
                "addr:postcode": "30124",
                "check_date": "2023-09-06",
                "contact:mobile": "+39 370 124 9674",
                "currency:XBT": "yes",
                "description": "Servizi per la compravendita di immobili sia residenziali che commerciali; consulenze gestionali in tutte le fasi della trattativa.",
                "email": "agenziaquinvest@gmail.com",
                "name": "Quinvest Srl",
                "office": "estate_agent",
                "phone": "+39 041 8473628",
                "website": "https://www.quinvestagenzia.it"
            }
        },
        {
            "type": "node",
            "id": 10616413306,
            "lat": 45.6493422,
            "lon": 11.7884405,
            "timestamp": "2024-09-22T16:48:57Z",
            "version": 2,
            "changeset": 156960684,
            "user": "mpbin",
            "uid": 21850090,
            "tags": {
                "addr:city": "Cittadella",
                "addr:postcode": "35013",
                "addr:street": "Via Borgo Treviso",
                "check_date": "2024-09-22",
                "check_date:currency:XBT": "2024-09-22",
                "currency:XBT": "yes",
                "email": "leonardo@pegasodigitalstudio.com",
                "name": "Pegaso Digital Studio",
                "office": "advertising_agency",
                "opening_hours": "Mo-Sa 8:30-12:00, 15:00-19:00",
                "payment:lightning": "yes",
                "payment:lightning_contactless": "no",
                "payment:onchain": "yes",
                "phone": "+39 3478758148",
                "website": "https://www.pegasodigitalstudio.com/"
            }
        },
        {
            "type": "node",
            "id": 10788160129,
            "lat": 45.4586063,
            "lon": 12.2134184,
            "timestamp": "2023-08-02T13:13:40Z",
            "version": 3,
            "changeset": 139347502,
            "user": "Igor Bubelov",
            "uid": 2104834,
            "tags": {
                "addr:city": "Venezia",
                "addr:housenumber": "1",
                "addr:postcode": "30175",
                "addr:street": "Via Pietro Arduino",
                "check_date": "2023-08-02",
                "clothes": "men",
                "currency:XBT": "yes",
                "name": "DOPPELG\u00c4NGER",
                "phone": "041924659",
                "shop": "clothes",
                "website": "https://www.doppelganger.it/"
            }
        },
        {
            "type": "node",
            "id": 10879354113,
            "lat": 45.370045,
            "lon": 11.922507,
            "timestamp": "2023-05-10T12:11:02Z",
            "version": 2,
            "changeset": 135933878,
            "user": "Chiarant",
            "uid": 18452174,
            "tags": {
                "addr:city": "Ponte San Nicol\u00f2",
                "addr:housenumber": "130",
                "addr:postcode": "35020",
                "addr:street": "Via Guglielmo Marconi",
                "addr:unit": "A",
                "amenity": "restaurant",
                "contact:facebook": "https://www.facebook.com/montenapoleonespaten/",
                "contact:instagram": "https://www.instagram.com/montenapoleonespaten/",
                "currency:XBT": "yes",
                "email": "ponte@ristorantimontenapoleone.com",
                "name": "SPATEN - BIRRERIA MONTENAPOLEONE",
                "payment:lightning": "yes",
                "payment:lightning_contactless": "yes",
                "payment:onchain": "no",
                "phone": "+39 0498882698",
                "survey:date": "2023-05-10",
                "website": "https://www.ristorantimontenapoleone.com/"
            }
        },
        {
            "type": "node",
            "id": 10945938353,
            "lat": 45.6366088,
            "lon": 11.7838331,
            "timestamp": "2024-10-08T19:02:44Z",
            "version": 7,
            "changeset": 157642146,
            "user": "mpbin",
            "uid": 21850090,
            "tags": {
                "addr:city": "Cittadella",
                "addr:housenumber": "56",
                "addr:postcode": "35013",
                "addr:street": "Via Beltramina",
                "addr:unit": "3",
                "check_date": "2024-10-08",
                "check_date:currency:XBT": "2024-10-08",
                "contact:facebook": "https://www.facebook.com/profile.php?id=100083076879992",
                "currency:XBT": "yes",
                "email": "m.beltramello@proton.me",
                "guest_house": "landlords_-_affittacamere",
                "internet_access": "wlan",
                "internet_access:fee": "customers",
                "name": "B&B - Beltramina Bedroom - Affitta Camere",
                "payment:cash": "yes",
                "payment:lightning": "yes",
                "payment:lightning_contactless": "yes",
                "payment:onchain": "yes",
                "phone": "+393498444285",
                "rooms": "3",
                "survey:date": "2023-06-03",
                "tourism": "guest_house",
                "website": "https://airbnb.com/h/beltraminabedroom1"
            }
        },
        {
            "type": "node",
            "id": 11331183190,
            "lat": 45.4583868,
            "lon": 12.2127619,
            "timestamp": "2023-11-07T14:04:09Z",
            "version": 1,
            "changeset": 143738826,
            "user": "Chiarant",
            "uid": 18452174,
            "tags": {
                "addr:city": "Venezia",
                "addr:housenumber": "20",
                "addr:postcode": "30175",
                "addr:street": "Via Pietro Arduino",
                "amenity": "fast_food",
                "check_date": "2023-11-07",
                "cuisine": "kebab",
                "currency:XBT": "yes",
                "name": "Kebhouze - Nave de Vero",
                "payment:lightning": "yes",
                "payment:lightning_contactless": "yes",
                "payment:onchain": "yes",
                "website": "https://kebhouze.com"
            }
        },
        {
            "type": "node",
            "id": 11404313408,
            "lat": 45.4451233,
            "lon": 12.3290784,
            "timestamp": "2024-07-06T07:04:13Z",
            "version": 5,
            "changeset": 153612433,
            "user": "mauropili",
            "uid": 1496865,
            "tags": {
                "addr:city": "Venezia",
                "addr:housenumber": "2690/A",
                "addr:postcode": "30121",
                "addr:street": "Sestiere Cannaregio",
                "amenity": "restaurant",
                "check_date:currency:XBT": "2024-02-28",
                "cuisine": "regional;italian",
                "currency:XBT": "yes",
                "currency:XBT:operator": "walletofsatoshi.com",
                "name": "Osteria Marcianino",
                "payment:lightning": "yes",
                "payment:onchain": "yes",
                "phone": "+39 041 476 7531",
                "survey:date": "2024-02-28"
            }
        },
        {
            "type": "node",
            "id": 11600298458,
            "lat": 45.7886513,
            "lon": 12.6778123,
            "timestamp": "2024-02-09T00:49:18Z",
            "version": 1,
            "changeset": 147237744,
            "user": "Carlofrc",
            "uid": 588899,
            "tags": {
                "addr:city": "Annone Veneto",
                "addr:housenumber": "30/A",
                "addr:postcode": "30020",
                "addr:street": "Via Oltrefossa",
                "check_date:currency:XBT": "2023-02-21",
                "currency:XBT": "yes",
                "email": "netwir@netwir.com",
                "fax": "+39 0422 868437",
                "name": "Network & Wireless SRL",
                "office": "telecommunication",
                "opening_hours": "09:00-12:00,15:00-19:00",
                "operator": "INFORMATION & COMMUNICATIONS TECHNOLOGY",
                "payment:cash": "yes",
                "payment:coins": "yes",
                "payment:debit_cards": "no",
                "payment:litecoin": "yes",
                "payment:maestro": "no",
                "payment:mastercard": "yes",
                "payment:visa": "yes",
                "phone": "+39 0422 868082",
                "website": "https://www.netwir.com",
                "wheelchair": "limited"
            }
        },
        {
            "type": "node",
            "id": 11812265884,
            "lat": 45.384531,
            "lon": 11.7844921,
            "timestamp": "2024-07-05T20:00:22Z",
            "version": 2,
            "changeset": 153602990,
            "user": "mauropili",
            "uid": 1496865,
            "tags": {
                "addr:city": "Selvazzano Dentro",
                "addr:housenumber": "151",
                "addr:postcode": "35030",
                "addr:street": "Via Euganea",
                "amenity": "pub",
                "check_date": "2024-04-12",
                "currency:XBT": "yes",
                "name": "Dalle Canaglie",
                "payment:lightning": "yes",
                "payment:lightning_contactless": "no",
                "payment:onchain": "no",
                "phone": "+39 04 9261 5718"
            }
        },
        {
            "type": "node",
            "id": 12124193046,
            "lat": 45.5869419,
            "lon": 12.853504,
            "timestamp": "2024-08-21T11:39:46Z",
            "version": 1,
            "changeset": 155553209,
            "user": "Chiarant",
            "uid": 18452174,
            "tags": {
                "addr:city": "Caorle",
                "addr:housenumber": "33",
                "addr:postcode": "30021",
                "addr:street": "Corso Genova",
                "amenity": "bar",
                "currency:XBT": "yes",
                "name": "Bar Carillon",
                "payment:onchain": "yes"
            }
        },
        {
            "type": "node",
            "id": 12146085710,
            "lat": 45.6599593,
            "lon": 12.2534554,
            "timestamp": "2024-08-30T12:37:48Z",
            "version": 1,
            "changeset": 155972100,
            "user": "mpbin",
            "uid": 21850090,
            "tags": {
                "addr:city": "Treviso",
                "addr:housenumber": "31",
                "addr:postcode": "31100",
                "addr:street": "Via Sebastiano Venier",
                "consulting": "bitcoin",
                "contact:telegram": "https://t.me/Suhaci",
                "currency:XBT": "yes",
                "description": "Consulenza Aziendale",
                "email": "consulting@suhaci.com",
                "name": "Suhaci Consulting",
                "office": "consulting",
                "payment:lightning": "no",
                "phone": "+39 340 389 3512",
                "website": "https://www.suhaci.com/"
            }
        }
    ],
    "telegram": [
        {
            "telegram": "b-veneto"
        },
        {
            "telegram": "bitcoin-in-venice"
        },
        {
            "telegram": "ss-venezia"
        }
    ]
}