{
    "id": "verona",
    "name": "Verona",
    "lng": 45.43839046,
    "lat": 10.99352685,
    "poi": [
        {
            "type": "node",
            "id": 417856704,
            "lat": 45.8751426,
            "lon": 11.0335673,
            "timestamp": "2024-07-10T19:39:42Z",
            "version": 5,
            "changeset": 153798421,
            "user": "mauropili",
            "uid": 1496865,
            "tags": {
                "addr:city": "Rovereto",
                "addr:housenumber": "76",
                "addr:postcode": "38068",
                "addr:street": "Corso Verona",
                "amenity": "restaurant",
                "check_date:currency:XBT": "2024-03-24",
                "contact:facebook": "https://www.facebook.com/profile.php?id=100063761882346",
                "cuisine": "pizza",
                "currency:XBT": "yes",
                "name": "Pizzeria Botti",
                "opening_hours": "Tu-Su 08:30-23:30",
                "payment:XBT:operator": "bitcoinpos.it",
                "payment:lightning": "yes",
                "phone": "0464 432521",
                "website": "https://www.pizzeriabotti.it/",
                "wheelchair": "yes"
            }
        },
        {
            "type": "node",
            "id": 1374813273,
            "lat": 45.884284,
            "lon": 11.0686961,
            "timestamp": "2024-02-04T12:00:18Z",
            "version": 3,
            "changeset": 147050888,
            "user": "mueschel",
            "uid": 616774,
            "tags": {
                "addr:city": "Rovereto",
                "addr:housenumber": "27",
                "addr:postcode": "38068",
                "addr:street": "Via Fontani",
                "alt_name": "Bar Circolo ENAL",
                "amenity": "bar",
                "check_date:currency:XBT": "2024-01-31",
                "currency:XBT": "yes",
                "currency:XBT:discount": "10%",
                "name": "Circolo ENAL",
                "payment:XBT:operator": "bitcoinpos.it",
                "payment:lightning": "yes",
                "payment:lightning_contactless": "no",
                "payment:onchain": "no"
            }
        },
        {
            "type": "node",
            "id": 1452373305,
            "lat": 45.4394324,
            "lon": 11.0041704,
            "timestamp": "2024-06-28T22:19:44Z",
            "version": 12,
            "changeset": 153312411,
            "user": "Rockedf",
            "uid": 7522075,
            "tags": {
                "addr:city": "Verona",
                "addr:housenumber": "6a",
                "addr:postcode": "37129",
                "addr:street": "Via San Vitale",
                "amenity": "restaurant",
                "check_date:currency:XBT": "2024-06-28",
                "contact:facebook": "https://www.facebook.com/osteriascalin/",
                "currency:XBT": "yes",
                "email": "osteria@scalin.it",
                "name": "Osteria Scalin",
                "payment:lightning": "yes",
                "payment:onchain": "no",
                "phone": "+39 045 2376356",
                "website": "https://www.osteriascalin.it/"
            }
        },
        {
            "type": "node",
            "id": 1814218229,
            "lat": 45.5116142,
            "lon": 10.4047716,
            "timestamp": "2024-04-10T14:07:48Z",
            "version": 11,
            "changeset": 149821960,
            "user": "Igor Bubelov",
            "uid": 2104834,
            "tags": {
                "addr:city": "Bedizzole",
                "addr:housenumber": "17/b",
                "addr:postcode": "25081",
                "addr:street": "Via Giuseppe Garibaldi",
                "amenity": "fuel",
                "brand": "Eni",
                "brand:wikidata": "Q565594",
                "check_date": "2024-04-10",
                "currency:XBT": "yes",
                "name": "Distributore Carburanti AGIP",
                "operator": "Pasquato Faustino",
                "payment:bitcoin:operator": "inbitcoin.it",
                "ref:mise": "8064",
                "website": "https://www.facebook.com/distributorepasquato/"
            }
        },
        {
            "type": "node",
            "id": 2150998976,
            "lat": 45.8754508,
            "lon": 11.0332189,
            "timestamp": "2024-03-16T23:19:06Z",
            "version": 8,
            "changeset": 148753551,
            "user": "loop_btc",
            "uid": 20522504,
            "tags": {
                "addr:city": "Rovereto",
                "addr:country": "IT",
                "addr:housenumber": "17",
                "addr:postcode": "38068",
                "addr:street": "Piazza Sant'Antonio",
                "amenity": "pub",
                "brewery": "various",
                "check_date": "2024-03-17",
                "check_date:currency:XBT": "2024-03-17",
                "contact:phone": "+39 0464 437724",
                "currency:XBT": "yes",
                "currency:XBT:discount": "10%",
                "name": "Il Druido",
                "operator": "Angheben Ivan",
                "payment:XBT:operator": "bitcoinpos.it",
                "payment:lightning": "yes",
                "ref:vatin": "IT02433800220",
                "wheelchair": "yes",
                "wifi": "no"
            }
        },
        {
            "type": "node",
            "id": 2872848040,
            "lat": 45.8777732,
            "lon": 10.8908323,
            "timestamp": "2024-02-06T05:23:27Z",
            "version": 10,
            "changeset": 147118892,
            "user": "Igor Bubelov",
            "uid": 2104834,
            "tags": {
                "addr:city": "Nago-Torbole",
                "addr:housenumber": "82",
                "addr:postcode": "38069",
                "addr:street": "Via San Vigilio",
                "check_date:currency:XBT": "2023-08-08",
                "currency:EUR": "yes",
                "currency:XBT": "yes",
                "email": "conadnago@gmail.com",
                "name": "Margherita Conad",
                "opening_hours": "Mo-Sa 08:00-12:30,16:00-19:30; Su 08:00-12:30",
                "payment:bitcoin:operator": "inbitcoin.it",
                "payment:lightning": "yes",
                "payment:onchain": "yes",
                "phone": "+390464506218",
                "shop": "supermarket"
            }
        },
        {
            "type": "node",
            "id": 4526469787,
            "lat": 45.5572776,
            "lon": 11.5274867,
            "timestamp": "2023-11-21T18:26:49Z",
            "version": 2,
            "changeset": 144298563,
            "user": "Chiarant",
            "uid": 18452174,
            "tags": {
                "addr:city": "Vicenza",
                "addr:country": "IT",
                "addr:housenumber": "282",
                "addr:postcode": "36100",
                "addr:street": "Viale Trento",
                "check_date": "2023-11-21",
                "contact:facebook": "https://www.facebook.com/metodogommesnc/",
                "currency:XBT": "yes",
                "email": "metodogomme@gmail.com",
                "name": "Metodo Gomme",
                "phone": "+39 328 093 1955",
                "shop": "tyres"
            }
        },
        {
            "type": "node",
            "id": 4553697792,
            "lat": 45.4378688,
            "lon": 10.9958258,
            "timestamp": "2024-07-15T19:44:39Z",
            "version": 4,
            "changeset": 153987400,
            "user": "Rockedf",
            "uid": 7522075,
            "tags": {
                "addr:city": "Verona",
                "addr:country": "IT",
                "addr:housenumber": "7",
                "addr:postcode": "37121",
                "addr:street": "Via Orti Manara",
                "check_date:currency:XBT": "2024-07-15",
                "currency:XBT": "yes",
                "description": "Dottori Commercialisti & Revisori legali",
                "name": "Studio Marchiori STP",
                "office": "accountant",
                "website": "https://www.studiomarchiori.com/"
            }
        },
        {
            "type": "node",
            "id": 4855618125,
            "lat": 45.4604358,
            "lon": 10.5677196,
            "timestamp": "2024-07-20T21:11:31Z",
            "version": 7,
            "changeset": 154196210,
            "user": "mauropili",
            "uid": 1496865,
            "tags": {
                "addr:city": "Desenzano del Garda",
                "addr:housenumber": "44",
                "addr:postcode": "25015",
                "addr:street": "Via Parrocchiale",
                "amenity": "restaurant",
                "check_date": "2023-12-29",
                "contact:facebook": "https://www.facebook.com/bruschetterianose/",
                "contact:instagram": "https://www.instagram.com/bruschetterianose/",
                "currency:XBT": "yes",
                "description": "Nasce nel marzo 2015 con l\u2019obiettivo di rendere la bruschetta la vera e propria protagonista. Nel corso degli anni siamo cresciuti, imparando diverse tecniche e lavorazioni. Oggi utilizziamo il nostro pane a lievitazione naturale e prodotti ricercati.",
                "email": "info@bruschetterianose.it",
                "name": "Bruschetteria Nose",
                "phone": "+393896946385",
                "toilets:wheelchair": "yes",
                "website": "https://www.bruschetterianose.it/",
                "wheelchair": "yes",
                "wheelchair:description": "Es gibt Sitzpl\u00e4tze vor der Bruschetteria, in den Gastraum f\u00fchrt eine Edelstahlrampe. Tische und St\u00fchle sind teilweise eng gestellt. Zur einzigen ( Rollstuhlgerechten ) Toilette f\u00fchrt eine Schiebet\u00fcr."
            }
        },
        {
            "type": "node",
            "id": 5293931269,
            "lat": 45.4062408,
            "lon": 11.2465163,
            "timestamp": "2023-07-18T21:56:41Z",
            "version": 5,
            "changeset": 138689341,
            "user": "saunter",
            "uid": 10396321,
            "tags": {
                "addr:city": "San Bonifacio",
                "addr:housenumber": "18",
                "addr:postcode": "37047",
                "addr:street": "Via Villabella",
                "check_date:currency:XBT": "2023-07-18",
                "currency:XBT": "yes",
                "description": "I principali ambiti di intervento dello studio sono individuabili nell\u2019area delle materie aziendali, contrattuali, societarie e fiscali, con particolare specializzazione nella gestione ed amministrazione delle piccole e medie imprese.",
                "email": "info@studiopacepartners.it",
                "name": "Studio Pace & Partners",
                "note": "Dottori Commercialisti, Consulenti del Lavoro, Legale e Tributario, Revisori Legali",
                "office": "accountant",
                "payment:ethereum": "yes",
                "payment:litecoin": "yes",
                "phone": "+390456100619",
                "website": "https://www.studiopacepartners.it/"
            }
        },
        {
            "type": "node",
            "id": 5720390522,
            "lat": 45.5493197,
            "lon": 11.5335038,
            "timestamp": "2024-03-09T10:43:35Z",
            "version": 4,
            "changeset": 148416311,
            "user": "_Andrea_",
            "uid": 1462614,
            "tags": {
                "addr:city": "Vicenza",
                "addr:housenumber": "10",
                "addr:postcode": "36100",
                "addr:street": "Viale Battaglione Framarin",
                "amenity": "bar",
                "currency:XBT": "yes",
                "name": "Eclisse Bar",
                "payment:lightning": "yes",
                "payment:lightning_contactless": "no",
                "payment:onchain": "yes",
                "phone": "+39 0444 321896",
                "survey:date": "2023-06-08"
            }
        },
        {
            "type": "node",
            "id": 5779529274,
            "lat": 45.535792,
            "lon": 11.513533,
            "timestamp": "2024-09-25T08:00:14Z",
            "version": 4,
            "changeset": 157069100,
            "user": "mpbin",
            "uid": 21850090,
            "tags": {
                "addr:city": "Vicenza",
                "addr:housenumber": "12",
                "addr:postcode": "36100",
                "addr:street": "Via Benedetto Marcello",
                "check_date": "2024-09-25",
                "check_date:currency:XBT": "2024-09-25",
                "currency:XBT": "yes",
                "description": "Realizziamo internamente insegne, totem, decorazioni automezzi, marketing digitale e tanto altro ancora. Siamo sul territorio dal 1947 e aiutiamo i nostri clienti a sviluppare la loro immagine.",
                "email": "massimo@leodari.com",
                "name": "Leodari Pubblicit\u00e0 s.r.l.",
                "office": "advertising_agency",
                "phone": "+39 0444962233",
                "website": "https://leodari.com/"
            }
        },
        {
            "type": "node",
            "id": 6180386635,
            "lat": 45.3307492,
            "lon": 10.9512601,
            "timestamp": "2024-03-12T19:54:00Z",
            "version": 7,
            "changeset": 148565311,
            "user": "Chiarant",
            "uid": 18452174,
            "tags": {
                "addr:city": "Vigasio",
                "addr:housenumber": "92",
                "addr:postcode": "37068",
                "addr:street": "Via Verona",
                "check_date:currency:XBT": "2024-03-12",
                "currency:XBT": "yes",
                "description": "Nella tranquilla campagna Veronese, l'Hotel Montemezzi \u00e8 una moderna struttura 4 stelle, ideale sia per viaggi di piacere che per meeting di lavoro. Il ristorante offre piatti e vini tipici della gastronomia veneta anche con materie prime a km 0.",
                "email": "direzione@montemezzi.it",
                "name": "Hotel Montemezzi",
                "payment:bitcoin:operator": "inbitcoin.it",
                "phone": "+39 045 7363440",
                "tourism": "hotel",
                "website": "https://www.montemezzi.it/",
                "wikidata": "Q111412887"
            }
        },
        {
            "type": "node",
            "id": 6209967055,
            "lat": 45.8815431,
            "lon": 11.0394002,
            "timestamp": "2023-11-19T10:47:25Z",
            "version": 4,
            "changeset": 144202926,
            "user": "mueschel",
            "uid": 616774,
            "tags": {
                "addr:city": "Rovereto",
                "addr:housenumber": "2",
                "addr:postcode": "38068",
                "addr:street": "Via Fiume",
                "amenity": "bar",
                "check_date:currency:XBT": "2023-10-27",
                "currency:XBT": "yes",
                "currency:XBT:discount": "10%",
                "email": "gelateriariver@gmail.com",
                "name": "River Bar Gelateria",
                "outdoor_seating": "yes",
                "payment:XBT:operator": "bitcoinpos.it",
                "payment:lightning": "yes",
                "payment:onchain": "yes",
                "phone": "+390464400507"
            }
        },
        {
            "type": "node",
            "id": 6236567436,
            "lat": 45.4397258,
            "lon": 10.8643939,
            "timestamp": "2024-08-24T15:44:03Z",
            "version": 5,
            "changeset": 155702657,
            "user": "Jacopo",
            "uid": 21822,
            "tags": {
                "addr:city": "Sona",
                "addr:housenumber": "1",
                "addr:postcode": "37060",
                "addr:street": "Via Trentino",
                "amenity": "atm",
                "cash_in": "yes",
                "cash_out": "no",
                "cash_withdrawal": "no",
                "check_date": "2024-05-15",
                "check_date:currency:XBT": "2022-12-28",
                "currency:EUR": "yes",
                "currency:XBT": "yes",
                "description": "Bitcoin ATM di Chainblock, situato all'interno del centro commerciale La Grande Mela.",
                "email": "info@chainblock.it",
                "indoor": "yes",
                "level": "0",
                "manufacturer": "General Bytes",
                "name": "Chainblock ATM",
                "operator": "Chainblock",
                "payment:cash": "yes",
                "payment:lightning": "no",
                "payment:lightning_contactless": "no",
                "payment:onchain": "yes",
                "url": "https://coinatmradar.com/bitcoin_atm/5718/bitcoin-atm-general-bytes-sona-centro-commerciale-la-grande-mela/",
                "website": "https://chainblock.it/atm/"
            }
        },
        {
            "type": "node",
            "id": 6835335762,
            "lat": 45.14667,
            "lon": 10.798655,
            "timestamp": "2023-11-17T18:12:37Z",
            "version": 5,
            "changeset": 144149923,
            "user": "toponomastica_comune_arenzano",
            "uid": 14257573,
            "tags": {
                "addr:city": "Mantova",
                "addr:housenumber": "5a",
                "addr:postcode": "46100",
                "addr:street": "Via Leopoldo Camillo Volta",
                "check_date:currency:XBT": "2023-07-18",
                "currency:XBT": "yes",
                "description": "Soluzioni blockchain e mining.",
                "name": "Bitviking",
                "telecom": "data_center",
                "website": "https://www.bitviking.it"
            }
        },
        {
            "type": "node",
            "id": 6867227781,
            "lat": 45.8871755,
            "lon": 11.0308428,
            "timestamp": "2023-12-26T10:53:56Z",
            "version": 5,
            "changeset": 145528273,
            "user": "mueschel",
            "uid": 616774,
            "tags": {
                "addr:city": "Rovereto",
                "addr:housenumber": "1",
                "addr:postcode": "38068",
                "addr:street": "Viale della Vittoria",
                "check_date:currency:XBT": "2023-12-06",
                "currency:XBT": "yes",
                "leisure": "fitness_centre",
                "name": "Life Rovereto A.S.D",
                "payment:XBT:operator": "bitcoinpos.it",
                "payment:lightning": "yes",
                "payment:onchain": "no",
                "phone": "+39 389 622 1837",
                "sport": "dance;fitness;pole_dance",
                "website": "https://www.liferovereto.com/"
            }
        },
        {
            "type": "node",
            "id": 8208980511,
            "lat": 45.120793,
            "lon": 10.909389,
            "timestamp": "2024-11-19T15:46:13Z",
            "version": 7,
            "changeset": 159330241,
            "user": "CR1PT0",
            "uid": 22197014,
            "tags": {
                "addr:city": "Roncoferraro",
                "addr:housenumber": "26",
                "addr:postcode": "46037",
                "addr:street": "Via Candido Fanti",
                "currency:EUR": "yes",
                "currency:XBT": "yes",
                "description": "Hacking, cyber security, sicurezza informatica, crittografia, hardware, software, Bitcoin, criptovalute, antivirus, firewall, open source, computer, Linux, Debian, VPN, analisi forensi, audit, vulnerable assestment, smartphone, Android, Graphene.",
                "name": "CR1PT0",
                "office": "it",
                "opening_hours": "24/7",
                "payment:cryptocurrencies": "yes",
                "ref:vatin": "02610840205",
                "start_date": "2015-01-01",
                "website": "https://cr1pt0.com"
            }
        },
        {
            "type": "node",
            "id": 8334378919,
            "lat": 45.4618162,
            "lon": 10.5271708,
            "timestamp": "2023-11-10T12:27:54Z",
            "version": 3,
            "changeset": 143861202,
            "user": "b-jazz-bot",
            "uid": 9451067,
            "tags": {
                "addr:city": "Desenzano",
                "addr:housenumber": "1",
                "addr:postcode": "25015",
                "addr:street": "Via Adua",
                "amenity": "doctors",
                "currency:XBT": "yes",
                "email": "bianchi.osteopata@gmail.com",
                "healthcare": "doctor",
                "internet_access": "wlan",
                "name": "NeoClinic",
                "name:en": "Osteopath - Bianchi Tommaso D.O. BSc Ost.",
                "name:it": "Osteopata - Bianchi Tommaso D.O. BSc Ost.",
                "opening_hours": "Mo-Sa 00:00-24:00",
                "payment:lightning": "yes",
                "payment:lightning_contactless": "yes",
                "payment:onchain": "yes",
                "phone": "3470483429",
                "survey:date": "2022-10-24",
                "website": "https://bianchiosteopata.it/"
            }
        },
        {
            "type": "node",
            "id": 8335906317,
            "lat": 45.4525524,
            "lon": 10.9987741,
            "timestamp": "2023-11-09T19:49:11Z",
            "version": 7,
            "changeset": 143837194,
            "user": "b-jazz-bot",
            "uid": 9451067,
            "tags": {
                "addr:city": "Verona",
                "addr:housenumber": "12d",
                "addr:postcode": "37128",
                "addr:street": "Via Mentana",
                "amenity": "doctors",
                "currency:XBT": "yes",
                "email": "bianchi.osteopata@gmail.com",
                "healthcare": "doctor",
                "healthcare:speciality": "osteopathy",
                "internet_access": "wlan",
                "name": "Tommaso Bianchi - Osteopata",
                "name:en": "Bianchi Tommaso D.O BSc Ost. - Osteopath Verona",
                "opening_hours": "Mo-Sa 08:00-20:30",
                "payment:lightning": "yes",
                "payment:lightning_contactless": "yes",
                "payment:onchain": "yes",
                "phone": "+39 3470483429",
                "survey:date": "2022-10-24",
                "website": "https://bianchiosteopata.it/verona"
            }
        },
        {
            "type": "node",
            "id": 9933827401,
            "lat": 45.322813,
            "lon": 10.9494663,
            "timestamp": "2023-07-18T16:38:00Z",
            "version": 3,
            "changeset": 138678439,
            "user": "saunter",
            "uid": 10396321,
            "tags": {
                "addr:city": "Vigasio",
                "addr:housenumber": "14",
                "addr:postcode": "37068",
                "addr:street": "Via Alzeri",
                "check_date:currency:XBT": "2023-07-18",
                "craft": "electrician",
                "currency:XBT": "yes",
                "description": "Impianti elettrici e automazione cancelli.",
                "email": "info@zoccatelli.it",
                "name": "Z. M. Zoccatelli Impianti",
                "phone": "+39 3484447118",
                "website": "https://www.impiantizoccatelli.it"
            }
        },
        {
            "type": "node",
            "id": 10247809017,
            "lat": 45.38398,
            "lon": 10.492286,
            "timestamp": "2024-07-06T06:47:41Z",
            "version": 3,
            "changeset": 153612144,
            "user": "mauropili",
            "uid": 1496865,
            "tags": {
                "addr:city": "Castiglione delle Stiviere",
                "addr:housenumber": "55",
                "addr:postcode": "46043",
                "addr:street": "Via Giuseppe Mazzini",
                "addr:unit": "c",
                "check_date": "2022-12-09",
                "currency:XBT": "yes",
                "name": "FunPlanet",
                "opening_hours": "Mo-Sa 09:00-12:30, 14:30-19:00",
                "payment:lightning": "yes",
                "payment:onchain": "yes",
                "phone": "+390376670942",
                "shop": "mobile_phone",
                "website": "https://www.funplanet.it/"
            }
        },
        {
            "type": "node",
            "id": 10273203685,
            "lat": 45.6324007,
            "lon": 11.5671468,
            "timestamp": "2024-07-05T19:50:48Z",
            "version": 4,
            "changeset": 153602683,
            "user": "mauropili",
            "uid": 1496865,
            "tags": {
                "addr:city": "Povolaro di Dueville",
                "addr:housenumber": "35a",
                "addr:postcode": "36030",
                "addr:street": "Via Divisione Julia",
                "check_date": "2022-12-19",
                "craft": "electrician",
                "currency:XBT": "yes",
                "name": "Impianti Elettrici Parise",
                "payment:lightning": "yes",
                "payment:onchain": "yes",
                "phone": "+393391741073",
                "website": "https://www.impiantielettriciparise.com/impianti-elettrici-parise-passione-e-professionalita-a-vicenz/"
            }
        },
        {
            "type": "node",
            "id": 10766227160,
            "lat": 45.1577683,
            "lon": 10.7918184,
            "timestamp": "2023-08-01T12:14:23Z",
            "version": 3,
            "changeset": 139297583,
            "user": "Igor Bubelov",
            "uid": 2104834,
            "tags": {
                "addr:housenumber": "45",
                "addr:postcode": "46100",
                "addr:street": "Corso Umberto I\u00b0",
                "check_date": "2023-03-27",
                "clothes": "men",
                "currency:XBT": "yes",
                "name": "DOPPELG\u00c4NGER",
                "phone": "0376360615",
                "shop": "clothes",
                "website": "https://www.doppelganger.it/it/"
            }
        },
        {
            "type": "node",
            "id": 10884255574,
            "lat": 45.5515645,
            "lon": 10.5414466,
            "timestamp": "2023-05-10T18:09:05Z",
            "version": 2,
            "changeset": 135947471,
            "user": "Chiarant",
            "uid": 18452174,
            "tags": {
                "addr:city": "Manerba del Garda",
                "addr:housenumber": "4",
                "addr:postcode": "25080",
                "addr:street": "Vicolo del Poggio",
                "check_date": "2023-05-10",
                "currency:XBT": "yes",
                "email": "bebanticoborgogarda@gmail.com",
                "guest_house": "bed_and_breakfast",
                "name": "Antico Borgo B&B",
                "payment:lightning": "yes",
                "phone": "+39 348 821 0167",
                "tourism": "guest_house",
                "website": "https://www.anticoborgogarda.eu/"
            }
        },
        {
            "type": "node",
            "id": 10979607312,
            "lat": 45.4565873,
            "lon": 10.5850851,
            "timestamp": "2024-01-28T04:24:38Z",
            "version": 2,
            "changeset": 146766313,
            "user": "Igor Bubelov",
            "uid": 2104834,
            "tags": {
                "addr:city": "Desenzano del Garda",
                "addr:postcode": "25015",
                "addr:street": "Via Adriano",
                "amenity": "restaurant",
                "check_date": "2023-06-15",
                "currency:XBT": "yes",
                "email": "gristoreen@gmail.com",
                "name": "RistoGreen",
                "payment:lightning": "yes",
                "payment:lightning_contactless": "no",
                "payment:onchain": "yes",
                "phone": "+39 3402487689"
            }
        },
        {
            "type": "node",
            "id": 11019852717,
            "lat": 45.5536322,
            "lon": 10.7226305,
            "timestamp": "2023-07-02T11:59:52Z",
            "version": 2,
            "changeset": 138020615,
            "user": "Bea1812",
            "uid": 19744243,
            "tags": {
                "addr:city": "Bardolino",
                "addr:housenumber": "1",
                "addr:postcode": "37011",
                "addr:street": "Via dei Poggi",
                "currency:XBT": "yes",
                "email": "beatrice.p18@gmail.com",
                "internet_access": "yes",
                "internet_access:fee": "customers",
                "name": "Luminosa Casetta",
                "operator": "Privato",
                "phone": "+393886907700",
                "rooms": "2",
                "survey:date": "2023-07-02",
                "tourism": "apartment"
            }
        },
        {
            "type": "node",
            "id": 11494464513,
            "lat": 45.7244835,
            "lon": 11.3641751,
            "timestamp": "2024-10-12T18:11:29Z",
            "version": 6,
            "changeset": 157808039,
            "user": "mpbin",
            "uid": 21850090,
            "tags": {
                "addr:city": "Schio",
                "addr:housenumber": "13",
                "addr:postcode": "36015",
                "addr:street": "Via Giarette",
                "amenity": "restaurant",
                "check_date": "2024-10-12",
                "check_date:currency:XBT": "2024-10-12",
                "contact:instagram": "https://www.instagram.com/ajiosteriagiapponese/",
                "cuisine": "japanese",
                "currency:XBT": "yes",
                "email": "osteriagiapponese@gmail.com",
                "name": "Aji Osteria Giapponese",
                "opening_hours": "Tu-Sa 19:00-22:00",
                "payment:lightning": "yes",
                "payment:lightning_contactless": "yes",
                "phone": "+39 351 911 5569",
                "website": "https://osteriagiapponese.wixsite.com/ajiosteriagiapponese"
            }
        },
        {
            "type": "node",
            "id": 11503445235,
            "lat": 45.7245094,
            "lon": 11.3640987,
            "timestamp": "2024-10-12T18:06:13Z",
            "version": 4,
            "changeset": 157807879,
            "user": "mpbin",
            "uid": 21850090,
            "tags": {
                "addr:city": "Schio",
                "addr:housenumber": "13",
                "addr:postcode": "36015",
                "addr:street": "Via Giarette",
                "check_date": "2024-10-12",
                "check_date:currency:XBT": "2024-10-12",
                "contact:email": "info@artigianatogiapponese.it",
                "contact:facebook": "https://www.facebook.com/www.artigianatogiapponese.it",
                "contact:instagram": "https://www.instagram.com/artigianatogiapponese/",
                "currency:XBT": "yes",
                "name": "Artigianato Giapponese",
                "payment:lightning": "yes",
                "payment:lightning_contactless": "yes",
                "payment:onchain": "yes",
                "phone": "+39 32 8376 1399",
                "shop": "yes",
                "website": "https://www.artigianatogiapponese.it/"
            }
        },
        {
            "type": "node",
            "id": 11739288103,
            "lat": 45.5749982,
            "lon": 11.5445911,
            "timestamp": "2024-03-17T23:30:55Z",
            "version": 2,
            "changeset": 148793917,
            "user": "Legalbitcoin",
            "uid": 21205303,
            "tags": {
                "addr:city": "Vicenza",
                "addr:housenumber": "129",
                "addr:postcode": "36100",
                "addr:street": "Via dei Laghi",
                "check_date": "2024-03-17",
                "currency:XBT": "yes",
                "description": "Vendita prodotti JUST. Contattami su WhatsApp, sarai ricontattato appena possibile.",
                "name": "Guoli Patrizia- Prodotti JUST",
                "payment:lightning": "yes",
                "payment:lightning_contactless": "yes",
                "payment:onchain": "yes",
                "phone": "+39 340 693 9814 (solo WhatsApp)",
                "shop": "cosmetics"
            }
        },
        {
            "type": "node",
            "id": 11749080606,
            "lat": 45.6402384,
            "lon": 11.3730009,
            "timestamp": "2024-03-20T22:24:08Z",
            "version": 1,
            "changeset": 148936397,
            "user": "Rockedf",
            "uid": 7522075,
            "tags": {
                "addr:city": "Monte di Malo (VI)",
                "addr:housenumber": "3",
                "addr:postcode": "36030",
                "addr:street": "Via San Giorgio",
                "check_date": "2024-03-20",
                "contact:facebook": "https://www.facebook.com/sabrina.crystalglassart",
                "contact:instagram": "https://www.instagram.com/golinsabrina/",
                "currency:XBT": "yes",
                "name": "Sabrina Golin Art",
                "opening_hours": "Mo-Fr 08:00-12:00,14:00-20:00",
                "payment:lightning": "yes",
                "payment:lightning_contactless": "yes",
                "payment:onchain": "yes",
                "tourism": "gallery",
                "website": "https://www.sabrinacrystal.it/"
            }
        },
        {
            "type": "node",
            "id": 11841224509,
            "lat": 45.8838122,
            "lon": 11.0202464,
            "timestamp": "2024-04-30T14:57:18Z",
            "version": 2,
            "changeset": 150712877,
            "user": "b-jazz-bot",
            "uid": 9451067,
            "tags": {
                "addr:city": "Rovereto",
                "addr:postcode": "38068",
                "addr:street": "Piazza della Manifattura",
                "check_date:currency:XBT": "2024-04-23",
                "currency:XBT": "yes",
                "name": "Floricoltura Alberta",
                "payment:lightning": "yes",
                "phone": "+390464437856",
                "shop": "florist",
                "website": "https://www.floricolturaalberta.it/"
            }
        },
        {
            "type": "node",
            "id": 11876751567,
            "lat": 45.7178276,
            "lon": 11.3883769,
            "timestamp": "2024-08-30T08:14:45Z",
            "version": 5,
            "changeset": 155961109,
            "user": "Ferrigato Srlu",
            "uid": 4774728,
            "tags": {
                "addr:city": "Schio (VI)",
                "addr:country": "IT",
                "addr:postcode": "36015",
                "addr:street": "Via Veneto 2/c",
                "currency:XBT": "yes",
                "healthcare": "yes",
                "name": "Ferrigato Srlu",
                "note": "Health and Safety Consultants",
                "payment:lightning": "yes",
                "payment:onchain": "yes",
                "survey:date": "2024-08-30"
            }
        },
        {
            "type": "node",
            "id": 11902287309,
            "lat": 45.6684186,
            "lon": 11.395146,
            "timestamp": "2024-10-11T21:00:49Z",
            "version": 6,
            "changeset": 157773469,
            "user": "mpbin",
            "uid": 21850090,
            "tags": {
                "addr:city": "Malo",
                "addr:housenumber": "26",
                "addr:postcode": "36034",
                "addr:street": "Via VIII Marzo",
                "contact:email": "info@saloneniko.it",
                "contact:facebook": "https://www.facebook.com/saloneniko.malo",
                "contact:instagram": "https://www.instagram.com/saloneniko/",
                "currency:XBT": "yes",
                "email": "info@saloneniko.it",
                "name": "SALONE NIKO",
                "note": "Taglio, Tecniche del colore, Permanente e stiratura, Asciugatura, Acconciatura, extension. E' gradito l'appuntamento",
                "payment:lightning": "yes",
                "payment:lightning_contactless": "yes",
                "payment:onchain": "no",
                "phone": "+39 0445 602518",
                "shop": "hairdresser",
                "survey:date": "2024-05-11",
                "website": "https://saloneniko.it/"
            }
        },
        {
            "type": "node",
            "id": 11928368360,
            "lat": 45.4395088,
            "lon": 11.0086218,
            "timestamp": "2024-06-13T02:35:57Z",
            "version": 3,
            "changeset": 152610740,
            "user": "Rockedf",
            "uid": 7522075,
            "tags": {
                "addr:city": "Verona",
                "addr:housenumber": "70",
                "addr:postcode": "37129",
                "addr:street": "Via Venti Settembre",
                "amenity": "atm",
                "cash_in": "yes",
                "cash_out": "yes",
                "cash_withdrawal": "yes",
                "check_date": "2024-05-23",
                "contact:email": "support@shitcoins.club",
                "contact:facebook": "https://www.facebook.com/shitcoins.club",
                "contact:instagram": "https://www.instagram.com/shitcoinsclub",
                "contact:telegram": "https://t.me/shitcoinsclub",
                "contact:twitter": "https://twitter.com/BitomatCom",
                "currency:CAD": "yes",
                "currency:CHF": "yes",
                "currency:DASH": "yes",
                "currency:ETH": "yes",
                "currency:EUR": "yes",
                "currency:HUF": "yes",
                "currency:LTC": "yes",
                "currency:RON": "yes",
                "currency:USD": "yes",
                "currency:USDC": "yes",
                "currency:USDT": "yes",
                "currency:XBT": "yes",
                "indoor": "yes",
                "name": "Bitcoin ATM - Shitcoins.club",
                "opening_hours": "24/7",
                "operator": "Shitcoins.club",
                "payment:cash": "yes",
                "payment:lightning": "no",
                "payment:lightning_contactless": "no",
                "payment:onchain": "yes",
                "phone": "+39 34 8048 7308",
                "website": "https://shitcoins.club/localizzazione-atm/atm-bitcoin-verona-via-venti-settembre"
            }
        },
        {
            "type": "node",
            "id": 12351513547,
            "lat": 45.6890029,
            "lon": 11.3735438,
            "timestamp": "2024-11-19T00:11:38Z",
            "version": 5,
            "changeset": 159305051,
            "user": "Legalbitcoin",
            "uid": 21205303,
            "tags": {
                "addr:city": "San Vito Di Leguzzano",
                "addr:postcode": "36030",
                "addr:street": "Via Schio, 58",
                "amenity": "driving_school",
                "contact:email": "autoscuolasanvito@gmail.com",
                "contact:whatsapp": "+393477628784",
                "currency:XBT": "yes",
                "description": "Puoi chiamarci per urgenze anche la domenica.",
                "name": "AUTOSCUOLA SAN VITO di De Pretto Denis",
                "payment:lightning": "yes",
                "payment:lightning_contactless": "yes",
                "payment:onchain": "yes",
                "phone": "+390445510783",
                "survey:date": "2024-11-11"
            }
        }
    ],
    "telegram": [
        {
            "telegram": "b-veneto"
        },
        {
            "telegram": "ss-verona"
        }
    ]
}