{
    "id": "vicenza",
    "name": "Vicenza",
    "lng": 45.54749699,
    "lat": 11.54597109,
    "poi": [
        {
            "type": "node",
            "id": 334511575,
            "lat": 45.412015,
            "lon": 11.9082358,
            "timestamp": "2023-06-05T14:36:32Z",
            "version": 7,
            "changeset": 136976080,
            "user": "Friendly_Ghost",
            "uid": 10875409,
            "tags": {
                "addr:city": "Padova",
                "addr:housenumber": "61",
                "addr:postcode": "35131",
                "addr:street": "Via Venezia",
                "brand": "Conad",
                "brand:wikidata": "Q639075",
                "brand:wikipedia": "it:Conad",
                "level": "0",
                "name": "Conad",
                "opening_hours": "Mo-Su 08:30-21:00",
                "operator": "Conad",
                "payment:bancomat": "yes",
                "payment:cash": "yes",
                "payment:credit_cards": "yes",
                "phone": "+39 049 8690111",
                "shop": "supermarket",
                "website": "https://www.conad.it/ricerca-negozi/negozio.009946.html",
                "wheelchair": "yes"
            }
        },
        {
            "type": "node",
            "id": 334512025,
            "lat": 45.4116273,
            "lon": 11.9107073,
            "timestamp": "2024-02-06T22:24:32Z",
            "version": 7,
            "changeset": 147153939,
            "user": "ezio_m",
            "uid": 2795300,
            "tags": {
                "addr:city": "Padova",
                "addr:housenumber": "104",
                "addr:postcode": "35131",
                "addr:street": "Via Venezia",
                "branch": "Italia SRL",
                "brand": "Decathlon",
                "brand:wikidata": "Q509349",
                "name": "Decathlon",
                "opening_hours": "Mo-Su 09:00-20:00",
                "operator": "Decathlon",
                "shop": "sports",
                "website": "https://www.decathlon.it/store-view/negozio-sport-padova-0070026800268"
            }
        },
        {
            "type": "node",
            "id": 565572053,
            "lat": 45.7515438,
            "lon": 11.7485079,
            "timestamp": "2025-01-01T22:43:56Z",
            "version": 9,
            "changeset": 160887838,
            "user": "mpbin",
            "uid": 21850090,
            "tags": {
                "addr:city": "Cassola",
                "addr:housenumber": "94",
                "addr:postcode": "36022",
                "addr:street": "Via Valsugana",
                "branch": "Schiavotto Elettrodomestici",
                "brand": "Trony",
                "brand:wikidata": "Q3999692",
                "name": "Trony",
                "operator": "Trony",
                "shop": "electronics"
            }
        },
        {
            "type": "node",
            "id": 1119292972,
            "lat": 45.7101621,
            "lon": 11.3701638,
            "timestamp": "2025-01-01T22:32:03Z",
            "version": 4,
            "changeset": 160887580,
            "user": "mpbin",
            "uid": 21850090,
            "tags": {
                "addr:city": "Schio",
                "addr:housenumber": "42",
                "addr:postcode": "36015",
                "addr:street": "Via Paraiso",
                "brand": "Trony",
                "brand:wikidata": "Q3999692",
                "email": "schio@trony.it",
                "fax": "+39 0445 670979",
                "name": "Trony",
                "opening_hours": "Mo 15:00-19:30; Tu-Sa 09:00-12:30,15:00-19:30",
                "operator": "Trony",
                "payment:cards": "yes",
                "payment:cash": "yes",
                "phone": "+39 0445 670963",
                "shop": "electronics",
                "website": "https://www.trony.it/online",
                "wheelchair": "yes"
            }
        },
        {
            "type": "node",
            "id": 1403161164,
            "lat": 45.8241234,
            "lon": 11.8825578,
            "timestamp": "2024-12-31T17:44:11Z",
            "version": 7,
            "changeset": 160842983,
            "user": "mpbin",
            "uid": 21850090,
            "tags": {
                "addr:city": "Castelcucco",
                "addr:housenumber": "52",
                "addr:postcode": "31030",
                "addr:street": "Via Guglielmo Marconi",
                "brand": "Unieuro",
                "brand:wikidata": "Q4004687",
                "name": "Unieuro",
                "operator": "Unieuro S.p.A.",
                "shop": "electronics"
            }
        },
        {
            "type": "node",
            "id": 1452300520,
            "lat": 45.5291826,
            "lon": 11.5952608,
            "timestamp": "2025-01-03T17:17:39Z",
            "version": 12,
            "changeset": 160958548,
            "user": "mpbin",
            "uid": 21850090,
            "tags": {
                "addr:housenumber": "60",
                "addr:street": "Strada Padana verso Padova",
                "name": "MediaWorld",
                "opening_hours": "Mo-Sa 09:00-21:00; Su 09:30-20:30",
                "operator": "MediaMarket S.p.A.",
                "phone": "+390444-9161",
                "shop": "electronics"
            }
        },
        {
            "type": "node",
            "id": 1452373305,
            "lat": 45.4394324,
            "lon": 11.0041704,
            "timestamp": "2024-06-28T22:19:44Z",
            "version": 12,
            "changeset": 153312411,
            "user": "Rockedf",
            "uid": 7522075,
            "tags": {
                "addr:city": "Verona",
                "addr:housenumber": "6a",
                "addr:postcode": "37129",
                "addr:street": "Via San Vitale",
                "amenity": "restaurant",
                "check_date:currency:XBT": "2024-06-28",
                "contact:facebook": "https://www.facebook.com/osteriascalin/",
                "currency:XBT": "yes",
                "email": "osteria@scalin.it",
                "name": "Osteria Scalin",
                "payment:lightning": "yes",
                "payment:onchain": "no",
                "phone": "+39 045 2376356",
                "website": "https://www.osteriascalin.it/"
            }
        },
        {
            "type": "node",
            "id": 1452480258,
            "lat": 45.7455465,
            "lon": 11.7516493,
            "timestamp": "2025-01-03T17:17:57Z",
            "version": 6,
            "changeset": 160958558,
            "user": "mpbin",
            "uid": 21850090,
            "tags": {
                "brand": "MediaWorld",
                "brand:wikidata": "Q2381223",
                "name": "MediaWorld",
                "operator": "MediaMarket S.p.A.",
                "ref:vatin": "IT02630120166",
                "shop": "electronics"
            }
        },
        {
            "type": "node",
            "id": 1534384046,
            "lat": 45.3778806,
            "lon": 11.8558106,
            "timestamp": "2025-01-03T17:18:17Z",
            "version": 5,
            "changeset": 160958572,
            "user": "mpbin",
            "uid": 21850090,
            "tags": {
                "brand": "MediaWorld",
                "brand:wikidata": "Q2381223",
                "name": "MediaWorld",
                "operator": "MediaMarket S.p.A.",
                "shop": "electronics",
                "wheelchair": "yes"
            }
        },
        {
            "type": "node",
            "id": 1592597102,
            "lat": 45.729348,
            "lon": 11.7598676,
            "timestamp": "2024-10-18T16:52:25Z",
            "version": 5,
            "changeset": 158060087,
            "user": "mpbin",
            "uid": 21850090,
            "tags": {
                "addr:city": "Ros\u00e0",
                "addr:housenumber": "5-1",
                "addr:postcode": "36027",
                "addr:street": "Via IV Armata",
                "address": "Via quarta Armata 5/1 Ros\u00e0",
                "check_date": "2024-10-18",
                "check_date:currency:XBT": "2024-10-18",
                "contact:email": "info@descasa.it",
                "contact:phone": "+393496863495",
                "currency:XBT": "yes",
                "description": "Progettiamo la ristrutturazione della tua casa. E se vuoi, possiamo anche occuparci di eseguire tutti i lavori necessari con formula chiavi in mano.",
                "name": "Descasa STP",
                "office": "architect",
                "payment:lightning": "no",
                "payment:lightning_contactless": "no"
            }
        },
        {
            "type": "node",
            "id": 1801853005,
            "lat": 45.8693292,
            "lon": 11.9690372,
            "timestamp": "2024-12-31T17:50:37Z",
            "version": 5,
            "changeset": 160843188,
            "user": "mpbin",
            "uid": 21850090,
            "tags": {
                "addr:city": "Pederobba",
                "addr:housenumber": "45",
                "addr:postcode": "31040",
                "addr:street": "Via Feltrina",
                "brand": "Unieuro",
                "brand:wikidata": "Q4004687",
                "name": "Unieuro",
                "operator": "Unieuro S.p.A.",
                "shop": "electronics"
            }
        },
        {
            "type": "node",
            "id": 1856864115,
            "lat": 45.4407586,
            "lon": 10.9992299,
            "timestamp": "2024-12-31T18:03:19Z",
            "version": 12,
            "changeset": 160843650,
            "user": "mpbin",
            "uid": 21850090,
            "tags": {
                "addr:city": "Verona",
                "addr:housenumber": "34",
                "addr:postcode": "37121",
                "addr:street": "Via Cappello",
                "brand": "Unieuro",
                "brand:wikidata": "Q4004687",
                "check_date": "2024-09-09",
                "name": "Unieuro",
                "opening_hours": "Mo-Sa 09:30-19:30, Su 10:30-19:30",
                "operator": "Unieuro S.p.A.",
                "shop": "electronics",
                "wheelchair": "yes"
            }
        },
        {
            "type": "node",
            "id": 1938540695,
            "lat": 45.2275755,
            "lon": 11.5234776,
            "timestamp": "2024-12-31T18:05:18Z",
            "version": 6,
            "changeset": 160843704,
            "user": "mpbin",
            "uid": 21850090,
            "tags": {
                "addr:city": "Borgo Veneto",
                "addr:country": "IT",
                "addr:housename": "Centro Commerciale Megliadino",
                "addr:postcode": "35040",
                "addr:street": "Via Vallesella",
                "brand": "Unieuro",
                "brand:wikidata": "Q4004687",
                "brand:wikipedia": "en:Unieuro",
                "name": "Unieuro",
                "operator": "Unieuro S.p.A.",
                "shop": "electronics",
                "wheelchair": "yes"
            }
        },
        {
            "type": "node",
            "id": 2077262143,
            "lat": 45.6950503,
            "lon": 11.4973037,
            "timestamp": "2025-01-03T09:19:00Z",
            "version": 6,
            "changeset": 160939445,
            "user": "mpbin",
            "uid": 21850090,
            "tags": {
                "addr:city": "Thiene",
                "addr:country": "IT",
                "addr:postcode": "36016",
                "addr:street": "Via dei Quartieri",
                "brand": "Decathlon",
                "brand:wikidata": "Q509349",
                "name": "Decathlon",
                "opening_hours": "Mo-Su 09:00-20:00",
                "operator": "Decathlon",
                "phone": "+39 0445370730",
                "shop": "sports"
            }
        },
        {
            "type": "node",
            "id": 2110552737,
            "lat": 45.6907277,
            "lon": 11.4824478,
            "timestamp": "2024-12-31T18:11:08Z",
            "version": 3,
            "changeset": 160843872,
            "user": "mpbin",
            "uid": 21850090,
            "tags": {
                "addr:city": "Thiene",
                "addr:housenumber": "18",
                "addr:postcode": "36016",
                "addr:street": "Via Gombe",
                "brand": "Unieuro",
                "brand:wikidata": "Q4004687",
                "name": "Unieuro",
                "opening_hours": "Mo-Sa 09:30-12:30,15:00-19:30; Su 15:30-19:30",
                "operator": "Unieuro S.p.A.",
                "phone": "+39 0445 367611",
                "shop": "electronics"
            }
        },
        {
            "type": "node",
            "id": 2264820786,
            "lat": 45.7314859,
            "lon": 11.7613135,
            "timestamp": "2024-12-31T18:15:08Z",
            "version": 4,
            "changeset": 160843978,
            "user": "mpbin",
            "uid": 21850090,
            "tags": {
                "addr:city": "Ros\u00e0",
                "addr:housenumber": "132",
                "addr:postcode": "36027",
                "addr:street": "Via Capitano Alessio",
                "brand": "Unieuro",
                "brand:wikidata": "Q4004687",
                "brand:wikipedia": "en:Unieuro",
                "contact:fax": "+39 0424 582329",
                "contact:phone": "+39 0424 582254",
                "name": "Unieuro",
                "operator": "Unieuro S.p.A.",
                "ref:vatin": "IT03327030965",
                "shop": "electronics"
            }
        },
        {
            "type": "node",
            "id": 2507632569,
            "lat": 45.7582135,
            "lon": 11.4185566,
            "timestamp": "2024-12-02T14:46:46Z",
            "version": 10,
            "changeset": 159846219,
            "user": "Chiarant",
            "uid": 18452174,
            "tags": {
                "addr:city": "Piovene Rocchette (VI)",
                "addr:postcode": "36013",
                "addr:street": "Via dell'Angelo, 105",
                "amenity": "restaurant",
                "contact:email": "info@trattoria-allangelo.it",
                "contact:instagram": "https://www.instagram.com/maurocanaglia/",
                "currency:XBT": "yes",
                "description": "Aperto dal Mercoled\u00ec al Sabato per cena; Domenica a pranzo. Orari aggiornati su google maps.",
                "diet:lactose_free": "yes",
                "diet:local": "yes",
                "diet:meat": "yes",
                "diet:natural_foods": "yes",
                "diet:vegan": "yes",
                "diet:vegetarian": "yes",
                "name": "Trattoria All'Angelo",
                "payment:lightning": "yes",
                "payment:lightning_contactless": "no",
                "payment:onchain": "no",
                "phone": "0445 651181",
                "survey:date": "2024-11-22",
                "website": "https://www.trattoria-allangelo.it"
            }
        },
        {
            "type": "node",
            "id": 2522320564,
            "lat": 45.6660592,
            "lon": 11.8193492,
            "timestamp": "2024-12-31T18:21:06Z",
            "version": 5,
            "changeset": 160844136,
            "user": "mpbin",
            "uid": 21850090,
            "tags": {
                "addr:city": "Galliera Veneta",
                "addr:country": "IT",
                "addr:housenumber": "18c",
                "addr:postcode": "35015",
                "addr:street": "Via degli Alberi",
                "name": "Unieuro",
                "opening_hours": "Mo-Sa 15:00-19:30, Tu-Sa 09:00-12:30; Su 15:30-19:30",
                "operator": "Unieuro S.p.A.",
                "payment:bancomat": "yes",
                "payment:cash": "yes",
                "payment:maestro": "yes",
                "payment:mastercard": "yes",
                "payment:visa": "yes",
                "payment:visa_electron": "yes",
                "phone": "+39 0499471243",
                "ref:vatin": "IT00876320409",
                "shop": "electronics",
                "website": "https://www.unieuro.it/",
                "wheelchair": "yes"
            }
        },
        {
            "type": "node",
            "id": 2543253465,
            "lat": 45.5228475,
            "lon": 11.4843006,
            "timestamp": "2025-01-03T16:01:20Z",
            "version": 4,
            "changeset": 160955569,
            "user": "mpbin",
            "uid": 21850090,
            "tags": {
                "addr:city": "Olmo Di Creazzo",
                "addr:housenumber": "1",
                "addr:postcode": "36051",
                "addr:street": "Via Cristoforo Colombo",
                "brand": "OVS",
                "brand:wikidata": "Q2042514",
                "name": "OVS",
                "operator": "OVS",
                "shop": "clothes",
                "wheelchair": "limited"
            }
        },
        {
            "type": "node",
            "id": 2569978163,
            "lat": 45.4109517,
            "lon": 11.8761919,
            "timestamp": "2025-01-03T14:02:16Z",
            "version": 4,
            "changeset": 160950583,
            "user": "mpbin",
            "uid": 21850090,
            "tags": {
                "addr:city": "Padova",
                "addr:housenumber": "58",
                "addr:postcode": "35137",
                "addr:street": "Via San Fermo",
                "brand": "OVS",
                "brand:wikidata": "Q2042514",
                "brand:wikipedia": "en:OVS (company)",
                "name": "OVS",
                "operator": "OVS",
                "shop": "clothes"
            }
        },
        {
            "type": "node",
            "id": 2800768123,
            "lat": 45.371839,
            "lon": 11.7913317,
            "timestamp": "2024-10-06T08:30:00Z",
            "version": 7,
            "changeset": 157528611,
            "user": "mpbin",
            "uid": 21850090,
            "tags": {
                "addr:city": "Abano Terme",
                "addr:housenumber": "129",
                "addr:postcode": "35031",
                "addr:street": "Via Cesare Battisti",
                "check_date": "2024-10-06",
                "check_date:currency:XBT": "2024-10-06",
                "contact:facebook": "https://www.facebook.com/www.autofesiocom/",
                "currency:XBT": "yes",
                "email": "info@autofesio.com",
                "landuse": "commercial",
                "name": "AutoFesio Salone Auto",
                "phone": "+39 329 6876517",
                "shop": "car",
                "website": "https://www.autofesio.com/"
            }
        },
        {
            "type": "node",
            "id": 2953791022,
            "lat": 45.5471295,
            "lon": 11.5434047,
            "timestamp": "2024-12-11T19:17:04Z",
            "version": 5,
            "changeset": 160181693,
            "user": "Rockedf",
            "uid": 7522075,
            "tags": {
                "addr:city": "Vicenza",
                "addr:country": "IT",
                "addr:housenumber": "19",
                "addr:postcode": "36100",
                "addr:street": "Galleria del Pozzo Rosso",
                "amenity": "bar",
                "check_date": "2024-12-11",
                "contact:facebook": "https://www.facebook.com/BarItaliaVicenza?filter=1",
                "currency:XBT": "yes",
                "name": "Bar Italia",
                "payment:lightning": "yes",
                "payment:lightning_contactless": "yes",
                "payment:onchain": "no",
                "phone": "+39 04 4432 1985"
            }
        },
        {
            "type": "node",
            "id": 3781255724,
            "lat": 45.3934924,
            "lon": 11.8176793,
            "timestamp": "2025-01-01T17:47:25Z",
            "version": 7,
            "changeset": 160878588,
            "user": "mpbin",
            "uid": 21850090,
            "tags": {
                "addr:city": "Selvazzano Dentro",
                "addr:housenumber": "113",
                "addr:postcode": "35030",
                "addr:street": "Via Padova",
                "brand": "Unieuro",
                "brand:wikidata": "Q4004687",
                "contact:phone": "+39 0498687460",
                "contact:website": "https://www.unieuro.it/online/negozi/Unieuro-Selvazzano",
                "name": "Unieuro",
                "opening_hours": "Mo-Fr 09:00-12:30,15:00-19:30; Sa 09:00-13:00,14:30-19:30; Su 09:00-12:30,14:30-19:30",
                "operator": "Unieuro S.p.A.",
                "shop": "electronics"
            }
        },
        {
            "type": "node",
            "id": 3797820139,
            "lat": 45.2289045,
            "lon": 11.4748883,
            "timestamp": "2025-01-02T21:28:49Z",
            "version": 3,
            "changeset": 160926929,
            "user": "mpbin",
            "uid": 21850090,
            "tags": {
                "addr:city": "Montagnana",
                "addr:housenumber": "2",
                "addr:postcode": "35044",
                "addr:street": "Via San Zeno",
                "brand": "Trony",
                "brand:wikidata": "Q3999692",
                "name": "Trony",
                "operator": "Trony",
                "shop": "electronics"
            }
        },
        {
            "type": "node",
            "id": 4526469787,
            "lat": 45.5572776,
            "lon": 11.5274867,
            "timestamp": "2023-11-21T18:26:49Z",
            "version": 2,
            "changeset": 144298563,
            "user": "Chiarant",
            "uid": 18452174,
            "tags": {
                "addr:city": "Vicenza",
                "addr:country": "IT",
                "addr:housenumber": "282",
                "addr:postcode": "36100",
                "addr:street": "Viale Trento",
                "check_date": "2023-11-21",
                "contact:facebook": "https://www.facebook.com/metodogommesnc/",
                "currency:XBT": "yes",
                "email": "metodogomme@gmail.com",
                "name": "Metodo Gomme",
                "phone": "+39 328 093 1955",
                "shop": "tyres"
            }
        },
        {
            "type": "node",
            "id": 4526474586,
            "lat": 45.537429,
            "lon": 11.5151857,
            "timestamp": "2024-12-06T19:20:17Z",
            "version": 5,
            "changeset": 160006493,
            "user": "PagoInBitcoin",
            "uid": 22211788,
            "tags": {
                "addr:city": "Vicenza",
                "addr:country": "IT",
                "addr:housenumber": "175",
                "addr:postcode": "36100",
                "addr:street": "Viale San Lazzaro",
                "check_date": "2024-11-20",
                "contact:facebook": "https://www.facebook.com/Speranza-Tatuaggi-1444361909122602/",
                "contact:instagram": "https://www.instagram.com/speranzatatuaggi/?hl=it",
                "contact:website": "https://speranzatatuaggi.it/",
                "currency:XBT": "yes",
                "description": "Tattoo and Piercing",
                "name": "Speranza Tatuaggi",
                "payment:lightning": "yes",
                "payment:lightning_contactless": "yes",
                "payment:onchain": "yes",
                "phone": "+39 34 0566 2904",
                "shop": "tattoo"
            }
        },
        {
            "type": "node",
            "id": 4526600463,
            "lat": 45.568995,
            "lon": 11.5710601,
            "timestamp": "2024-12-03T17:28:50Z",
            "version": 8,
            "changeset": 159890591,
            "user": "Rockedf",
            "uid": 7522075,
            "tags": {
                "addr:city": "VICENZA (VI)",
                "addr:postcode": "36100",
                "addr:street": "Viale Anconetta, 134",
                "check_date:currency:XBT": "2024-12-03",
                "contact:email": "info@acquatecnicasrl.it",
                "contact:facebook": "https://www.facebook.com/AcquaTecnicaSrl",
                "contact:instagram": "https://www.instagram.com/acquatecnica.srl",
                "contact:linkedin": "https://it.linkedin.com/company/acqua-tecnica-srl",
                "contact:whatsapp": "0445 651181",
                "currency:XBT": "yes",
                "description": "Il nostro intento \u00e8 il corretto ed etico trattamento dell\u2019acqua, per infondere tranquillit\u00e0 ed elevare lo stato di benessere delle persone.\n\nSiamo aperti al Mattino dal Lun al Ven 8.30 12.30 - il Pomeriggio 14.30 18.30 (Lun, Mer, e Ven)",
                "name": "ACQUA TECNICA",
                "payment:lightning": "yes",
                "payment:lightning_contactless": "yes",
                "payment:onchain": "yes",
                "phone": "0445 651181",
                "shop": "water_filter",
                "website": "https://www.acquatecnicasrl.it/"
            }
        },
        {
            "type": "node",
            "id": 4553697792,
            "lat": 45.4378688,
            "lon": 10.9958258,
            "timestamp": "2024-07-15T19:44:39Z",
            "version": 4,
            "changeset": 153987400,
            "user": "Rockedf",
            "uid": 7522075,
            "tags": {
                "addr:city": "Verona",
                "addr:country": "IT",
                "addr:housenumber": "7",
                "addr:postcode": "37121",
                "addr:street": "Via Orti Manara",
                "check_date:currency:XBT": "2024-07-15",
                "currency:XBT": "yes",
                "description": "Dottori Commercialisti & Revisori legali",
                "name": "Studio Marchiori STP",
                "office": "accountant",
                "website": "https://www.studiomarchiori.com/"
            }
        },
        {
            "type": "node",
            "id": 4553774993,
            "lat": 45.4417537,
            "lon": 10.9988003,
            "timestamp": "2023-11-08T18:03:05Z",
            "version": 4,
            "changeset": 143792303,
            "user": "mascalzone67",
            "uid": 1861652,
            "tags": {
                "addr:city": "Verona",
                "addr:country": "IT",
                "addr:housenumber": "8",
                "addr:street": "Via Stella",
                "brand": "Conad",
                "brand:wikidata": "Q639075",
                "description": "TuDay Conad, store senza casse a Verona. \u00c8 il primo supermercato con casse automatizzate e pagamenti digitali.",
                "name": "Conad",
                "opening_hours": "Mo-Su 07:30-22:00",
                "operator": "Conad",
                "payment:bancomat": "yes",
                "payment:credit_cards": "yes",
                "payment:smartphone": "yes",
                "shop": "supermarket",
                "source": "https://www.gdonews.it/2023/11/08/lai-rivoluziona-la-spesa-di-prossimita-a-verona-apre-il-primo-tuday-conad-prendivai/",
                "start_date": "2023-11-08",
                "website": "https://www.conad.it/ricerca-negozi/tuday-conad-via-stella-8-37131-verona--010521"
            }
        },
        {
            "type": "node",
            "id": 4727745918,
            "lat": 45.4090126,
            "lon": 11.8788211,
            "timestamp": "2024-12-30T18:55:58Z",
            "version": 6,
            "changeset": 160804689,
            "user": "DnaX",
            "uid": 69259,
            "tags": {
                "addr:city": "Padova",
                "addr:housenumber": "9",
                "addr:postcode": "35121",
                "addr:street": "Via Altinate",
                "brand": "Doppelg\u00e4nger",
                "brand:wikidata": "Q117451227",
                "check_date": "2023-08-26",
                "clothes": "men",
                "currency:XBT": "yes",
                "name": "Doppelg\u00e4nger",
                "phone": "+39 0498757916",
                "shop": "clothes"
            }
        },
        {
            "type": "node",
            "id": 4966113288,
            "lat": 45.5392408,
            "lon": 11.922588,
            "timestamp": "2025-01-01T18:26:28Z",
            "version": 3,
            "changeset": 160879895,
            "user": "mpbin",
            "uid": 21850090,
            "tags": {
                "addr:city": "San Giorgio delle Pertiche",
                "addr:housenumber": "SR307",
                "addr:postcode": "35010",
                "addr:street": "Via Desman",
                "brand": "Unieuro",
                "brand:wikidata": "Q4004687",
                "brand:wikipedia": "en:Unieuro",
                "name": "Unieuro",
                "operator": "Unieuro S.p.A.",
                "shop": "electronics"
            }
        },
        {
            "type": "node",
            "id": 5248441042,
            "lat": 45.6545355,
            "lon": 11.9084338,
            "timestamp": "2024-11-20T11:42:34Z",
            "version": 8,
            "changeset": 159362068,
            "user": "mpbin",
            "uid": 21850090,
            "tags": {
                "addr:city": "Castelfranco Veneto",
                "addr:housenumber": "17",
                "addr:postcode": "31033",
                "addr:street": "Via Castellana",
                "amenity": "restaurant",
                "check_date:currency:XBT": "2023-09-25",
                "contact:facebook": "https://www.facebook.com/people/Pizzeria-da-Gennaro/100070875489802/",
                "cuisine": "pizza;italian;seafood;mediterranean;european",
                "currency:XBT": "yes",
                "description": "Storico ristorante pizzeria dal 1890.",
                "email": "info@pizzeriabriangennaro.it",
                "indoor_seating": "yes",
                "name": "Pizzeria da Gennaro",
                "outdoor_seating": "yes",
                "phone": "+39 0423 482188",
                "website": "http://www.pizzeriabriangennaro.it"
            }
        },
        {
            "type": "node",
            "id": 5293931269,
            "lat": 45.4062408,
            "lon": 11.2465163,
            "timestamp": "2023-07-18T21:56:41Z",
            "version": 5,
            "changeset": 138689341,
            "user": "saunter",
            "uid": 10396321,
            "tags": {
                "addr:city": "San Bonifacio",
                "addr:housenumber": "18",
                "addr:postcode": "37047",
                "addr:street": "Via Villabella",
                "check_date:currency:XBT": "2023-07-18",
                "currency:XBT": "yes",
                "description": "I principali ambiti di intervento dello studio sono individuabili nell\u2019area delle materie aziendali, contrattuali, societarie e fiscali, con particolare specializzazione nella gestione ed amministrazione delle piccole e medie imprese.",
                "email": "info@studiopacepartners.it",
                "name": "Studio Pace & Partners",
                "note": "Dottori Commercialisti, Consulenti del Lavoro, Legale e Tributario, Revisori Legali",
                "office": "accountant",
                "payment:ethereum": "yes",
                "payment:litecoin": "yes",
                "phone": "+390456100619",
                "website": "https://www.studiopacepartners.it/"
            }
        },
        {
            "type": "node",
            "id": 5333027525,
            "lat": 45.780744,
            "lon": 11.889103,
            "timestamp": "2023-07-18T22:00:14Z",
            "version": 4,
            "changeset": 138689431,
            "user": "saunter",
            "uid": 10396321,
            "tags": {
                "addr:city": "Fonte",
                "addr:housenumber": "53",
                "addr:postcode": "31010",
                "addr:street": "Via delle Industrie",
                "check_date:currency:XBT": "2023-07-18",
                "craft": "carpenter",
                "currency:XBT": "yes",
                "description": "Produzione di mobili e arredamenti di alta gamma, anche personalizzati.",
                "email": "faber@fabermobili.com",
                "name": "Faber Mobili srl",
                "phone": "+39 0423410000",
                "website": "https://www.fabermobili.com/"
            }
        },
        {
            "type": "node",
            "id": 5418461939,
            "lat": 45.2275701,
            "lon": 11.5236765,
            "timestamp": "2025-01-03T14:12:20Z",
            "version": 4,
            "changeset": 160951019,
            "user": "mpbin",
            "uid": 21850090,
            "tags": {
                "addr:city": "Borgo Veneto",
                "addr:country": "IT",
                "addr:housename": "Centro Commerciale Megliadino",
                "addr:postcode": "35040",
                "addr:street": "Via Vallesella",
                "brand": "OVS",
                "brand:wikidata": "Q2042514",
                "brand:wikipedia": "en:OVS (company)",
                "name": "OVS",
                "operator": "OVS",
                "shop": "clothes",
                "wheelchair": "yes"
            }
        },
        {
            "type": "node",
            "id": 5720390522,
            "lat": 45.5493197,
            "lon": 11.5335038,
            "timestamp": "2024-12-03T17:27:15Z",
            "version": 5,
            "changeset": 159890547,
            "user": "Rockedf",
            "uid": 7522075,
            "tags": {
                "addr:city": "Vicenza",
                "addr:housenumber": "10",
                "addr:postcode": "36100",
                "addr:street": "Viale Battaglione Framarin",
                "amenity": "bar",
                "check_date:currency:XBT": "2024-12-03",
                "currency:XBT": "yes",
                "name": "Eclisse Bar",
                "payment:lightning": "yes",
                "payment:lightning_contactless": "no",
                "payment:onchain": "yes",
                "phone": "+39 0444 321896",
                "survey:date": "2023-06-08"
            }
        },
        {
            "type": "node",
            "id": 5779529274,
            "lat": 45.535792,
            "lon": 11.513533,
            "timestamp": "2024-09-25T08:00:14Z",
            "version": 4,
            "changeset": 157069100,
            "user": "mpbin",
            "uid": 21850090,
            "tags": {
                "addr:city": "Vicenza",
                "addr:housenumber": "12",
                "addr:postcode": "36100",
                "addr:street": "Via Benedetto Marcello",
                "check_date": "2024-09-25",
                "check_date:currency:XBT": "2024-09-25",
                "currency:XBT": "yes",
                "description": "Realizziamo internamente insegne, totem, decorazioni automezzi, marketing digitale e tanto altro ancora. Siamo sul territorio dal 1947 e aiutiamo i nostri clienti a sviluppare la loro immagine.",
                "email": "massimo@leodari.com",
                "name": "Leodari Pubblicit\u00e0 s.r.l.",
                "office": "advertising_agency",
                "phone": "+39 0444962233",
                "website": "https://leodari.com/"
            }
        },
        {
            "type": "node",
            "id": 6131287245,
            "lat": 45.354129,
            "lon": 11.772486,
            "timestamp": "2023-07-21T00:41:15Z",
            "version": 2,
            "changeset": 138788730,
            "user": "saunter",
            "uid": 10396321,
            "tags": {
                "addr:city": "Abano Terme",
                "addr:housenumber": "21",
                "addr:postcode": "35031",
                "addr:street": "Via Monteortone",
                "check_date:currency:XBT": "2023-07-21",
                "currency:XBT": "yes",
                "description": "Consulenza su criptovalute e blockchain, cambio critpovalute contro euro, messa in sicurezza, vendita gadget informatici, hardware wallet, T-shirt, corsi di formazione sul mondo cripto e bitcoin.",
                "email": "center@bitcoinveneto.it",
                "name": "Bitcoin Veneto Center",
                "office": "educational_institution",
                "phone": "+39 3405035130",
                "website": "https://www.bitcoinvenetocenter.it"
            }
        },
        {
            "type": "node",
            "id": 6779518865,
            "lat": 45.6818857,
            "lon": 11.9431374,
            "timestamp": "2025-01-01T19:47:47Z",
            "version": 3,
            "changeset": 160883060,
            "user": "mpbin",
            "uid": 21850090,
            "tags": {
                "addr:city": "Castelfranco Veneto",
                "addr:housenumber": "21/A",
                "addr:postcode": "31033",
                "addr:street": "Via dei Carpani",
                "brand": "Unieuro",
                "brand:wikidata": "Q4004687",
                "name": "Unieuro",
                "operator": "Unieuro S.p.A.",
                "shop": "electronics"
            }
        },
        {
            "type": "node",
            "id": 7168646404,
            "lat": 45.3950184,
            "lon": 11.0158405,
            "timestamp": "2025-01-03T09:48:28Z",
            "version": 4,
            "changeset": 160940345,
            "user": "mpbin",
            "uid": 21850090,
            "tags": {
                "access": "customers",
                "addr:city": "San Giovanni Lupatoto",
                "addr:country": "IT",
                "addr:postcode": "37057",
                "addr:street": "Via Monte Cristallo",
                "defibrillator:location": "L'apparato \u00e8 installato in fondo vicino all'officina biciclette",
                "emergency": "defibrillator",
                "indoor": "yes",
                "name": "Decathlon",
                "opening_hours": "Mo-Sa 09:00-21:00; Su 09:30-20:00",
                "operator": "Decathlon",
                "wikimedia_commons": "File:DAE_presso_Decathlon_San_Giovanni_Lupatoto.jpg"
            }
        },
        {
            "type": "node",
            "id": 7485672568,
            "lat": 45.3037889,
            "lon": 12.0212547,
            "timestamp": "2025-01-01T20:03:13Z",
            "version": 3,
            "changeset": 160883521,
            "user": "mpbin",
            "uid": 21850090,
            "tags": {
                "addr:city": "Piove di Sacco",
                "addr:housenumber": "1",
                "addr:postcode": "35028",
                "addr:street": "Via Fratelli Sanguinazzi",
                "brand": "Unieuro",
                "brand:wikidata": "Q4004687",
                "brand:wikipedia": "en:Unieuro",
                "name": "Unieuro",
                "opening_hours": "Mo-Sa 09:00-13:00,15:00-19:00",
                "operator": "Unieuro S.p.A.",
                "shop": "electronics"
            }
        },
        {
            "type": "node",
            "id": 7486874106,
            "lat": 45.4177654,
            "lon": 11.86183,
            "timestamp": "2024-08-10T14:39:32Z",
            "version": 2,
            "changeset": 155065448,
            "user": "voschix",
            "uid": 305001,
            "tags": {
                "addr:city": "Padova",
                "addr:housenumber": "8",
                "addr:postcode": "35139",
                "addr:street": "Ostiala Gallenia",
                "amenity": "pharmacy",
                "dispensing": "no",
                "healthcare": "pharmacy",
                "name": "Parafarmacia Conad",
                "operator": "Conad"
            }
        },
        {
            "type": "node",
            "id": 7486909410,
            "lat": 45.4119799,
            "lon": 11.9077824,
            "timestamp": "2023-06-05T14:36:32Z",
            "version": 4,
            "changeset": 136976080,
            "user": "Friendly_Ghost",
            "uid": 10875409,
            "tags": {
                "addr:city": "Padova",
                "addr:housenumber": "61",
                "addr:postcode": "35131",
                "addr:street": "Via Venezia",
                "amenity": "pharmacy",
                "dispensing": "no",
                "healthcare": "pharmacy",
                "level": "0",
                "name": "Parafarmacia Conad",
                "operator": "Conad"
            }
        },
        {
            "type": "node",
            "id": 7834164182,
            "lat": 45.4175724,
            "lon": 11.8247384,
            "timestamp": "2024-12-30T16:37:10Z",
            "version": 5,
            "changeset": 160799972,
            "user": "mpbin",
            "uid": 21850090,
            "tags": {
                "addr:city": "Rubano",
                "addr:housenumber": "1",
                "addr:postcode": "35030",
                "addr:street": "Via della Provvidenza",
                "brand": "Trony",
                "brand:wikidata": "Q3999692",
                "email": "sarmeola@trony.it",
                "facebook": "https://www.facebook.com/TronySarmeolaViaDellaProvvidenza/",
                "level": "1",
                "name": "Trony",
                "opening_hours": "Mo-Sa 09:30-20:30; Su 10:00-20:30",
                "operator": "Trony",
                "phone": "+39 049 897 9275",
                "shop": "electronics",
                "website": "https://www.trony.it/online/store/TRO477_A",
                "wheelchair": "yes"
            }
        },
        {
            "type": "node",
            "id": 8335906317,
            "lat": 45.4525524,
            "lon": 10.9987741,
            "timestamp": "2023-11-09T19:49:11Z",
            "version": 7,
            "changeset": 143837194,
            "user": "b-jazz-bot",
            "uid": 9451067,
            "tags": {
                "addr:city": "Verona",
                "addr:housenumber": "12d",
                "addr:postcode": "37128",
                "addr:street": "Via Mentana",
                "amenity": "doctors",
                "currency:XBT": "yes",
                "email": "bianchi.osteopata@gmail.com",
                "healthcare": "doctor",
                "healthcare:speciality": "osteopathy",
                "internet_access": "wlan",
                "name": "Tommaso Bianchi - Osteopata",
                "name:en": "Bianchi Tommaso D.O BSc Ost. - Osteopath Verona",
                "opening_hours": "Mo-Sa 08:00-20:30",
                "payment:lightning": "yes",
                "payment:lightning_contactless": "yes",
                "payment:onchain": "yes",
                "phone": "+39 3470483429",
                "survey:date": "2022-10-24",
                "website": "https://bianchiosteopata.it/verona"
            }
        },
        {
            "type": "node",
            "id": 8455564266,
            "lat": 45.4521146,
            "lon": 12.0719097,
            "timestamp": "2025-01-01T20:04:23Z",
            "version": 3,
            "changeset": 160883558,
            "user": "mpbin",
            "uid": 21850090,
            "tags": {
                "addr:city": "Ball\u00f2",
                "addr:housenumber": "80",
                "addr:postcode": "30035",
                "addr:street": "Via Stazione",
                "name": "Unieuro",
                "not:brand:wikidata": "Q4004687",
                "operator": "Unieuro S.p.A.",
                "payment:cash": "yes",
                "payment:credit_cards": "yes",
                "phone": "+39 041 415652",
                "shop": "electronics"
            }
        },
        {
            "type": "node",
            "id": 8757961292,
            "lat": 45.5084095,
            "lon": 11.6316576,
            "timestamp": "2025-01-03T10:53:08Z",
            "version": 6,
            "changeset": 160942805,
            "user": "mpbin",
            "uid": 21850090,
            "tags": {
                "access": "yes",
                "amenity": "bicycle_repair_station",
                "name": "Decathlon",
                "opening_hours": "24/7",
                "operator": "Decathlon",
                "self_service": "yes",
                "service:bicycle:chain_tool": "yes",
                "service:bicycle:pump": "yes",
                "service:bicycle:stand": "yes",
                "service:bicycle:tools": "yes"
            }
        },
        {
            "type": "node",
            "id": 9228904067,
            "lat": 45.5777186,
            "lon": 12.071735,
            "timestamp": "2025-01-01T20:36:37Z",
            "version": 2,
            "changeset": 160884522,
            "user": "mpbin",
            "uid": 21850090,
            "tags": {
                "addr:city": "Trebaseleghe",
                "addr:housenumber": "40",
                "addr:postcode": "35010",
                "addr:street": "Via Malcaton",
                "brand": "Unieuro",
                "brand:wikidata": "Q4004687",
                "brand:wikipedia": "en:Unieuro",
                "name": "Unieuro",
                "operator": "Unieuro S.p.A.",
                "shop": "electronics"
            }
        },
        {
            "type": "node",
            "id": 9672164356,
            "lat": 45.4225305,
            "lon": 12.073525,
            "timestamp": "2025-01-03T14:22:57Z",
            "version": 2,
            "changeset": 160951512,
            "user": "mpbin",
            "uid": 21850090,
            "tags": {
                "addr:city": "Dolo",
                "addr:housenumber": "102",
                "addr:postcode": "30031",
                "addr:street": "Via Giuseppe Mazzini",
                "brand": "OVS",
                "brand:wikidata": "Q2042514",
                "brand:wikipedia": "en:OVS (company)",
                "name": "OVS",
                "operator": "OVS",
                "shop": "clothes"
            }
        },
        {
            "type": "node",
            "id": 9779976060,
            "lat": 45.4927109,
            "lon": 12.1108645,
            "timestamp": "2025-01-03T14:24:04Z",
            "version": 3,
            "changeset": 160951544,
            "user": "mpbin",
            "uid": 21850090,
            "tags": {
                "addr:city": "Mirano",
                "addr:housenumber": "23",
                "addr:postcode": "30035",
                "addr:street": "Via Barche",
                "branch": "kids",
                "brand": "OVS",
                "brand:wikidata": "Q2042514",
                "clothes": "children",
                "name": "OVS",
                "operator": "OVS",
                "phone": "+39 041481976",
                "shop": "clothes"
            }
        },
        {
            "type": "node",
            "id": 10155200041,
            "lat": 45.3915973,
            "lon": 11.8928962,
            "timestamp": "2024-07-05T19:47:53Z",
            "version": 6,
            "changeset": 153602587,
            "user": "mauropili",
            "uid": 1496865,
            "tags": {
                "addr:city": "Padova",
                "addr:housenumber": "1",
                "addr:postcode": "35127",
                "addr:street": "Via Giuseppe Perin",
                "amenity": "cafe",
                "check_date:currency:XBT": "2023-08-09",
                "cuisine": "coffee_shop",
                "currency:XBT": "yes",
                "name": "20quadricafe'",
                "payment:lightning": "yes",
                "survey:date": "2022-11-03"
            }
        },
        {
            "type": "node",
            "id": 10273203685,
            "lat": 45.6324007,
            "lon": 11.5671468,
            "timestamp": "2024-07-05T19:50:48Z",
            "version": 4,
            "changeset": 153602683,
            "user": "mauropili",
            "uid": 1496865,
            "tags": {
                "addr:city": "Povolaro di Dueville",
                "addr:housenumber": "35a",
                "addr:postcode": "36030",
                "addr:street": "Via Divisione Julia",
                "check_date": "2022-12-19",
                "craft": "electrician",
                "currency:XBT": "yes",
                "name": "Impianti Elettrici Parise",
                "payment:lightning": "yes",
                "payment:onchain": "yes",
                "phone": "+393391741073",
                "website": "https://www.impiantielettriciparise.com/impianti-elettrici-parise-passione-e-professionalita-a-vicenz/"
            }
        },
        {
            "type": "node",
            "id": 10295315911,
            "lat": 45.4247877,
            "lon": 11.9654184,
            "timestamp": "2025-01-03T14:26:11Z",
            "version": 2,
            "changeset": 160951636,
            "user": "mpbin",
            "uid": 21850090,
            "tags": {
                "addr:city": "Vigonza",
                "addr:housenumber": "86",
                "addr:postcode": "35010",
                "addr:street": "Via Regia",
                "brand": "OVS",
                "brand:wikidata": "Q2042514",
                "name": "OVS",
                "operator": "OVS",
                "shop": "clothes"
            }
        },
        {
            "type": "node",
            "id": 10296719986,
            "lat": 45.410309,
            "lon": 11.9083833,
            "timestamp": "2025-01-03T17:31:59Z",
            "version": 4,
            "changeset": 160959082,
            "user": "mpbin",
            "uid": 21850090,
            "tags": {
                "addr:city": "Padova",
                "addr:housenumber": "98",
                "addr:postcode": "35131",
                "addr:street": "Via Venezia",
                "brand": "MediaWorld",
                "brand:wikidata": "Q2381223",
                "fixme": "The website says that the postcode is 35129 and I don't know which postcode is correct",
                "name": "MediaWorld",
                "operator": "MediaMarket S.p.A.",
                "shop": "electronics",
                "website": "https://www.mediaworld.it/it/store/padova-2126"
            }
        },
        {
            "type": "node",
            "id": 10616413306,
            "lat": 45.6493422,
            "lon": 11.7884405,
            "timestamp": "2024-09-22T16:48:57Z",
            "version": 2,
            "changeset": 156960684,
            "user": "mpbin",
            "uid": 21850090,
            "tags": {
                "addr:city": "Cittadella",
                "addr:postcode": "35013",
                "addr:street": "Via Borgo Treviso",
                "check_date": "2024-09-22",
                "check_date:currency:XBT": "2024-09-22",
                "currency:XBT": "yes",
                "email": "leonardo@pegasodigitalstudio.com",
                "name": "Pegaso Digital Studio",
                "office": "advertising_agency",
                "opening_hours": "Mo-Sa 8:30-12:00, 15:00-19:00",
                "payment:lightning": "yes",
                "payment:lightning_contactless": "no",
                "payment:onchain": "yes",
                "phone": "+39 3478758148",
                "website": "https://www.pegasodigitalstudio.com/"
            }
        },
        {
            "type": "node",
            "id": 10879354113,
            "lat": 45.370045,
            "lon": 11.922507,
            "timestamp": "2023-05-10T12:11:02Z",
            "version": 2,
            "changeset": 135933878,
            "user": "Chiarant",
            "uid": 18452174,
            "tags": {
                "addr:city": "Ponte San Nicol\u00f2",
                "addr:housenumber": "130",
                "addr:postcode": "35020",
                "addr:street": "Via Guglielmo Marconi",
                "addr:unit": "A",
                "amenity": "restaurant",
                "contact:facebook": "https://www.facebook.com/montenapoleonespaten/",
                "contact:instagram": "https://www.instagram.com/montenapoleonespaten/",
                "currency:XBT": "yes",
                "email": "ponte@ristorantimontenapoleone.com",
                "name": "SPATEN - BIRRERIA MONTENAPOLEONE",
                "payment:lightning": "yes",
                "payment:lightning_contactless": "yes",
                "payment:onchain": "no",
                "phone": "+39 0498882698",
                "survey:date": "2023-05-10",
                "website": "https://www.ristorantimontenapoleone.com/"
            }
        },
        {
            "type": "node",
            "id": 10945938353,
            "lat": 45.6366088,
            "lon": 11.7838331,
            "timestamp": "2024-10-08T19:02:44Z",
            "version": 7,
            "changeset": 157642146,
            "user": "mpbin",
            "uid": 21850090,
            "tags": {
                "addr:city": "Cittadella",
                "addr:housenumber": "56",
                "addr:postcode": "35013",
                "addr:street": "Via Beltramina",
                "addr:unit": "3",
                "check_date": "2024-10-08",
                "check_date:currency:XBT": "2024-10-08",
                "contact:facebook": "https://www.facebook.com/profile.php?id=100083076879992",
                "currency:XBT": "yes",
                "email": "m.beltramello@proton.me",
                "guest_house": "landlords_-_affittacamere",
                "internet_access": "wlan",
                "internet_access:fee": "customers",
                "name": "B&B - Beltramina Bedroom - Affitta Camere",
                "payment:cash": "yes",
                "payment:lightning": "yes",
                "payment:lightning_contactless": "yes",
                "payment:onchain": "yes",
                "phone": "+393498444285",
                "rooms": "3",
                "survey:date": "2023-06-03",
                "tourism": "guest_house",
                "website": "https://airbnb.com/h/beltraminabedroom1"
            }
        },
        {
            "type": "node",
            "id": 11125250762,
            "lat": 45.1834148,
            "lon": 11.2548832,
            "timestamp": "2025-01-01T21:14:48Z",
            "version": 2,
            "changeset": 160885668,
            "user": "mpbin",
            "uid": 21850090,
            "tags": {
                "addr:city": "San Pietro",
                "addr:postcode": "37045",
                "addr:street": "Via Luciano Lama",
                "brand": "Unieuro",
                "brand:wikidata": "Q4004687",
                "name": "Unieuro",
                "operator": "Unieuro S.p.A.",
                "shop": "electronics"
            }
        },
        {
            "type": "node",
            "id": 11125289165,
            "lat": 45.4079421,
            "lon": 11.2333224,
            "timestamp": "2025-01-01T21:16:07Z",
            "version": 2,
            "changeset": 160885709,
            "user": "mpbin",
            "uid": 21850090,
            "tags": {
                "addr:city": "Soave",
                "addr:housenumber": "24",
                "addr:postcode": "37038",
                "addr:street": "Via del Commercio",
                "brand": "Unieuro",
                "brand:wikidata": "Q4004687",
                "name": "Unieuro",
                "operator": "Unieuro S.p.A.",
                "shop": "electronics"
            }
        },
        {
            "type": "node",
            "id": 11144535811,
            "lat": 45.4115379,
            "lon": 11.9084568,
            "timestamp": "2023-08-25T18:39:05Z",
            "version": 1,
            "changeset": 140384840,
            "user": "Friendly_Ghost",
            "uid": 10875409,
            "tags": {
                "amenity": "trolley_bay",
                "covered": "yes",
                "operator": "Conad"
            }
        },
        {
            "type": "node",
            "id": 11241833922,
            "lat": 45.4111335,
            "lon": 11.9071442,
            "timestamp": "2023-10-05T17:16:51Z",
            "version": 1,
            "changeset": 142199524,
            "user": "Friendly_Ghost",
            "uid": 10875409,
            "tags": {
                "amenity": "trolley_bay",
                "covered": "yes",
                "operator": "Conad"
            }
        },
        {
            "type": "node",
            "id": 11494464513,
            "lat": 45.7244835,
            "lon": 11.3641751,
            "timestamp": "2024-12-19T21:10:39Z",
            "version": 8,
            "changeset": 160410887,
            "user": "saunter",
            "uid": 10396321,
            "tags": {
                "addr:city": "Schio",
                "addr:housenumber": "13",
                "addr:postcode": "36015",
                "addr:street": "Via Giarette",
                "amenity": "restaurant",
                "check_date": "2024-10-12",
                "check_date:currency:XBT": "2024-12-19",
                "contact:instagram": "https://www.instagram.com/ajiosteriagiapponese/",
                "cuisine": "japanese",
                "currency:XBT": "yes",
                "email": "osteriagiapponese@gmail.com",
                "name": "Aji Osteria Giapponese",
                "opening_hours": "Tu-Sa 19:00-22:00",
                "payment:lightning": "yes",
                "payment:lightning_contactless": "yes",
                "phone": "+39 351 911 5569",
                "website": "https://osteriagiapponese.wixsite.com/ajiosteriagiapponese"
            }
        },
        {
            "type": "node",
            "id": 11503445235,
            "lat": 45.7245094,
            "lon": 11.3640987,
            "timestamp": "2024-10-12T18:06:13Z",
            "version": 4,
            "changeset": 157807879,
            "user": "mpbin",
            "uid": 21850090,
            "tags": {
                "addr:city": "Schio",
                "addr:housenumber": "13",
                "addr:postcode": "36015",
                "addr:street": "Via Giarette",
                "check_date": "2024-10-12",
                "check_date:currency:XBT": "2024-10-12",
                "contact:email": "info@artigianatogiapponese.it",
                "contact:facebook": "https://www.facebook.com/www.artigianatogiapponese.it",
                "contact:instagram": "https://www.instagram.com/artigianatogiapponese/",
                "currency:XBT": "yes",
                "name": "Artigianato Giapponese",
                "payment:lightning": "yes",
                "payment:lightning_contactless": "yes",
                "payment:onchain": "yes",
                "phone": "+39 32 8376 1399",
                "shop": "yes",
                "website": "https://www.artigianatogiapponese.it/"
            }
        },
        {
            "type": "node",
            "id": 11739288103,
            "lat": 45.5749982,
            "lon": 11.5445911,
            "timestamp": "2024-03-17T23:30:55Z",
            "version": 2,
            "changeset": 148793917,
            "user": "Legalbitcoin",
            "uid": 21205303,
            "tags": {
                "addr:city": "Vicenza",
                "addr:housenumber": "129",
                "addr:postcode": "36100",
                "addr:street": "Via dei Laghi",
                "check_date": "2024-03-17",
                "currency:XBT": "yes",
                "description": "Vendita prodotti JUST. Contattami su WhatsApp, sarai ricontattato appena possibile.",
                "name": "Guoli Patrizia- Prodotti JUST",
                "payment:lightning": "yes",
                "payment:lightning_contactless": "yes",
                "payment:onchain": "yes",
                "phone": "+39 340 693 9814 (solo WhatsApp)",
                "shop": "cosmetics"
            }
        },
        {
            "type": "node",
            "id": 11749080606,
            "lat": 45.6402384,
            "lon": 11.3730009,
            "timestamp": "2024-03-20T22:24:08Z",
            "version": 1,
            "changeset": 148936397,
            "user": "Rockedf",
            "uid": 7522075,
            "tags": {
                "addr:city": "Monte di Malo (VI)",
                "addr:housenumber": "3",
                "addr:postcode": "36030",
                "addr:street": "Via San Giorgio",
                "check_date": "2024-03-20",
                "contact:facebook": "https://www.facebook.com/sabrina.crystalglassart",
                "contact:instagram": "https://www.instagram.com/golinsabrina/",
                "currency:XBT": "yes",
                "name": "Sabrina Golin Art",
                "opening_hours": "Mo-Fr 08:00-12:00,14:00-20:00",
                "payment:lightning": "yes",
                "payment:lightning_contactless": "yes",
                "payment:onchain": "yes",
                "tourism": "gallery",
                "website": "https://www.sabrinacrystal.it/"
            }
        },
        {
            "type": "node",
            "id": 11812265884,
            "lat": 45.384531,
            "lon": 11.7844921,
            "timestamp": "2024-07-05T20:00:22Z",
            "version": 2,
            "changeset": 153602990,
            "user": "mauropili",
            "uid": 1496865,
            "tags": {
                "addr:city": "Selvazzano Dentro",
                "addr:housenumber": "151",
                "addr:postcode": "35030",
                "addr:street": "Via Euganea",
                "amenity": "pub",
                "check_date": "2024-04-12",
                "currency:XBT": "yes",
                "name": "Dalle Canaglie",
                "payment:lightning": "yes",
                "payment:lightning_contactless": "no",
                "payment:onchain": "no",
                "phone": "+39 04 9261 5718"
            }
        },
        {
            "type": "node",
            "id": 11817877407,
            "lat": 45.2289756,
            "lon": 11.7389913,
            "timestamp": "2025-01-01T21:34:45Z",
            "version": 4,
            "changeset": 160886258,
            "user": "mpbin",
            "uid": 21850090,
            "tags": {
                "addr:city": "Monselice",
                "addr:housenumber": "79",
                "addr:postcode": "35043",
                "addr:street": "Via Cristoforo Colombo",
                "brand": "Unieuro",
                "brand:wikidata": "Q4004687",
                "name": "Unieuro",
                "operator": "Unieuro S.p.A.",
                "shop": "electronics",
                "wheelchair": "yes"
            }
        },
        {
            "type": "node",
            "id": 11876751567,
            "lat": 45.7178276,
            "lon": 11.3883769,
            "timestamp": "2024-08-30T08:14:45Z",
            "version": 5,
            "changeset": 155961109,
            "user": "Ferrigato Srlu",
            "uid": 4774728,
            "tags": {
                "addr:city": "Schio (VI)",
                "addr:country": "IT",
                "addr:postcode": "36015",
                "addr:street": "Via Veneto 2/c",
                "currency:XBT": "yes",
                "healthcare": "yes",
                "name": "Ferrigato Srlu",
                "note": "Health and Safety Consultants",
                "payment:lightning": "yes",
                "payment:onchain": "yes",
                "survey:date": "2024-08-30"
            }
        },
        {
            "type": "node",
            "id": 11902287309,
            "lat": 45.6684186,
            "lon": 11.395146,
            "timestamp": "2024-10-11T21:00:49Z",
            "version": 6,
            "changeset": 157773469,
            "user": "mpbin",
            "uid": 21850090,
            "tags": {
                "addr:city": "Malo",
                "addr:housenumber": "26",
                "addr:postcode": "36034",
                "addr:street": "Via VIII Marzo",
                "contact:email": "info@saloneniko.it",
                "contact:facebook": "https://www.facebook.com/saloneniko.malo",
                "contact:instagram": "https://www.instagram.com/saloneniko/",
                "currency:XBT": "yes",
                "email": "info@saloneniko.it",
                "name": "SALONE NIKO",
                "note": "Taglio, Tecniche del colore, Permanente e stiratura, Asciugatura, Acconciatura, extension. E' gradito l'appuntamento",
                "payment:lightning": "yes",
                "payment:lightning_contactless": "yes",
                "payment:onchain": "no",
                "phone": "+39 0445 602518",
                "shop": "hairdresser",
                "survey:date": "2024-05-11",
                "website": "https://saloneniko.it/"
            }
        },
        {
            "type": "node",
            "id": 11928368360,
            "lat": 45.4395088,
            "lon": 11.0086218,
            "timestamp": "2024-06-13T02:35:57Z",
            "version": 3,
            "changeset": 152610740,
            "user": "Rockedf",
            "uid": 7522075,
            "tags": {
                "addr:city": "Verona",
                "addr:housenumber": "70",
                "addr:postcode": "37129",
                "addr:street": "Via Venti Settembre",
                "amenity": "atm",
                "cash_in": "yes",
                "cash_out": "yes",
                "cash_withdrawal": "yes",
                "check_date": "2024-05-23",
                "contact:email": "support@shitcoins.club",
                "contact:facebook": "https://www.facebook.com/shitcoins.club",
                "contact:instagram": "https://www.instagram.com/shitcoinsclub",
                "contact:telegram": "https://t.me/shitcoinsclub",
                "contact:twitter": "https://twitter.com/BitomatCom",
                "currency:CAD": "yes",
                "currency:CHF": "yes",
                "currency:DASH": "yes",
                "currency:ETH": "yes",
                "currency:EUR": "yes",
                "currency:HUF": "yes",
                "currency:LTC": "yes",
                "currency:RON": "yes",
                "currency:USD": "yes",
                "currency:USDC": "yes",
                "currency:USDT": "yes",
                "currency:XBT": "yes",
                "indoor": "yes",
                "name": "Bitcoin ATM - Shitcoins.club",
                "opening_hours": "24/7",
                "operator": "Shitcoins.club",
                "payment:cash": "yes",
                "payment:lightning": "no",
                "payment:lightning_contactless": "no",
                "payment:onchain": "yes",
                "phone": "+39 34 8048 7308",
                "website": "https://shitcoins.club/localizzazione-atm/atm-bitcoin-verona-via-venti-settembre"
            }
        },
        {
            "type": "node",
            "id": 11975303381,
            "lat": 45.4030901,
            "lon": 11.691016,
            "timestamp": "2024-06-12T12:30:05Z",
            "version": 1,
            "changeset": 152585259,
            "user": "Chiarant",
            "uid": 18452174,
            "tags": {
                "addr:city": "Fossona",
                "addr:housenumber": "148",
                "addr:postcode": "35030",
                "addr:street": "Via Roma",
                "check_date": "2024-06-12",
                "currency:XBT": "yes",
                "email": "gioielli@lineagem.it",
                "name": "Lineagem S.p.A.",
                "shop": "jewelry",
                "website": "https://www.lineagem.it/"
            }
        },
        {
            "type": "node",
            "id": 12102810313,
            "lat": 45.4177936,
            "lon": 11.8618561,
            "timestamp": "2024-08-10T14:39:32Z",
            "version": 1,
            "changeset": 155065448,
            "user": "voschix",
            "uid": 305001,
            "tags": {
                "addr:city": "Padova",
                "addr:housenumber": "8",
                "addr:postcode": "35139",
                "addr:street": "Ostiala Gallenia",
                "brand": "Conad",
                "brand:wikidata": "Q639075",
                "brand:wikipedia": "it:Conad",
                "name": "Conad",
                "opening_hours": "Mo-Sa 08:00-20:30; Su 09:00-20:00",
                "operator": "Conad",
                "payment:bancomat": "yes",
                "payment:cash": "yes",
                "payment:credit_cards": "yes",
                "phone": "+39 049 723073",
                "shop": "supermarket",
                "website": "https://www.conad.it/ricerca-negozi/negozio.009282.html"
            }
        },
        {
            "type": "node",
            "id": 12128566402,
            "lat": 45.3979849,
            "lon": 11.5793774,
            "timestamp": "2025-01-02T22:34:10Z",
            "version": 2,
            "changeset": 160928574,
            "user": "mpbin",
            "uid": 21850090,
            "tags": {
                "addr:city": "Ponte di Barbarano",
                "addr:housenumber": "8",
                "addr:postcode": "36048",
                "addr:street": "Via del Commercio",
                "brand": "Trony",
                "brand:wikidata": "Q3999692",
                "name": "Trony",
                "operator": "Trony",
                "shop": "electronics"
            }
        },
        {
            "type": "node",
            "id": 12351513547,
            "lat": 45.6890029,
            "lon": 11.3735438,
            "timestamp": "2024-11-23T22:35:57Z",
            "version": 6,
            "changeset": 159516485,
            "user": "PagoInBitcoin",
            "uid": 22211788,
            "tags": {
                "addr:city": "San Vito Di Leguzzano",
                "addr:postcode": "36030",
                "addr:street": "Via Schio, 58",
                "amenity": "driving_school",
                "contact:email": "autoscuolasanvito@gmail.com",
                "contact:whatsapp": "+393477628784",
                "currency:XBT": "yes",
                "description": "Puoi chiamarci per urgenze anche la domenica.",
                "name": "AUTOSCUOLA SAN VITO",
                "payment:lightning": "yes",
                "payment:lightning_contactless": "yes",
                "payment:onchain": "yes",
                "phone": "+390445510783",
                "survey:date": "2024-11-11"
            }
        },
        {
            "type": "node",
            "id": 12400751878,
            "lat": 45.5157714,
            "lon": 11.4612619,
            "timestamp": "2024-12-13T16:06:02Z",
            "version": 3,
            "changeset": 160252363,
            "user": "emmezetax",
            "uid": 22263114,
            "tags": {
                "addr:city": "Altavilla Vicentina (VI)",
                "addr:housenumber": "28",
                "addr:postcode": "36077",
                "addr:street": "Via Lago D'iseo, 28",
                "brand": "Yamaha",
                "brand:wikidata": "Q158888",
                "contact:email": "info@zanuso.com",
                "contact:facebook": "https://www.facebook.com/Zanusosrl",
                "contact:whatsapp": "+39 342 0771826",
                "currency:XBT": "yes",
                "description": "Vendita Moto Yamaha, Scooter e Bici elettriche. Noleggio a lungo e breve termine. Usato , tagliandi e assistenza.",
                "internet_access": "wlan",
                "name": "Zanuso srl Conc. Yamaha",
                "opening_hours": "Mo-Sa 09:00-12:30 14:30-19:00",
                "payment:lightning": "yes",
                "payment:lightning_contactless": "no",
                "payment:onchain": "yes",
                "phone": "+39 0444 349283",
                "second_hand": "yes",
                "shop": "motorcycle",
                "website": "https://www.zanuso.com/"
            }
        },
        {
            "type": "way",
            "id": 138810721,
            "timestamp": "2022-03-01T09:45:20Z",
            "version": 8,
            "changeset": 117972529,
            "user": "Tresho",
            "uid": 6178157,
            "nodes": [
                3964758269,
                1521962592,
                1521963163,
                1521963252,
                1521963768,
                1521962143,
                1521960205,
                1521958176,
                1521955895,
                1521954253,
                1521950247,
                1521949325,
                3964758269
            ],
            "tags": {
                "brand": "Conad",
                "brand:wikidata": "Q639075",
                "brand:wikipedia": "it:Conad",
                "building": "retail",
                "name": "Conad",
                "operator": "Conad",
                "phone": "+39 045 594403",
                "shop": "supermarket",
                "source": "Regione_del_Veneto_LR28_16.7.1976_Formazione_CTR_auth_39164-5700-1100_23.01.2009"
            }
        },
        {
            "type": "way",
            "id": 174768534,
            "timestamp": "2023-07-31T14:41:06Z",
            "version": 5,
            "changeset": 139257764,
            "user": "BTC Map",
            "uid": 18545877,
            "nodes": [
                1854349671,
                1854349674,
                1854349654,
                1854349657,
                1854349669,
                1862037448,
                1862037250,
                1862037702,
                1862037521,
                1854349671
            ],
            "tags": {
                "brand": "Mondo Convenienza",
                "brand:wikidata": "Q55830962",
                "building": "retail",
                "check_date:currency:XBT": "2023-07-31",
                "currency:XBT": "yes",
                "name": "Mondo Convenienza",
                "shop": "furniture"
            }
        },
        {
            "type": "way",
            "id": 262134580,
            "timestamp": "2023-07-21T00:36:09Z",
            "version": 7,
            "changeset": 138788658,
            "user": "saunter",
            "uid": 10396321,
            "nodes": [
                2677813322,
                2677813293,
                2677813375,
                2677813386,
                2677813365,
                2677812936,
                2677812997,
                2677813032,
                2677813070,
                2677813106,
                2677813117,
                2677813332,
                2677813322
            ],
            "tags": {
                "addr:city": "Padova",
                "addr:housenumber": "90",
                "addr:postcode": "35129",
                "addr:street": "Via Madonna del Rosario",
                "building": "industrial",
                "building:levels": "1",
                "check_date:currency:XBT": "2023-07-21",
                "currency:XBT": "yes",
                "email": "torrecarrozzeria@gmail.com",
                "name": "Carrozzeria Torre",
                "phone": "+39 049 725460",
                "shop": "car_repair",
                "website": "https://carrozzeriatorre.it/"
            }
        },
        {
            "type": "way",
            "id": 683303509,
            "timestamp": "2019-05-23T16:31:10Z",
            "version": 2,
            "changeset": 70558265,
            "user": "MarcoR",
            "uid": 175882,
            "nodes": [
                6400092038,
                6400092039,
                6400092050,
                6400092040,
                6400092041,
                6400092042,
                6400092043,
                6400092038
            ],
            "tags": {
                "access": "customers",
                "amenity": "parking",
                "operator": "Conad"
            }
        },
        {
            "type": "way",
            "id": 683303511,
            "timestamp": "2019-04-12T08:23:04Z",
            "version": 1,
            "changeset": 69141379,
            "user": "Leopy_Periz",
            "uid": 9433676,
            "nodes": [
                1522184800,
                6400092046,
                1522180403,
                6400092044,
                6400092045,
                1522184800
            ],
            "tags": {
                "amenity": "parking",
                "level": "1",
                "operator": "Conad"
            }
        },
        {
            "type": "way",
            "id": 1112540371,
            "timestamp": "2022-11-12T18:38:31Z",
            "version": 1,
            "changeset": 128823563,
            "user": "mascalzone67",
            "uid": 1861652,
            "nodes": [
                10178658224,
                10178658225,
                10178658226,
                10178658227,
                10178658224
            ],
            "tags": {
                "addr:city": "San Martino Di Lupari",
                "addr:housenumber": "158",
                "addr:postcode": "35018",
                "addr:street": "Via Cardinale Carlo Agostini",
                "brand": "Conad",
                "brand:wikidata": "Q639075",
                "building": "yes",
                "name": "Conad",
                "opening_hours": "Mo-Sa 07:00 - 20:00, Su 08:00-20:00",
                "operator": "Conad",
                "payment:bancomat": "yes",
                "payment:cash": "yes",
                "payment:credit_cards": "yes",
                "phone": "+39 049 9460584",
                "shop": "supermarket",
                "source": "https://www.gdonews.it/2022/11/11/conad-inaugura-il-nuovo-punto-vendita-spesa-facile-a-san-martino-di-lupari-pd/",
                "website": "https://www.conad.it/ricerca-negozi/spesa-facile-via-c-agostini-158-35018--san-martino-di-lupari--010412"
            }
        },
        {
            "type": "way",
            "id": 1227411270,
            "timestamp": "2023-11-28T18:04:45Z",
            "version": 1,
            "changeset": 144559341,
            "user": "Tresho",
            "uid": 6178157,
            "nodes": [
                11382082886,
                11382082882,
                11382082881,
                11382082880,
                11382082885,
                11382082886
            ],
            "tags": {
                "check_date": "2023-04-05",
                "clothes": "men",
                "currency:XBT": "yes",
                "indoor": "room",
                "level": "1",
                "name": "Nuvolari",
                "payment:lightning": "no",
                "payment:lightning_contactless": "no",
                "payment:onchain": "yes",
                "phone": "+39 045 4571622",
                "shop": "clothes",
                "website": "https://www.nuvolari.biz/stores/verona-c-c-adigeo"
            }
        }
    ],
    "telegram": [
        {
            "telegram": "b-veneto"
        },
        {
            "telegram": "ss-vicenza"
        }
    ]
}